{"type":"FeatureCollection","features":[{"type":"Feature","geometry":{"type":"Polygon","coordinates":[[[24.742464,42.071606],[24.742323,42.07314],[24.742088,42.075076],[24.741906,42.076225],[24.742689,42.076269],[24.743715,42.076092],[24.745907,42.075522],[24.748334,42.074922],[24.749892,42.07452],[24.750318,42.074633],[24.750871,42.074883],[24.751458,42.075108],[24.751135,42.073613],[24.751269,42.073593],[24.751276,42.073532],[24.751204,42.072421],[24.75151,42.072343],[24.751459,42.07224],[24.75135,42.072185],[24.75112,42.072195],[24.750952,42.072151],[24.749033,42.072237],[24.748098,42.072295],[24.748083,42.072057],[24.748016,42.071593],[24.746995,42.071671],[24.747081,42.072262],[24.746288,42.072354],[24.746278,42.072307],[24.745056,42.072458],[24.744788,42.07105],[24.744991,42.071032],[24.74468,42.070156],[24.744633,42.070165],[24.744721,42.070665],[24.74359,42.070874],[24.743488,42.070356],[24.742519,42.070535],[24.742464,42.071606]]]},"properties":{"cadreg":11}},{"type":"Feature","geometry":{"type":"Polygon","coordinates":[[[24.741569,42.058277],[24.74209,42.058522],[24.742229,42.058667],[24.742759,42.059085],[24.743035,42.059452],[24.74315,42.059469],[24.742857,42.058997],[24.742618,42.058712],[24.74213,42.058469],[24.741528,42.058116],[24.741171,42.057814],[24.740647,42.057198],[24.74055,42.057036],[24.740425,42.056624],[24.740506,42.056533],[24.740677,42.05654],[24.74084,42.056626],[24.741923,42.05683],[24.742116,42.056838],[24.742206,42.056727],[24.741799,42.056343],[24.741604,42.056045],[24.741765,42.055848],[24.742568,42.055347],[24.742645,42.055219],[24.742294,42.055119],[24.741933,42.054961],[24.741961,42.05479],[24.742395,42.054612],[24.742422,42.054549],[24.741917,42.054308],[24.741616,42.05397],[24.74123,42.053762],[24.740897,42.053416],[24.740585,42.052497],[24.740194,42.051989],[24.739638,42.051664],[24.739375,42.05134],[24.73952,42.050791],[24.740068,42.050396],[24.740379,42.050152],[24.740711,42.049575],[24.740809,42.049162],[24.741137,42.048658],[24.741131,42.048295],[24.741324,42.048112],[24.741316,42.047674],[24.740507,42.047391],[24.739703,42.047428],[24.739531,42.047238],[24.739852,42.047152],[24.740164,42.047026],[24.74031,42.046745],[24.740138,42.046575],[24.740391,42.04626],[24.740135,42.045465],[24.739732,42.045355],[24.739078,42.044918],[24.738663,42.044248],[24.737531,42.043468],[24.737494,42.04333],[24.737991,42.042661],[24.738561,42.042516],[24.738723,42.041603],[24.738337,42.041354],[24.738043,42.041222],[24.73683,42.040595],[24.73611,42.040638],[24.735203,42.040577],[24.734922,42.040772],[24.734498,42.041011],[24.734032,42.041132],[24.733412,42.041185],[24.732798,42.041401],[24.732319,42.041849],[24.732021,42.041534],[24.731754,42.041199],[24.731742,42.041042],[24.731887,42.040915],[24.732092,42.040558],[24.732075,42.040331],[24.731657,42.039879],[24.731032,42.03933],[24.73098,42.039106],[24.731211,42.038171],[24.731189,42.037843],[24.73081,42.037644],[24.730698,42.037631],[24.730362,42.037669],[24.728858,42.03814],[24.727923,42.039116],[24.727825,42.039195],[24.727848,42.039265],[24.727948,42.039308],[24.728058,42.039317],[24.728434,42.039112],[24.728873,42.038831],[24.72923,42.038847],[24.7294,42.03898],[24.729655,42.039424],[24.730134,42.040161],[24.730456,42.04143],[24.730893,42.042776],[24.731157,42.043841],[24.731304,42.044038],[24.731991,42.044564],[24.732181,42.044843],[24.732146,42.045132],[24.73198,42.045298],[24.73156,42.045578],[24.731412,42.045819],[24.731564,42.046077],[24.733817,42.047554],[24.733956,42.047701],[24.734265,42.048907],[24.734181,42.04914],[24.733525,42.0495],[24.733523,42.049787],[24.73371,42.049926],[24.734033,42.049918],[24.735257,42.049592],[24.735734,42.049488],[24.736051,42.04958],[24.736203,42.049735],[24.736377,42.050065],[24.736638,42.05068],[24.736569,42.051576],[24.736729,42.05212],[24.737127,42.052392],[24.737842,42.052739],[24.737997,42.052915],[24.73856,42.053987],[24.738765,42.055896],[24.73887,42.056185],[24.7393,42.057164],[24.739494,42.057424],[24.739534,42.057506],[24.740881,42.058834],[24.740888,42.059004],[24.740836,42.059047],[24.739488,42.059634],[24.739143,42.059559],[24.739101,42.059611],[24.739425,42.059674],[24.739454,42.059691],[24.739452,42.059766],[24.73941,42.059864],[24.739386,42.060004],[24.739428,42.060312],[24.739547,42.06066],[24.739818,42.061105],[24.74002,42.061101],[24.739967,42.060703],[24.739948,42.060708],[24.739901,42.060618],[24.739872,42.060357],[24.740786,42.060095],[24.741097,42.060436],[24.74164,42.06],[24.741927,42.060158],[24.742069,42.060292],[24.74221,42.060343],[24.742343,42.060511],[24.742439,42.060686],[24.742478,42.060671],[24.742752,42.060984],[24.742242,42.061329],[24.742017,42.061505],[24.742616,42.06179],[24.742732,42.061699],[24.743208,42.061567],[24.743027,42.061102],[24.742833,42.060698],[24.742686,42.060438],[24.74288,42.060362],[24.742693,42.060146],[24.741972,42.059539],[24.741666,42.059306],[24.741618,42.059311],[24.741169,42.058997],[24.740506,42.058348],[24.739752,42.057576],[24.740674,42.057456],[24.741086,42.057884],[24.741569,42.058277]]]},"properties":{"cadreg":26}},{"type":"Feature","geometry":{"type":"Polygon","coordinates":[[[24.730746,42.063361],[24.730462,42.062985],[24.729993,42.062736],[24.729825,42.062572],[24.729716,42.062521],[24.729373,42.06253],[24.728982,42.06234],[24.728607,42.062068],[24.728363,42.061819],[24.728261,42.061679],[24.728107,42.061694],[24.728153,42.061876],[24.728303,42.062068],[24.728451,42.062178],[24.728699,42.062299],[24.728866,42.062402],[24.728915,42.062593],[24.729057,42.062632],[24.729155,42.062961],[24.729546,42.06299],[24.729666,42.063394],[24.730034,42.063428],[24.730188,42.063648],[24.730176,42.063972],[24.730064,42.064185],[24.730138,42.064359],[24.730332,42.064509],[24.730565,42.064647],[24.730827,42.064745],[24.73087,42.06468],[24.731105,42.064632],[24.731259,42.064776],[24.731268,42.064913],[24.731226,42.065114],[24.731337,42.065296],[24.731297,42.065583],[24.731426,42.065176],[24.731475,42.065106],[24.731612,42.065188],[24.731624,42.065475],[24.73175,42.065739],[24.732017,42.065889],[24.732457,42.065793],[24.732927,42.065356],[24.732993,42.065361],[24.733938,42.064696],[24.734777,42.064232],[24.735411,42.063805],[24.735592,42.063849],[24.735932,42.063551],[24.736016,42.063382],[24.736021,42.063136],[24.736061,42.063118],[24.736534,42.063363],[24.73702,42.063008],[24.737234,42.062748],[24.737011,42.062687],[24.737035,42.062497],[24.737162,42.062338],[24.737296,42.06206],[24.737484,42.061833],[24.737581,42.061788],[24.737571,42.061778],[24.738012,42.061589],[24.738177,42.061759],[24.738348,42.061693],[24.738191,42.061442],[24.738005,42.061487],[24.737246,42.061501],[24.737117,42.061786],[24.737101,42.061778],[24.73676,42.062369],[24.736697,42.062345],[24.736473,42.062543],[24.736248,42.062437],[24.736165,42.062369],[24.735918,42.062092],[24.736021,42.061939],[24.735798,42.061857],[24.735746,42.061806],[24.735649,42.06154],[24.735463,42.061436],[24.735449,42.061322],[24.735415,42.061281],[24.735336,42.061288],[24.735217,42.061253],[24.735195,42.060892],[24.73507,42.060912],[24.734932,42.060701],[24.734891,42.060721],[24.734267,42.059964],[24.734296,42.060324],[24.734234,42.060297],[24.734191,42.060246],[24.734072,42.060223],[24.733965,42.060171],[24.733805,42.060292],[24.734271,42.060837],[24.73459,42.061131],[24.735069,42.061712],[24.735131,42.061725],[24.735304,42.061898],[24.735406,42.062173],[24.735379,42.062388],[24.735414,42.062894],[24.735253,42.063201],[24.734937,42.06349],[24.734192,42.063658],[24.733595,42.063732],[24.733517,42.064014],[24.733474,42.064109],[24.732657,42.064059],[24.732666,42.063915],[24.731634,42.064066],[24.731449,42.063347],[24.73082,42.063406],[24.730746,42.063361]]]},"properties":{"cadreg":22}},{"type":"Feature","geometry":{"type":"Polygon","coordinates":[[[24.735411,42.063805],[24.734777,42.064232],[24.733938,42.064696],[24.732993,42.065361],[24.732802,42.065846],[24.73244,42.066277],[24.732216,42.066713],[24.732169,42.067168],[24.73223,42.067405],[24.732235,42.067497],[24.732372,42.067557],[24.732437,42.067556],[24.732507,42.067501],[24.73331,42.068081],[24.733249,42.068127],[24.733254,42.068187],[24.733516,42.068346],[24.733623,42.068383],[24.733725,42.068394],[24.735107,42.06829],[24.735225,42.068296],[24.73543,42.068333],[24.735751,42.068422],[24.735792,42.068409],[24.735793,42.066732],[24.736092,42.066421],[24.735909,42.065713],[24.735319,42.065464],[24.73537,42.064914],[24.736014,42.064738],[24.737375,42.06485],[24.738361,42.064873],[24.740055,42.064862],[24.74006,42.064907],[24.740232,42.065271],[24.740147,42.064265],[24.73968,42.064249],[24.739331,42.064263],[24.738353,42.064374],[24.737982,42.064399],[24.737727,42.064406],[24.737257,42.06439],[24.736934,42.064355],[24.736926,42.064397],[24.736601,42.064367],[24.73661,42.064328],[24.736388,42.064298],[24.736414,42.064229],[24.736088,42.06406],[24.736189,42.063953],[24.736393,42.063675],[24.736645,42.06347],[24.736837,42.063218],[24.737077,42.062989],[24.737213,42.062784],[24.73702,42.063008],[24.736534,42.063363],[24.736061,42.063118],[24.736021,42.063136],[24.736016,42.063382],[24.735932,42.063551],[24.735592,42.063849],[24.735411,42.063805]]]},"properties":{"cadreg":19}},{"type":"Feature","geometry":{"type":"Polygon","coordinates":[[[24.734301,42.056788],[24.732378,42.057639],[24.732015,42.057842],[24.732192,42.05804],[24.732481,42.058198],[24.733157,42.058531],[24.733199,42.058816],[24.733291,42.058817],[24.733275,42.05892],[24.733401,42.058922],[24.733358,42.058628],[24.734064,42.058919],[24.734101,42.059176],[24.734197,42.05959],[24.734199,42.059672],[24.734106,42.059684],[24.734206,42.059906],[24.734265,42.059948],[24.734485,42.060244],[24.734891,42.060721],[24.734932,42.060701],[24.73507,42.060912],[24.735195,42.060892],[24.735217,42.061253],[24.735336,42.061288],[24.735415,42.061281],[24.735449,42.061322],[24.735446,42.061291],[24.736974,42.061153],[24.739818,42.061105],[24.739547,42.06066],[24.739428,42.060312],[24.739386,42.060004],[24.73941,42.059864],[24.739452,42.059766],[24.739454,42.059691],[24.739425,42.059674],[24.739101,42.059611],[24.739143,42.059559],[24.739488,42.059634],[24.740836,42.059047],[24.740888,42.059004],[24.740881,42.058834],[24.739534,42.057506],[24.739519,42.057476],[24.739444,42.0575],[24.739974,42.058039],[24.739355,42.058168],[24.739017,42.057619],[24.738596,42.057706],[24.738868,42.058179],[24.738823,42.058193],[24.738842,42.058226],[24.738832,42.058251],[24.738446,42.058325],[24.738183,42.057801],[24.736221,42.058179],[24.735782,42.057427],[24.735517,42.057343],[24.734709,42.057373],[24.735038,42.057301],[24.735023,42.057243],[24.734644,42.057334],[24.734556,42.057165],[24.734787,42.057096],[24.734657,42.05684],[24.734658,42.05678],[24.734301,42.056788]],[[24.736388,42.060323],[24.736364,42.060341],[24.736369,42.060584],[24.736397,42.060599],[24.736333,42.060615],[24.736328,42.060324],[24.736388,42.060323]]]},"properties":{"cadreg":18}},{"type":"Feature","geometry":{"type":"Polygon","coordinates":[[[24.731545,42.072933],[24.731155,42.07334],[24.731175,42.073552],[24.731363,42.074453],[24.731204,42.074409],[24.730958,42.074172],[24.730619,42.073742],[24.730389,42.073525],[24.730105,42.073461],[24.729667,42.073515],[24.729822,42.074091],[24.729908,42.074805],[24.730293,42.075664],[24.729418,42.075966],[24.729209,42.076098],[24.728124,42.077037],[24.72792,42.077171],[24.725663,42.077499],[24.72499,42.077651],[24.725058,42.077817],[24.725666,42.077635],[24.72682,42.077527],[24.727983,42.07734],[24.72826,42.077163],[24.729224,42.076271],[24.729493,42.076063],[24.73031,42.075818],[24.730478,42.075739],[24.731535,42.075502],[24.731859,42.075534],[24.732103,42.075646],[24.732493,42.076024],[24.732741,42.076223],[24.73305,42.076408],[24.733831,42.07644],[24.736749,42.07634],[24.737572,42.076434],[24.739539,42.076163],[24.74008,42.076015],[24.740389,42.07602],[24.740615,42.07611],[24.74086,42.076297],[24.741747,42.076351],[24.741573,42.079703],[24.741379,42.081694],[24.740958,42.087791],[24.740912,42.087973],[24.74157,42.093605],[24.741862,42.093618],[24.741755,42.093162],[24.74141,42.090521],[24.741127,42.088003],[24.741584,42.08169],[24.741768,42.079863],[24.741761,42.079685],[24.741908,42.076171],[24.742088,42.075076],[24.742323,42.07314],[24.742464,42.071606],[24.742519,42.070535],[24.742019,42.069728],[24.742246,42.06967],[24.741968,42.069099],[24.741529,42.06925],[24.741339,42.06895],[24.740838,42.068392],[24.740639,42.067993],[24.740485,42.067834],[24.740438,42.067669],[24.740685,42.067623],[24.74064,42.067533],[24.740625,42.067536],[24.740623,42.067483],[24.740656,42.067409],[24.740649,42.066476],[24.740631,42.066163],[24.740529,42.065429],[24.74061,42.065408],[24.740365,42.064998],[24.740328,42.064259],[24.740147,42.064265],[24.740232,42.065271],[24.74006,42.064907],[24.740055,42.064862],[24.738361,42.064873],[24.737375,42.06485],[24.736014,42.064738],[24.73537,42.064914],[24.735319,42.065464],[24.735909,42.065713],[24.736092,42.066421],[24.735793,42.066732],[24.735791,42.068588],[24.735191,42.068615],[24.733795,42.068753],[24.733473,42.069097],[24.733689,42.069603],[24.733827,42.070819],[24.734301,42.071475],[24.73284,42.071761],[24.732561,42.071833],[24.731866,42.072592],[24.731903,42.072615],[24.731545,42.072933]],[[24.732324,42.074751],[24.732284,42.074572],[24.732348,42.074858],[24.732324,42.074751]],[[24.732403,42.075109],[24.732385,42.075024],[24.732443,42.075287],[24.732403,42.075109]]]},"properties":{"cadreg":12}},{"type":"Feature","geometry":{"type":"Polygon","coordinates":[[[24.724185,42.069207],[24.723196,42.069411],[24.722955,42.069354],[24.722569,42.069377],[24.721762,42.069551],[24.723046,42.072848],[24.72499,42.077651],[24.725663,42.077499],[24.72792,42.077171],[24.728124,42.077037],[24.729209,42.076098],[24.729418,42.075966],[24.730293,42.075664],[24.729908,42.074805],[24.729822,42.074091],[24.72968,42.07355],[24.729351,42.072645],[24.727704,42.072963],[24.727304,42.072341],[24.727025,42.071842],[24.726309,42.070839],[24.725875,42.07038],[24.725615,42.070022],[24.72518,42.069589],[24.724399,42.06961],[24.724185,42.069207]]]},"properties":{"cadreg":13}},{"type":"Feature","geometry":{"type":"Polygon","coordinates":[[[24.722143,42.066094],[24.721666,42.066295],[24.721918,42.067208],[24.722241,42.067655],[24.72294,42.068236],[24.722918,42.068395],[24.722543,42.06919],[24.721747,42.069515],[24.721762,42.069551],[24.722569,42.069377],[24.722955,42.069354],[24.723196,42.069411],[24.724185,42.069207],[24.724399,42.06961],[24.72518,42.069589],[24.725615,42.070022],[24.725875,42.07038],[24.726309,42.070839],[24.727025,42.071842],[24.727304,42.072341],[24.727704,42.072963],[24.729351,42.072645],[24.729667,42.073515],[24.730231,42.073395],[24.730397,42.072957],[24.730641,42.07202],[24.730589,42.072028],[24.730601,42.071468],[24.730571,42.071121],[24.730634,42.071012],[24.730856,42.070722],[24.730735,42.070362],[24.730937,42.069764],[24.731257,42.069609],[24.73141,42.069465],[24.731352,42.069139],[24.731195,42.06878],[24.731283,42.068496],[24.731278,42.068461],[24.730761,42.068371],[24.730827,42.068175],[24.730761,42.068151],[24.730818,42.067946],[24.730755,42.067678],[24.730694,42.06761],[24.730759,42.067308],[24.731146,42.066596],[24.730881,42.065971],[24.730577,42.065782],[24.730483,42.065762],[24.73038,42.065664],[24.730269,42.065399],[24.730195,42.065393],[24.729999,42.065034],[24.729656,42.06471],[24.729337,42.064816],[24.729358,42.064849],[24.729014,42.064964],[24.728829,42.064993],[24.72774,42.064933],[24.727704,42.064911],[24.727199,42.064747],[24.725688,42.064875],[24.724149,42.065129],[24.723552,42.065069],[24.723271,42.064852],[24.723114,42.065425],[24.722143,42.066094]]]},"properties":{"cadreg":14}},{"type":"Feature","geometry":{"type":"MultiPolygon","coordinates":[[[[24.740619,42.057019],[24.740711,42.057173],[24.74123,42.057781],[24.741578,42.058077],[24.742173,42.058425],[24.742671,42.058674],[24.742921,42.058971],[24.7432,42.059401],[24.743294,42.05965],[24.743733,42.060066],[24.743967,42.060376],[24.743983,42.060368],[24.743963,42.060335],[24.744282,42.060216],[24.744454,42.060507],[24.744138,42.060638],[24.744012,42.060419],[24.744001,42.060421],[24.744206,42.060789],[24.744255,42.06131],[24.745094,42.061903],[24.745591,42.062382],[24.745547,42.062402],[24.745598,42.062455],[24.746091,42.063195],[24.746389,42.063315],[24.746722,42.063012],[24.746958,42.063158],[24.746753,42.063321],[24.74655,42.063374],[24.746668,42.063436],[24.746734,42.063383],[24.746973,42.063325],[24.747312,42.063418],[24.747334,42.063394],[24.747797,42.063604],[24.748179,42.063741],[24.748243,42.06368],[24.74788,42.063428],[24.747752,42.063308],[24.747665,42.063189],[24.747403,42.062608],[24.747387,42.06254],[24.747394,42.062413],[24.747467,42.062289],[24.748014,42.061866],[24.747293,42.061088],[24.747488,42.060938],[24.747684,42.060744],[24.747855,42.060754],[24.746227,42.059808],[24.745759,42.059413],[24.745031,42.058907],[24.744485,42.058639],[24.743915,42.058265],[24.743415,42.057714],[24.743162,42.057128],[24.742738,42.056637],[24.742277,42.056788],[24.742256,42.056769],[24.742156,42.056893],[24.741913,42.056884],[24.740809,42.056676],[24.740652,42.056593],[24.740544,42.056589],[24.740502,42.056634],[24.740619,42.057019]]],[[[24.750056,42.061511],[24.751023,42.06222],[24.75109,42.062305],[24.751122,42.062264],[24.751408,42.06248],[24.750947,42.062682],[24.750629,42.063005],[24.751291,42.063501],[24.751463,42.063699],[24.751597,42.063896],[24.75107,42.064088],[24.750858,42.064197],[24.750684,42.064235],[24.750558,42.064163],[24.750139,42.0641],[24.750095,42.064114],[24.749972,42.064375],[24.75049,42.06465],[24.751369,42.065265],[24.751287,42.065321],[24.751345,42.065327],[24.751562,42.065538],[24.751588,42.065632],[24.751533,42.065782],[24.75176,42.065787],[24.751708,42.06557],[24.751948,42.065245],[24.75233,42.065052],[24.752347,42.065077],[24.752945,42.064772],[24.752895,42.064716],[24.753945,42.064201],[24.753806,42.064045],[24.753043,42.063488],[24.752354,42.06307],[24.751424,42.062466],[24.750823,42.062013],[24.750079,42.061121],[24.749977,42.060879],[24.748956,42.060819],[24.750056,42.061511]]]]},"properties":{"cadreg":15}},{"type":"Feature","geometry":{"type":"Polygon","coordinates":[[[24.740631,42.066163],[24.740656,42.067409],[24.740623,42.067483],[24.740625,42.067536],[24.74064,42.067533],[24.740685,42.067623],[24.741682,42.06745],[24.74061,42.065408],[24.740529,42.065429],[24.740631,42.066163]]]},"properties":{"cadreg":16}},{"type":"Feature","geometry":{"type":"Polygon","coordinates":[[[24.732121,42.062272],[24.731226,42.062414],[24.731218,42.062397],[24.730749,42.062444],[24.730121,42.062329],[24.729794,42.062395],[24.730588,42.062931],[24.730746,42.063361],[24.73082,42.063406],[24.731449,42.063347],[24.731634,42.064066],[24.732666,42.063915],[24.732657,42.064059],[24.733474,42.064109],[24.733517,42.064014],[24.733595,42.063732],[24.734192,42.063658],[24.734937,42.06349],[24.735253,42.063201],[24.735414,42.062894],[24.735379,42.062388],[24.735406,42.062173],[24.735304,42.061898],[24.735131,42.061725],[24.735069,42.061712],[24.73459,42.061131],[24.732897,42.061609],[24.732008,42.061957],[24.732121,42.062272]]]},"properties":{"cadreg":17}},{"type":"Feature","geometry":{"type":"Polygon","coordinates":[[[24.73138,42.06775],[24.731112,42.067664],[24.731082,42.067801],[24.730818,42.067946],[24.730761,42.068151],[24.730827,42.068175],[24.730761,42.068371],[24.731278,42.068461],[24.731283,42.068496],[24.731195,42.06878],[24.731352,42.069139],[24.73141,42.069465],[24.731257,42.069609],[24.730937,42.069764],[24.730735,42.070362],[24.730856,42.070722],[24.730634,42.071012],[24.730571,42.071121],[24.730601,42.071468],[24.730589,42.072028],[24.730641,42.07202],[24.730397,42.072957],[24.730231,42.073395],[24.729667,42.073515],[24.730105,42.073461],[24.730389,42.073525],[24.730619,42.073742],[24.730958,42.074172],[24.731204,42.074409],[24.731363,42.074453],[24.731175,42.073552],[24.731155,42.07334],[24.731545,42.072933],[24.731903,42.072615],[24.731866,42.072592],[24.732561,42.071833],[24.73284,42.071761],[24.734301,42.071475],[24.733827,42.070819],[24.733689,42.069603],[24.733473,42.069097],[24.733795,42.068753],[24.735191,42.068615],[24.735791,42.068588],[24.735792,42.068409],[24.735751,42.068422],[24.73543,42.068333],[24.735225,42.068296],[24.734985,42.068294],[24.733725,42.068394],[24.733578,42.068371],[24.733254,42.068187],[24.733249,42.068127],[24.73331,42.068081],[24.732507,42.067501],[24.732437,42.067556],[24.732372,42.067557],[24.732235,42.067497],[24.731961,42.067661],[24.731569,42.067756],[24.73138,42.06775]]]},"properties":{"cadreg":20}},{"type":"Feature","geometry":{"type":"Polygon","coordinates":[[[24.727986,42.059015],[24.727554,42.058887],[24.727081,42.058645],[24.726739,42.058351],[24.726547,42.058021],[24.726446,42.057886],[24.725901,42.057607],[24.725551,42.057323],[24.725483,42.057225],[24.725082,42.056951],[24.724624,42.056816],[24.724054,42.056708],[24.724054,42.056881],[24.723959,42.057344],[24.723713,42.057833],[24.723593,42.058463],[24.723284,42.059011],[24.722901,42.059565],[24.722166,42.059704],[24.72148,42.059927],[24.720341,42.060451],[24.722286,42.062702],[24.722948,42.062712],[24.723051,42.062579],[24.723386,42.062588],[24.723386,42.062346],[24.722996,42.062125],[24.722987,42.061875],[24.723119,42.061805],[24.723325,42.061802],[24.723191,42.061559],[24.723234,42.061372],[24.723067,42.061226],[24.723138,42.061043],[24.723319,42.060959],[24.723448,42.060786],[24.723941,42.06077],[24.724211,42.060688],[24.724493,42.060779],[24.724836,42.060643],[24.724931,42.060681],[24.724633,42.06094],[24.724773,42.061079],[24.724903,42.061049],[24.725535,42.061147],[24.725714,42.061147],[24.725749,42.06107],[24.726044,42.061099],[24.725982,42.061181],[24.726803,42.061509],[24.72772,42.061811],[24.727967,42.061871],[24.728137,42.062433],[24.728866,42.062402],[24.728699,42.062299],[24.728451,42.062178],[24.728303,42.062068],[24.728153,42.061876],[24.728107,42.061694],[24.728261,42.061679],[24.728363,42.061819],[24.728607,42.062068],[24.728982,42.06234],[24.729373,42.06253],[24.729716,42.062521],[24.729825,42.062572],[24.729993,42.062736],[24.730462,42.062985],[24.730746,42.063361],[24.730588,42.062931],[24.729794,42.062395],[24.730121,42.062329],[24.730749,42.062444],[24.731218,42.062397],[24.731226,42.062414],[24.732121,42.062272],[24.732008,42.061957],[24.732897,42.061609],[24.73459,42.061131],[24.734271,42.060837],[24.733805,42.060292],[24.733965,42.060171],[24.733881,42.06013],[24.733536,42.060063],[24.7335,42.060027],[24.733254,42.059956],[24.733227,42.059978],[24.733234,42.060025],[24.733064,42.059994],[24.732477,42.059734],[24.732282,42.059698],[24.732019,42.059674],[24.732026,42.059656],[24.731908,42.059626],[24.731894,42.059657],[24.730799,42.059435],[24.730791,42.059508],[24.73031,42.059431],[24.730094,42.059428],[24.730097,42.059397],[24.729737,42.05937],[24.729348,42.059319],[24.729005,42.059317],[24.728878,42.059165],[24.728547,42.059059],[24.727986,42.059015]]]},"properties":{"cadreg":21}},{"type":"Feature","geometry":{"type":"Polygon","coordinates":[[[24.728504,42.063323],[24.72836,42.063291],[24.728483,42.063696],[24.728597,42.06394],[24.727885,42.064042],[24.728076,42.064702],[24.728788,42.0646],[24.728945,42.064937],[24.729358,42.064849],[24.729337,42.064816],[24.729656,42.06471],[24.729999,42.065034],[24.730195,42.065393],[24.730269,42.065399],[24.73038,42.065664],[24.730483,42.065762],[24.730577,42.065782],[24.730881,42.065971],[24.731146,42.066596],[24.730759,42.067308],[24.730694,42.06761],[24.730755,42.067678],[24.730818,42.067946],[24.731082,42.067801],[24.731112,42.067664],[24.73138,42.06775],[24.731569,42.067756],[24.731961,42.067661],[24.732235,42.067497],[24.73223,42.067405],[24.732169,42.067168],[24.732216,42.066713],[24.73244,42.066277],[24.732802,42.065846],[24.732993,42.065361],[24.732927,42.065356],[24.732457,42.065793],[24.732017,42.065889],[24.73175,42.065739],[24.731624,42.065475],[24.731612,42.065188],[24.731475,42.065106],[24.731426,42.065176],[24.731297,42.065583],[24.731337,42.065296],[24.731226,42.065114],[24.731268,42.064913],[24.731259,42.064776],[24.731105,42.064632],[24.73087,42.06468],[24.730827,42.064745],[24.730565,42.064647],[24.730332,42.064509],[24.730138,42.064359],[24.730064,42.064185],[24.730176,42.063972],[24.730188,42.063648],[24.730034,42.063428],[24.729666,42.063394],[24.729546,42.06299],[24.729155,42.062961],[24.729183,42.063056],[24.728504,42.063323]]]},"properties":{"cadreg":23}},{"type":"Feature","geometry":{"type":"MultiPolygon","coordinates":[[[[24.726175,42.055667],[24.725293,42.055765],[24.724342,42.055922],[24.724093,42.056085],[24.724056,42.056333],[24.724054,42.056708],[24.724624,42.056816],[24.725082,42.056951],[24.725483,42.057225],[24.725551,42.057323],[24.725901,42.057607],[24.726446,42.057886],[24.726595,42.058103],[24.726551,42.057908],[24.726452,42.057805],[24.726598,42.057533],[24.726962,42.05732],[24.727117,42.057342],[24.727364,42.057517],[24.727407,42.057503],[24.727634,42.057501],[24.727642,42.057538],[24.727839,42.057492],[24.728009,42.057666],[24.72806,42.05764],[24.728092,42.057448],[24.72798,42.057328],[24.727812,42.057227],[24.727609,42.057056],[24.727721,42.056952],[24.727463,42.056737],[24.727853,42.056536],[24.728186,42.056895],[24.728334,42.056861],[24.728577,42.056917],[24.728669,42.057021],[24.728929,42.056976],[24.729469,42.056951],[24.729421,42.056781],[24.729415,42.056673],[24.729441,42.056677],[24.729436,42.056651],[24.72931,42.056512],[24.729133,42.056493],[24.729193,42.056319],[24.728994,42.056368],[24.728892,42.056315],[24.728839,42.0565],[24.728689,42.056531],[24.728529,42.05647],[24.728639,42.05622],[24.728409,42.056146],[24.728101,42.056187],[24.728175,42.056253],[24.728359,42.056332],[24.728375,42.056386],[24.728196,42.056343],[24.72799,42.056425],[24.727735,42.056301],[24.72742,42.055944],[24.727288,42.055918],[24.726918,42.055641],[24.727369,42.055472],[24.728097,42.055483],[24.728785,42.055555],[24.729601,42.055398],[24.728987,42.055269],[24.728588,42.055264],[24.728509,42.055319],[24.727401,42.055307],[24.72735,42.055037],[24.727012,42.055101],[24.726175,42.055667]]],[[[24.73058,42.0566],[24.729713,42.056372],[24.729713,42.056647],[24.72985,42.056652],[24.730524,42.056869],[24.730659,42.056877],[24.730654,42.056663],[24.73058,42.0566]]],[[[24.727136,42.058033],[24.726926,42.058229],[24.726887,42.058176],[24.726708,42.058028],[24.726595,42.058103],[24.726739,42.058351],[24.727081,42.058645],[24.727554,42.058887],[24.727986,42.059015],[24.728547,42.059059],[24.728225,42.058958],[24.727889,42.05866],[24.727861,42.05867],[24.727883,42.058687],[24.727698,42.05879],[24.727359,42.058654],[24.727098,42.058456],[24.727303,42.058379],[24.727305,42.058358],[24.727426,42.058269],[24.727256,42.058103],[24.727219,42.05799],[24.727136,42.058033]]]]},"properties":{"cadreg":24}},{"type":"Feature","geometry":{"type":"Polygon","coordinates":[[[24.729713,42.056647],[24.729713,42.056372],[24.73058,42.0566],[24.730654,42.056663],[24.730659,42.056877],[24.7309,42.056891],[24.731154,42.056887],[24.731562,42.056707],[24.732088,42.056544],[24.733027,42.056322],[24.733482,42.056307],[24.733634,42.056318],[24.734676,42.056027],[24.734883,42.056041],[24.735254,42.056123],[24.735719,42.056161],[24.736454,42.056117],[24.736683,42.056057],[24.736684,42.055925],[24.736854,42.056008],[24.737181,42.056358],[24.737495,42.056122],[24.737683,42.056191],[24.737975,42.056202],[24.738102,42.056768],[24.738575,42.057509],[24.738488,42.057527],[24.738556,42.057672],[24.738787,42.057635],[24.738781,42.057613],[24.73899,42.057577],[24.739355,42.058168],[24.739974,42.058039],[24.739444,42.0575],[24.739519,42.057476],[24.7393,42.057164],[24.73887,42.056185],[24.738765,42.055896],[24.73856,42.053987],[24.737997,42.052915],[24.737842,42.052739],[24.737127,42.052392],[24.736729,42.05212],[24.736569,42.051576],[24.736638,42.05068],[24.736377,42.050065],[24.736203,42.049735],[24.736051,42.04958],[24.735734,42.049488],[24.735257,42.049592],[24.734033,42.049918],[24.73371,42.049926],[24.733523,42.049787],[24.733525,42.0495],[24.734181,42.04914],[24.734265,42.048907],[24.733956,42.047701],[24.733817,42.047554],[24.732997,42.047707],[24.732836,42.04775],[24.732716,42.047714],[24.73241,42.047752],[24.732259,42.047718],[24.731817,42.047743],[24.731458,42.047857],[24.731311,42.047969],[24.730756,42.048191],[24.730459,42.048383],[24.730505,42.04841],[24.730135,42.048576],[24.728518,42.048851],[24.728084,42.048777],[24.72791,42.048722],[24.725629,42.048232],[24.725348,42.048133],[24.724902,42.047833],[24.725118,42.048263],[24.725218,42.049067],[24.725567,42.049657],[24.725655,42.049948],[24.725699,42.050482],[24.725539,42.050654],[24.725595,42.05101],[24.725486,42.051259],[24.725535,42.051347],[24.725725,42.051273],[24.725743,42.051952],[24.72587,42.052114],[24.725816,42.05273],[24.725861,42.053189],[24.726067,42.053444],[24.726513,42.053827],[24.726954,42.054394],[24.72735,42.055037],[24.727401,42.055307],[24.728509,42.055319],[24.728588,42.055264],[24.728987,42.055269],[24.729601,42.055398],[24.728785,42.055555],[24.728097,42.055483],[24.727369,42.055472],[24.726918,42.055641],[24.727288,42.055918],[24.72742,42.055944],[24.727735,42.056301],[24.72799,42.056425],[24.728196,42.056343],[24.728375,42.056386],[24.728359,42.056332],[24.728175,42.056253],[24.728101,42.056187],[24.728409,42.056146],[24.728639,42.05622],[24.728529,42.05647],[24.728689,42.056531],[24.728839,42.0565],[24.728892,42.056315],[24.728994,42.056368],[24.729193,42.056319],[24.729133,42.056493],[24.72931,42.056512],[24.729436,42.056651],[24.729713,42.056647]]]},"properties":{"cadreg":25}},{"type":"Feature","geometry":{"type":"MultiPolygon","coordinates":[[[[24.740674,42.057456],[24.739752,42.057576],[24.740506,42.058348],[24.741169,42.058997],[24.741618,42.059311],[24.741666,42.059306],[24.741972,42.059539],[24.742693,42.060146],[24.74288,42.060362],[24.743563,42.060152],[24.744105,42.061045],[24.744085,42.060829],[24.743948,42.060503],[24.743839,42.060338],[24.74391,42.060316],[24.743954,42.060383],[24.743967,42.060376],[24.743733,42.060066],[24.743294,42.05965],[24.7432,42.059401],[24.742921,42.058971],[24.742671,42.058674],[24.742173,42.058425],[24.741578,42.058077],[24.74123,42.057781],[24.740711,42.057173],[24.740619,42.057019],[24.740502,42.056634],[24.740544,42.056589],[24.740652,42.056593],[24.740809,42.056676],[24.741913,42.056884],[24.742156,42.056893],[24.742256,42.056769],[24.742206,42.056727],[24.742116,42.056838],[24.741923,42.05683],[24.74084,42.056626],[24.740677,42.05654],[24.740506,42.056533],[24.740425,42.056624],[24.74055,42.057036],[24.740647,42.057198],[24.741171,42.057814],[24.741528,42.058116],[24.74213,42.058469],[24.742618,42.058712],[24.742857,42.058997],[24.74315,42.059469],[24.743035,42.059452],[24.742759,42.059085],[24.742229,42.058667],[24.74209,42.058522],[24.741569,42.058277],[24.741086,42.057884],[24.740674,42.057456]]],[[[24.743982,42.060426],[24.744158,42.060825],[24.744201,42.061214],[24.744248,42.061297],[24.744206,42.060789],[24.744001,42.060421],[24.743982,42.060426]]]]},"properties":{"cadreg":28}},{"type":"Feature","geometry":{"type":"Polygon","coordinates":[[[24.723271,42.064852],[24.723552,42.065069],[24.724149,42.065129],[24.725688,42.064875],[24.727199,42.064747],[24.727704,42.064911],[24.72774,42.064933],[24.728829,42.064993],[24.729014,42.064964],[24.729358,42.064849],[24.728945,42.064937],[24.728788,42.0646],[24.728076,42.064702],[24.727885,42.064042],[24.728597,42.06394],[24.728483,42.063696],[24.72836,42.063291],[24.728504,42.063323],[24.729183,42.063056],[24.729057,42.062632],[24.728915,42.062593],[24.728866,42.062402],[24.728137,42.062433],[24.727967,42.061871],[24.72772,42.061811],[24.726803,42.061509],[24.725982,42.061181],[24.726044,42.061099],[24.725749,42.06107],[24.725714,42.061147],[24.725535,42.061147],[24.724903,42.061049],[24.724773,42.061079],[24.724633,42.06094],[24.724931,42.060681],[24.724836,42.060643],[24.724493,42.060779],[24.724211,42.060688],[24.723941,42.06077],[24.723448,42.060786],[24.723319,42.060959],[24.723138,42.061043],[24.723067,42.061226],[24.723234,42.061372],[24.723191,42.061559],[24.723325,42.061802],[24.723119,42.061805],[24.722987,42.061875],[24.722996,42.062125],[24.723386,42.062346],[24.723386,42.062588],[24.723051,42.062579],[24.722948,42.062712],[24.722286,42.062702],[24.722829,42.06333],[24.723271,42.064852]]]},"properties":{"cadreg":29}},{"type":"Feature","geometry":{"type":"Polygon","coordinates":[[[24.727853,42.056536],[24.727463,42.056737],[24.727721,42.056952],[24.727609,42.057056],[24.727812,42.057227],[24.72798,42.057328],[24.728092,42.057448],[24.72806,42.05764],[24.728009,42.057666],[24.727839,42.057492],[24.727642,42.057538],[24.727634,42.057501],[24.727407,42.057503],[24.727364,42.057517],[24.727117,42.057342],[24.726962,42.05732],[24.726598,42.057533],[24.726452,42.057805],[24.726551,42.057908],[24.726595,42.058103],[24.726708,42.058028],[24.726887,42.058176],[24.726926,42.058229],[24.727136,42.058033],[24.727219,42.05799],[24.727256,42.058103],[24.727426,42.058269],[24.727305,42.058358],[24.727303,42.058379],[24.727098,42.058456],[24.727359,42.058654],[24.727698,42.05879],[24.727883,42.058687],[24.727861,42.05867],[24.727889,42.05866],[24.728225,42.058958],[24.728878,42.059165],[24.729005,42.059317],[24.729348,42.059319],[24.729737,42.05937],[24.730097,42.059397],[24.730094,42.059428],[24.73031,42.059431],[24.730791,42.059508],[24.730799,42.059435],[24.731894,42.059657],[24.731908,42.059626],[24.732026,42.059656],[24.732019,42.059674],[24.732282,42.059698],[24.732477,42.059734],[24.733064,42.059994],[24.733234,42.060025],[24.733231,42.059967],[24.733284,42.059962],[24.7335,42.060027],[24.733536,42.060063],[24.733881,42.06013],[24.734072,42.060223],[24.734191,42.060246],[24.734234,42.060297],[24.734296,42.060324],[24.734265,42.059948],[24.734206,42.059906],[24.734106,42.059684],[24.734199,42.059672],[24.734197,42.05959],[24.734101,42.059176],[24.734064,42.058919],[24.733358,42.058628],[24.733401,42.058922],[24.733275,42.05892],[24.733291,42.058817],[24.733199,42.058816],[24.733157,42.058531],[24.732481,42.058198],[24.732192,42.05804],[24.732015,42.057842],[24.732378,42.057639],[24.734301,42.056788],[24.734658,42.05678],[24.734657,42.05684],[24.734787,42.057096],[24.734556,42.057165],[24.734644,42.057334],[24.735023,42.057243],[24.735038,42.057301],[24.734709,42.057373],[24.735517,42.057343],[24.735782,42.057427],[24.736221,42.058179],[24.738183,42.057801],[24.738446,42.058325],[24.738832,42.058251],[24.738842,42.058226],[24.738823,42.058193],[24.738868,42.058179],[24.738596,42.057706],[24.739017,42.057619],[24.73899,42.057577],[24.738781,42.057613],[24.738787,42.057635],[24.738556,42.057672],[24.738488,42.057527],[24.738575,42.057509],[24.738102,42.056768],[24.737975,42.056202],[24.737683,42.056191],[24.737495,42.056122],[24.737181,42.056358],[24.736854,42.056008],[24.736684,42.055925],[24.736683,42.056057],[24.736454,42.056117],[24.735719,42.056161],[24.735254,42.056123],[24.734883,42.056041],[24.734676,42.056027],[24.733634,42.056318],[24.733482,42.056307],[24.733027,42.056322],[24.732088,42.056544],[24.731562,42.056707],[24.731154,42.056887],[24.7309,42.056891],[24.730524,42.056869],[24.72985,42.056652],[24.729436,42.056651],[24.729441,42.056677],[24.729415,42.056673],[24.729421,42.056781],[24.729469,42.056951],[24.728929,42.056976],[24.728669,42.057021],[24.728577,42.056917],[24.728334,42.056861],[24.728186,42.056895],[24.727853,42.056536]]]},"properties":{"cadreg":30}},{"type":"Feature","geometry":{"type":"Polygon","coordinates":[[[24.7294,42.03898],[24.72923,42.038847],[24.728873,42.038831],[24.728434,42.039112],[24.728058,42.039317],[24.727948,42.039308],[24.727848,42.039265],[24.727825,42.039195],[24.727608,42.039426],[24.727364,42.039588],[24.726298,42.039741],[24.726059,42.039399],[24.72513,42.039041],[24.72372,42.038685],[24.721625,42.038283],[24.720261,42.038103],[24.719606,42.038072],[24.717847,42.038316],[24.718593,42.03916],[24.718684,42.039782],[24.718695,42.040961],[24.718865,42.041477],[24.718945,42.041891],[24.719063,42.042148],[24.719263,42.042377],[24.719263,42.042583],[24.719162,42.042807],[24.719201,42.043034],[24.719591,42.04356],[24.71981,42.043736],[24.720628,42.043929],[24.721131,42.044149],[24.721313,42.044304],[24.721393,42.044619],[24.721646,42.045023],[24.72226,42.046099],[24.72268,42.046575],[24.723144,42.046867],[24.723779,42.046983],[24.72417,42.047327],[24.724542,42.047483],[24.724837,42.04774],[24.724902,42.047833],[24.725348,42.048133],[24.725629,42.048232],[24.72791,42.048722],[24.728084,42.048777],[24.728518,42.048851],[24.730135,42.048576],[24.730505,42.04841],[24.730459,42.048383],[24.730756,42.048191],[24.731311,42.047969],[24.731458,42.047857],[24.731817,42.047743],[24.732259,42.047718],[24.73241,42.047752],[24.732716,42.047714],[24.732836,42.04775],[24.732997,42.047707],[24.733817,42.047554],[24.731564,42.046077],[24.731412,42.045819],[24.73156,42.045578],[24.73198,42.045298],[24.732146,42.045132],[24.732181,42.044843],[24.731991,42.044564],[24.731304,42.044038],[24.731157,42.043841],[24.730893,42.042776],[24.730456,42.04143],[24.730134,42.040161],[24.729655,42.039424],[24.7294,42.03898]]]},"properties":{"cadreg":31}},{"type":"Feature","geometry":{"type":"Polygon","coordinates":[[[24.736677,42.095458],[24.73627,42.09893],[24.734565,42.098742],[24.733914,42.098449],[24.731825,42.097404],[24.731773,42.09739],[24.73144,42.097403],[24.731748,42.098539],[24.732405,42.098476],[24.73244,42.098703],[24.732405,42.098777],[24.738465,42.102973],[24.73977,42.105029],[24.740577,42.107012],[24.741209,42.109173],[24.74167,42.109141],[24.742282,42.10906],[24.742474,42.109456],[24.743234,42.109479],[24.743645,42.109514],[24.747405,42.109714],[24.747034,42.105345],[24.746738,42.102445],[24.749682,42.10238],[24.749634,42.097382],[24.746914,42.097227],[24.745231,42.097147],[24.741772,42.096943],[24.741899,42.095856],[24.736677,42.095458]]]},"properties":{"cadreg":1}},{"type":"Feature","geometry":{"type":"Polygon","coordinates":[[[24.727169,42.092786],[24.727691,42.097629],[24.731456,42.097462],[24.73144,42.097403],[24.731773,42.09739],[24.73291,42.09794],[24.733914,42.098449],[24.734565,42.098742],[24.73627,42.09893],[24.736677,42.095458],[24.741899,42.095856],[24.741772,42.096943],[24.745231,42.097147],[24.746914,42.097227],[24.749634,42.097382],[24.749606,42.094447],[24.749557,42.094065],[24.745086,42.093819],[24.744835,42.093771],[24.74157,42.093605],[24.732851,42.093061],[24.732637,42.093034],[24.728133,42.092764],[24.728142,42.092854],[24.727169,42.092786]]]},"properties":{"cadreg":2}},{"type":"Feature","geometry":{"type":"Polygon","coordinates":[[[24.732851,42.093061],[24.74157,42.093605],[24.740912,42.087973],[24.740949,42.087827],[24.739722,42.087775],[24.732014,42.088323],[24.73205,42.088476],[24.73209,42.088469],[24.732851,42.093061]]]},"properties":{"cadreg":3}},{"type":"Feature","geometry":{"type":"Polygon","coordinates":[[[24.727738,42.088739],[24.728133,42.092764],[24.732637,42.093034],[24.732851,42.093061],[24.73209,42.088469],[24.73205,42.088476],[24.732014,42.088323],[24.727738,42.088739]]]},"properties":{"cadreg":4}},{"type":"Feature","geometry":{"type":"Polygon","coordinates":[[[24.727507,42.086343],[24.727738,42.088739],[24.731841,42.088333],[24.739722,42.087775],[24.740949,42.087827],[24.741379,42.081694],[24.741573,42.079703],[24.739152,42.079882],[24.738347,42.079923],[24.736346,42.080278],[24.735927,42.08039],[24.73194,42.082468],[24.731557,42.082595],[24.731146,42.082647],[24.730935,42.082631],[24.727899,42.082893],[24.727147,42.083095],[24.727176,42.083238],[24.727507,42.086343]]]},"properties":{"cadreg":5}},{"type":"Feature","geometry":{"type":"Polygon","coordinates":[[[24.726083,42.080364],[24.727147,42.083095],[24.727899,42.082893],[24.730935,42.082631],[24.731146,42.082647],[24.731557,42.082595],[24.73194,42.082468],[24.733704,42.081541],[24.732957,42.076352],[24.732741,42.076223],[24.732493,42.076024],[24.732103,42.075646],[24.731859,42.075534],[24.731535,42.075502],[24.730478,42.075739],[24.73031,42.075818],[24.729493,42.076063],[24.729224,42.076271],[24.72826,42.077163],[24.727983,42.07734],[24.72682,42.077527],[24.725666,42.077635],[24.725058,42.077817],[24.726083,42.080364]]]},"properties":{"cadreg":6}},{"type":"Feature","geometry":{"type":"Polygon","coordinates":[[[24.732957,42.076352],[24.733704,42.081541],[24.735927,42.08039],[24.736346,42.080278],[24.738347,42.079923],[24.739152,42.079882],[24.741573,42.079703],[24.741747,42.076351],[24.74086,42.076297],[24.740615,42.07611],[24.740389,42.07602],[24.74008,42.076015],[24.739539,42.076163],[24.737572,42.076434],[24.736749,42.07634],[24.733831,42.07644],[24.73305,42.076408],[24.732957,42.076352]]]},"properties":{"cadreg":7}},{"type":"Feature","geometry":{"type":"Polygon","coordinates":[[[24.741768,42.079863],[24.741584,42.08169],[24.741127,42.088003],[24.74141,42.090521],[24.741755,42.093162],[24.741862,42.093618],[24.744835,42.093771],[24.745086,42.093819],[24.749557,42.094065],[24.748013,42.081999],[24.747494,42.080568],[24.747224,42.080135],[24.74663,42.079866],[24.744994,42.079746],[24.744462,42.079692],[24.74364,42.079642],[24.742069,42.079718],[24.741761,42.079685],[24.741768,42.079863]]]},"properties":{"cadreg":8}},{"type":"Feature","geometry":{"type":"Polygon","coordinates":[[[24.751469,42.075226],[24.751458,42.075108],[24.750871,42.074883],[24.750318,42.074633],[24.749892,42.07452],[24.748334,42.074922],[24.745907,42.075522],[24.743715,42.076092],[24.742689,42.076269],[24.741906,42.076225],[24.741761,42.079685],[24.742069,42.079718],[24.74364,42.079642],[24.744462,42.079692],[24.744994,42.079746],[24.74663,42.079866],[24.747224,42.080135],[24.747494,42.080568],[24.751783,42.078891],[24.75045,42.075047],[24.750802,42.074988],[24.751469,42.075226]]]},"properties":{"cadreg":9}},{"type":"Feature","geometry":{"type":"Polygon","coordinates":[[[24.751533,42.065782],[24.750839,42.066217],[24.750504,42.066406],[24.750466,42.066403],[24.75057,42.066589],[24.750299,42.066753],[24.751015,42.068366],[24.751887,42.069816],[24.751977,42.070025],[24.751982,42.071336],[24.751929,42.07167],[24.751556,42.072284],[24.751382,42.072184],[24.75135,42.072185],[24.751459,42.07224],[24.75151,42.072343],[24.751204,42.072421],[24.751269,42.073593],[24.752371,42.073424],[24.752411,42.073503],[24.75274,42.073412],[24.752722,42.073376],[24.752883,42.073328],[24.755323,42.072718],[24.75701,42.072646],[24.757416,42.073836],[24.760907,42.071878],[24.759704,42.070622],[24.757841,42.068551],[24.756557,42.067158],[24.753945,42.064201],[24.752895,42.064716],[24.752945,42.064772],[24.752347,42.065077],[24.75233,42.065052],[24.751948,42.065245],[24.751708,42.06557],[24.75176,42.065787],[24.751533,42.065782]]]},"properties":{"cadreg":10}},{"type":"Feature","geometry":{"type":"Polygon","coordinates":[[[24.741284,42.061295],[24.741119,42.061236],[24.740924,42.061193],[24.740421,42.061157],[24.739903,42.061156],[24.740053,42.061317],[24.740107,42.061484],[24.740086,42.061525],[24.740065,42.062258],[24.740027,42.062708],[24.740094,42.062706],[24.740163,42.064266],[24.740328,42.064259],[24.740365,42.064998],[24.74061,42.065408],[24.741682,42.06745],[24.740438,42.067669],[24.740485,42.067834],[24.740639,42.067993],[24.740838,42.068392],[24.741339,42.06895],[24.741529,42.06925],[24.741968,42.069099],[24.742246,42.06967],[24.742019,42.069728],[24.742519,42.070535],[24.743488,42.070356],[24.74359,42.070874],[24.744721,42.070665],[24.744633,42.070165],[24.74468,42.070156],[24.744991,42.071032],[24.744788,42.07105],[24.745056,42.072458],[24.746278,42.072307],[24.746288,42.072354],[24.747081,42.072262],[24.746995,42.071671],[24.748016,42.071593],[24.747726,42.069631],[24.747692,42.069548],[24.747464,42.067827],[24.74742,42.067728],[24.745303,42.065818],[24.745119,42.065888],[24.74507,42.065822],[24.74532,42.065718],[24.745254,42.065628],[24.745306,42.065608],[24.745319,42.065545],[24.745484,42.065452],[24.745979,42.064755],[24.745873,42.064576],[24.74574,42.064442],[24.745725,42.064452],[24.744687,42.063745],[24.744543,42.063672],[24.744436,42.063306],[24.744387,42.063208],[24.744254,42.063043],[24.743885,42.062749],[24.743523,42.062847],[24.743348,42.062377],[24.7435,42.062332],[24.743398,42.062056],[24.743346,42.062037],[24.743074,42.062106],[24.742939,42.062068],[24.741284,42.061295]]]},"properties":{"cadreg":501}},{"type":"Feature","geometry":{"type":"Polygon","coordinates":[[[24.742833,42.060698],[24.743027,42.061102],[24.743208,42.061567],[24.742732,42.061699],[24.742616,42.06179],[24.741379,42.061213],[24.741083,42.061106],[24.740992,42.061098],[24.740924,42.061193],[24.741119,42.061236],[24.741284,42.061295],[24.742939,42.062068],[24.743074,42.062106],[24.743346,42.062037],[24.743398,42.062056],[24.7435,42.062332],[24.743348,42.062377],[24.743523,42.062847],[24.743885,42.062749],[24.744254,42.063043],[24.744387,42.063208],[24.744436,42.063306],[24.744543,42.063672],[24.744687,42.063745],[24.745725,42.064452],[24.74574,42.064442],[24.745873,42.064576],[24.745979,42.064755],[24.745484,42.065452],[24.745319,42.065545],[24.745306,42.065608],[24.745254,42.065628],[24.74532,42.065718],[24.74507,42.065822],[24.745119,42.065888],[24.745303,42.065818],[24.74742,42.067728],[24.747464,42.067827],[24.747692,42.069548],[24.747726,42.069631],[24.747771,42.069917],[24.748083,42.072057],[24.748098,42.072295],[24.749033,42.072237],[24.750952,42.072151],[24.75112,42.072195],[24.751382,42.072184],[24.751556,42.072284],[24.751929,42.07167],[24.751982,42.071336],[24.751977,42.070025],[24.751887,42.069816],[24.751015,42.068366],[24.750299,42.066753],[24.75057,42.066589],[24.750466,42.066403],[24.750504,42.066406],[24.750839,42.066217],[24.751533,42.065782],[24.751588,42.065632],[24.751562,42.065538],[24.751345,42.065327],[24.751287,42.065321],[24.751369,42.065265],[24.75049,42.06465],[24.749972,42.064375],[24.749915,42.064358],[24.749857,42.064361],[24.74978,42.064409],[24.748871,42.06376],[24.748662,42.063887],[24.748534,42.063758],[24.748407,42.063564],[24.74826,42.063664],[24.748179,42.063741],[24.747797,42.063604],[24.747334,42.063394],[24.747312,42.063418],[24.746973,42.063325],[24.746734,42.063383],[24.746668,42.063436],[24.74655,42.063374],[24.746753,42.063321],[24.746958,42.063158],[24.746722,42.063012],[24.746389,42.063315],[24.746091,42.063195],[24.745598,42.062455],[24.745547,42.062402],[24.745591,42.062382],[24.745094,42.061903],[24.744255,42.06131],[24.744201,42.061214],[24.744158,42.060825],[24.743982,42.060426],[24.744012,42.060419],[24.744138,42.060638],[24.744454,42.060507],[24.744282,42.060216],[24.743963,42.060335],[24.743983,42.060368],[24.743954,42.060383],[24.74391,42.060316],[24.743839,42.060338],[24.743948,42.060503],[24.744085,42.060829],[24.744105,42.061045],[24.743563,42.060152],[24.742832,42.060377],[24.742686,42.060438],[24.742833,42.060698]]]},"properties":{"cadreg":502}},{"type":"Feature","geometry":{"type":"Polygon","coordinates":[[[24.735649,42.06154],[24.735746,42.061806],[24.735798,42.061857],[24.736021,42.061939],[24.735918,42.062092],[24.736165,42.062369],[24.736248,42.062437],[24.736473,42.062543],[24.736697,42.062345],[24.73676,42.062369],[24.737101,42.061778],[24.737117,42.061786],[24.737246,42.061501],[24.738005,42.061487],[24.738191,42.061442],[24.738348,42.061693],[24.738177,42.061759],[24.738012,42.061589],[24.737571,42.061778],[24.737581,42.061788],[24.737484,42.061833],[24.737296,42.06206],[24.737162,42.062338],[24.737035,42.062497],[24.737011,42.062687],[24.737234,42.062748],[24.73715,42.062894],[24.737005,42.063069],[24.736837,42.063218],[24.736645,42.06347],[24.736393,42.063675],[24.736189,42.063953],[24.736088,42.06406],[24.736414,42.064229],[24.736388,42.064298],[24.73661,42.064328],[24.736601,42.064367],[24.736926,42.064397],[24.736934,42.064355],[24.737257,42.06439],[24.737727,42.064406],[24.738353,42.064374],[24.73915,42.06428],[24.739499,42.064254],[24.740163,42.064266],[24.740094,42.062706],[24.740027,42.062708],[24.740065,42.062258],[24.740086,42.061525],[24.740107,42.061484],[24.740053,42.061317],[24.739903,42.061156],[24.740421,42.061157],[24.740924,42.061193],[24.740992,42.061098],[24.741083,42.061106],[24.741379,42.061213],[24.742017,42.061505],[24.742242,42.061329],[24.742752,42.060984],[24.742478,42.060671],[24.742439,42.060686],[24.742343,42.060511],[24.74221,42.060343],[24.742069,42.060292],[24.741927,42.060158],[24.74164,42.06],[24.741097,42.060436],[24.740786,42.060095],[24.739872,42.060357],[24.739901,42.060618],[24.739948,42.060708],[24.739967,42.060703],[24.74002,42.061101],[24.736974,42.061153],[24.735446,42.061291],[24.735463,42.061436],[24.735649,42.06154]]]},"properties":{"cadreg":503}},{"type":"Feature","geometry":{"type":"Polygon","coordinates":[[[24.747293,42.061088],[24.748014,42.061866],[24.747467,42.062289],[24.747394,42.062413],[24.747387,42.06254],[24.747403,42.062608],[24.747615,42.063099],[24.747752,42.063308],[24.74788,42.063428],[24.748243,42.06368],[24.748407,42.063564],[24.748534,42.063758],[24.748662,42.063887],[24.748871,42.06376],[24.74978,42.064409],[24.749857,42.064361],[24.749915,42.064358],[24.749972,42.064375],[24.750095,42.064114],[24.750139,42.0641],[24.750558,42.064163],[24.750684,42.064235],[24.750858,42.064197],[24.75107,42.064088],[24.751597,42.063896],[24.751463,42.063699],[24.751291,42.063501],[24.750629,42.063005],[24.750947,42.062682],[24.751408,42.06248],[24.751122,42.062264],[24.75109,42.062305],[24.751023,42.06222],[24.750056,42.061511],[24.748956,42.060819],[24.747684,42.060744],[24.747488,42.060938],[24.747293,42.061088]]]},"properties":{"cadreg":504}}]}