{"type":"FeatureCollection","features":[{"type":"Feature","geometry":{"type":"Polygon","coordinates":[[[24.894147,41.8274],[24.894202,41.827376],[24.894153,41.827319],[24.894098,41.827341],[24.894147,41.8274]]]},"properties":{"num":1}},{"type":"Feature","geometry":{"type":"Polygon","coordinates":[[[24.89918,41.828646],[24.899207,41.828696],[24.899258,41.828677],[24.89923,41.828629],[24.89918,41.828646]]]},"properties":{"num":1}},{"type":"Feature","geometry":{"type":"Polygon","coordinates":[[[24.938195,41.824472],[24.93819,41.824408],[24.938183,41.824408],[24.938181,41.824385],[24.938124,41.824388],[24.938125,41.824414],[24.938114,41.824415],[24.938119,41.824475],[24.938195,41.824472]]]},"properties":{"num":1}},{"type":"Feature","geometry":{"type":"Polygon","coordinates":[[[24.920447,41.807241],[24.920379,41.807285],[24.920416,41.807317],[24.920483,41.807272],[24.920447,41.807241]]]},"properties":{"num":1}},{"type":"Feature","geometry":{"type":"Polygon","coordinates":[[[24.920483,41.807272],[24.920432,41.807306],[24.920506,41.807368],[24.920556,41.807335],[24.920483,41.807272]]]},"properties":{"num":2}},{"type":"Feature","geometry":{"type":"Polygon","coordinates":[[[24.92063,41.807397],[24.920556,41.807335],[24.920506,41.807368],[24.920578,41.80743],[24.92063,41.807397]]]},"properties":{"num":3}},{"type":"Feature","geometry":{"type":"Polygon","coordinates":[[[24.920998,41.807603],[24.920715,41.80751],[24.920684,41.807569],[24.920966,41.807662],[24.920998,41.807603]]]},"properties":{"num":4}},{"type":"Feature","geometry":{"type":"Polygon","coordinates":[[[24.921204,41.807794],[24.920654,41.807621],[24.920627,41.807666],[24.921178,41.807842],[24.921204,41.807794]]]},"properties":{"num":5}},{"type":"Feature","geometry":{"type":"Polygon","coordinates":[[[24.920527,41.80753],[24.920485,41.807496],[24.920443,41.807525],[24.920561,41.807618],[24.920601,41.807589],[24.920558,41.807555],[24.920572,41.807545],[24.920541,41.80752],[24.920527,41.80753]]]},"properties":{"num":6}},{"type":"Feature","geometry":{"type":"Polygon","coordinates":[[[24.920253,41.807346],[24.92028,41.8073],[24.92012,41.807199],[24.920079,41.807236],[24.920253,41.807346]]]},"properties":{"num":7}},{"type":"Feature","geometry":{"type":"Polygon","coordinates":[[[24.921099,41.807748],[24.921143,41.807771],[24.921166,41.807746],[24.921122,41.807723],[24.921099,41.807748]]]},"properties":{"num":8}},{"type":"Feature","geometry":{"type":"Polygon","coordinates":[[[24.919106,41.808416],[24.919259,41.808406],[24.919225,41.808131],[24.919072,41.808141],[24.919106,41.808416]]]},"properties":{"num":1}},{"type":"Feature","geometry":{"type":"Polygon","coordinates":[[[24.904819,41.819329],[24.90501,41.819138],[24.904923,41.819091],[24.904735,41.819279],[24.904819,41.819329]]]},"properties":{"num":1}},{"type":"Feature","geometry":{"type":"Polygon","coordinates":[[[24.90501,41.819138],[24.904973,41.819175],[24.905051,41.819217],[24.905087,41.81918],[24.90501,41.819138]]]},"properties":{"num":2}},{"type":"Feature","geometry":{"type":"Polygon","coordinates":[[[24.904812,41.818952],[24.904736,41.818914],[24.904386,41.819293],[24.904461,41.819332],[24.904812,41.818952]]]},"properties":{"num":1}},{"type":"Feature","geometry":{"type":"Polygon","coordinates":[[[24.900831,41.823846],[24.900788,41.823872],[24.900824,41.823911],[24.900869,41.823881],[24.900831,41.823846]]]},"properties":{"num":1}},{"type":"Feature","geometry":{"type":"Polygon","coordinates":[[[24.900792,41.823805],[24.900753,41.823834],[24.900788,41.823872],[24.900831,41.823846],[24.900792,41.823805]]]},"properties":{"num":2}},{"type":"Feature","geometry":{"type":"Polygon","coordinates":[[[24.904643,41.822806],[24.904601,41.822786],[24.90454,41.822852],[24.904579,41.822873],[24.904643,41.822806]]]},"properties":{"num":1}},{"type":"Feature","geometry":{"type":"Polygon","coordinates":[[[24.9026,41.804852],[24.902701,41.804864],[24.902723,41.804775],[24.902622,41.804764],[24.9026,41.804852]]]},"properties":{"num":1}},{"type":"Feature","geometry":{"type":"Polygon","coordinates":[[[24.922557,41.799717],[24.922488,41.79974],[24.922465,41.799798],[24.922531,41.79989],[24.922697,41.799927],[24.922867,41.799857],[24.922891,41.799796],[24.922854,41.799748],[24.922641,41.799835],[24.922557,41.799717]]]},"properties":{"num":1}},{"type":"Feature","geometry":{"type":"Polygon","coordinates":[[[24.922875,41.79974],[24.922898,41.799769],[24.922912,41.799772],[24.922976,41.799747],[24.92298,41.799734],[24.922963,41.799711],[24.922968,41.799709],[24.922912,41.799631],[24.922936,41.799564],[24.922902,41.799518],[24.922737,41.799483],[24.922563,41.799555],[24.922545,41.799611],[24.922579,41.799659],[24.922738,41.799594],[24.922744,41.799596],[24.922765,41.799624],[24.922762,41.79963],[24.922854,41.799748],[24.922875,41.79974]]]},"properties":{"num":2}},{"type":"Feature","geometry":{"type":"Polygon","coordinates":[[[24.922488,41.79974],[24.922575,41.79971],[24.92259,41.799674],[24.922545,41.799611],[24.922488,41.79974]]]},"properties":{"num":3}},{"type":"Feature","geometry":{"type":"Polygon","coordinates":[[[24.920659,41.806113],[24.920538,41.806054],[24.920378,41.806236],[24.920498,41.806296],[24.920659,41.806113]]]},"properties":{"num":1}},{"type":"Feature","geometry":{"type":"Polygon","coordinates":[[[24.928682,41.782996],[24.928701,41.783079],[24.928953,41.783047],[24.928937,41.782967],[24.928682,41.782996]]]},"properties":{"num":1}},{"type":"Feature","geometry":{"type":"Polygon","coordinates":[[[24.928996,41.783208],[24.928865,41.783194],[24.928856,41.783239],[24.928988,41.783252],[24.928996,41.783208]]]},"properties":{"num":1}},{"type":"Feature","geometry":{"type":"Polygon","coordinates":[[[24.929095,41.783261],[24.929357,41.783293],[24.929362,41.783268],[24.929098,41.783235],[24.929095,41.783261]]]},"properties":{"num":2}},{"type":"Feature","geometry":{"type":"Polygon","coordinates":[[[24.929068,41.783231],[24.929026,41.783214],[24.928999,41.783253],[24.929041,41.783269],[24.929068,41.783231]]]},"properties":{"num":3}},{"type":"Feature","geometry":{"type":"Polygon","coordinates":[[[24.921946,41.772878],[24.922097,41.772963],[24.922098,41.772962],[24.922077,41.772949],[24.922003,41.772879],[24.921979,41.772845],[24.921946,41.772878]]]},"properties":{"num":1}},{"type":"Feature","geometry":{"type":"Polygon","coordinates":[[[24.922281,41.772855],[24.922236,41.772898],[24.922294,41.772933],[24.922337,41.772888],[24.922281,41.772855]]]},"properties":{"num":1}},{"type":"Feature","geometry":{"type":"Polygon","coordinates":[[[24.922177,41.772864],[24.922236,41.772898],[24.922281,41.772855],[24.922222,41.77282],[24.922177,41.772864]]]},"properties":{"num":2}},{"type":"Feature","geometry":{"type":"Polygon","coordinates":[[[24.922177,41.772864],[24.922222,41.77282],[24.922163,41.772786],[24.922118,41.77283],[24.922177,41.772864]]]},"properties":{"num":3}},{"type":"Feature","geometry":{"type":"Polygon","coordinates":[[[24.922118,41.77283],[24.922163,41.772786],[24.922105,41.772751],[24.922059,41.772796],[24.922118,41.77283]]]},"properties":{"num":4}},{"type":"Feature","geometry":{"type":"Polygon","coordinates":[[[24.922,41.772761],[24.922059,41.772796],[24.922105,41.772751],[24.922046,41.772717],[24.922,41.772761]]]},"properties":{"num":5}},{"type":"Feature","geometry":{"type":"Polygon","coordinates":[[[24.921945,41.772729],[24.922,41.772761],[24.922046,41.772717],[24.921991,41.772684],[24.921945,41.772729]]]},"properties":{"num":6}},{"type":"Feature","geometry":{"type":"Polygon","coordinates":[[[24.922003,41.772822],[24.922032,41.772863],[24.922103,41.772931],[24.922119,41.77294],[24.922147,41.772914],[24.922116,41.772897],[24.92213,41.772882],[24.92201,41.772815],[24.922003,41.772822]]]},"properties":{"num":7}},{"type":"Feature","geometry":{"type":"Polygon","coordinates":[[[24.924126,41.771184],[24.924005,41.771186],[24.924006,41.771253],[24.924001,41.771254],[24.924001,41.771282],[24.924129,41.77128],[24.924126,41.771184]]]},"properties":{"num":1}},{"type":"Feature","geometry":{"type":"Polygon","coordinates":[[[24.922858,41.772693],[24.922808,41.77267],[24.922739,41.772751],[24.922789,41.772775],[24.922858,41.772693]]]},"properties":{"num":1}},{"type":"Feature","geometry":{"type":"Polygon","coordinates":[[[24.922729,41.772846],[24.922678,41.772822],[24.92261,41.772903],[24.922661,41.772927],[24.922729,41.772846]]]},"properties":{"num":2}},{"type":"Feature","geometry":{"type":"Polygon","coordinates":[[[24.92263,41.772964],[24.922578,41.772939],[24.922543,41.772982],[24.922595,41.773006],[24.92263,41.772964]]]},"properties":{"num":3}},{"type":"Feature","geometry":{"type":"Polygon","coordinates":[[[24.922412,41.773001],[24.922457,41.772958],[24.922398,41.772924],[24.922354,41.772967],[24.922412,41.773001]]]},"properties":{"num":4}},{"type":"Feature","geometry":{"type":"Polygon","coordinates":[[[24.922354,41.772967],[24.922398,41.772924],[24.922337,41.772888],[24.922294,41.772933],[24.922354,41.772967]]]},"properties":{"num":5}},{"type":"Feature","geometry":{"type":"Polygon","coordinates":[[[24.93356,41.775346],[24.933524,41.775371],[24.93359,41.775426],[24.933626,41.775401],[24.93356,41.775346]]]},"properties":{"num":1}},{"type":"Feature","geometry":{"type":"Polygon","coordinates":[[[24.923416,41.772991],[24.923414,41.772969],[24.923419,41.772969],[24.92341,41.772901],[24.923423,41.7729],[24.923432,41.772893],[24.923429,41.772873],[24.923416,41.772864],[24.923314,41.772871],[24.923328,41.772993],[24.923321,41.772993],[24.923324,41.773019],[24.923351,41.773017],[24.923349,41.772995],[24.923416,41.772991]]]},"properties":{"num":1}},{"type":"Feature","geometry":{"type":"Polygon","coordinates":[[[24.923349,41.772995],[24.923351,41.773017],[24.923388,41.773031],[24.923394,41.773024],[24.923392,41.772992],[24.923349,41.772995]]]},"properties":{"num":2}},{"type":"Feature","geometry":{"type":"Polygon","coordinates":[[[24.935681,41.77671],[24.935575,41.776737],[24.935626,41.776848],[24.935731,41.776821],[24.935681,41.77671]]]},"properties":{"num":1}},{"type":"Feature","geometry":{"type":"Polygon","coordinates":[[[24.935568,41.776653],[24.935593,41.776713],[24.935686,41.776691],[24.935659,41.77663],[24.935568,41.776653]]]},"properties":{"num":2}},{"type":"Feature","geometry":{"type":"Polygon","coordinates":[[[24.923764,41.771163],[24.923687,41.771109],[24.923674,41.771101],[24.923663,41.771133],[24.923732,41.771186],[24.923764,41.771163]]]},"properties":{"num":1}},{"type":"Feature","geometry":{"type":"Polygon","coordinates":[[[24.922977,41.773269],[24.922739,41.773172],[24.922702,41.773221],[24.92294,41.773322],[24.922977,41.773269]]]},"properties":{"num":1}},{"type":"Feature","geometry":{"type":"Polygon","coordinates":[[[24.936203,41.776223],[24.936161,41.776196],[24.936107,41.776246],[24.936151,41.776274],[24.936203,41.776223]]]},"properties":{"num":1}},{"type":"Feature","geometry":{"type":"Polygon","coordinates":[[[24.908345,41.783775],[24.908293,41.783787],[24.908311,41.78383],[24.908362,41.783818],[24.908345,41.783775]]]},"properties":{"num":1}},{"type":"Feature","geometry":{"type":"Polygon","coordinates":[[[24.920668,41.806655],[24.920737,41.806577],[24.920687,41.806553],[24.920705,41.806532],[24.920661,41.806509],[24.920626,41.80655],[24.92059,41.806531],[24.920529,41.806599],[24.920569,41.806619],[24.920574,41.806614],[24.920668,41.806655]]]},"properties":{"num":1}},{"type":"Feature","geometry":{"type":"Polygon","coordinates":[[[24.956013,41.781606],[24.95603,41.781625],[24.956081,41.781599],[24.956096,41.781616],[24.956211,41.781559],[24.956075,41.78149],[24.955843,41.781606],[24.955895,41.781665],[24.956013,41.781606]]]},"properties":{"num":1}},{"type":"Feature","geometry":{"type":"Polygon","coordinates":[[[24.951958,41.788536],[24.9519,41.788629],[24.951971,41.788653],[24.952021,41.78857],[24.951958,41.788536]]]},"properties":{"num":1}},{"type":"Feature","geometry":{"type":"Polygon","coordinates":[[[24.926713,41.79725],[24.926442,41.797296],[24.926462,41.797362],[24.92645,41.797364],[24.926459,41.797395],[24.92655,41.79738],[24.926544,41.797359],[24.926735,41.797325],[24.926713,41.79725]]]},"properties":{"num":1}},{"type":"Feature","geometry":{"type":"Polygon","coordinates":[[[24.926533,41.797445],[24.926346,41.79748],[24.926285,41.797247],[24.926208,41.797257],[24.926264,41.797465],[24.926274,41.797463],[24.926282,41.797493],[24.926318,41.797488],[24.926335,41.79754],[24.926549,41.7975],[24.926533,41.797445]]]},"properties":{"num":2}},{"type":"Feature","geometry":{"type":"Polygon","coordinates":[[[24.936161,41.776196],[24.936093,41.776154],[24.936041,41.776205],[24.936107,41.776246],[24.936161,41.776196]]]},"properties":{"num":1}},{"type":"Feature","geometry":{"type":"Polygon","coordinates":[[[24.935385,41.776457],[24.935401,41.776518],[24.935447,41.77651],[24.935407,41.776397],[24.93535,41.776408],[24.935368,41.776461],[24.935385,41.776457]]]},"properties":{"num":2}}]}