{"type":"FeatureCollection","features":[{"type":"Feature","geometry":{"type":"Polygon","coordinates":[[[24.643349,42.204016],[24.64299,42.203457],[24.635442,42.206331],[24.635617,42.206588],[24.63453,42.207079],[24.634524,42.2071],[24.633576,42.207586],[24.634174,42.2083],[24.636475,42.207415],[24.637271,42.207556],[24.636812,42.208118],[24.637431,42.208347],[24.638564,42.208492],[24.640491,42.207708],[24.64002,42.207062],[24.640711,42.206801],[24.641947,42.207731],[24.641937,42.208269],[24.64242,42.208277],[24.642448,42.207981],[24.643111,42.208067],[24.643068,42.208511],[24.643665,42.20858],[24.643751,42.20815],[24.645465,42.208373],[24.645485,42.208504],[24.645428,42.208782],[24.64617,42.209978],[24.647583,42.209228],[24.651415,42.213147],[24.650827,42.213459],[24.650905,42.213543],[24.650888,42.213625],[24.650985,42.213728],[24.651394,42.213536],[24.651664,42.21381],[24.651469,42.214594],[24.651365,42.215206],[24.651492,42.215309],[24.651486,42.215403],[24.654197,42.215495],[24.654784,42.215494],[24.655593,42.215273],[24.655549,42.215189],[24.655143,42.215295],[24.654961,42.214859],[24.654306,42.215023],[24.654955,42.214273],[24.655019,42.214308],[24.655409,42.213884],[24.655926,42.214153],[24.656033,42.214036],[24.656174,42.214317],[24.656664,42.214209],[24.656864,42.214142],[24.656938,42.214278],[24.657014,42.214253],[24.657217,42.214375],[24.657537,42.214274],[24.657658,42.214492],[24.657747,42.214463],[24.657864,42.214721],[24.658284,42.214585],[24.658708,42.214496],[24.658534,42.214206],[24.660074,42.212459],[24.660873,42.212872],[24.662145,42.211468],[24.66209,42.211442],[24.662965,42.210476],[24.662204,42.210069],[24.662234,42.210036],[24.660395,42.209158],[24.661727,42.207682],[24.659893,42.204209],[24.657253,42.204983],[24.657087,42.20467],[24.656974,42.204684],[24.656956,42.20465],[24.656646,42.204687],[24.656633,42.204638],[24.656043,42.204751],[24.656005,42.204734],[24.65599,42.204687],[24.655579,42.204725],[24.655471,42.204782],[24.653733,42.20451],[24.653275,42.204457],[24.653104,42.204453],[24.65291,42.204476],[24.652869,42.204322],[24.650914,42.204721],[24.651201,42.20564],[24.650674,42.205747],[24.650283,42.205878],[24.648717,42.206613],[24.648405,42.206713],[24.648048,42.206743],[24.645971,42.206675],[24.645924,42.20676],[24.645121,42.206685],[24.644958,42.206739],[24.644147,42.205409],[24.64427,42.205083],[24.644267,42.204829],[24.644189,42.204834],[24.643885,42.20439],[24.643588,42.20449],[24.643308,42.204031],[24.643349,42.204016]]]},"properties":{"cadreg":501}},{"type":"Feature","geometry":{"type":"Polygon","coordinates":[[[24.643208,42.232431],[24.637598,42.232867],[24.639555,42.243351],[24.651265,42.242082],[24.651546,42.241969],[24.654884,42.239287],[24.65483,42.239258],[24.651528,42.241914],[24.651224,42.242041],[24.649616,42.242213],[24.649447,42.242171],[24.644818,42.242642],[24.643733,42.235359],[24.643336,42.232448],[24.643213,42.232467],[24.643208,42.232431]]]},"properties":{"cadreg":1}},{"type":"Feature","geometry":{"type":"Polygon","coordinates":[[[24.647636,42.231537],[24.643336,42.232448],[24.643733,42.235359],[24.644818,42.242642],[24.649447,42.242171],[24.649616,42.242213],[24.649332,42.240593],[24.648697,42.236503],[24.648692,42.236464],[24.648735,42.236458],[24.648724,42.236386],[24.648683,42.236388],[24.647946,42.231824],[24.648028,42.231509],[24.647636,42.231537]]]},"properties":{"cadreg":2}},{"type":"Feature","geometry":{"type":"Polygon","coordinates":[[[24.658176,42.235603],[24.65593,42.235788],[24.648692,42.236464],[24.649332,42.240593],[24.649616,42.242213],[24.651224,42.242041],[24.651528,42.241914],[24.653677,42.240197],[24.658327,42.23641],[24.658176,42.235603]]]},"properties":{"cadreg":3}},{"type":"Feature","geometry":{"type":"Polygon","coordinates":[[[24.657159,42.230461],[24.647993,42.231598],[24.647946,42.231824],[24.648683,42.236388],[24.648724,42.236386],[24.648735,42.236458],[24.65593,42.235788],[24.658176,42.235603],[24.657159,42.230461]]]},"properties":{"cadreg":4}},{"type":"Feature","geometry":{"type":"Polygon","coordinates":[[[24.661197,42.229918],[24.657159,42.230461],[24.658327,42.23641],[24.659341,42.235519],[24.661739,42.233645],[24.661946,42.232884],[24.661197,42.229918]]]},"properties":{"cadreg":5}},{"type":"Feature","geometry":{"type":"Polygon","coordinates":[[[24.667113,42.229312],[24.662281,42.233142],[24.661739,42.233645],[24.659341,42.235519],[24.658327,42.23641],[24.65483,42.239258],[24.654884,42.239287],[24.66368,42.238672],[24.668509,42.231106],[24.667483,42.229368],[24.66721,42.229383],[24.667113,42.229312]]]},"properties":{"cadreg":6}},{"type":"Feature","geometry":{"type":"Polygon","coordinates":[[[24.678099,42.220579],[24.679887,42.219058],[24.679982,42.218957],[24.680129,42.218881],[24.680036,42.218743],[24.67996,42.218689],[24.677603,42.220657],[24.677491,42.220735],[24.667113,42.229312],[24.66721,42.229383],[24.667483,42.229368],[24.668509,42.231106],[24.66848,42.231151],[24.670336,42.234317],[24.682789,42.223624],[24.678099,42.220579]]]},"properties":{"cadreg":7}},{"type":"Feature","geometry":{"type":"Polygon","coordinates":[[[24.679887,42.219058],[24.678099,42.220579],[24.682789,42.223624],[24.682745,42.223663],[24.694382,42.222998],[24.694239,42.222364],[24.693203,42.221455],[24.693065,42.220809],[24.692667,42.220089],[24.692498,42.219532],[24.691696,42.21906],[24.691676,42.218331],[24.687039,42.218464],[24.680036,42.218743],[24.680129,42.218881],[24.679982,42.218957],[24.679887,42.219058]]]},"properties":{"cadreg":8}},{"type":"Feature","geometry":{"type":"Polygon","coordinates":[[[24.671644,42.218179],[24.672741,42.222732],[24.673128,42.224339],[24.677491,42.220735],[24.67663,42.220382],[24.676487,42.220383],[24.676356,42.220364],[24.676072,42.220267],[24.675919,42.220151],[24.67585,42.220061],[24.671644,42.218179]]]},"properties":{"cadreg":9}},{"type":"Feature","geometry":{"type":"Polygon","coordinates":[[[24.665506,42.215433],[24.660551,42.219226],[24.660994,42.220553],[24.661686,42.223459],[24.672567,42.222011],[24.671644,42.218179],[24.665506,42.215433]]]},"properties":{"cadreg":10}},{"type":"Feature","geometry":{"type":"Polygon","coordinates":[[[24.661686,42.223459],[24.66374,42.231986],[24.667113,42.229312],[24.673128,42.224339],[24.672567,42.222011],[24.661686,42.223459]]]},"properties":{"cadreg":11}},{"type":"Feature","geometry":{"type":"Polygon","coordinates":[[[24.66374,42.231986],[24.662222,42.225684],[24.662142,42.22567],[24.660485,42.226833],[24.661192,42.229804],[24.661197,42.229918],[24.661946,42.232884],[24.661739,42.233645],[24.662281,42.233142],[24.66374,42.231986]]]},"properties":{"cadreg":12}},{"type":"Feature","geometry":{"type":"Polygon","coordinates":[[[24.660485,42.226833],[24.660433,42.22682],[24.649065,42.228254],[24.647993,42.231598],[24.657219,42.230455],[24.661197,42.229918],[24.661192,42.229804],[24.660485,42.226833]]]},"properties":{"cadreg":13}},{"type":"Feature","geometry":{"type":"Polygon","coordinates":[[[24.650009,42.225284],[24.649065,42.228254],[24.660433,42.22682],[24.660485,42.226833],[24.662142,42.22567],[24.661698,42.22381],[24.650009,42.225284]]]},"properties":{"cadreg":14}},{"type":"Feature","geometry":{"type":"Polygon","coordinates":[[[24.645848,42.22163],[24.642714,42.225112],[24.642839,42.226595],[24.642803,42.226597],[24.643183,42.23128],[24.643336,42.232448],[24.647636,42.231537],[24.648028,42.231509],[24.650071,42.225087],[24.650206,42.224726],[24.652316,42.217973],[24.652413,42.216775],[24.652216,42.215705],[24.652205,42.215428],[24.651266,42.215398],[24.64848,42.218647],[24.645848,42.22163]]]},"properties":{"cadreg":15}},{"type":"Feature","geometry":{"type":"Polygon","coordinates":[[[24.635457,42.221109],[24.636526,42.227124],[24.637598,42.232867],[24.643208,42.232431],[24.643213,42.232467],[24.643336,42.232448],[24.643183,42.23128],[24.642803,42.226597],[24.642839,42.226595],[24.642302,42.219968],[24.642099,42.22003],[24.63564,42.221325],[24.635601,42.221104],[24.635457,42.221109]]]},"properties":{"cadreg":16}},{"type":"Feature","geometry":{"type":"Polygon","coordinates":[[[24.647504,42.209436],[24.64743,42.209308],[24.64617,42.209978],[24.646077,42.209828],[24.638949,42.213672],[24.63765,42.214755],[24.637554,42.214875],[24.636919,42.215434],[24.636945,42.215452],[24.634806,42.217443],[24.635457,42.221109],[24.635601,42.221104],[24.63564,42.221325],[24.642099,42.22003],[24.642302,42.219968],[24.642289,42.219897],[24.642309,42.219807],[24.642412,42.219574],[24.648216,42.212218],[24.648187,42.21206],[24.648175,42.21163],[24.648184,42.21055],[24.647748,42.209867],[24.647423,42.209473],[24.647504,42.209436]]]},"properties":{"cadreg":17}},{"type":"Feature","geometry":{"type":"Polygon","coordinates":[[[24.648216,42.212218],[24.642412,42.219574],[24.642309,42.219807],[24.642289,42.219897],[24.642714,42.225112],[24.645848,42.22163],[24.64848,42.218647],[24.651116,42.215572],[24.650616,42.214959],[24.648216,42.212218]]]},"properties":{"cadreg":18}},{"type":"Feature","geometry":{"type":"Polygon","coordinates":[[[24.653434,42.218368],[24.655429,42.224601],[24.661698,42.22381],[24.662142,42.22567],[24.662222,42.225684],[24.660994,42.220553],[24.659913,42.217312],[24.659868,42.217327],[24.660718,42.219877],[24.65874,42.220338],[24.658679,42.220127],[24.658206,42.220231],[24.65826,42.220432],[24.65806,42.220472],[24.656961,42.220769],[24.656883,42.22081],[24.656792,42.220906],[24.656532,42.220586],[24.656498,42.220601],[24.656476,42.220641],[24.655386,42.219315],[24.654519,42.218217],[24.653434,42.218368]]]},"properties":{"cadreg":19}},{"type":"Feature","geometry":{"type":"Polygon","coordinates":[[[24.659868,42.217327],[24.659913,42.217312],[24.658715,42.215975],[24.658405,42.215597],[24.658172,42.215278],[24.658085,42.215272],[24.659798,42.217415],[24.65981,42.217455],[24.658239,42.218505],[24.65557,42.219284],[24.655412,42.219345],[24.656476,42.220641],[24.656498,42.220601],[24.656532,42.220586],[24.656792,42.220906],[24.656883,42.22081],[24.656961,42.220769],[24.65806,42.220472],[24.65826,42.220432],[24.658206,42.220231],[24.658679,42.220127],[24.65874,42.220338],[24.660718,42.219877],[24.659868,42.217327]]]},"properties":{"cadreg":20}},{"type":"Feature","geometry":{"type":"Polygon","coordinates":[[[24.658085,42.215272],[24.658172,42.215278],[24.658045,42.215148],[24.656455,42.215443],[24.655091,42.215619],[24.653793,42.215828],[24.653579,42.217026],[24.655412,42.219345],[24.65557,42.219284],[24.658239,42.218505],[24.65981,42.217455],[24.659798,42.217415],[24.658085,42.215272]]]},"properties":{"cadreg":21}},{"type":"Feature","geometry":{"type":"Polygon","coordinates":[[[24.652316,42.217973],[24.650206,42.224726],[24.650009,42.225284],[24.655429,42.224601],[24.653434,42.218368],[24.654519,42.218217],[24.653579,42.217026],[24.653793,42.215828],[24.655355,42.215585],[24.65511,42.215601],[24.654779,42.215599],[24.654328,42.215553],[24.654112,42.215492],[24.652205,42.215428],[24.652216,42.215705],[24.652413,42.216775],[24.652316,42.217973]]]},"properties":{"cadreg":22}},{"type":"Feature","geometry":{"type":"Polygon","coordinates":[[[24.659453,42.214765],[24.659143,42.215066],[24.659009,42.215142],[24.658779,42.215199],[24.658172,42.215278],[24.658405,42.215597],[24.658715,42.215975],[24.659913,42.217312],[24.660551,42.219226],[24.665506,42.215433],[24.663368,42.214439],[24.662487,42.21396],[24.662063,42.213828],[24.66092,42.213207],[24.661022,42.213313],[24.661318,42.213498],[24.660439,42.214472],[24.660178,42.214688],[24.660056,42.214526],[24.659453,42.214765]]]},"properties":{"cadreg":23}},{"type":"Feature","geometry":{"type":"Polygon","coordinates":[[[24.662831,42.210845],[24.661144,42.212737],[24.660829,42.213115],[24.66092,42.213207],[24.662063,42.213828],[24.662487,42.21396],[24.663368,42.214439],[24.66511,42.215256],[24.67585,42.220061],[24.675919,42.220151],[24.676072,42.220267],[24.676356,42.220364],[24.676487,42.220383],[24.67663,42.220382],[24.677491,42.220735],[24.677561,42.220686],[24.67319,42.218675],[24.672898,42.218532],[24.67293,42.218495],[24.670411,42.21734],[24.669808,42.217082],[24.669819,42.217068],[24.669609,42.216972],[24.669597,42.216992],[24.668682,42.216577],[24.670556,42.214137],[24.662831,42.210845]]]},"properties":{"cadreg":24}},{"type":"Feature","geometry":{"type":"Polygon","coordinates":[[[24.670556,42.214137],[24.668682,42.216577],[24.669597,42.216992],[24.669609,42.216972],[24.669819,42.217068],[24.669808,42.217082],[24.670411,42.21734],[24.67293,42.218495],[24.672898,42.218532],[24.67319,42.218675],[24.677561,42.220686],[24.679921,42.218721],[24.679829,42.218438],[24.670556,42.214137]]]},"properties":{"cadreg":25}},{"type":"Feature","geometry":{"type":"Polygon","coordinates":[[[24.678685,42.214924],[24.672251,42.211939],[24.670556,42.214137],[24.679829,42.218438],[24.678685,42.214924]]]},"properties":{"cadreg":26}},{"type":"Feature","geometry":{"type":"Polygon","coordinates":[[[24.663285,42.210347],[24.662831,42.210845],[24.670556,42.214137],[24.67247,42.211656],[24.662892,42.207572],[24.663285,42.210347]]]},"properties":{"cadreg":27}},{"type":"Feature","geometry":{"type":"Polygon","coordinates":[[[24.660404,42.205176],[24.661727,42.207682],[24.660395,42.209158],[24.662234,42.210036],[24.662204,42.210069],[24.662965,42.210476],[24.66209,42.211442],[24.662145,42.211468],[24.660873,42.212872],[24.660847,42.212856],[24.660703,42.213019],[24.660829,42.213115],[24.661144,42.212737],[24.663285,42.210347],[24.662847,42.207252],[24.662496,42.204493],[24.662328,42.204505],[24.662285,42.204442],[24.660404,42.205176]]]},"properties":{"cadreg":28}},{"type":"Feature","geometry":{"type":"Polygon","coordinates":[[[24.669379,42.204409],[24.66778,42.203367],[24.666905,42.2036],[24.666301,42.20362],[24.66449,42.203761],[24.662496,42.204493],[24.662847,42.207252],[24.669524,42.204532],[24.669589,42.204569],[24.669598,42.204487],[24.669379,42.204409]]]},"properties":{"cadreg":29}},{"type":"Feature","geometry":{"type":"Polygon","coordinates":[[[24.665957,42.205989],[24.662847,42.207252],[24.662892,42.207572],[24.67247,42.211656],[24.674148,42.209481],[24.665957,42.205989]]]},"properties":{"cadreg":30}},{"type":"Feature","geometry":{"type":"Polygon","coordinates":[[[24.67609,42.206962],[24.672251,42.211939],[24.678685,42.214924],[24.679921,42.218721],[24.67996,42.218689],[24.680036,42.218743],[24.675277,42.204137],[24.675217,42.204122],[24.675244,42.204219],[24.675189,42.204205],[24.67609,42.206962]]]},"properties":{"cadreg":31}},{"type":"Feature","geometry":{"type":"Polygon","coordinates":[[[24.66778,42.203367],[24.669379,42.204409],[24.669598,42.204487],[24.669589,42.204569],[24.669524,42.204532],[24.665957,42.205989],[24.674148,42.209481],[24.67609,42.206962],[24.675189,42.204205],[24.675244,42.204219],[24.675217,42.204122],[24.673148,42.203593],[24.671426,42.203131],[24.669106,42.202565],[24.668542,42.202973],[24.668078,42.20323],[24.66778,42.203367]]]},"properties":{"cadreg":32}},{"type":"Feature","geometry":{"type":"Polygon","coordinates":[[[24.675129,42.203772],[24.673622,42.199085],[24.672971,42.19949],[24.671547,42.200418],[24.670942,42.200779],[24.670284,42.201198],[24.669923,42.201446],[24.669588,42.201709],[24.669078,42.202179],[24.670842,42.202609],[24.675129,42.203772]]]},"properties":{"cadreg":33}},{"type":"Feature","geometry":{"type":"Polygon","coordinates":[[[24.671558,42.192687],[24.671409,42.192396],[24.671291,42.192055],[24.670908,42.192323],[24.670205,42.192694],[24.669604,42.192965],[24.662081,42.195899],[24.659928,42.196713],[24.655365,42.198383],[24.65447,42.19865],[24.654079,42.198742],[24.652802,42.198957],[24.651562,42.199041],[24.650633,42.199022],[24.645343,42.198525],[24.64483,42.198797],[24.64723,42.199009],[24.648032,42.199064],[24.652884,42.199619],[24.651491,42.200163],[24.650716,42.20045],[24.64835,42.201384],[24.647682,42.201557],[24.642291,42.203587],[24.642202,42.203637],[24.642107,42.20373],[24.637164,42.205661],[24.637107,42.205684],[24.637114,42.205694],[24.64299,42.203457],[24.643218,42.203813],[24.647897,42.202093],[24.648034,42.202071],[24.648883,42.201693],[24.648919,42.201732],[24.65363,42.199919],[24.654677,42.200021],[24.654747,42.199979],[24.658611,42.200578],[24.665104,42.201766],[24.667018,42.202182],[24.667125,42.202109],[24.668919,42.20252],[24.671426,42.203131],[24.673148,42.203593],[24.675277,42.204137],[24.675129,42.203772],[24.670842,42.202609],[24.669078,42.202179],[24.669588,42.201709],[24.669923,42.201446],[24.670284,42.201198],[24.670942,42.200779],[24.671547,42.200418],[24.672971,42.19949],[24.673622,42.199085],[24.673508,42.198834],[24.671558,42.192687]],[[24.672208,42.196453],[24.671649,42.196554],[24.671842,42.196519],[24.672208,42.196453]]]},"properties":{"cadreg":34}},{"type":"Feature","geometry":{"type":"Polygon","coordinates":[[[24.664816,42.190598],[24.66297,42.190494],[24.662801,42.19214],[24.660745,42.192488],[24.660739,42.192526],[24.660689,42.192534],[24.660683,42.192571],[24.665347,42.191779],[24.665864,42.191706],[24.668359,42.191826],[24.670817,42.192148],[24.670964,42.192026],[24.671023,42.191853],[24.670737,42.190979],[24.670737,42.190931],[24.668203,42.190789],[24.668209,42.190677],[24.667938,42.190662],[24.66797,42.189629],[24.664525,42.189427],[24.664341,42.190465],[24.664835,42.190492],[24.664816,42.190598]]]},"properties":{"cadreg":35}},{"type":"Feature","geometry":{"type":"Polygon","coordinates":[[[24.653297,42.193658],[24.651468,42.193583],[24.648951,42.193451],[24.648726,42.19528],[24.647123,42.195891],[24.648199,42.19701],[24.645343,42.198525],[24.650633,42.199022],[24.651562,42.199041],[24.652802,42.198957],[24.654079,42.198742],[24.65447,42.19865],[24.655365,42.198383],[24.660712,42.196422],[24.669261,42.193104],[24.669935,42.192824],[24.670205,42.192694],[24.670908,42.192323],[24.671291,42.192055],[24.670871,42.190939],[24.670737,42.190931],[24.670737,42.190979],[24.671023,42.191853],[24.670964,42.192026],[24.670817,42.192148],[24.668359,42.191826],[24.665864,42.191706],[24.665347,42.191779],[24.660683,42.192571],[24.657202,42.193208],[24.654458,42.193688],[24.653213,42.194349],[24.653297,42.193658]]]},"properties":{"cadreg":36}},{"type":"Feature","geometry":{"type":"Polygon","coordinates":[[[24.657901,42.200468],[24.659824,42.204229],[24.659893,42.204209],[24.660404,42.205176],[24.662285,42.204442],[24.662328,42.204505],[24.662496,42.204493],[24.66449,42.203761],[24.666301,42.20362],[24.666905,42.2036],[24.66778,42.203367],[24.668078,42.20323],[24.668542,42.202973],[24.669106,42.202565],[24.667125,42.202109],[24.667018,42.202182],[24.665104,42.201766],[24.658611,42.200578],[24.657901,42.200468]]]},"properties":{"cadreg":37}},{"type":"Feature","geometry":{"type":"Polygon","coordinates":[[[24.652824,42.200229],[24.655006,42.203938],[24.655471,42.204782],[24.655579,42.204725],[24.65599,42.204687],[24.656005,42.204734],[24.656043,42.204751],[24.656633,42.204638],[24.656646,42.204687],[24.656956,42.20465],[24.656974,42.204684],[24.657087,42.20467],[24.657253,42.204983],[24.659824,42.204229],[24.657901,42.200468],[24.654747,42.199979],[24.654677,42.200021],[24.65363,42.199919],[24.652824,42.200229]]]},"properties":{"cadreg":38}},{"type":"Feature","geometry":{"type":"Polygon","coordinates":[[[24.648647,42.206636],[24.650283,42.205878],[24.650674,42.205747],[24.651201,42.20564],[24.650914,42.204721],[24.652869,42.204322],[24.65291,42.204476],[24.653104,42.204453],[24.653275,42.204457],[24.653733,42.20451],[24.655471,42.204782],[24.655006,42.203938],[24.652824,42.200229],[24.648919,42.201732],[24.648883,42.201693],[24.648751,42.201756],[24.648705,42.201985],[24.649203,42.205497],[24.649134,42.2055],[24.648647,42.206636]]]},"properties":{"cadreg":39}},{"type":"Feature","geometry":{"type":"Polygon","coordinates":[[[24.64483,42.198797],[24.644727,42.198852],[24.646973,42.199044],[24.648162,42.201427],[24.64835,42.201384],[24.650716,42.20045],[24.651491,42.200163],[24.652884,42.199619],[24.648032,42.199064],[24.64723,42.199009],[24.64483,42.198797]]]},"properties":{"cadreg":40}},{"type":"Feature","geometry":{"type":"Polygon","coordinates":[[[24.644727,42.198852],[24.640566,42.201067],[24.641349,42.202323],[24.64139,42.202309],[24.641438,42.202386],[24.641417,42.202426],[24.641799,42.203049],[24.641854,42.203055],[24.642202,42.203637],[24.642291,42.203587],[24.647682,42.201557],[24.648162,42.201427],[24.646973,42.199044],[24.644727,42.198852]]]},"properties":{"cadreg":41}},{"type":"Feature","geometry":{"type":"Polygon","coordinates":[[[24.647897,42.202093],[24.643218,42.203813],[24.643349,42.204016],[24.643308,42.204031],[24.643588,42.20449],[24.643885,42.20439],[24.644189,42.204834],[24.644267,42.204829],[24.64427,42.205083],[24.644147,42.205409],[24.644958,42.206739],[24.645121,42.206685],[24.645924,42.20676],[24.645971,42.206675],[24.648048,42.206743],[24.648405,42.206713],[24.648647,42.206636],[24.649134,42.2055],[24.649203,42.205497],[24.648705,42.201985],[24.648751,42.201756],[24.648034,42.202071],[24.647897,42.202093]]]},"properties":{"cadreg":42}},{"type":"Feature","geometry":{"type":"Polygon","coordinates":[[[24.640566,42.201067],[24.633658,42.206203],[24.634091,42.206962],[24.635442,42.206331],[24.637114,42.205694],[24.637107,42.205684],[24.637164,42.205661],[24.642107,42.20373],[24.642202,42.203637],[24.641854,42.203055],[24.641799,42.203049],[24.641417,42.202426],[24.641438,42.202386],[24.64139,42.202309],[24.641349,42.202323],[24.640566,42.201067]]]},"properties":{"cadreg":43}},{"type":"Feature","geometry":{"type":"Polygon","coordinates":[[[24.63453,42.207079],[24.635617,42.206588],[24.635442,42.206331],[24.634091,42.206962],[24.634107,42.20699],[24.633268,42.207438],[24.633306,42.207478],[24.632418,42.208074],[24.632681,42.208058],[24.63307,42.211044],[24.63319,42.211025],[24.6333,42.211456],[24.633841,42.212073],[24.636938,42.208164],[24.636812,42.208118],[24.637271,42.207556],[24.636475,42.207415],[24.634174,42.2083],[24.633576,42.207586],[24.634524,42.2071],[24.63453,42.207079]]]},"properties":{"cadreg":44}},{"type":"Feature","geometry":{"type":"Polygon","coordinates":[[[24.645618,42.209089],[24.6445,42.209171],[24.639394,42.208646],[24.63837,42.208637],[24.63747,42.208478],[24.637513,42.208358],[24.637431,42.208347],[24.636938,42.208164],[24.633841,42.212073],[24.636489,42.215122],[24.636919,42.215434],[24.637554,42.214875],[24.63765,42.214755],[24.638949,42.213672],[24.646077,42.209828],[24.645618,42.209089]]]},"properties":{"cadreg":45}},{"type":"Feature","geometry":{"type":"Polygon","coordinates":[[[24.640711,42.206801],[24.64002,42.207062],[24.640491,42.207708],[24.638564,42.208492],[24.637513,42.208358],[24.63747,42.208478],[24.63837,42.208637],[24.639394,42.208646],[24.6445,42.209171],[24.645618,42.209089],[24.645428,42.208782],[24.645485,42.208504],[24.645465,42.208373],[24.643751,42.20815],[24.643665,42.20858],[24.643068,42.208511],[24.643111,42.208067],[24.642448,42.207981],[24.64242,42.208277],[24.641937,42.208269],[24.641947,42.207731],[24.640711,42.206801]]]},"properties":{"cadreg":46}},{"type":"Feature","geometry":{"type":"Polygon","coordinates":[[[24.651415,42.213147],[24.647583,42.209228],[24.64743,42.209308],[24.647504,42.209436],[24.647423,42.209473],[24.647748,42.209867],[24.648184,42.21055],[24.648175,42.21163],[24.648187,42.21206],[24.648216,42.212218],[24.650616,42.214959],[24.651116,42.215572],[24.651266,42.215398],[24.651486,42.215403],[24.651492,42.215309],[24.651365,42.215206],[24.651469,42.214594],[24.651664,42.21381],[24.651394,42.213536],[24.650985,42.213728],[24.650888,42.213625],[24.650905,42.213543],[24.650827,42.213459],[24.651415,42.213147]]]},"properties":{"cadreg":47}},{"type":"Feature","geometry":{"type":"Polygon","coordinates":[[[24.655409,42.213884],[24.655019,42.214308],[24.654955,42.214273],[24.654306,42.215023],[24.654961,42.214859],[24.655143,42.215295],[24.655549,42.215189],[24.655593,42.215273],[24.654784,42.215494],[24.654112,42.215492],[24.654328,42.215553],[24.654532,42.215582],[24.65511,42.215601],[24.655355,42.215585],[24.656455,42.215443],[24.658045,42.215148],[24.657747,42.214463],[24.657658,42.214492],[24.657537,42.214274],[24.657217,42.214375],[24.657014,42.214253],[24.656938,42.214278],[24.656864,42.214142],[24.656664,42.214209],[24.656174,42.214317],[24.656033,42.214036],[24.655926,42.214153],[24.655409,42.213884]]]},"properties":{"cadreg":48}},{"type":"Feature","geometry":{"type":"Polygon","coordinates":[[[24.660074,42.212459],[24.658534,42.214206],[24.658708,42.214496],[24.658284,42.214585],[24.657864,42.214721],[24.658045,42.215148],[24.658172,42.215278],[24.658779,42.215199],[24.659009,42.215142],[24.659143,42.215066],[24.659453,42.214765],[24.660056,42.214526],[24.660178,42.214688],[24.660439,42.214472],[24.661318,42.213498],[24.661022,42.213313],[24.660829,42.213115],[24.660703,42.213019],[24.660847,42.212856],[24.660074,42.212459]]]},"properties":{"cadreg":49}}]}