{"type":"FeatureCollection","features":[{"type":"Feature","geometry":{"type":"Polygon","coordinates":[[[24.687467,41.779616],[24.687384,41.779602],[24.687367,41.77965],[24.687451,41.779664],[24.687467,41.779616]]]},"properties":{"num":1}},{"type":"Feature","geometry":{"type":"Polygon","coordinates":[[[24.699569,41.769914],[24.699656,41.769983],[24.699988,41.769721],[24.699896,41.769656],[24.699569,41.769914]]]},"properties":{"num":1}},{"type":"Feature","geometry":{"type":"Polygon","coordinates":[[[24.699988,41.769721],[24.700118,41.769619],[24.700024,41.769555],[24.699896,41.769656],[24.699988,41.769721]]]},"properties":{"num":2}},{"type":"Feature","geometry":{"type":"Polygon","coordinates":[[[24.721395,41.759867],[24.721424,41.759798],[24.721297,41.759771],[24.721268,41.759841],[24.721395,41.759867]]]},"properties":{"num":1}},{"type":"Feature","geometry":{"type":"Polygon","coordinates":[[[24.740102,41.721475],[24.740127,41.721405],[24.740056,41.721391],[24.740034,41.721462],[24.740102,41.721475]]]},"properties":{"num":1}},{"type":"Feature","geometry":{"type":"Polygon","coordinates":[[[24.708894,41.743559],[24.708951,41.743638],[24.709227,41.743536],[24.709174,41.743457],[24.708894,41.743559]]]},"properties":{"num":1}},{"type":"Feature","geometry":{"type":"Polygon","coordinates":[[[24.709174,41.743457],[24.709151,41.743423],[24.70887,41.743525],[24.708894,41.743559],[24.709174,41.743457]]]},"properties":{"num":2}},{"type":"Feature","geometry":{"type":"Polygon","coordinates":[[[24.709309,41.743507],[24.709257,41.743426],[24.709174,41.743457],[24.709227,41.743536],[24.709309,41.743507]]]},"properties":{"num":3}},{"type":"Feature","geometry":{"type":"Polygon","coordinates":[[[24.709492,41.743787],[24.709519,41.743849],[24.709642,41.743821],[24.709615,41.74376],[24.709492,41.743787]]]},"properties":{"num":4}},{"type":"Feature","geometry":{"type":"Polygon","coordinates":[[[24.709615,41.74376],[24.709642,41.743821],[24.709699,41.743808],[24.709673,41.743747],[24.709615,41.74376]]]},"properties":{"num":5}},{"type":"Feature","geometry":{"type":"Polygon","coordinates":[[[24.720824,41.73598],[24.720815,41.735975],[24.72079,41.735997],[24.720812,41.736012],[24.720855,41.73598],[24.720839,41.735969],[24.720824,41.73598]]]},"properties":{"num":1}},{"type":"Feature","geometry":{"type":"Polygon","coordinates":[[[24.72085,41.735933],[24.72088,41.735963],[24.720962,41.735908],[24.720925,41.735879],[24.72085,41.735933]]]},"properties":{"num":2}},{"type":"Feature","geometry":{"type":"Polygon","coordinates":[[[24.69566,41.751581],[24.695585,41.751546],[24.695549,41.751577],[24.695631,41.751616],[24.69566,41.751581]]]},"properties":{"num":1}},{"type":"Feature","geometry":{"type":"Polygon","coordinates":[[[24.691321,41.75481],[24.691324,41.754847],[24.691399,41.754844],[24.691394,41.754807],[24.691321,41.75481]]]},"properties":{"num":1}},{"type":"Feature","geometry":{"type":"Polygon","coordinates":[[[24.687267,41.762099],[24.687329,41.762044],[24.687228,41.761978],[24.687163,41.762032],[24.687267,41.762099]]]},"properties":{"num":1}},{"type":"Feature","geometry":{"type":"Polygon","coordinates":[[[24.689145,41.747927],[24.689122,41.747971],[24.689183,41.747984],[24.689205,41.747941],[24.689145,41.747927]]]},"properties":{"num":1}},{"type":"Feature","geometry":{"type":"Polygon","coordinates":[[[24.689494,41.74805],[24.689434,41.748058],[24.689447,41.748115],[24.689508,41.748108],[24.689494,41.74805]]]},"properties":{"num":1}},{"type":"Feature","geometry":{"type":"Polygon","coordinates":[[[24.689508,41.748108],[24.689447,41.748115],[24.689452,41.748137],[24.689513,41.74813],[24.689508,41.748108]]]},"properties":{"num":2}},{"type":"Feature","geometry":{"type":"Polygon","coordinates":[[[24.689513,41.74813],[24.689574,41.748123],[24.689554,41.748042],[24.689494,41.74805],[24.689513,41.74813]]]},"properties":{"num":1}},{"type":"Feature","geometry":{"type":"Polygon","coordinates":[[[24.68964,41.74809],[24.689627,41.748035],[24.689554,41.748042],[24.689568,41.748096],[24.68964,41.74809]]]},"properties":{"num":2}},{"type":"Feature","geometry":{"type":"Polygon","coordinates":[[[24.69375,41.765976],[24.69369,41.76591],[24.693609,41.76595],[24.693667,41.766017],[24.69375,41.765976]]]},"properties":{"num":1}},{"type":"Feature","geometry":{"type":"Polygon","coordinates":[[[24.691444,41.75533],[24.691383,41.755298],[24.691354,41.75533],[24.691416,41.755361],[24.691444,41.75533]]]},"properties":{"num":1}},{"type":"Feature","geometry":{"type":"Polygon","coordinates":[[[24.720303,41.803717],[24.72037,41.803736],[24.720388,41.803701],[24.720321,41.803682],[24.720303,41.803717]]]},"properties":{"num":1}},{"type":"Feature","geometry":{"type":"Polygon","coordinates":[[[24.72045,41.803803],[24.720464,41.803765],[24.720471,41.803765],[24.720477,41.803721],[24.720494,41.803723],[24.720497,41.803712],[24.720438,41.803707],[24.720432,41.803732],[24.720424,41.803732],[24.720417,41.803758],[24.720426,41.803759],[24.720415,41.803797],[24.72045,41.803803]]]},"properties":{"num":1}},{"type":"Feature","geometry":{"type":"Polygon","coordinates":[[[24.723458,41.779662],[24.723409,41.77958],[24.722982,41.779723],[24.723032,41.7798],[24.723458,41.779662]]]},"properties":{"num":1}},{"type":"Feature","geometry":{"type":"Polygon","coordinates":[[[24.725348,41.784494],[24.725268,41.784469],[24.72523,41.784537],[24.725309,41.784562],[24.725348,41.784494]]]},"properties":{"num":1}},{"type":"Feature","geometry":{"type":"Polygon","coordinates":[[[24.727903,41.772216],[24.727865,41.772268],[24.727919,41.77229],[24.727956,41.772241],[24.727903,41.772216]]]},"properties":{"num":1}},{"type":"Feature","geometry":{"type":"Polygon","coordinates":[[[24.726237,41.765988],[24.726269,41.766007],[24.726296,41.765982],[24.726322,41.765997],[24.726347,41.765973],[24.72629,41.765939],[24.726237,41.765988]]]},"properties":{"num":1}},{"type":"Feature","geometry":{"type":"Polygon","coordinates":[[[24.725967,41.766201],[24.726016,41.766228],[24.726055,41.766187],[24.726005,41.76616],[24.725967,41.766201]]]},"properties":{"num":2}},{"type":"Feature","geometry":{"type":"Polygon","coordinates":[[[24.794394,41.7456],[24.794288,41.745539],[24.79423,41.745597],[24.794336,41.745657],[24.794394,41.7456]]]},"properties":{"num":1}},{"type":"Feature","geometry":{"type":"Polygon","coordinates":[[[24.795116,41.745378],[24.795133,41.745377],[24.795142,41.745466],[24.795199,41.745462],[24.795187,41.745339],[24.795113,41.745345],[24.795116,41.745378]]]},"properties":{"num":1}},{"type":"Feature","geometry":{"type":"Polygon","coordinates":[[[24.796277,41.744171],[24.79621,41.744094],[24.79613,41.744136],[24.796197,41.744211],[24.796277,41.744171]]]},"properties":{"num":1}},{"type":"Feature","geometry":{"type":"Polygon","coordinates":[[[24.796118,41.743979],[24.796054,41.743922],[24.796005,41.743955],[24.79607,41.744011],[24.796118,41.743979]]]},"properties":{"num":2}},{"type":"Feature","geometry":{"type":"Polygon","coordinates":[[[24.806911,41.761541],[24.806765,41.761527],[24.806709,41.761812],[24.806855,41.761828],[24.806911,41.761541]]]},"properties":{"num":1}},{"type":"Feature","geometry":{"type":"Polygon","coordinates":[[[24.806772,41.761819],[24.806709,41.761812],[24.806683,41.76195],[24.806746,41.761956],[24.806772,41.761819]]]},"properties":{"num":2}},{"type":"Feature","geometry":{"type":"Polygon","coordinates":[[[24.807132,41.763458],[24.807134,41.76339],[24.807155,41.76339],[24.807158,41.76334],[24.807096,41.763338],[24.807093,41.763377],[24.807042,41.763375],[24.807041,41.763387],[24.807035,41.763387],[24.807032,41.763455],[24.807132,41.763458]]]},"properties":{"num":1}},{"type":"Feature","geometry":{"type":"Polygon","coordinates":[[[24.807154,41.763256],[24.807053,41.763253],[24.80705,41.763314],[24.807078,41.763315],[24.807077,41.763337],[24.807158,41.76334],[24.807154,41.763256]]]},"properties":{"num":2}},{"type":"Feature","geometry":{"type":"Polygon","coordinates":[[[24.807137,41.763196],[24.807088,41.763189],[24.807085,41.763254],[24.807134,41.763255],[24.807137,41.763196]]]},"properties":{"num":3}},{"type":"Feature","geometry":{"type":"Polygon","coordinates":[[[24.807088,41.763189],[24.807137,41.763196],[24.807149,41.76315],[24.807098,41.763143],[24.807088,41.763189]]]},"properties":{"num":4}}]}