{"type":"FeatureCollection","features":[{"type":"Feature","geometry":{"type":"Polygon","coordinates":[[[23.214803,42.756136],[23.214634,42.756133],[23.214466,42.755975],[23.213943,42.755414],[23.213369,42.754147],[23.209582,42.756416],[23.20963,42.756469],[23.210243,42.756432],[23.211415,42.756452],[23.211416,42.756409],[23.213521,42.756453],[23.21582,42.756476],[23.214803,42.756136]]]},"properties":{"cadreg":606}},{"type":"Feature","geometry":{"type":"Polygon","coordinates":[[[23.211283,42.755109],[23.210734,42.754631],[23.209632,42.75535],[23.20972,42.75558],[23.210045,42.755874],[23.211283,42.755109]]]},"properties":{"cadreg":44}},{"type":"Feature","geometry":{"type":"Polygon","coordinates":[[[23.193508,42.7594],[23.19172,42.760747],[23.191648,42.760819],[23.191551,42.760958],[23.191498,42.76111],[23.191491,42.761266],[23.191591,42.762191],[23.191616,42.762303],[23.191676,42.762431],[23.191785,42.762568],[23.191909,42.762669],[23.194115,42.764001],[23.194452,42.764262],[23.194021,42.764564],[23.195085,42.765458],[23.194813,42.765939],[23.193714,42.766629],[23.194497,42.767272],[23.1945,42.767319],[23.193106,42.768166],[23.196192,42.769576],[23.196368,42.769644],[23.196557,42.769689],[23.196852,42.769711],[23.197097,42.769687],[23.199476,42.769086],[23.200573,42.768832],[23.201593,42.768558],[23.202024,42.768532],[23.20554,42.767033],[23.20567,42.767097],[23.205675,42.767161],[23.205863,42.767153],[23.205853,42.766875],[23.206331,42.767044],[23.209266,42.765349],[23.211194,42.764203],[23.211481,42.764447],[23.211982,42.764137],[23.212037,42.764178],[23.212708,42.763727],[23.209455,42.761066],[23.208994,42.761313],[23.206649,42.759198],[23.20595,42.7586],[23.20575,42.758459],[23.204339,42.759308],[23.204348,42.759317],[23.203628,42.759748],[23.203619,42.75974],[23.20206,42.760686],[23.199266,42.758209],[23.197467,42.759248],[23.195595,42.760359],[23.19524,42.76062],[23.193508,42.7594]]]},"properties":{"cadreg":601}},{"type":"Feature","geometry":{"type":"Polygon","coordinates":[[[23.192932,42.755674],[23.192875,42.755692],[23.192487,42.755461],[23.192337,42.755524],[23.192172,42.755703],[23.191992,42.756183],[23.191771,42.756352],[23.191674,42.756354],[23.190915,42.756111],[23.190824,42.756049],[23.189865,42.756724],[23.191351,42.757843],[23.193508,42.7594],[23.19524,42.76062],[23.195578,42.76037],[23.197337,42.759327],[23.197064,42.759024],[23.196589,42.758776],[23.196161,42.758662],[23.19593,42.758522],[23.195748,42.758261],[23.195419,42.757896],[23.194883,42.757382],[23.194677,42.757039],[23.194397,42.756719],[23.194105,42.756426],[23.193837,42.756209],[23.193653,42.755982],[23.193649,42.755925],[23.193441,42.755854],[23.19335,42.755773],[23.193319,42.755689],[23.193335,42.755638],[23.19326,42.755619],[23.193026,42.755722],[23.192932,42.755674]]]},"properties":{"cadreg":602}},{"type":"Feature","geometry":{"type":"Polygon","coordinates":[[[23.18896,42.753612],[23.188605,42.753895],[23.188127,42.754225],[23.188188,42.75429],[23.187502,42.754869],[23.188099,42.75528],[23.188001,42.755365],[23.187867,42.755441],[23.188382,42.755815],[23.188413,42.755877],[23.188777,42.756143],[23.188923,42.756195],[23.189743,42.756809],[23.189865,42.756724],[23.188083,42.755466],[23.188071,42.755409],[23.188389,42.755145],[23.189024,42.755564],[23.188776,42.755756],[23.189749,42.756439],[23.189985,42.756264],[23.189948,42.756237],[23.190203,42.756055],[23.188668,42.755001],[23.188622,42.754987],[23.188573,42.754998],[23.188701,42.754893],[23.188691,42.754925],[23.188714,42.754959],[23.190256,42.756017],[23.190723,42.755683],[23.190403,42.755498],[23.190445,42.755448],[23.190425,42.755408],[23.190184,42.755298],[23.190158,42.755317],[23.189933,42.755217],[23.189958,42.755198],[23.18895,42.754752],[23.188878,42.754751],[23.189008,42.754639],[23.189007,42.754694],[23.189499,42.754912],[23.189746,42.755011],[23.18979,42.755026],[23.189799,42.755015],[23.190161,42.755175],[23.190552,42.755356],[23.190873,42.755552],[23.191177,42.755315],[23.191248,42.755161],[23.190233,42.754637],[23.189621,42.754253],[23.189562,42.75425],[23.18965,42.75416],[23.189659,42.754201],[23.190279,42.754595],[23.190615,42.754774],[23.190623,42.754766],[23.191587,42.755295],[23.191664,42.75528],[23.19175,42.755073],[23.191367,42.754932],[23.191412,42.754867],[23.190984,42.754642],[23.190997,42.754628],[23.19085,42.754547],[23.190838,42.754556],[23.190009,42.754109],[23.190413,42.753727],[23.190117,42.753569],[23.189827,42.753892],[23.18896,42.753612]]]},"properties":{"cadreg":603}},{"type":"Feature","geometry":{"type":"Polygon","coordinates":[[[23.2074,42.755598],[23.202004,42.756442],[23.203077,42.757333],[23.203841,42.757991],[23.203345,42.758293],[23.204339,42.759308],[23.208572,42.756775],[23.208658,42.756712],[23.2074,42.755598]]]},"properties":{"cadreg":604}},{"type":"Feature","geometry":{"type":"Polygon","coordinates":[[[23.184337,42.752882],[23.183819,42.753575],[23.184225,42.753796],[23.184713,42.753141],[23.184337,42.752882]]]},"properties":{"cadreg":607}},{"type":"Feature","geometry":{"type":"Polygon","coordinates":[[[23.184214,42.752119],[23.184599,42.751897],[23.184472,42.751789],[23.183701,42.752256],[23.184309,42.752689],[23.184972,42.752211],[23.184719,42.751997],[23.184327,42.752226],[23.184214,42.752119]]]},"properties":{"cadreg":608}}]}