{"type":"FeatureCollection","features":[{"type":"Feature","geometry":{"type":"Polygon","coordinates":[[[24.869795,41.84951],[24.869828,41.849434],[24.869722,41.849407],[24.86969,41.849477],[24.869743,41.849493],[24.869742,41.849497],[24.869795,41.84951]]]},"properties":{"num":1}},{"type":"Feature","geometry":{"type":"Polygon","coordinates":[[[24.875529,41.841888],[24.875462,41.841826],[24.875413,41.841856],[24.875478,41.841918],[24.875529,41.841888]]]},"properties":{"num":1}},{"type":"Feature","geometry":{"type":"Polygon","coordinates":[[[24.896315,41.849464],[24.896215,41.849437],[24.896195,41.849479],[24.896294,41.849506],[24.896315,41.849464]]]},"properties":{"num":1}},{"type":"Feature","geometry":{"type":"Polygon","coordinates":[[[24.915079,41.840237],[24.915094,41.840212],[24.91507,41.840204],[24.915055,41.840229],[24.915079,41.840237]]]},"properties":{"num":1}}]}