{"type":"FeatureCollection","features":[{"type":"Feature","geometry":{"type":"Polygon","coordinates":[[[24.761603,42.05597],[24.761323,42.056092],[24.761527,42.056393],[24.76182,42.05692],[24.761937,42.057371],[24.761893,42.058103],[24.762066,42.059284],[24.761841,42.059919],[24.761941,42.060339],[24.761901,42.060849],[24.761788,42.06122],[24.761633,42.061417],[24.7616,42.061646],[24.761923,42.06256],[24.761913,42.062597],[24.762233,42.062656],[24.762358,42.062282],[24.762455,42.062297],[24.762525,42.062039],[24.762641,42.061751],[24.762894,42.061447],[24.762856,42.061424],[24.76328,42.060857],[24.763179,42.060805],[24.763375,42.060591],[24.763482,42.060572],[24.764193,42.059808],[24.764362,42.059703],[24.764458,42.059672],[24.764705,42.059631],[24.764727,42.059607],[24.764681,42.059405],[24.764716,42.059239],[24.764176,42.058732],[24.764237,42.058669],[24.764025,42.058419],[24.764614,42.058055],[24.763821,42.057468],[24.764084,42.057746],[24.763618,42.057968],[24.76334,42.057703],[24.76346,42.057656],[24.76338,42.057561],[24.763744,42.057388],[24.762978,42.056564],[24.762505,42.056792],[24.762272,42.056545],[24.762754,42.056308],[24.762532,42.056058],[24.76205,42.056308],[24.761782,42.056023],[24.761681,42.056067],[24.761603,42.05597]]]},"properties":{"cadreg":34}},{"type":"Feature","geometry":{"type":"Polygon","coordinates":[[[24.769944,42.059197],[24.768494,42.059675],[24.769707,42.061652],[24.770296,42.061428],[24.770443,42.061624],[24.769842,42.061861],[24.769949,42.062028],[24.769874,42.062157],[24.770062,42.062487],[24.770464,42.062855],[24.772383,42.061792],[24.771725,42.061063],[24.771545,42.060764],[24.7714,42.060475],[24.771229,42.060306],[24.771004,42.059814],[24.770882,42.059382],[24.770778,42.059284],[24.770749,42.059218],[24.770089,42.059454],[24.769944,42.059197]]]},"properties":{"cadreg":42}},{"type":"Feature","geometry":{"type":"Polygon","coordinates":[[[24.772947,42.054627],[24.770355,42.056409],[24.770232,42.056318],[24.769671,42.056724],[24.769817,42.05685],[24.769757,42.056899],[24.769671,42.057009],[24.769705,42.057043],[24.769695,42.057142],[24.768754,42.057931],[24.769766,42.058463],[24.770017,42.058442],[24.77014,42.058507],[24.770266,42.058724],[24.770354,42.058788],[24.770522,42.059078],[24.770562,42.059066],[24.770637,42.059258],[24.770749,42.059218],[24.770778,42.059284],[24.770882,42.059382],[24.771004,42.059814],[24.771229,42.060306],[24.7714,42.060475],[24.771545,42.060764],[24.771725,42.061063],[24.772445,42.061869],[24.772653,42.061778],[24.773095,42.062295],[24.773429,42.062455],[24.773936,42.062062],[24.777244,42.059599],[24.777899,42.057799],[24.77703,42.057324],[24.77675,42.057209],[24.776259,42.05684],[24.775851,42.056467],[24.775347,42.055789],[24.774801,42.055229],[24.773264,42.054307],[24.773136,42.054464],[24.772947,42.054627]]]},"properties":{"cadreg":24}},{"type":"Feature","geometry":{"type":"Polygon","coordinates":[[[24.77631,42.052543],[24.77549,42.053011],[24.775966,42.053514],[24.774439,42.054391],[24.773867,42.053938],[24.773629,42.053913],[24.773415,42.053695],[24.773423,42.053831],[24.773396,42.054016],[24.773325,42.054203],[24.773264,42.054307],[24.774801,42.055229],[24.775347,42.055789],[24.775851,42.056467],[24.776259,42.05684],[24.77675,42.057209],[24.77703,42.057324],[24.777899,42.057799],[24.77793,42.057692],[24.777977,42.05764],[24.778151,42.057686],[24.77812,42.057671],[24.778406,42.05693],[24.778751,42.055097],[24.77631,42.052543]]]},"properties":{"cadreg":25}},{"type":"Feature","geometry":{"type":"Polygon","coordinates":[[[24.773666,42.047355],[24.773383,42.047637],[24.772942,42.048254],[24.772719,42.048888],[24.77256,42.049642],[24.772401,42.049797],[24.771969,42.05006],[24.770973,42.050468],[24.771001,42.050502],[24.77088,42.050684],[24.771039,42.05078],[24.771408,42.051315],[24.771551,42.051402],[24.771667,42.051539],[24.77208,42.051389],[24.772734,42.052493],[24.773304,42.053371],[24.773384,42.053551],[24.773415,42.053695],[24.773629,42.053913],[24.773867,42.053938],[24.774439,42.054391],[24.775966,42.053514],[24.77549,42.053011],[24.77631,42.052543],[24.772836,42.048911],[24.773055,42.048287],[24.773478,42.047693],[24.774127,42.047108],[24.774366,42.046945],[24.77429,42.046857],[24.773666,42.047355]]]},"properties":{"cadreg":26}},{"type":"Feature","geometry":{"type":"Polygon","coordinates":[[[24.760315,42.066092],[24.760198,42.066049],[24.759832,42.066588],[24.759106,42.067897],[24.758745,42.068263],[24.758429,42.069124],[24.758351,42.069118],[24.759704,42.070622],[24.760907,42.071878],[24.762948,42.073888],[24.763564,42.073562],[24.765127,42.072599],[24.765506,42.071894],[24.765595,42.071773],[24.766072,42.071307],[24.766443,42.070916],[24.766532,42.07076],[24.766606,42.069795],[24.766581,42.069443],[24.767061,42.068604],[24.767363,42.068232],[24.767041,42.068559],[24.764461,42.067587],[24.760334,42.066059],[24.760315,42.066092]]]},"properties":{"cadreg":27}},{"type":"Feature","geometry":{"type":"Polygon","coordinates":[[[24.753211,42.06141],[24.752457,42.061467],[24.751636,42.060629],[24.751554,42.06066],[24.751077,42.059948],[24.750881,42.059926],[24.750827,42.059906],[24.749879,42.060792],[24.749926,42.060876],[24.749977,42.060879],[24.750079,42.061121],[24.750823,42.062013],[24.751424,42.062466],[24.752354,42.06307],[24.753043,42.063488],[24.753806,42.064045],[24.756557,42.067158],[24.758351,42.069118],[24.758429,42.069124],[24.758745,42.068263],[24.759106,42.067897],[24.759832,42.066588],[24.760198,42.066049],[24.760315,42.066092],[24.760334,42.066059],[24.764461,42.067587],[24.767041,42.068559],[24.767363,42.068232],[24.76778,42.067678],[24.768102,42.066958],[24.768191,42.066992],[24.768462,42.066561],[24.76852,42.066586],[24.768917,42.066259],[24.768812,42.066015],[24.76889,42.065995],[24.768117,42.065039],[24.767126,42.065481],[24.766399,42.06596],[24.765263,42.065003],[24.766102,42.064132],[24.766105,42.064027],[24.76608,42.063939],[24.765968,42.063748],[24.765899,42.063559],[24.765888,42.063309],[24.765927,42.063273],[24.765846,42.063239],[24.764825,42.06336],[24.765056,42.063438],[24.764877,42.063576],[24.76464,42.063808],[24.764523,42.063891],[24.76369,42.063454],[24.763995,42.063094],[24.763857,42.063026],[24.763482,42.062886],[24.761841,42.062583],[24.760186,42.06238],[24.759605,42.062409],[24.759245,42.062401],[24.757796,42.062427],[24.756845,42.062553],[24.756668,42.062565],[24.755868,42.06235],[24.754366,42.061902],[24.753915,42.061652],[24.753858,42.06121],[24.753211,42.06141]]]},"properties":{"cadreg":28}},{"type":"Feature","geometry":{"type":"Polygon","coordinates":[[[24.754507,42.056104],[24.749278,42.058026],[24.750724,42.059803],[24.750867,42.059832],[24.750917,42.059871],[24.750881,42.059926],[24.751077,42.059948],[24.751554,42.06066],[24.751636,42.060629],[24.752457,42.061467],[24.753211,42.06141],[24.753858,42.06121],[24.753915,42.061652],[24.754366,42.061902],[24.755868,42.06235],[24.756668,42.062565],[24.756845,42.062553],[24.757796,42.062427],[24.759245,42.062401],[24.759605,42.062409],[24.760186,42.06238],[24.761913,42.062597],[24.761923,42.06256],[24.7616,42.061646],[24.761633,42.061417],[24.761059,42.061313],[24.760223,42.06089],[24.759718,42.060714],[24.758744,42.060244],[24.758318,42.059779],[24.757206,42.059],[24.75717,42.058875],[24.756695,42.058326],[24.756084,42.057951],[24.756013,42.057672],[24.755848,42.057434],[24.755429,42.056988],[24.754989,42.056452],[24.754507,42.056104]],[[24.751248,42.059765],[24.750969,42.059887],[24.751066,42.059845],[24.751248,42.059765]],[[24.751599,42.059614],[24.751331,42.059729],[24.751522,42.059647],[24.751599,42.059614]]]},"properties":{"cadreg":29}},{"type":"Feature","geometry":{"type":"Polygon","coordinates":[[[24.761323,42.056092],[24.761299,42.056122],[24.760854,42.056425],[24.760535,42.056701],[24.759971,42.056968],[24.759439,42.05714],[24.758991,42.057236],[24.757342,42.057515],[24.756567,42.057761],[24.756084,42.057951],[24.756695,42.058326],[24.75717,42.058875],[24.757206,42.059],[24.758318,42.059779],[24.758744,42.060244],[24.759718,42.060714],[24.760223,42.06089],[24.761059,42.061313],[24.761633,42.061417],[24.761788,42.06122],[24.761901,42.060849],[24.761941,42.060339],[24.761841,42.059919],[24.762066,42.059284],[24.761893,42.058103],[24.761937,42.057371],[24.76182,42.05692],[24.761527,42.056393],[24.761323,42.056092]]]},"properties":{"cadreg":30}},{"type":"Feature","geometry":{"type":"Polygon","coordinates":[[[24.751635,42.054439],[24.750768,42.054933],[24.750406,42.055044],[24.750309,42.054916],[24.750206,42.054991],[24.750047,42.055178],[24.749517,42.055707],[24.749111,42.056178],[24.748854,42.056404],[24.748392,42.056884],[24.748487,42.057012],[24.748576,42.057242],[24.748734,42.057449],[24.749278,42.058026],[24.754507,42.056104],[24.754989,42.056452],[24.755429,42.056988],[24.755848,42.057434],[24.756013,42.057672],[24.756084,42.057951],[24.756567,42.057761],[24.757342,42.057515],[24.758991,42.057236],[24.759439,42.05714],[24.759971,42.056968],[24.760535,42.056701],[24.760854,42.056425],[24.761299,42.056122],[24.761323,42.056092],[24.761603,42.05597],[24.760317,42.05436],[24.75933,42.053066],[24.75924,42.053051],[24.759217,42.053017],[24.759009,42.052983],[24.758555,42.052689],[24.758537,42.052709],[24.758496,42.052684],[24.757836,42.052222],[24.757181,42.052505],[24.755971,42.05296],[24.754978,42.053289],[24.7547,42.053356],[24.754252,42.053542],[24.751635,42.054439]]]},"properties":{"cadreg":31}},{"type":"Feature","geometry":{"type":"Polygon","coordinates":[[[24.743162,42.057128],[24.743415,42.057714],[24.743915,42.058265],[24.744485,42.058639],[24.745031,42.058907],[24.745759,42.059413],[24.746227,42.059808],[24.747855,42.060754],[24.749926,42.060876],[24.749879,42.060792],[24.750827,42.059906],[24.750881,42.059926],[24.750917,42.059871],[24.750867,42.059832],[24.750724,42.059803],[24.749278,42.058026],[24.748734,42.057449],[24.748576,42.057242],[24.748487,42.057012],[24.748411,42.057029],[24.748058,42.056954],[24.747372,42.05614],[24.747041,42.056075],[24.746484,42.056013],[24.746216,42.056037],[24.745348,42.056268],[24.743077,42.057029],[24.743162,42.057128]]]},"properties":{"cadreg":32}},{"type":"Feature","geometry":{"type":"Polygon","coordinates":[[[24.755797,42.051468],[24.754386,42.052014],[24.753964,42.052363],[24.75378,42.052656],[24.753471,42.052929],[24.75125,42.054052],[24.750095,42.055034],[24.74997,42.055179],[24.749263,42.055643],[24.748334,42.056838],[24.748277,42.05689],[24.748118,42.056792],[24.747874,42.056691],[24.747316,42.055949],[24.746484,42.056013],[24.747041,42.056075],[24.747372,42.05614],[24.748058,42.056954],[24.748411,42.057029],[24.748487,42.057012],[24.748392,42.056884],[24.748854,42.056404],[24.749111,42.056178],[24.749517,42.055707],[24.750047,42.055178],[24.750206,42.054991],[24.750309,42.054916],[24.750406,42.055044],[24.750768,42.054933],[24.751635,42.054439],[24.754252,42.053542],[24.7547,42.053356],[24.754978,42.053289],[24.755971,42.05296],[24.757181,42.052505],[24.757836,42.052222],[24.758496,42.052684],[24.758537,42.052709],[24.758555,42.052689],[24.759009,42.052983],[24.759217,42.053017],[24.75924,42.053051],[24.75933,42.053066],[24.759318,42.05305],[24.759345,42.052966],[24.76251,42.051486],[24.762674,42.051459],[24.763264,42.051449],[24.763292,42.051415],[24.763154,42.05117],[24.763088,42.051159],[24.762975,42.050956],[24.763144,42.050911],[24.763097,42.050808],[24.763447,42.050707],[24.763541,42.050893],[24.764154,42.050742],[24.764046,42.050461],[24.764379,42.050387],[24.764547,42.050826],[24.764819,42.050766],[24.76497,42.050753],[24.764873,42.050606],[24.764774,42.050396],[24.764521,42.050243],[24.7643,42.05019],[24.764091,42.050069],[24.763966,42.050016],[24.763422,42.050666],[24.763143,42.050792],[24.760629,42.050835],[24.758211,42.050633],[24.757374,42.050905],[24.757494,42.051044],[24.75745,42.051069],[24.757333,42.050981],[24.757295,42.050999],[24.757229,42.050903],[24.757023,42.050747],[24.756131,42.0511],[24.756356,42.051325],[24.755797,42.051468]]]},"properties":{"cadreg":33}},{"type":"Feature","geometry":{"type":"Polygon","coordinates":[[[24.758386,42.047454],[24.758029,42.045792],[24.758176,42.045672],[24.758674,42.045816],[24.760271,42.046509],[24.76095,42.047005],[24.76271,42.048977],[24.765077,42.048487],[24.766012,42.048127],[24.766288,42.048286],[24.766417,42.048633],[24.765841,42.04895],[24.764297,42.049621],[24.763966,42.050016],[24.764091,42.050069],[24.7643,42.05019],[24.764521,42.050243],[24.764774,42.050396],[24.765063,42.050335],[24.765764,42.050118],[24.765714,42.050025],[24.766071,42.049917],[24.766388,42.049771],[24.767389,42.049378],[24.768362,42.048932],[24.768079,42.048628],[24.768066,42.048551],[24.768384,42.04769],[24.768714,42.0476],[24.770388,42.049822],[24.770973,42.050468],[24.771969,42.05006],[24.772401,42.049797],[24.77256,42.049642],[24.772719,42.048888],[24.772942,42.048254],[24.773383,42.047637],[24.773762,42.047271],[24.77429,42.046857],[24.774256,42.046759],[24.773892,42.04642],[24.773918,42.046322],[24.773866,42.046324],[24.77378,42.046376],[24.77365,42.046301],[24.773174,42.046545],[24.773125,42.046599],[24.77296,42.046714],[24.77282,42.046775],[24.772293,42.046548],[24.771738,42.046414],[24.771221,42.046235],[24.769501,42.044989],[24.768941,42.044496],[24.767876,42.043462],[24.767503,42.043035],[24.767425,42.043053],[24.767386,42.043116],[24.767325,42.043127],[24.767247,42.043106],[24.767044,42.042904],[24.766756,42.042795],[24.766447,42.042616],[24.766299,42.042369],[24.765925,42.041406],[24.765331,42.040941],[24.765043,42.040763],[24.764848,42.040681],[24.764596,42.040816],[24.764443,42.040854],[24.764271,42.041093],[24.764069,42.041434],[24.763762,42.041092],[24.763349,42.040724],[24.763094,42.040436],[24.763023,42.040281],[24.762992,42.040143],[24.763017,42.039839],[24.762896,42.039381],[24.762927,42.039229],[24.763029,42.039093],[24.763412,42.038899],[24.763674,42.038819],[24.76392,42.038721],[24.764175,42.038614],[24.764364,42.038505],[24.764645,42.038126],[24.764777,42.037908],[24.76484,42.037704],[24.764871,42.037425],[24.764857,42.037386],[24.764468,42.037017],[24.76415,42.036616],[24.764045,42.036421],[24.764103,42.036264],[24.764212,42.036125],[24.764333,42.036008],[24.764395,42.035881],[24.764236,42.035604],[24.764153,42.035414],[24.764021,42.034927],[24.763868,42.034999],[24.763376,42.035168],[24.763115,42.035229],[24.762884,42.035231],[24.762678,42.035254],[24.76249,42.035247],[24.762285,42.035289],[24.762113,42.035353],[24.76193,42.035445],[24.761706,42.035494],[24.761466,42.035497],[24.76116,42.035436],[24.760856,42.03532],[24.760457,42.035198],[24.760257,42.035194],[24.759835,42.035311],[24.759397,42.035501],[24.759122,42.035571],[24.758884,42.035687],[24.758513,42.035962],[24.758504,42.036185],[24.758462,42.036361],[24.758353,42.036589],[24.758249,42.037408],[24.758015,42.038042],[24.75742,42.038556],[24.7556,42.039637],[24.755476,42.039678],[24.755187,42.039718],[24.754518,42.040059],[24.754254,42.040151],[24.753275,42.04024],[24.752284,42.040694],[24.751703,42.040987],[24.750714,42.041631],[24.74907,42.042128],[24.748461,42.042472],[24.746792,42.042225],[24.745958,42.042023],[24.744888,42.041814],[24.744212,42.041585],[24.7436,42.041603],[24.742719,42.041717],[24.742322,42.041648],[24.742045,42.041504],[24.741574,42.041423],[24.7411,42.041415],[24.740505,42.041517],[24.740131,42.041547],[24.739537,42.041431],[24.738723,42.041603],[24.738561,42.042516],[24.737991,42.042661],[24.737494,42.04333],[24.737531,42.043468],[24.738663,42.044248],[24.739078,42.044918],[24.739732,42.045355],[24.740135,42.045465],[24.740391,42.04626],[24.740138,42.046575],[24.74031,42.046745],[24.740164,42.047026],[24.739852,42.047152],[24.739531,42.047238],[24.739703,42.047428],[24.740507,42.047391],[24.741316,42.047674],[24.741324,42.048112],[24.741131,42.048295],[24.741137,42.048658],[24.740809,42.049162],[24.740711,42.049575],[24.740379,42.050152],[24.740068,42.050396],[24.73952,42.050791],[24.739375,42.05134],[24.739638,42.051664],[24.740194,42.051989],[24.740585,42.052497],[24.740897,42.053416],[24.74123,42.053762],[24.741616,42.05397],[24.741917,42.054308],[24.742422,42.054549],[24.742395,42.054612],[24.741961,42.05479],[24.741933,42.054961],[24.742294,42.055119],[24.742645,42.055219],[24.742568,42.055347],[24.741765,42.055848],[24.741604,42.056045],[24.741799,42.056343],[24.742277,42.056788],[24.742738,42.056637],[24.743077,42.057029],[24.745114,42.056345],[24.74461,42.056118],[24.744559,42.055994],[24.744598,42.055871],[24.744524,42.055518],[24.74425,42.055471],[24.744004,42.055571],[24.743459,42.055568],[24.743262,42.055525],[24.743184,42.055299],[24.74326,42.055117],[24.743334,42.054802],[24.74332,42.054672],[24.743252,42.054401],[24.743523,42.053937],[24.743758,42.053864],[24.744223,42.053751],[24.745937,42.053163],[24.747337,42.05281],[24.747584,42.052761],[24.748012,42.052449],[24.748166,42.05245],[24.749632,42.052004],[24.749764,42.051905],[24.750214,42.051629],[24.750238,42.051596],[24.750321,42.05156],[24.750733,42.051282],[24.751183,42.051235],[24.75131,42.051176],[24.751608,42.051108],[24.751771,42.051034],[24.751919,42.050992],[24.753325,42.049701],[24.75346,42.04947],[24.753672,42.049218],[24.755105,42.048368],[24.755075,42.048243],[24.755322,42.048236],[24.755481,42.048136],[24.756092,42.048159],[24.756864,42.048133],[24.75755,42.048057],[24.758386,42.047454]],[[24.769601,42.047967],[24.769556,42.047716],[24.769506,42.047623],[24.769138,42.04715],[24.769013,42.046958],[24.768973,42.046723],[24.769501,42.046537],[24.769372,42.04631],[24.769096,42.046383],[24.768979,42.046111],[24.769369,42.04603],[24.769514,42.046005],[24.769527,42.046014],[24.770079,42.04572],[24.770346,42.045875],[24.77064,42.045935],[24.771024,42.04614],[24.77105,42.04625],[24.771482,42.046403],[24.77205,42.046542],[24.771973,42.046693],[24.772485,42.046797],[24.772412,42.04687],[24.772196,42.047007],[24.771785,42.04717],[24.770978,42.047532],[24.770585,42.047774],[24.770224,42.048045],[24.770087,42.04811],[24.769968,42.048139],[24.770148,42.048009],[24.770086,42.047958],[24.770129,42.047933],[24.769945,42.047771],[24.769601,42.047967]]]},"properties":{"cadreg":35}},{"type":"Feature","geometry":{"type":"Polygon","coordinates":[[[24.794564,42.111915],[24.793065,42.112583],[24.793639,42.113034],[24.794375,42.113719],[24.794868,42.114561],[24.79525,42.114538],[24.798894,42.125101],[24.80104,42.124596],[24.801051,42.12458],[24.801338,42.124451],[24.804423,42.123655],[24.803514,42.116905],[24.803317,42.116161],[24.801857,42.11178],[24.800943,42.108796],[24.800973,42.108623],[24.801514,42.108019],[24.801538,42.107823],[24.800836,42.106458],[24.800582,42.106214],[24.799886,42.105917],[24.799463,42.105761],[24.798532,42.105715],[24.797858,42.107884],[24.797625,42.108208],[24.795945,42.109792],[24.79573,42.110067],[24.794765,42.111713],[24.794564,42.111915]]]},"properties":{"cadreg":36}},{"type":"Feature","geometry":{"type":"Polygon","coordinates":[[[24.775495,42.079234],[24.775996,42.080421],[24.776127,42.08084],[24.776189,42.081191],[24.776345,42.081813],[24.786473,42.080118],[24.786908,42.081525],[24.78729,42.082864],[24.788089,42.082762],[24.790677,42.082309],[24.791632,42.078853],[24.788165,42.075994],[24.78805,42.075927],[24.787635,42.075794],[24.787363,42.075757],[24.787445,42.075643],[24.784772,42.076376],[24.775413,42.078803],[24.775555,42.078814],[24.775495,42.079234]]]},"properties":{"cadreg":37}},{"type":"Feature","geometry":{"type":"Polygon","coordinates":[[[24.772706,42.101546],[24.772288,42.10489],[24.772494,42.106074],[24.773709,42.107555],[24.776574,42.108579],[24.776518,42.108665],[24.780297,42.110022],[24.781992,42.107603],[24.78242,42.107086],[24.781455,42.105526],[24.780779,42.10461],[24.780616,42.104316],[24.780237,42.103758],[24.779909,42.103193],[24.779457,42.102549],[24.779202,42.101564],[24.77913,42.101376],[24.778871,42.101134],[24.77825,42.100342],[24.778217,42.100342],[24.777241,42.101157],[24.776564,42.101688],[24.775012,42.102727],[24.774886,42.102834],[24.774496,42.103112],[24.774399,42.10316],[24.774334,42.102947],[24.773953,42.102132],[24.773636,42.101543],[24.773524,42.101378],[24.772706,42.101546]]]},"properties":{"cadreg":38}},{"type":"Feature","geometry":{"type":"Polygon","coordinates":[[[24.793421,42.101985],[24.792062,42.102409],[24.792153,42.103872],[24.792514,42.104269],[24.793594,42.1036],[24.793935,42.104081],[24.795617,42.102841],[24.795559,42.102623],[24.795243,42.102465],[24.794646,42.102386],[24.794059,42.101823],[24.793421,42.101985]]]},"properties":{"cadreg":39}},{"type":"Feature","geometry":{"type":"Polygon","coordinates":[[[24.773161,42.09113],[24.773518,42.091227],[24.774108,42.093345],[24.775968,42.093435],[24.775898,42.093189],[24.776805,42.093237],[24.776733,42.092984],[24.776737,42.092938],[24.777748,42.092991],[24.7777,42.092826],[24.778664,42.092878],[24.778595,42.092617],[24.77955,42.092668],[24.779285,42.091657],[24.778999,42.090819],[24.777343,42.090896],[24.773161,42.09113]]]},"properties":{"cadreg":40}},{"type":"Feature","geometry":{"type":"Polygon","coordinates":[[[24.745937,42.053163],[24.744223,42.053751],[24.743758,42.053864],[24.743523,42.053937],[24.743252,42.054401],[24.74332,42.054672],[24.743334,42.054802],[24.74326,42.055117],[24.743184,42.055299],[24.743262,42.055525],[24.743459,42.055568],[24.744004,42.055571],[24.74425,42.055471],[24.744524,42.055518],[24.744598,42.055871],[24.744559,42.055994],[24.74461,42.056118],[24.745114,42.056345],[24.745348,42.056268],[24.746216,42.056037],[24.747316,42.055949],[24.747874,42.056691],[24.748118,42.056792],[24.748277,42.05689],[24.748334,42.056838],[24.749263,42.055643],[24.749442,42.055525],[24.749947,42.055051],[24.749872,42.055009],[24.749961,42.054963],[24.749872,42.054855],[24.749893,42.054845],[24.74976,42.054699],[24.749411,42.054392],[24.749444,42.054242],[24.749386,42.054215],[24.749365,42.054142],[24.749291,42.054025],[24.749231,42.054057],[24.749331,42.054211],[24.749289,42.05426],[24.74887,42.054113],[24.749082,42.053864],[24.749097,42.053815],[24.749188,42.053783],[24.749325,42.053781],[24.749417,42.053743],[24.749203,42.053664],[24.749304,42.053574],[24.749227,42.053494],[24.749224,42.053445],[24.748982,42.053246],[24.748713,42.052744],[24.749201,42.052413],[24.749314,42.052269],[24.749534,42.052086],[24.749501,42.052047],[24.748166,42.05245],[24.748012,42.052449],[24.747584,42.052761],[24.747337,42.05281],[24.745937,42.053163]]]},"properties":{"cadreg":46}},{"type":"Feature","geometry":{"type":"Polygon","coordinates":[[[24.796801,42.101965],[24.786599,42.109487],[24.786765,42.109791],[24.797106,42.102175],[24.796801,42.101965]]]},"properties":{"cadreg":100}},{"type":"Feature","geometry":{"type":"Polygon","coordinates":[[[24.748713,42.052744],[24.748982,42.053246],[24.749224,42.053445],[24.749227,42.053494],[24.749304,42.053574],[24.749203,42.053664],[24.749417,42.053743],[24.749325,42.053781],[24.749188,42.053783],[24.749097,42.053815],[24.749082,42.053864],[24.74887,42.054113],[24.749289,42.05426],[24.749331,42.054211],[24.749231,42.054057],[24.749291,42.054025],[24.749365,42.054142],[24.749386,42.054215],[24.749444,42.054242],[24.749411,42.054392],[24.74976,42.054699],[24.749893,42.054845],[24.749872,42.054855],[24.749961,42.054963],[24.749872,42.055009],[24.749947,42.055051],[24.749442,42.055525],[24.74997,42.055179],[24.750095,42.055034],[24.75125,42.054052],[24.753471,42.052929],[24.75378,42.052656],[24.753964,42.052363],[24.754386,42.052014],[24.755589,42.051549],[24.755532,42.051426],[24.755228,42.051096],[24.755145,42.051132],[24.754801,42.050767],[24.754653,42.050789],[24.754373,42.050729],[24.753876,42.050762],[24.753265,42.05088],[24.753212,42.050823],[24.752991,42.050889],[24.752604,42.050966],[24.752116,42.051142],[24.751952,42.050971],[24.751608,42.051108],[24.75131,42.051176],[24.751183,42.051235],[24.750733,42.051282],[24.750321,42.05156],[24.750238,42.051596],[24.750214,42.051629],[24.749764,42.051905],[24.749632,42.052004],[24.749501,42.052047],[24.749534,42.052086],[24.749314,42.052269],[24.749201,42.052413],[24.748713,42.052744]]]},"properties":{"cadreg":47}},{"type":"Feature","geometry":{"type":"Polygon","coordinates":[[[24.753672,42.049218],[24.75346,42.04947],[24.753325,42.049701],[24.751952,42.050971],[24.752116,42.051142],[24.752604,42.050966],[24.752991,42.050889],[24.753212,42.050823],[24.753265,42.05088],[24.753876,42.050762],[24.754373,42.050729],[24.754653,42.050789],[24.754801,42.050767],[24.755145,42.051132],[24.755228,42.051096],[24.755532,42.051426],[24.755589,42.051549],[24.755797,42.051468],[24.756356,42.051325],[24.756131,42.0511],[24.757023,42.050747],[24.757069,42.050637],[24.757235,42.050362],[24.757206,42.050322],[24.756635,42.05006],[24.756261,42.049845],[24.756109,42.049722],[24.755935,42.049612],[24.755774,42.049454],[24.755579,42.049311],[24.755221,42.04913],[24.755177,42.04905],[24.755165,42.048966],[24.755199,42.0489],[24.755276,42.048835],[24.75515,42.048542],[24.755105,42.048368],[24.753672,42.049218]]]},"properties":{"cadreg":48}},{"type":"Feature","geometry":{"type":"Polygon","coordinates":[[[24.756864,42.048133],[24.756092,42.048159],[24.755481,42.048136],[24.755322,42.048236],[24.755075,42.048243],[24.75515,42.048542],[24.755276,42.048835],[24.755178,42.048931],[24.755164,42.049007],[24.755177,42.04905],[24.755221,42.04913],[24.755579,42.049311],[24.755774,42.049454],[24.755935,42.049612],[24.756109,42.049722],[24.756261,42.049845],[24.756635,42.05006],[24.757206,42.050322],[24.757235,42.050362],[24.757069,42.050637],[24.757023,42.050747],[24.757229,42.050903],[24.757295,42.050999],[24.757333,42.050981],[24.75745,42.051069],[24.757494,42.051044],[24.757374,42.050905],[24.758211,42.050633],[24.760629,42.050835],[24.762545,42.050802],[24.762549,42.050533],[24.762646,42.050376],[24.762477,42.050442],[24.762425,42.05044],[24.762348,42.05026],[24.762262,42.050275],[24.761987,42.049686],[24.761952,42.049686],[24.761901,42.049461],[24.761844,42.049371],[24.761811,42.049265],[24.76175,42.049214],[24.761701,42.049119],[24.761592,42.048972],[24.761238,42.048569],[24.760862,42.048175],[24.760547,42.047892],[24.760295,42.047406],[24.760215,42.047192],[24.760171,42.047127],[24.760073,42.047029],[24.75995,42.046948],[24.759764,42.0469],[24.759216,42.046548],[24.759003,42.04668],[24.758989,42.04662],[24.758953,42.0466],[24.75892,42.04661],[24.758438,42.04623],[24.758336,42.046123],[24.758308,42.046136],[24.758065,42.045824],[24.758049,42.045776],[24.758029,42.045792],[24.758386,42.047454],[24.75755,42.048057],[24.756864,42.048133]]]},"properties":{"cadreg":49}},{"type":"Feature","geometry":{"type":"Polygon","coordinates":[[[24.758308,42.046136],[24.758336,42.046123],[24.758438,42.04623],[24.75892,42.04661],[24.758953,42.0466],[24.758989,42.04662],[24.759003,42.04668],[24.759216,42.046548],[24.759764,42.0469],[24.75995,42.046948],[24.760073,42.047029],[24.760171,42.047127],[24.760215,42.047192],[24.760295,42.047406],[24.760547,42.047892],[24.760862,42.048175],[24.761238,42.048569],[24.761592,42.048972],[24.761701,42.049119],[24.76175,42.049214],[24.761811,42.049265],[24.761844,42.049371],[24.761901,42.049461],[24.761952,42.049686],[24.761987,42.049686],[24.762262,42.050275],[24.762348,42.05026],[24.762425,42.05044],[24.762477,42.050442],[24.762646,42.050376],[24.762549,42.050533],[24.762545,42.050802],[24.763143,42.050792],[24.763422,42.050666],[24.763966,42.050016],[24.763075,42.04968],[24.762755,42.049366],[24.762813,42.04929],[24.762877,42.049296],[24.762688,42.04924],[24.762381,42.049053],[24.762301,42.049031],[24.762288,42.049097],[24.762436,42.049316],[24.762503,42.049456],[24.762445,42.049401],[24.762272,42.049151],[24.762251,42.049034],[24.762286,42.049006],[24.76237,42.049013],[24.762589,42.049137],[24.762655,42.049049],[24.762694,42.049041],[24.76271,42.048977],[24.76095,42.047005],[24.760271,42.046509],[24.758674,42.045816],[24.758176,42.045672],[24.758049,42.045776],[24.758065,42.045824],[24.758308,42.046136]]]},"properties":{"cadreg":50}},{"type":"Feature","geometry":{"type":"Polygon","coordinates":[[[24.766012,42.048127],[24.765077,42.048487],[24.76271,42.048977],[24.762694,42.049041],[24.762655,42.049049],[24.762589,42.049137],[24.76237,42.049013],[24.762286,42.049006],[24.762264,42.049015],[24.762248,42.049059],[24.762272,42.049151],[24.762445,42.049401],[24.762503,42.049456],[24.762436,42.049316],[24.762288,42.049097],[24.762294,42.049033],[24.762381,42.049053],[24.762688,42.04924],[24.762877,42.049296],[24.762813,42.04929],[24.762755,42.049366],[24.763075,42.04968],[24.763966,42.050016],[24.764297,42.049621],[24.765841,42.04895],[24.766417,42.048633],[24.766288,42.048286],[24.766012,42.048127]]]},"properties":{"cadreg":51}},{"type":"Feature","geometry":{"type":"Polygon","coordinates":[[[24.769369,42.04603],[24.768979,42.046111],[24.769096,42.046383],[24.769372,42.04631],[24.769501,42.046537],[24.768973,42.046723],[24.769013,42.046958],[24.769138,42.04715],[24.769506,42.047623],[24.769556,42.047716],[24.769601,42.047967],[24.769945,42.047771],[24.770129,42.047933],[24.770086,42.047958],[24.770148,42.048009],[24.769968,42.048139],[24.770087,42.04811],[24.770224,42.048045],[24.770585,42.047774],[24.770978,42.047532],[24.771785,42.04717],[24.772196,42.047007],[24.772412,42.04687],[24.772485,42.046797],[24.771973,42.046693],[24.77205,42.046542],[24.771482,42.046403],[24.77105,42.04625],[24.771024,42.04614],[24.77064,42.045935],[24.770346,42.045875],[24.770079,42.04572],[24.769527,42.046014],[24.769514,42.046005],[24.769369,42.04603]]]},"properties":{"cadreg":52}},{"type":"Feature","geometry":{"type":"Polygon","coordinates":[[[24.76328,42.060857],[24.762856,42.061424],[24.762894,42.061447],[24.762641,42.061751],[24.762525,42.062039],[24.762455,42.062297],[24.762358,42.062282],[24.762233,42.062656],[24.763482,42.062886],[24.763857,42.063026],[24.763995,42.063094],[24.764003,42.063084],[24.764414,42.063221],[24.764292,42.062619],[24.763857,42.062677],[24.7638,42.062456],[24.764247,42.062396],[24.764147,42.061914],[24.763724,42.061973],[24.763691,42.061837],[24.763603,42.061775],[24.763496,42.061404],[24.763799,42.061355],[24.763707,42.061054],[24.76328,42.060857]]]},"properties":{"cadreg":1}},{"type":"Feature","geometry":{"type":"Polygon","coordinates":[[[24.798967,42.100806],[24.797106,42.102175],[24.798688,42.103307],[24.798985,42.103597],[24.798968,42.10393],[24.798532,42.105715],[24.799463,42.105761],[24.799886,42.105917],[24.800582,42.106214],[24.800836,42.106458],[24.801538,42.107823],[24.801514,42.108019],[24.800973,42.108623],[24.800943,42.108796],[24.801857,42.11178],[24.803317,42.116161],[24.803514,42.116905],[24.804423,42.123655],[24.810094,42.122193],[24.81014,42.122162],[24.810292,42.122128],[24.809217,42.119147],[24.809011,42.118977],[24.807567,42.116143],[24.798967,42.100806]]]},"properties":{"cadreg":2}},{"type":"Feature","geometry":{"type":"Polygon","coordinates":[[[24.797106,42.102175],[24.786765,42.109791],[24.787469,42.110945],[24.788413,42.110978],[24.789578,42.111149],[24.790727,42.111428],[24.791747,42.111902],[24.792684,42.11248],[24.793503,42.113123],[24.794218,42.11379],[24.794677,42.114572],[24.794868,42.114561],[24.794375,42.113719],[24.793639,42.113034],[24.793065,42.112583],[24.794316,42.112036],[24.794564,42.111915],[24.794765,42.111713],[24.79573,42.110067],[24.795945,42.109792],[24.797625,42.108208],[24.797858,42.107884],[24.798532,42.105715],[24.798968,42.10393],[24.798985,42.103597],[24.798688,42.103307],[24.797106,42.102175]]]},"properties":{"cadreg":3}},{"type":"Feature","geometry":{"type":"Polygon","coordinates":[[[24.788813,42.098739],[24.782819,42.107872],[24.786599,42.109487],[24.793935,42.104081],[24.793594,42.1036],[24.792514,42.104269],[24.792153,42.103872],[24.792062,42.102409],[24.793346,42.102004],[24.794059,42.101823],[24.794646,42.102386],[24.795243,42.102465],[24.795559,42.102623],[24.795617,42.102841],[24.796625,42.102087],[24.792914,42.100342],[24.792948,42.100218],[24.793027,42.100109],[24.793196,42.100191],[24.793332,42.100034],[24.793094,42.099943],[24.792891,42.1002],[24.792839,42.100305],[24.791661,42.099702],[24.78908,42.098476],[24.789014,42.098581],[24.788813,42.098739]]]},"properties":{"cadreg":4}},{"type":"Feature","geometry":{"type":"Polygon","coordinates":[[[24.773417,42.095855],[24.772706,42.101546],[24.773524,42.101378],[24.773636,42.101543],[24.773953,42.102132],[24.774334,42.102947],[24.774399,42.10316],[24.774496,42.103112],[24.774886,42.102834],[24.775012,42.102727],[24.776564,42.101688],[24.777241,42.101157],[24.778217,42.100342],[24.77825,42.100342],[24.778871,42.101134],[24.77913,42.101376],[24.779202,42.101564],[24.779457,42.102549],[24.779909,42.103193],[24.780237,42.103758],[24.780616,42.104316],[24.780779,42.10461],[24.781455,42.105526],[24.78242,42.107086],[24.781992,42.107603],[24.782819,42.107872],[24.788813,42.098739],[24.789014,42.098581],[24.78908,42.098476],[24.789188,42.098177],[24.789464,42.097762],[24.78957,42.097365],[24.789583,42.097347],[24.789825,42.097423],[24.790021,42.097127],[24.789828,42.09705],[24.7907,42.095737],[24.792875,42.092522],[24.79304,42.092583],[24.793237,42.092286],[24.793075,42.092226],[24.793951,42.090922],[24.794772,42.089739],[24.794593,42.089531],[24.798692,42.083076],[24.801388,42.080009],[24.801047,42.079926],[24.800942,42.079989],[24.800782,42.080168],[24.800719,42.080401],[24.800696,42.080604],[24.800542,42.080846],[24.800232,42.0812],[24.80014,42.081158],[24.799908,42.081442],[24.799988,42.081479],[24.798635,42.083027],[24.794598,42.089113],[24.794445,42.089057],[24.794243,42.089361],[24.794395,42.089417],[24.79181,42.093307],[24.791695,42.093393],[24.791834,42.093183],[24.790559,42.092689],[24.790351,42.09303],[24.789753,42.092078],[24.788308,42.092706],[24.788113,42.092484],[24.788098,42.092533],[24.787952,42.092392],[24.787866,42.092435],[24.78788,42.092385],[24.78688,42.092881],[24.786452,42.092351],[24.786295,42.092413],[24.78572,42.092697],[24.785543,42.092496],[24.784733,42.092907],[24.784407,42.092502],[24.783219,42.093055],[24.782818,42.092534],[24.781978,42.092884],[24.781197,42.09324],[24.780889,42.09288],[24.780739,42.092936],[24.78051,42.092635],[24.779765,42.092914],[24.779774,42.092951],[24.779638,42.093002],[24.780381,42.09584],[24.780377,42.095876],[24.774733,42.095585],[24.773417,42.095855]]]},"properties":{"cadreg":5}},{"type":"Feature","geometry":{"type":"Polygon","coordinates":[[[24.775968,42.093435],[24.774108,42.093345],[24.774733,42.095585],[24.780377,42.095876],[24.780381,42.09584],[24.77955,42.092668],[24.778595,42.092617],[24.778664,42.092878],[24.7777,42.092826],[24.777748,42.092991],[24.776737,42.092938],[24.776733,42.092984],[24.776805,42.093237],[24.775898,42.093189],[24.775968,42.093435]]]},"properties":{"cadreg":6}},{"type":"Feature","geometry":{"type":"Polygon","coordinates":[[[24.776669,42.083078],[24.775125,42.078905],[24.774448,42.077921],[24.774083,42.07744],[24.773696,42.076882],[24.771143,42.07889],[24.769705,42.080117],[24.769376,42.080306],[24.769007,42.080344],[24.768559,42.080312],[24.768526,42.080351],[24.768275,42.080999],[24.773151,42.091131],[24.777343,42.090896],[24.778999,42.090819],[24.778293,42.088389],[24.778125,42.08787],[24.777522,42.085652],[24.777296,42.085044],[24.776669,42.083078]]]},"properties":{"cadreg":7}},{"type":"Feature","geometry":{"type":"Polygon","coordinates":[[[24.776189,42.081191],[24.776127,42.08084],[24.775996,42.080421],[24.775495,42.079234],[24.775555,42.078814],[24.775413,42.078803],[24.775327,42.078761],[24.775,42.078315],[24.774585,42.077693],[24.774524,42.077688],[24.773918,42.076709],[24.773696,42.076882],[24.774083,42.07744],[24.774448,42.077921],[24.775125,42.078905],[24.776669,42.083078],[24.777296,42.085044],[24.777522,42.085652],[24.778125,42.08787],[24.778293,42.088389],[24.778999,42.090819],[24.779285,42.091657],[24.779638,42.093002],[24.779774,42.092951],[24.779765,42.092914],[24.78051,42.092635],[24.780739,42.092936],[24.780889,42.09288],[24.781197,42.09324],[24.781978,42.092884],[24.782818,42.092534],[24.783219,42.093055],[24.784407,42.092502],[24.784733,42.092907],[24.785543,42.092496],[24.78572,42.092697],[24.786295,42.092413],[24.786452,42.092351],[24.78688,42.092881],[24.78788,42.092385],[24.790677,42.082309],[24.788089,42.082762],[24.78729,42.082864],[24.786908,42.081525],[24.786473,42.080118],[24.776345,42.081813],[24.776189,42.081191]]]},"properties":{"cadreg":8}},{"type":"Feature","geometry":{"type":"Polygon","coordinates":[[[24.792089,42.078822],[24.791883,42.078833],[24.79167,42.078715],[24.787866,42.092435],[24.787952,42.092392],[24.788098,42.092533],[24.788113,42.092484],[24.788308,42.092706],[24.789753,42.092078],[24.790351,42.09303],[24.790559,42.092689],[24.791834,42.093183],[24.791695,42.093393],[24.79181,42.093307],[24.794395,42.089417],[24.794243,42.089361],[24.794445,42.089057],[24.794598,42.089113],[24.798635,42.083027],[24.799988,42.081479],[24.799908,42.081442],[24.80014,42.081158],[24.800232,42.0812],[24.800542,42.080846],[24.800696,42.080604],[24.800719,42.080401],[24.800782,42.080168],[24.800942,42.079989],[24.801047,42.079926],[24.800751,42.079856],[24.800302,42.079679],[24.800058,42.07947],[24.799504,42.07926],[24.798957,42.079199],[24.797292,42.078555],[24.796674,42.079494],[24.796151,42.07929],[24.795823,42.079247],[24.79546,42.07926],[24.795208,42.079349],[24.795091,42.079495],[24.795057,42.079604],[24.794783,42.079779],[24.792089,42.078822]]]},"properties":{"cadreg":9}},{"type":"Feature","geometry":{"type":"Polygon","coordinates":[[[24.792875,42.092522],[24.789828,42.09705],[24.790021,42.097127],[24.789825,42.097423],[24.789583,42.097347],[24.78957,42.097365],[24.789464,42.097762],[24.789188,42.098177],[24.78908,42.098476],[24.791661,42.099702],[24.792839,42.100305],[24.792891,42.1002],[24.793094,42.099943],[24.793332,42.100034],[24.793196,42.100191],[24.793027,42.100109],[24.792948,42.100218],[24.792914,42.100342],[24.796625,42.102087],[24.802033,42.098117],[24.794772,42.089739],[24.793951,42.090922],[24.793075,42.092226],[24.793237,42.092286],[24.79304,42.092583],[24.792875,42.092522]]]},"properties":{"cadreg":10}},{"type":"Feature","geometry":{"type":"Polygon","coordinates":[[[24.7786,42.072252],[24.778204,42.07316],[24.778076,42.073394],[24.777242,42.074107],[24.777111,42.074186],[24.774161,42.076432],[24.773983,42.076609],[24.773918,42.076709],[24.774524,42.077688],[24.774585,42.077693],[24.775,42.078315],[24.775327,42.078761],[24.775413,42.078803],[24.784772,42.076376],[24.787445,42.075643],[24.787747,42.075512],[24.786174,42.074139],[24.784248,42.072336],[24.783619,42.071603],[24.783333,42.071219],[24.783045,42.070736],[24.782614,42.070125],[24.782116,42.069491],[24.782074,42.069406],[24.781566,42.068886],[24.781531,42.068784],[24.781415,42.068994],[24.780353,42.070041],[24.779381,42.071142],[24.779165,42.071333],[24.7786,42.072252]]]},"properties":{"cadreg":11}},{"type":"Feature","geometry":{"type":"Polygon","coordinates":[[[24.791805,42.0781],[24.78904,42.075043],[24.788524,42.074608],[24.788099,42.074982],[24.787877,42.075282],[24.787747,42.075512],[24.787445,42.075643],[24.787363,42.075757],[24.787635,42.075794],[24.78805,42.075927],[24.788165,42.075994],[24.791632,42.078853],[24.79167,42.078715],[24.79165,42.078703],[24.791805,42.0781]]]},"properties":{"cadreg":12}},{"type":"Feature","geometry":{"type":"Polygon","coordinates":[[[24.785018,42.068189],[24.782093,42.069348],[24.782074,42.069406],[24.782116,42.069491],[24.782614,42.070125],[24.783045,42.070736],[24.783333,42.071219],[24.783619,42.071603],[24.784248,42.072336],[24.786174,42.074139],[24.787747,42.075512],[24.787877,42.075282],[24.788099,42.074982],[24.788524,42.074608],[24.78904,42.075043],[24.791805,42.0781],[24.791986,42.077563],[24.789152,42.07378],[24.785018,42.068189]]]},"properties":{"cadreg":13}},{"type":"Feature","geometry":{"type":"Polygon","coordinates":[[[24.786548,42.061806],[24.784687,42.063287],[24.782918,42.06527],[24.781958,42.066392],[24.781772,42.066817],[24.781402,42.068604],[24.781265,42.068891],[24.781415,42.068994],[24.781531,42.068784],[24.781566,42.068886],[24.782074,42.069406],[24.782093,42.069348],[24.783694,42.068725],[24.785018,42.068189],[24.784989,42.06815],[24.787046,42.067308],[24.784448,42.063749],[24.784691,42.063469],[24.785099,42.063119],[24.786618,42.061916],[24.786548,42.061806]]]},"properties":{"cadreg":14}},{"type":"Feature","geometry":{"type":"Polygon","coordinates":[[[24.770144,42.074401],[24.769652,42.076151],[24.769482,42.076969],[24.768622,42.079819],[24.768614,42.079976],[24.768559,42.080312],[24.769007,42.080344],[24.769376,42.080306],[24.769705,42.080117],[24.771143,42.07889],[24.773918,42.076709],[24.773983,42.076609],[24.773813,42.076505],[24.773234,42.075694],[24.772777,42.075091],[24.772167,42.074427],[24.771789,42.074081],[24.770798,42.073259],[24.770556,42.072883],[24.770395,42.073229],[24.770376,42.073473],[24.770144,42.074401]]]},"properties":{"cadreg":15}},{"type":"Feature","geometry":{"type":"Polygon","coordinates":[[[24.770942,42.071349],[24.770556,42.072883],[24.770798,42.073259],[24.771789,42.074081],[24.772167,42.074427],[24.772777,42.075091],[24.773234,42.075694],[24.773813,42.076505],[24.773983,42.076609],[24.774161,42.076432],[24.777168,42.074151],[24.774647,42.070005],[24.773067,42.070424],[24.772219,42.070679],[24.77224,42.070601],[24.77163,42.070271],[24.771379,42.070169],[24.771253,42.070274],[24.770942,42.071349]]]},"properties":{"cadreg":16}},{"type":"Feature","geometry":{"type":"Polygon","coordinates":[[[24.780821,42.068379],[24.774647,42.070005],[24.777168,42.074151],[24.777242,42.074107],[24.778076,42.073394],[24.778204,42.07316],[24.778572,42.072304],[24.779165,42.071333],[24.779381,42.071142],[24.780353,42.070041],[24.781415,42.068994],[24.781265,42.068891],[24.780821,42.068379]]]},"properties":{"cadreg":17}},{"type":"Feature","geometry":{"type":"Polygon","coordinates":[[[24.775596,42.06407],[24.774935,42.065195],[24.774382,42.065904],[24.773683,42.066876],[24.773401,42.067368],[24.772722,42.068349],[24.771838,42.069456],[24.771598,42.069803],[24.771575,42.069865],[24.771379,42.070169],[24.77163,42.070271],[24.77224,42.070601],[24.772219,42.070679],[24.773067,42.070424],[24.780821,42.068379],[24.781265,42.068891],[24.781402,42.068604],[24.781098,42.068311],[24.780813,42.067884],[24.779821,42.066926],[24.778547,42.06583],[24.777049,42.064592],[24.775817,42.063811],[24.775771,42.063635],[24.775596,42.06407]]]},"properties":{"cadreg":18}},{"type":"Feature","geometry":{"type":"Polygon","coordinates":[[[24.775817,42.063811],[24.777049,42.064592],[24.778547,42.06583],[24.779821,42.066926],[24.780813,42.067884],[24.781098,42.068311],[24.781402,42.068604],[24.781772,42.066817],[24.781958,42.066392],[24.782918,42.06527],[24.777149,42.06068],[24.776749,42.061688],[24.776667,42.062011],[24.776294,42.062827],[24.775771,42.063635],[24.775817,42.063811]]]},"properties":{"cadreg":19}},{"type":"Feature","geometry":{"type":"Polygon","coordinates":[[[24.777149,42.06068],[24.782918,42.06527],[24.784687,42.063287],[24.786548,42.061806],[24.784683,42.059151],[24.783061,42.060485],[24.780087,42.058568],[24.778151,42.057686],[24.77737,42.059761],[24.777288,42.0599],[24.777149,42.06068]]]},"properties":{"cadreg":20}},{"type":"Feature","geometry":{"type":"Polygon","coordinates":[[[24.768917,42.066259],[24.76852,42.066586],[24.768462,42.066561],[24.768191,42.066992],[24.768102,42.066958],[24.76778,42.067678],[24.767061,42.068604],[24.766581,42.069443],[24.766606,42.069795],[24.766532,42.07076],[24.766443,42.070916],[24.766072,42.071307],[24.765595,42.071773],[24.765506,42.071894],[24.765127,42.072599],[24.763564,42.073562],[24.763735,42.073471],[24.768291,42.079823],[24.768198,42.08084],[24.768275,42.080999],[24.768526,42.080351],[24.768559,42.080312],[24.768614,42.079976],[24.768622,42.079819],[24.769482,42.076969],[24.769652,42.076151],[24.770144,42.074401],[24.770376,42.073473],[24.770395,42.073229],[24.770594,42.072769],[24.771082,42.070823],[24.771253,42.070274],[24.771379,42.070169],[24.771352,42.069685],[24.771029,42.069607],[24.770988,42.069435],[24.770408,42.068401],[24.769742,42.066913],[24.769422,42.06632],[24.769081,42.065943],[24.768939,42.066014],[24.76813,42.065033],[24.768117,42.065039],[24.76889,42.065995],[24.768812,42.066015],[24.768917,42.066259]]]},"properties":{"cadreg":21}},{"type":"Feature","geometry":{"type":"Polygon","coordinates":[[[24.77178,42.064402],[24.771409,42.064585],[24.771334,42.064656],[24.770263,42.065297],[24.769847,42.065521],[24.76951,42.065726],[24.769081,42.065943],[24.769422,42.06632],[24.769742,42.066913],[24.770408,42.068401],[24.770988,42.069435],[24.771029,42.069607],[24.771352,42.069685],[24.771379,42.070169],[24.771575,42.069865],[24.771598,42.069803],[24.771838,42.069456],[24.772722,42.068349],[24.773401,42.067368],[24.773683,42.066876],[24.774382,42.065904],[24.774935,42.065195],[24.775596,42.06407],[24.77541,42.063954],[24.774821,42.063635],[24.774102,42.06364],[24.773804,42.063391],[24.773734,42.063269],[24.77178,42.064402]]]},"properties":{"cadreg":22}},{"type":"Feature","geometry":{"type":"Polygon","coordinates":[[[24.777244,42.059599],[24.773429,42.062455],[24.773095,42.062295],[24.772653,42.061778],[24.772445,42.061869],[24.773148,42.062737],[24.773429,42.063129],[24.773583,42.063062],[24.773804,42.063391],[24.774102,42.06364],[24.774821,42.063635],[24.77541,42.063954],[24.775596,42.06407],[24.775771,42.063635],[24.776294,42.062827],[24.776667,42.062011],[24.776749,42.061688],[24.777149,42.06068],[24.777288,42.0599],[24.77737,42.059761],[24.778151,42.057686],[24.777977,42.05764],[24.77793,42.057692],[24.777244,42.059599]]]},"properties":{"cadreg":23}},{"type":"Feature","geometry":{"type":"Polygon","coordinates":[[[24.766388,42.049771],[24.766071,42.049917],[24.765714,42.050025],[24.765764,42.050118],[24.765063,42.050335],[24.764774,42.050396],[24.764873,42.050606],[24.76497,42.050753],[24.764956,42.050918],[24.764892,42.051077],[24.764816,42.051145],[24.766319,42.052085],[24.766607,42.052425],[24.766676,42.053099],[24.766679,42.053516],[24.766631,42.053517],[24.766634,42.053625],[24.766723,42.053832],[24.766727,42.053987],[24.766977,42.056033],[24.767009,42.056442],[24.767381,42.057004],[24.767448,42.057169],[24.76747,42.057399],[24.767439,42.057602],[24.767157,42.058158],[24.766378,42.05985],[24.766339,42.059858],[24.766316,42.060158],[24.766322,42.060364],[24.766837,42.062324],[24.767019,42.063121],[24.767141,42.063809],[24.76807,42.06498],[24.768075,42.065058],[24.76813,42.065033],[24.768939,42.066014],[24.76951,42.065726],[24.769847,42.065521],[24.770263,42.065297],[24.771334,42.064656],[24.771409,42.064585],[24.77178,42.064402],[24.773734,42.063269],[24.773583,42.063062],[24.773429,42.063129],[24.773148,42.062737],[24.772383,42.061792],[24.770464,42.062855],[24.770062,42.062487],[24.769874,42.062157],[24.769949,42.062028],[24.769842,42.061861],[24.770443,42.061624],[24.770296,42.061428],[24.769707,42.061652],[24.768494,42.059675],[24.769944,42.059197],[24.770089,42.059454],[24.770637,42.059258],[24.770562,42.059066],[24.770522,42.059078],[24.770354,42.058788],[24.770266,42.058724],[24.77014,42.058507],[24.770017,42.058442],[24.769766,42.058463],[24.768754,42.057931],[24.769695,42.057142],[24.769705,42.057043],[24.769671,42.057009],[24.769757,42.056899],[24.769817,42.05685],[24.769671,42.056724],[24.770232,42.056318],[24.770355,42.056409],[24.772947,42.054627],[24.773095,42.054504],[24.773258,42.054317],[24.773356,42.054135],[24.773419,42.053884],[24.773414,42.053687],[24.773358,42.053481],[24.773271,42.053313],[24.772734,42.052493],[24.77208,42.051389],[24.771667,42.051539],[24.771551,42.051402],[24.771408,42.051315],[24.771039,42.05078],[24.77088,42.050684],[24.771001,42.050502],[24.770388,42.049822],[24.768714,42.0476],[24.768384,42.04769],[24.768066,42.048551],[24.768079,42.048628],[24.768362,42.048932],[24.767389,42.049378],[24.766388,42.049771]]]},"properties":{"cadreg":502}},{"type":"Feature","geometry":{"type":"Polygon","coordinates":[[[24.76251,42.051486],[24.759345,42.052966],[24.759318,42.05305],[24.760317,42.05436],[24.761681,42.056067],[24.761782,42.056023],[24.76205,42.056308],[24.762532,42.056058],[24.762754,42.056308],[24.762272,42.056545],[24.762505,42.056792],[24.762978,42.056564],[24.763744,42.057388],[24.76338,42.057561],[24.76346,42.057656],[24.76334,42.057703],[24.763618,42.057968],[24.764084,42.057746],[24.763821,42.057468],[24.764614,42.058055],[24.764025,42.058419],[24.764237,42.058669],[24.764176,42.058732],[24.764716,42.059239],[24.764681,42.059405],[24.764727,42.059607],[24.764705,42.059631],[24.764458,42.059672],[24.764362,42.059703],[24.764193,42.059808],[24.763482,42.060572],[24.763375,42.060591],[24.763179,42.060805],[24.763707,42.061054],[24.763799,42.061355],[24.763496,42.061404],[24.763603,42.061775],[24.763691,42.061837],[24.763724,42.061973],[24.764147,42.061914],[24.764247,42.062396],[24.7638,42.062456],[24.763857,42.062677],[24.764292,42.062619],[24.764398,42.063135],[24.764414,42.063221],[24.764003,42.063084],[24.76369,42.063454],[24.764523,42.063891],[24.76464,42.063808],[24.764877,42.063576],[24.765056,42.063438],[24.764825,42.06336],[24.765846,42.063239],[24.765927,42.063273],[24.765888,42.063309],[24.765899,42.063559],[24.765968,42.063748],[24.76608,42.063939],[24.766105,42.064027],[24.766102,42.064132],[24.765263,42.065003],[24.766399,42.06596],[24.767126,42.065481],[24.768075,42.065058],[24.76807,42.06498],[24.767141,42.063809],[24.767019,42.063121],[24.766837,42.062324],[24.766322,42.060364],[24.766316,42.060158],[24.766339,42.059858],[24.766378,42.05985],[24.767157,42.058158],[24.767439,42.057602],[24.76747,42.057399],[24.767448,42.057169],[24.767381,42.057004],[24.767009,42.056442],[24.766977,42.056033],[24.766727,42.053987],[24.766723,42.053832],[24.766634,42.053625],[24.766631,42.053517],[24.766679,42.053516],[24.766676,42.053099],[24.766607,42.052425],[24.766319,42.052085],[24.764816,42.051145],[24.764892,42.051077],[24.764956,42.050918],[24.76497,42.050753],[24.764819,42.050766],[24.764547,42.050826],[24.764379,42.050387],[24.764046,42.050461],[24.764154,42.050742],[24.763541,42.050893],[24.763447,42.050707],[24.763097,42.050808],[24.763144,42.050911],[24.762975,42.050956],[24.763088,42.051159],[24.763154,42.05117],[24.763292,42.051415],[24.763264,42.051449],[24.762674,42.051459],[24.76251,42.051486]]]},"properties":{"cadreg":501}},{"type":"Feature","geometry":{"type":"Polygon","coordinates":[[[24.802145,42.098251],[24.802033,42.098117],[24.796801,42.101965],[24.797106,42.102175],[24.798967,42.100806],[24.798879,42.100653],[24.802145,42.098251]]]},"properties":{"cadreg":101}}]}