{"type":"FeatureCollection","features":[{"type":"Feature","geometry":{"type":"Polygon","coordinates":[[[24.788287,42.210647],[24.789877,42.214478],[24.791121,42.213594],[24.793791,42.211772],[24.794683,42.210906],[24.795088,42.210778],[24.789605,42.210633],[24.788287,42.210647]]]},"properties":{"cadreg":1}},{"type":"Feature","geometry":{"type":"Polygon","coordinates":[[[24.793077,42.215367],[24.791694,42.213519],[24.791285,42.213802],[24.792039,42.216053],[24.793077,42.215367]]]},"properties":{"cadreg":2}},{"type":"Feature","geometry":{"type":"Polygon","coordinates":[[[24.80074,42.211587],[24.800329,42.211088],[24.795088,42.210778],[24.794683,42.210906],[24.793791,42.211772],[24.791121,42.213594],[24.789877,42.214478],[24.789925,42.214596],[24.791244,42.213679],[24.791285,42.213802],[24.791694,42.213519],[24.793077,42.215367],[24.80074,42.211587]]]},"properties":{"cadreg":3}},{"type":"Feature","geometry":{"type":"Polygon","coordinates":[[[24.800329,42.211088],[24.80074,42.211587],[24.800843,42.211537],[24.804989,42.216636],[24.804847,42.216887],[24.805099,42.218267],[24.807541,42.217708],[24.813642,42.216352],[24.814179,42.216212],[24.813241,42.214875],[24.806182,42.216552],[24.805384,42.216696],[24.803701,42.214722],[24.800796,42.211183],[24.800723,42.211176],[24.800721,42.211122],[24.800329,42.211088]]]},"properties":{"cadreg":4}},{"type":"Feature","geometry":{"type":"Polygon","coordinates":[[[24.802864,42.213709],[24.803701,42.214722],[24.805384,42.216696],[24.806182,42.216552],[24.81317,42.214891],[24.813037,42.214701],[24.802864,42.213709]]]},"properties":{"cadreg":5}},{"type":"Feature","geometry":{"type":"Polygon","coordinates":[[[24.800796,42.211183],[24.802864,42.213709],[24.813037,42.214701],[24.81317,42.214891],[24.813241,42.214875],[24.812327,42.213572],[24.811585,42.213436],[24.811276,42.213323],[24.811153,42.213211],[24.810886,42.212888],[24.810684,42.212447],[24.810544,42.212238],[24.809744,42.212001],[24.807599,42.211759],[24.803916,42.211385],[24.800721,42.211122],[24.800723,42.211176],[24.800796,42.211183]]]},"properties":{"cadreg":6}},{"type":"Feature","geometry":{"type":"Polygon","coordinates":[[[24.808163,42.207964],[24.804103,42.210851],[24.800157,42.210551],[24.800092,42.2106],[24.804386,42.210927],[24.807643,42.21135],[24.808558,42.211427],[24.809086,42.211435],[24.809466,42.211379],[24.80982,42.211279],[24.810221,42.211077],[24.810656,42.210764],[24.810891,42.210424],[24.811066,42.209895],[24.811037,42.209471],[24.810865,42.208928],[24.810165,42.207381],[24.810024,42.207215],[24.809973,42.207256],[24.809762,42.207171],[24.80958,42.207166],[24.808488,42.207936],[24.808163,42.207964]]]},"properties":{"cadreg":7}},{"type":"Feature","geometry":{"type":"Polygon","coordinates":[[[24.805614,42.206661],[24.80203,42.209208],[24.800249,42.210558],[24.804103,42.210851],[24.808163,42.207964],[24.807935,42.207983],[24.807599,42.207927],[24.807329,42.207785],[24.805614,42.206661]]]},"properties":{"cadreg":8}},{"type":"Feature","geometry":{"type":"Polygon","coordinates":[[[24.803093,42.205314],[24.799886,42.207592],[24.798473,42.208664],[24.798339,42.20871],[24.799972,42.21063],[24.800092,42.2106],[24.800157,42.210551],[24.800249,42.210558],[24.80203,42.209208],[24.805614,42.206661],[24.807329,42.207785],[24.807599,42.207927],[24.807935,42.207983],[24.808488,42.207936],[24.80958,42.207166],[24.809762,42.207171],[24.809973,42.207256],[24.810024,42.207215],[24.809708,42.206702],[24.808487,42.207607],[24.807892,42.207774],[24.807488,42.207626],[24.8035,42.204992],[24.803142,42.204709],[24.803323,42.204916],[24.803404,42.204983],[24.803311,42.20505],[24.803371,42.205094],[24.803093,42.205314]]]},"properties":{"cadreg":9}},{"type":"Feature","geometry":{"type":"Polygon","coordinates":[[[24.803554,42.205028],[24.807488,42.207626],[24.807892,42.207774],[24.808487,42.207607],[24.809708,42.206702],[24.809396,42.206034],[24.809537,42.206009],[24.809208,42.205361],[24.808545,42.205916],[24.805031,42.203595],[24.803554,42.205028]]]},"properties":{"cadreg":10}},{"type":"Feature","geometry":{"type":"Polygon","coordinates":[[[24.809394,42.199364],[24.805691,42.202867],[24.8035,42.204992],[24.803554,42.205028],[24.805031,42.203595],[24.808545,42.205916],[24.809208,42.205361],[24.809537,42.206009],[24.809396,42.206034],[24.809708,42.206702],[24.810024,42.207215],[24.810165,42.207381],[24.810865,42.208928],[24.811037,42.209471],[24.811066,42.209895],[24.811876,42.209904],[24.811692,42.209598],[24.811057,42.208226],[24.810192,42.206663],[24.811064,42.206061],[24.813455,42.205618],[24.813412,42.205491],[24.810944,42.205949],[24.810193,42.206475],[24.809216,42.204395],[24.808517,42.202832],[24.808335,42.202285],[24.808306,42.201743],[24.808477,42.201092],[24.808812,42.200664],[24.810635,42.198646],[24.810599,42.198589],[24.810712,42.198467],[24.810336,42.198418],[24.80949,42.199414],[24.809394,42.199364]]]},"properties":{"cadreg":11}},{"type":"Feature","geometry":{"type":"Polygon","coordinates":[[[24.810635,42.198646],[24.808812,42.200664],[24.808477,42.201092],[24.808306,42.201743],[24.808335,42.202285],[24.808517,42.202832],[24.809216,42.204395],[24.810193,42.206475],[24.810944,42.205949],[24.813412,42.205491],[24.812775,42.20365],[24.810952,42.198682],[24.810635,42.198646]]]},"properties":{"cadreg":12}},{"type":"Feature","geometry":{"type":"Polygon","coordinates":[[[24.811064,42.206061],[24.810192,42.206663],[24.811057,42.208226],[24.811692,42.209598],[24.811876,42.209904],[24.812101,42.210137],[24.812542,42.210399],[24.813209,42.210644],[24.814899,42.209085],[24.817649,42.206417],[24.817613,42.206312],[24.817579,42.206344],[24.817558,42.206281],[24.815301,42.208461],[24.814859,42.208608],[24.814557,42.208907],[24.813455,42.205618],[24.811064,42.206061]]]},"properties":{"cadreg":13}},{"type":"Feature","geometry":{"type":"Polygon","coordinates":[[[24.812864,42.203689],[24.813325,42.205051],[24.814613,42.208852],[24.814859,42.208608],[24.815301,42.208461],[24.81751,42.206323],[24.816379,42.203007],[24.812864,42.203689]]]},"properties":{"cadreg":14}},{"type":"Feature","geometry":{"type":"Polygon","coordinates":[[[24.810712,42.198467],[24.810599,42.198589],[24.810635,42.198646],[24.810952,42.198682],[24.812775,42.20365],[24.813412,42.205491],[24.814557,42.208907],[24.814613,42.208852],[24.812864,42.203689],[24.816379,42.203007],[24.81751,42.206323],[24.817558,42.206281],[24.817579,42.206344],[24.817613,42.206312],[24.81608,42.201922],[24.815076,42.199197],[24.81505,42.19913],[24.812103,42.198655],[24.810712,42.198467]]]},"properties":{"cadreg":15}},{"type":"Feature","geometry":{"type":"Polygon","coordinates":[[[24.800305,42.19905],[24.800278,42.199102],[24.801648,42.19927],[24.801875,42.199132],[24.802258,42.197722],[24.805617,42.198153],[24.802328,42.201107],[24.800164,42.199322],[24.800135,42.199379],[24.802283,42.20115],[24.801578,42.20183],[24.801834,42.202059],[24.802076,42.202321],[24.802349,42.202732],[24.802443,42.202933],[24.803007,42.204441],[24.803089,42.204623],[24.803142,42.204709],[24.8035,42.204992],[24.805691,42.202867],[24.809394,42.199364],[24.80949,42.199414],[24.810336,42.198418],[24.810244,42.198399],[24.810219,42.198269],[24.806768,42.19783],[24.803736,42.197466],[24.803691,42.197529],[24.799703,42.19706],[24.79917,42.19698],[24.798437,42.196909],[24.798419,42.197002],[24.801545,42.197403],[24.801528,42.197476],[24.801983,42.19753],[24.801633,42.199018],[24.801582,42.199092],[24.800424,42.198955],[24.800402,42.199062],[24.800305,42.19905]]]},"properties":{"cadreg":16}},{"type":"Feature","geometry":{"type":"Polygon","coordinates":[[[24.802258,42.197722],[24.801875,42.199132],[24.801648,42.19927],[24.799919,42.199062],[24.799906,42.199041],[24.799404,42.199702],[24.799732,42.200061],[24.799874,42.199925],[24.799713,42.199791],[24.800135,42.199379],[24.800164,42.199322],[24.802328,42.201107],[24.805617,42.198153],[24.802258,42.197722]]]},"properties":{"cadreg":17}},{"type":"Feature","geometry":{"type":"Polygon","coordinates":[[[24.811058,42.187797],[24.810158,42.189074],[24.80377,42.197421],[24.80715,42.197824],[24.814692,42.187935],[24.811058,42.187797]]]},"properties":{"cadreg":18}},{"type":"Feature","geometry":{"type":"Polygon","coordinates":[[[24.800395,42.194562],[24.79787,42.194128],[24.797416,42.194356],[24.797415,42.194381],[24.799841,42.194837],[24.799669,42.19545],[24.799405,42.19584],[24.799048,42.19619],[24.798437,42.196909],[24.79917,42.19698],[24.799703,42.19706],[24.803691,42.197529],[24.810158,42.189074],[24.811095,42.187745],[24.817456,42.187985],[24.817523,42.187911],[24.807704,42.187564],[24.798408,42.187214],[24.797684,42.187169],[24.794669,42.187039],[24.790135,42.186888],[24.790107,42.186961],[24.798031,42.187307],[24.798239,42.1873],[24.802332,42.187471],[24.806556,42.18758],[24.804927,42.189349],[24.8043,42.189962],[24.801231,42.19316],[24.80093,42.193671],[24.800136,42.195143],[24.800067,42.195126],[24.800395,42.194562]]]},"properties":{"cadreg":19}},{"type":"Feature","geometry":{"type":"Polygon","coordinates":[[[24.802645,42.187533],[24.798733,42.191384],[24.796349,42.193799],[24.792493,42.193137],[24.792446,42.193184],[24.800395,42.194562],[24.800067,42.195126],[24.800136,42.195143],[24.80093,42.193671],[24.801231,42.19316],[24.8043,42.189962],[24.804927,42.189349],[24.806506,42.187634],[24.802645,42.187533]]]},"properties":{"cadreg":21}},{"type":"Feature","geometry":{"type":"Polygon","coordinates":[[[24.795809,42.189691],[24.792037,42.193506],[24.791106,42.194536],[24.791182,42.194548],[24.791892,42.193758],[24.792493,42.193137],[24.796349,42.193799],[24.798733,42.191384],[24.802645,42.187533],[24.806506,42.187634],[24.806556,42.18758],[24.802332,42.187471],[24.798239,42.1873],[24.795809,42.189691]]]},"properties":{"cadreg":22}},{"type":"Feature","geometry":{"type":"Polygon","coordinates":[[[24.792446,42.193184],[24.791892,42.193758],[24.791182,42.194548],[24.791106,42.194536],[24.791064,42.194582],[24.795374,42.195377],[24.79787,42.194128],[24.797792,42.194102],[24.792446,42.193184]]]},"properties":{"cadreg":23}},{"type":"Feature","geometry":{"type":"Polygon","coordinates":[[[24.788156,42.193768],[24.788538,42.193997],[24.790153,42.19513],[24.790102,42.195177],[24.790408,42.195385],[24.790539,42.195222],[24.790403,42.195184],[24.790771,42.194718],[24.790907,42.194756],[24.792037,42.193506],[24.795809,42.189691],[24.798239,42.1873],[24.798031,42.187307],[24.790107,42.186961],[24.790071,42.187013],[24.794175,42.187191],[24.78776,42.193625],[24.788156,42.193768]]]},"properties":{"cadreg":24}},{"type":"Feature","geometry":{"type":"Polygon","coordinates":[[[24.788375,42.193009],[24.792378,42.188993],[24.794175,42.187191],[24.790071,42.187013],[24.785682,42.19358],[24.786986,42.19352],[24.787402,42.19357],[24.787842,42.193688],[24.788125,42.193807],[24.788401,42.193966],[24.790102,42.195177],[24.790153,42.19513],[24.788538,42.193997],[24.788156,42.193768],[24.78776,42.193625],[24.788375,42.193009]],[[24.788119,42.192506],[24.788645,42.1927],[24.788672,42.19271],[24.788119,42.192506]],[[24.786838,42.192032],[24.787049,42.191717],[24.786838,42.192032],[24.786838,42.192032]]]},"properties":{"cadreg":25}},{"type":"Feature","geometry":{"type":"Polygon","coordinates":[[[24.787597,42.190383],[24.780562,42.190118],[24.780446,42.191806],[24.78355,42.1936],[24.783764,42.193659],[24.783965,42.193665],[24.785457,42.193593],[24.787597,42.190383]]]},"properties":{"cadreg":26}},{"type":"Feature","geometry":{"type":"Polygon","coordinates":[[[24.780721,42.18673],[24.780376,42.191766],[24.780446,42.191806],[24.780562,42.190118],[24.787597,42.190383],[24.785457,42.193593],[24.785681,42.193581],[24.790107,42.186961],[24.790135,42.186888],[24.794669,42.187039],[24.797684,42.187169],[24.798,42.187194],[24.797966,42.187065],[24.790014,42.186781],[24.78988,42.187002],[24.789838,42.18702],[24.789804,42.187073],[24.780721,42.18673]]]},"properties":{"cadreg":27}},{"type":"Feature","geometry":{"type":"Polygon","coordinates":[[[24.777452,42.190144],[24.783468,42.193626],[24.783764,42.193659],[24.78355,42.1936],[24.780376,42.191766],[24.780721,42.18673],[24.789804,42.187073],[24.789838,42.18702],[24.78988,42.187002],[24.789941,42.186913],[24.778073,42.186444],[24.774379,42.186341],[24.7743,42.187556],[24.774279,42.187568],[24.773136,42.187695],[24.777452,42.190144]]]},"properties":{"cadreg":28}},{"type":"Feature","geometry":{"type":"Polygon","coordinates":[[[24.774163,42.186349],[24.770476,42.186153],[24.770424,42.186249],[24.772732,42.187583],[24.773136,42.187695],[24.774279,42.187568],[24.7743,42.187556],[24.774379,42.186341],[24.774163,42.186349]]]},"properties":{"cadreg":29}},{"type":"Feature","geometry":{"type":"Polygon","coordinates":[[[24.793334,42.181283],[24.797687,42.181422],[24.796983,42.181226],[24.793152,42.181142],[24.793284,42.178815],[24.793463,42.176457],[24.793302,42.176451],[24.7933,42.176463],[24.792984,42.181128],[24.783315,42.180791],[24.782955,42.180753],[24.777974,42.180598],[24.777967,42.18071],[24.78465,42.180931],[24.792946,42.181247],[24.792805,42.183879],[24.777843,42.183358],[24.777658,42.185929],[24.777586,42.185927],[24.777581,42.185993],[24.777505,42.185991],[24.777498,42.186081],[24.786453,42.186422],[24.79008,42.186531],[24.793626,42.186656],[24.796055,42.186778],[24.798023,42.186856],[24.79806,42.186808],[24.79783,42.186798],[24.797923,42.186666],[24.792833,42.186461],[24.793165,42.181459],[24.793334,42.181283]]]},"properties":{"cadreg":30}},{"type":"Feature","geometry":{"type":"Polygon","coordinates":[[[24.785589,42.180966],[24.777967,42.18071],[24.777586,42.185927],[24.777658,42.185929],[24.777843,42.183358],[24.792805,42.183879],[24.792946,42.181247],[24.785589,42.180966]]]},"properties":{"cadreg":31}},{"type":"Feature","geometry":{"type":"Polygon","coordinates":[[[24.778046,42.1806],[24.782955,42.180753],[24.783315,42.180791],[24.792984,42.181128],[24.79314,42.178887],[24.783586,42.178546],[24.783234,42.178509],[24.778229,42.178353],[24.778046,42.1806]]]},"properties":{"cadreg":32}},{"type":"Feature","geometry":{"type":"Polygon","coordinates":[[[24.778346,42.1759],[24.777974,42.180598],[24.778046,42.1806],[24.778229,42.178353],[24.783234,42.178509],[24.783586,42.178546],[24.79314,42.178887],[24.793302,42.176451],[24.778346,42.1759]]]},"properties":{"cadreg":33}},{"type":"Feature","geometry":{"type":"Polygon","coordinates":[[[24.805574,42.176902],[24.793463,42.176457],[24.793284,42.178815],[24.803735,42.179194],[24.801888,42.181633],[24.801755,42.181766],[24.797931,42.186802],[24.798301,42.186796],[24.801101,42.183134],[24.804586,42.178448],[24.804448,42.178437],[24.805574,42.176902]]]},"properties":{"cadreg":34}},{"type":"Feature","geometry":{"type":"Polygon","coordinates":[[[24.793152,42.181142],[24.796983,42.181226],[24.797687,42.181422],[24.801928,42.18158],[24.803735,42.179194],[24.793284,42.178815],[24.793152,42.181142]]]},"properties":{"cadreg":35}},{"type":"Feature","geometry":{"type":"Polygon","coordinates":[[[24.797153,42.181401],[24.793334,42.181283],[24.793165,42.181459],[24.793028,42.183518],[24.800124,42.183782],[24.79783,42.186798],[24.797931,42.186802],[24.801755,42.181766],[24.801928,42.18158],[24.797153,42.181401]]]},"properties":{"cadreg":36}},{"type":"Feature","geometry":{"type":"Polygon","coordinates":[[[24.793028,42.183518],[24.792833,42.186461],[24.797923,42.186666],[24.800124,42.183782],[24.793028,42.183518]]]},"properties":{"cadreg":37}},{"type":"Feature","geometry":{"type":"Polygon","coordinates":[[[24.799726,42.184939],[24.798301,42.186796],[24.811663,42.187302],[24.817319,42.187542],[24.81636,42.18559],[24.813326,42.185461],[24.799726,42.184939]]]},"properties":{"cadreg":38}},{"type":"Feature","geometry":{"type":"Polygon","coordinates":[[[24.811699,42.18359],[24.801062,42.183187],[24.799726,42.184939],[24.811576,42.185388],[24.81636,42.18559],[24.815455,42.183748],[24.811699,42.18359]]]},"properties":{"cadreg":39}},{"type":"Feature","geometry":{"type":"Polygon","coordinates":[[[24.814326,42.181391],[24.802744,42.180943],[24.801062,42.183187],[24.811699,42.18359],[24.815455,42.183748],[24.814326,42.181391]]]},"properties":{"cadreg":40}},{"type":"Feature","geometry":{"type":"Polygon","coordinates":[[[24.813263,42.178683],[24.80857,42.178568],[24.804586,42.178448],[24.802744,42.180943],[24.814326,42.181391],[24.815427,42.183692],[24.817274,42.18745],[24.817398,42.187472],[24.81747,42.187514],[24.817572,42.187534],[24.813439,42.179129],[24.813263,42.178683]]]},"properties":{"cadreg":41}},{"type":"Feature","geometry":{"type":"Polygon","coordinates":[[[24.79449,42.204216],[24.794687,42.207651],[24.799498,42.207589],[24.802933,42.205143],[24.802717,42.204975],[24.801848,42.205311],[24.800008,42.205781],[24.797379,42.205816],[24.796599,42.205813],[24.796,42.205372],[24.795696,42.205382],[24.795694,42.205346],[24.795955,42.205337],[24.79449,42.204216]]]},"properties":{"cadreg":42}},{"type":"Feature","geometry":{"type":"Polygon","coordinates":[[[24.791898,42.202554],[24.792337,42.21022],[24.79355,42.210244],[24.794765,42.210288],[24.794414,42.204158],[24.792203,42.202475],[24.791898,42.202554]]]},"properties":{"cadreg":43}},{"type":"Feature","geometry":{"type":"Polygon","coordinates":[[[24.789958,42.200543],[24.789193,42.200172],[24.789765,42.210173],[24.792337,42.21022],[24.791898,42.202554],[24.791828,42.202589],[24.791104,42.20184],[24.790631,42.201057],[24.789958,42.200543]]]},"properties":{"cadreg":44}},{"type":"Feature","geometry":{"type":"Polygon","coordinates":[[[24.787006,42.200287],[24.786985,42.201107],[24.78683,42.201233],[24.786827,42.201174],[24.78679,42.201177],[24.787117,42.206894],[24.788119,42.210182],[24.789765,42.210173],[24.789193,42.200172],[24.788642,42.199779],[24.787006,42.200287]]]},"properties":{"cadreg":45}},{"type":"Feature","geometry":{"type":"Polygon","coordinates":[[[24.786787,42.199968],[24.782656,42.200279],[24.782626,42.201464],[24.786825,42.201147],[24.78683,42.201233],[24.786985,42.201107],[24.787006,42.200287],[24.786895,42.200323],[24.786787,42.199968]]]},"properties":{"cadreg":46}},{"type":"Feature","geometry":{"type":"Polygon","coordinates":[[[24.782656,42.200279],[24.786787,42.199968],[24.786558,42.199212],[24.786491,42.19913],[24.786267,42.198359],[24.78485,42.198211],[24.783889,42.198189],[24.782641,42.19801],[24.782552,42.201497],[24.786827,42.201174],[24.786825,42.201147],[24.782626,42.201464],[24.782656,42.200279]]]},"properties":{"cadreg":47}},{"type":"Feature","geometry":{"type":"Polygon","coordinates":[[[24.799972,42.21063],[24.798339,42.20871],[24.796206,42.210264],[24.796151,42.210407],[24.795694,42.210376],[24.793404,42.210293],[24.789626,42.210224],[24.788135,42.210235],[24.788287,42.210647],[24.789605,42.210633],[24.795088,42.210778],[24.800329,42.211088],[24.803916,42.211385],[24.807599,42.211759],[24.809744,42.212001],[24.810544,42.212238],[24.810684,42.212447],[24.810886,42.212888],[24.811153,42.213211],[24.811276,42.213323],[24.811585,42.213436],[24.812327,42.213572],[24.811426,42.212288],[24.813209,42.210644],[24.812542,42.210399],[24.812101,42.210137],[24.811876,42.209904],[24.811066,42.209895],[24.810891,42.210424],[24.810656,42.210764],[24.810221,42.211077],[24.80982,42.211279],[24.809466,42.211379],[24.809086,42.211435],[24.808558,42.211427],[24.807643,42.21135],[24.804386,42.210927],[24.800092,42.2106],[24.799972,42.21063]]]},"properties":{"cadreg":48}},{"type":"Feature","geometry":{"type":"Polygon","coordinates":[[[24.794414,42.204158],[24.794765,42.210288],[24.79355,42.210244],[24.789765,42.210173],[24.788119,42.210182],[24.788135,42.210235],[24.789626,42.210224],[24.793404,42.210293],[24.795694,42.210376],[24.796151,42.210407],[24.796206,42.210264],[24.798339,42.20871],[24.798473,42.208664],[24.799886,42.207592],[24.803093,42.205314],[24.803371,42.205094],[24.803311,42.20505],[24.803266,42.205083],[24.803184,42.205032],[24.803036,42.205144],[24.802986,42.205106],[24.799498,42.207589],[24.794687,42.207651],[24.79449,42.204216],[24.794414,42.204158]]]},"properties":{"cadreg":49}},{"type":"Feature","geometry":{"type":"Polygon","coordinates":[[[24.790771,42.194718],[24.790403,42.195184],[24.790539,42.195222],[24.790408,42.195385],[24.790614,42.195497],[24.790865,42.195603],[24.791267,42.19572],[24.794226,42.196266],[24.794698,42.196397],[24.795005,42.196508],[24.795468,42.196711],[24.795661,42.196684],[24.795731,42.196657],[24.795817,42.196586],[24.795876,42.196461],[24.795891,42.196377],[24.795862,42.196341],[24.79573,42.196358],[24.794949,42.196219],[24.79517,42.195782],[24.795338,42.195371],[24.791064,42.194582],[24.790907,42.194756],[24.790771,42.194718]]]},"properties":{"cadreg":50}},{"type":"Feature","geometry":{"type":"Polygon","coordinates":[[[24.811058,42.187797],[24.814692,42.187935],[24.80715,42.197824],[24.803851,42.197425],[24.80377,42.197421],[24.803736,42.197466],[24.806768,42.19783],[24.810219,42.198269],[24.810244,42.198399],[24.817263,42.189234],[24.817441,42.188944],[24.817574,42.188621],[24.817652,42.188296],[24.817671,42.188132],[24.81766,42.187767],[24.817488,42.187761],[24.817523,42.187911],[24.817456,42.187985],[24.811095,42.187745],[24.811058,42.187797]]]},"properties":{"cadreg":51}},{"type":"Feature","geometry":{"type":"Polygon","coordinates":[[[24.770091,42.186336],[24.76996,42.186872],[24.769898,42.187233],[24.769919,42.187751],[24.77003,42.188415],[24.770101,42.188597],[24.7702,42.188685],[24.770366,42.189],[24.772549,42.187751],[24.770091,42.186336]]]},"properties":{"cadreg":52}},{"type":"Feature","geometry":{"type":"Polygon","coordinates":[[[24.777494,42.186126],[24.768479,42.185858],[24.768475,42.185994],[24.768569,42.186001],[24.768648,42.186608],[24.768554,42.186624],[24.76858,42.187123],[24.768562,42.187456],[24.768316,42.188103],[24.768147,42.188411],[24.767881,42.188821],[24.767803,42.188808],[24.768277,42.193516],[24.769454,42.19388],[24.769507,42.193837],[24.770467,42.188999],[24.770389,42.189043],[24.7702,42.188685],[24.770101,42.188597],[24.77003,42.188415],[24.769919,42.187751],[24.769898,42.187233],[24.76996,42.186872],[24.770091,42.186336],[24.769577,42.186027],[24.77007,42.186037],[24.770424,42.186249],[24.770476,42.186153],[24.774163,42.186349],[24.774317,42.186339],[24.778073,42.186444],[24.789941,42.186913],[24.790014,42.186781],[24.796226,42.186997],[24.797966,42.187065],[24.798,42.187194],[24.798408,42.187214],[24.807704,42.187564],[24.817523,42.187911],[24.817488,42.187761],[24.81766,42.187767],[24.817572,42.187534],[24.81747,42.187514],[24.817398,42.187472],[24.817274,42.18745],[24.817319,42.187542],[24.811663,42.187302],[24.798301,42.186796],[24.79806,42.186808],[24.798023,42.186856],[24.797441,42.186838],[24.793626,42.186656],[24.79008,42.186531],[24.786453,42.186422],[24.778213,42.186102],[24.777498,42.186081],[24.777494,42.186126]]]},"properties":{"cadreg":53}},{"type":"Feature","geometry":{"type":"Polygon","coordinates":[[[24.799713,42.199791],[24.799874,42.199925],[24.799732,42.200061],[24.79983,42.200174],[24.800252,42.200617],[24.800701,42.201052],[24.801088,42.20141],[24.801578,42.20183],[24.802283,42.20115],[24.800135,42.199379],[24.799713,42.199791]]]},"properties":{"cadreg":54}},{"type":"Feature","geometry":{"type":"Polygon","coordinates":[[[24.795286,42.204498],[24.796805,42.205644],[24.797053,42.205638],[24.796896,42.205616],[24.797115,42.205212],[24.796063,42.204108],[24.795286,42.204498]]]},"properties":{"cadreg":55}},{"type":"Feature","geometry":{"type":"Polygon","coordinates":[[[24.768133,42.187215],[24.768054,42.187584],[24.76783,42.188097],[24.767425,42.188573],[24.765373,42.190082],[24.764284,42.191231],[24.763748,42.192163],[24.763776,42.192207],[24.764044,42.192281],[24.764085,42.192282],[24.764123,42.192265],[24.765476,42.192696],[24.769379,42.193891],[24.769385,42.193859],[24.768277,42.193516],[24.767803,42.188808],[24.767881,42.188821],[24.768147,42.188411],[24.768316,42.188103],[24.768562,42.187456],[24.76858,42.187123],[24.768554,42.186624],[24.768648,42.186608],[24.768569,42.186001],[24.768475,42.185994],[24.768479,42.185858],[24.768194,42.185861],[24.768133,42.187215]]]},"properties":{"cadreg":56}},{"type":"Feature","geometry":{"type":"Polygon","coordinates":[[[24.770653,42.201084],[24.770544,42.200977],[24.770342,42.20084],[24.770059,42.20072],[24.769819,42.200643],[24.770564,42.199953],[24.770626,42.199849],[24.770657,42.199721],[24.77065,42.199634],[24.77058,42.199453],[24.769752,42.19745],[24.770424,42.197323],[24.770528,42.197265],[24.772349,42.194908],[24.772398,42.19489],[24.778986,42.196893],[24.78111,42.19756],[24.781812,42.197755],[24.782362,42.197877],[24.782323,42.197791],[24.781903,42.197695],[24.781049,42.197465],[24.779869,42.197072],[24.772427,42.194823],[24.772349,42.194797],[24.772399,42.19475],[24.769507,42.193837],[24.769454,42.19388],[24.769385,42.193859],[24.769379,42.193891],[24.765476,42.192696],[24.764123,42.192265],[24.764085,42.192282],[24.764044,42.192281],[24.768075,42.193526],[24.768823,42.195322],[24.769705,42.197576],[24.770551,42.199595],[24.770565,42.199719],[24.770523,42.199852],[24.770436,42.199953],[24.769667,42.200693],[24.770754,42.201314],[24.770947,42.201287],[24.770653,42.201084]]]},"properties":{"cadreg":57}},{"type":"Feature","geometry":{"type":"Polygon","coordinates":[[[24.784332,42.196177],[24.783066,42.197866],[24.783058,42.197878],[24.783131,42.19789],[24.783115,42.19795],[24.782574,42.197867],[24.782641,42.19801],[24.783889,42.198189],[24.78485,42.198211],[24.786267,42.198359],[24.786112,42.197811],[24.785996,42.197637],[24.785425,42.19793],[24.785371,42.197862],[24.785426,42.197833],[24.785147,42.19751],[24.78533,42.197433],[24.785206,42.19724],[24.785515,42.197134],[24.785139,42.19663],[24.784332,42.196177]]]},"properties":{"cadreg":58}},{"type":"Feature","geometry":{"type":"Polygon","coordinates":[[[24.769577,42.186027],[24.772549,42.187751],[24.770366,42.189],[24.770389,42.189043],[24.770467,42.188999],[24.769507,42.193837],[24.772399,42.19475],[24.772349,42.194797],[24.772427,42.194823],[24.779869,42.197072],[24.781049,42.197465],[24.781903,42.197695],[24.782323,42.197791],[24.782362,42.197886],[24.782482,42.197608],[24.783299,42.196493],[24.78191,42.19587],[24.782923,42.194648],[24.783206,42.194275],[24.783237,42.194287],[24.783444,42.194062],[24.782669,42.193618],[24.782832,42.193448],[24.783162,42.19356],[24.783469,42.193622],[24.777452,42.190144],[24.773136,42.187695],[24.772732,42.187583],[24.77007,42.186037],[24.769577,42.186027]]]},"properties":{"cadreg":59}},{"type":"Feature","geometry":{"type":"MultiPolygon","coordinates":[[[[24.772349,42.194908],[24.770528,42.197265],[24.770424,42.197323],[24.769752,42.19745],[24.77058,42.199453],[24.77065,42.199634],[24.770657,42.199721],[24.770626,42.199849],[24.770564,42.199953],[24.769819,42.200643],[24.770059,42.20072],[24.770342,42.20084],[24.770544,42.200977],[24.770709,42.201128],[24.770947,42.201287],[24.771612,42.201193],[24.777893,42.200705],[24.777929,42.201172],[24.781741,42.201461],[24.78172,42.20046],[24.777969,42.199236],[24.777893,42.199223],[24.777902,42.198215],[24.778027,42.197443],[24.781443,42.198741],[24.781523,42.198751],[24.782169,42.198611],[24.78214,42.198569],[24.782139,42.19843],[24.782205,42.198255],[24.782264,42.198208],[24.782281,42.197859],[24.781812,42.197755],[24.78111,42.19756],[24.778986,42.196893],[24.775027,42.195684],[24.772398,42.19489],[24.772349,42.194908]]],[[[24.782503,42.197867],[24.782476,42.198008],[24.782358,42.198],[24.782272,42.201501],[24.782386,42.20151],[24.782552,42.201497],[24.782641,42.19801],[24.782574,42.197867],[24.782503,42.197867]]]]},"properties":{"cadreg":60}},{"type":"Feature","geometry":{"type":"Polygon","coordinates":[[[24.788389,42.198979],[24.786558,42.199212],[24.786895,42.200323],[24.788642,42.199779],[24.788586,42.199737],[24.788389,42.198979]]]},"properties":{"cadreg":61}},{"type":"Feature","geometry":{"type":"Polygon","coordinates":[[[24.78849,42.19817],[24.787989,42.198512],[24.787883,42.198501],[24.787825,42.198784],[24.787275,42.198735],[24.787229,42.199045],[24.786607,42.19911],[24.786509,42.199152],[24.786558,42.199212],[24.788389,42.198979],[24.788586,42.199737],[24.789144,42.200148],[24.789958,42.200543],[24.790631,42.201057],[24.791104,42.20184],[24.791828,42.202589],[24.791898,42.202554],[24.792203,42.202475],[24.795955,42.205337],[24.795694,42.205346],[24.795696,42.205382],[24.796,42.205372],[24.796599,42.205813],[24.797379,42.205816],[24.800008,42.205781],[24.801848,42.205311],[24.802717,42.204975],[24.802933,42.205143],[24.802986,42.205106],[24.803036,42.205144],[24.803184,42.205032],[24.802861,42.204824],[24.802791,42.204799],[24.802686,42.204806],[24.801936,42.205089],[24.799937,42.205624],[24.798883,42.205641],[24.796805,42.205644],[24.795476,42.204636],[24.795286,42.204498],[24.795275,42.204503],[24.794009,42.203403],[24.793922,42.203455],[24.79368,42.203275],[24.792613,42.202207],[24.792457,42.202327],[24.792366,42.202354],[24.791812,42.202332],[24.791859,42.20221],[24.79155,42.202143],[24.79153,42.202035],[24.79192,42.201137],[24.792132,42.200969],[24.791988,42.200829],[24.791601,42.200914],[24.791494,42.200756],[24.790903,42.200984],[24.790711,42.200802],[24.790372,42.200624],[24.790263,42.200464],[24.790201,42.200484],[24.790156,42.200436],[24.789971,42.199968],[24.790001,42.199748],[24.789811,42.199765],[24.789681,42.199657],[24.789834,42.199522],[24.788696,42.198741],[24.78899,42.198515],[24.78849,42.19817]]]},"properties":{"cadreg":62}},{"type":"Feature","geometry":{"type":"Polygon","coordinates":[[[24.799919,42.199062],[24.800278,42.199102],[24.800305,42.19905],[24.800402,42.199062],[24.800424,42.198955],[24.801582,42.199092],[24.801633,42.199018],[24.801983,42.19753],[24.801528,42.197476],[24.801545,42.197403],[24.798419,42.197002],[24.798132,42.197366],[24.797712,42.197677],[24.797646,42.197771],[24.798153,42.198241],[24.798417,42.198567],[24.799404,42.199702],[24.799906,42.199041],[24.799919,42.199062]]]},"properties":{"cadreg":63}},{"type":"Feature","geometry":{"type":"Polygon","coordinates":[[[24.797416,42.194356],[24.795374,42.195377],[24.795338,42.195371],[24.795314,42.195448],[24.796844,42.195724],[24.796964,42.195637],[24.797416,42.194356]]]},"properties":{"cadreg":64}},{"type":"Feature","geometry":{"type":"Polygon","coordinates":[[[24.782923,42.194648],[24.78191,42.19587],[24.783299,42.196493],[24.782482,42.197608],[24.782362,42.197886],[24.782281,42.197859],[24.782264,42.198208],[24.782205,42.198255],[24.782139,42.19843],[24.78214,42.198569],[24.782169,42.198611],[24.781523,42.198751],[24.781443,42.198741],[24.778027,42.197443],[24.777902,42.198215],[24.777893,42.199223],[24.777969,42.199236],[24.78172,42.20046],[24.781741,42.201461],[24.782272,42.201501],[24.782358,42.198],[24.782476,42.198008],[24.782506,42.197858],[24.783115,42.19795],[24.783131,42.19789],[24.783058,42.197878],[24.783066,42.197866],[24.784332,42.196177],[24.785139,42.19663],[24.785515,42.197134],[24.785206,42.19724],[24.78533,42.197433],[24.785147,42.19751],[24.785426,42.197833],[24.785371,42.197862],[24.785425,42.19793],[24.785996,42.197637],[24.786112,42.197811],[24.786509,42.199152],[24.786607,42.19911],[24.787229,42.199045],[24.787275,42.198735],[24.787825,42.198784],[24.787883,42.198501],[24.787989,42.198512],[24.78849,42.19817],[24.78899,42.198515],[24.788696,42.198741],[24.789834,42.199522],[24.789681,42.199657],[24.789811,42.199765],[24.790001,42.199748],[24.789971,42.199968],[24.790156,42.200436],[24.790201,42.200484],[24.790263,42.200464],[24.790372,42.200624],[24.790711,42.200802],[24.790903,42.200984],[24.791494,42.200756],[24.791601,42.200914],[24.791988,42.200829],[24.792132,42.200969],[24.79192,42.201137],[24.79153,42.202035],[24.79155,42.202143],[24.791859,42.20221],[24.791812,42.202332],[24.792366,42.202354],[24.792457,42.202327],[24.792613,42.202207],[24.79368,42.203275],[24.793922,42.203455],[24.794009,42.203403],[24.795275,42.204503],[24.796063,42.204108],[24.797115,42.205212],[24.796896,42.205616],[24.797086,42.205642],[24.798883,42.205641],[24.799937,42.205624],[24.801936,42.205089],[24.802686,42.204806],[24.802791,42.204799],[24.802861,42.204824],[24.803266,42.205083],[24.803404,42.204983],[24.803233,42.20482],[24.803089,42.204623],[24.803007,42.204441],[24.802406,42.202846],[24.802263,42.202593],[24.802076,42.202321],[24.801834,42.202059],[24.801041,42.201368],[24.800245,42.200609],[24.799264,42.199548],[24.798153,42.198241],[24.797646,42.197771],[24.797712,42.197677],[24.798132,42.197366],[24.798418,42.197009],[24.798433,42.196914],[24.799048,42.19619],[24.799405,42.19584],[24.799669,42.19545],[24.799841,42.194837],[24.797414,42.194381],[24.796964,42.195637],[24.796844,42.195724],[24.795314,42.195448],[24.79517,42.195782],[24.794949,42.196219],[24.79573,42.196358],[24.795862,42.196341],[24.795891,42.196377],[24.795857,42.196516],[24.795781,42.196623],[24.795661,42.196684],[24.795468,42.196711],[24.795005,42.196508],[24.794654,42.196383],[24.79426,42.196274],[24.793238,42.196075],[24.791267,42.19572],[24.790822,42.195587],[24.790564,42.195472],[24.790309,42.195323],[24.788445,42.193996],[24.788253,42.193875],[24.788033,42.193764],[24.787777,42.193666],[24.787518,42.193594],[24.787225,42.193542],[24.78689,42.193517],[24.784216,42.193658],[24.783881,42.193664],[24.783606,42.193644],[24.783323,42.193599],[24.783061,42.193531],[24.782832,42.193448],[24.782669,42.193618],[24.783444,42.194062],[24.783237,42.194287],[24.783206,42.194275],[24.782923,42.194648]],[[24.793171,42.201679],[24.79318,42.201672],[24.793369,42.20153],[24.793171,42.201679]]]},"properties":{"cadreg":502}}]}