{"type":"FeatureCollection","features":[{"type":"Feature","geometry":{"type":"MultiPolygon","coordinates":[[[[25.491873,41.518296],[25.491583,41.518171],[25.491302,41.518101],[25.490948,41.518066],[25.490586,41.518246],[25.49017,41.518563],[25.490652,41.518871],[25.49069,41.518973],[25.490668,41.519132],[25.49068,41.519344],[25.491353,41.519387],[25.491533,41.519316],[25.491633,41.519349],[25.491747,41.519416],[25.491965,41.519608],[25.492354,41.519523],[25.492515,41.519566],[25.492677,41.519568],[25.492921,41.519618],[25.492989,41.519591],[25.493276,41.519653],[25.493187,41.519835],[25.493306,41.51991],[25.493553,41.519965],[25.493527,41.520061],[25.493785,41.520144],[25.493782,41.520287],[25.493754,41.520339],[25.49313,41.520138],[25.492816,41.520183],[25.492802,41.5204],[25.492873,41.520451],[25.49286,41.520556],[25.493266,41.520705],[25.493385,41.520789],[25.493704,41.520928],[25.494218,41.521046],[25.494223,41.520799],[25.494361,41.520538],[25.494681,41.520538],[25.494788,41.520558],[25.494915,41.520592],[25.494908,41.520933],[25.494842,41.521035],[25.494836,41.521184],[25.494934,41.521273],[25.495022,41.521323],[25.495541,41.52148],[25.495676,41.521485],[25.495794,41.521333],[25.495826,41.521105],[25.495978,41.521203],[25.49606,41.521278],[25.496167,41.521251],[25.496268,41.52112],[25.496276,41.520685],[25.496252,41.520421],[25.496702,41.520442],[25.496811,41.520178],[25.496761,41.520161],[25.49704,41.519933],[25.497058,41.519741],[25.496854,41.519684],[25.496448,41.519663],[25.496089,41.519665],[25.496185,41.519531],[25.496194,41.519465],[25.496106,41.519372],[25.495601,41.519484],[25.495356,41.51909],[25.495741,41.518883],[25.49553,41.518802],[25.495137,41.518567],[25.495061,41.51872],[25.494906,41.518692],[25.494814,41.518495],[25.494366,41.518493],[25.493828,41.518572],[25.493769,41.517634],[25.493748,41.517621],[25.492994,41.517614],[25.492945,41.518032],[25.492897,41.518171],[25.492821,41.518267],[25.49261,41.51838],[25.492843,41.518522],[25.492317,41.518796],[25.492191,41.518461],[25.491873,41.518296]]],[[[25.527109,41.533465],[25.52704,41.533594],[25.526936,41.534021],[25.526513,41.534043],[25.526576,41.534164],[25.526919,41.534589],[25.527057,41.534706],[25.527221,41.534799],[25.527119,41.534902],[25.527296,41.535013],[25.527343,41.534972],[25.527461,41.535036],[25.52756,41.534819],[25.52768,41.534751],[25.527879,41.534566],[25.527989,41.534342],[25.528081,41.534257],[25.528171,41.534258],[25.528284,41.534116],[25.52829,41.534052],[25.528206,41.533997],[25.528333,41.533948],[25.528367,41.533777],[25.528211,41.533658],[25.527919,41.533592],[25.528054,41.533284],[25.527613,41.53327],[25.527652,41.533142],[25.527367,41.533068],[25.526861,41.532891],[25.526465,41.533193],[25.526565,41.533293],[25.526635,41.533335],[25.526775,41.533393],[25.526909,41.533424],[25.526943,41.533416],[25.527109,41.533465]]]]},"properties":{"cadreg":888}},{"type":"Feature","geometry":{"type":"Polygon","coordinates":[[[25.496811,41.520178],[25.496702,41.520442],[25.496252,41.520421],[25.496276,41.520685],[25.496268,41.52112],[25.496167,41.521251],[25.49606,41.521278],[25.495978,41.521203],[25.495826,41.521105],[25.495794,41.521333],[25.495676,41.521485],[25.495541,41.52148],[25.49527,41.52139],[25.495118,41.521361],[25.495022,41.521323],[25.494868,41.521222],[25.494836,41.521184],[25.494842,41.521035],[25.494908,41.520933],[25.494915,41.520592],[25.494681,41.520538],[25.494361,41.520538],[25.494223,41.520799],[25.494218,41.521046],[25.494291,41.521181],[25.494383,41.521444],[25.494422,41.521675],[25.494474,41.52173],[25.4946,41.522093],[25.494678,41.522214],[25.494715,41.522386],[25.494815,41.522641],[25.494867,41.523725],[25.494864,41.523974],[25.494671,41.523877],[25.494457,41.523798],[25.494561,41.523888],[25.494745,41.523985],[25.495048,41.524045],[25.495235,41.524099],[25.495477,41.524235],[25.495778,41.52448],[25.495886,41.524634],[25.495936,41.52474],[25.496009,41.524817],[25.496123,41.524897],[25.496552,41.524966],[25.497302,41.525135],[25.497557,41.525149],[25.498058,41.525216],[25.498303,41.525281],[25.498622,41.525398],[25.498752,41.525527],[25.498814,41.525553],[25.498864,41.525529],[25.498916,41.525477],[25.498953,41.525298],[25.499203,41.525192],[25.499424,41.525147],[25.499518,41.525112],[25.499794,41.524855],[25.499977,41.524622],[25.499995,41.524488],[25.499944,41.524259],[25.499736,41.523888],[25.499587,41.523521],[25.499673,41.523483],[25.499711,41.523705],[25.499792,41.523813],[25.499917,41.524112],[25.500062,41.524281],[25.500078,41.52444],[25.500065,41.524534],[25.499995,41.524713],[25.499856,41.524884],[25.499779,41.524925],[25.499699,41.525002],[25.499646,41.525081],[25.49938,41.525212],[25.499145,41.525272],[25.499051,41.525303],[25.499003,41.525336],[25.49897,41.525394],[25.498952,41.525493],[25.498834,41.525604],[25.498796,41.525609],[25.498449,41.525535],[25.498271,41.525546],[25.497449,41.525757],[25.496246,41.525849],[25.496245,41.525792],[25.496109,41.52574],[25.495787,41.525661],[25.495632,41.525608],[25.49557,41.525829],[25.49538,41.525811],[25.495322,41.525915],[25.49501,41.525607],[25.494705,41.525383],[25.494433,41.52509],[25.493898,41.525421],[25.494228,41.525704],[25.493568,41.525895],[25.493308,41.526055],[25.492701,41.526232],[25.492614,41.526329],[25.492772,41.526505],[25.492447,41.526557],[25.492551,41.526578],[25.492705,41.526698],[25.492898,41.526554],[25.493083,41.526453],[25.49323,41.526662],[25.493391,41.526654],[25.49346,41.526671],[25.493573,41.526775],[25.493581,41.526874],[25.493576,41.526987],[25.493449,41.527139],[25.493613,41.527235],[25.493891,41.527521],[25.49428,41.527872],[25.494477,41.527982],[25.494527,41.527815],[25.49456,41.527424],[25.49508,41.527512],[25.495044,41.527847],[25.495472,41.527843],[25.495477,41.527735],[25.495622,41.527644],[25.49596,41.52747],[25.495971,41.527046],[25.496129,41.527108],[25.496247,41.527226],[25.496369,41.527447],[25.496026,41.527539],[25.496135,41.52767],[25.495965,41.527752],[25.495862,41.527824],[25.496024,41.527978],[25.495788,41.528194],[25.495749,41.528261],[25.495889,41.528375],[25.495801,41.528511],[25.4959,41.528626],[25.495796,41.528692],[25.495941,41.528904],[25.49587,41.52895],[25.495786,41.528854],[25.49538,41.528955],[25.494906,41.529234],[25.494951,41.529279],[25.494602,41.529515],[25.494679,41.529713],[25.494547,41.529749],[25.494433,41.529567],[25.494331,41.529332],[25.494221,41.529213],[25.494226,41.528874],[25.494266,41.528827],[25.494422,41.528725],[25.493561,41.528371],[25.493463,41.52783],[25.493251,41.527802],[25.492743,41.528225],[25.492846,41.528494],[25.492954,41.528584],[25.493146,41.528655],[25.493161,41.528702],[25.49312,41.52896],[25.493122,41.529105],[25.493172,41.529189],[25.493101,41.52923],[25.4935,41.529892],[25.49325,41.530046],[25.493195,41.530113],[25.492953,41.530311],[25.492796,41.530537],[25.492823,41.530595],[25.493015,41.530554],[25.493173,41.530578],[25.493329,41.531083],[25.493368,41.531161],[25.493514,41.531333],[25.493858,41.531427],[25.493974,41.531437],[25.494487,41.531887],[25.495011,41.532066],[25.495374,41.532106],[25.495536,41.532012],[25.496076,41.532363],[25.496666,41.533001],[25.494287,41.534993],[25.492892,41.534006],[25.492665,41.533693],[25.4926,41.53345],[25.492444,41.533067],[25.492227,41.532934],[25.491859,41.532871],[25.491223,41.532805],[25.490188,41.532648],[25.48983,41.532551],[25.489786,41.532431],[25.49061,41.532497],[25.490559,41.53238],[25.489773,41.532301],[25.48976,41.532315],[25.489653,41.531819],[25.489303,41.531391],[25.488935,41.531504],[25.488572,41.531799],[25.488879,41.53208],[25.489279,41.532381],[25.488942,41.53257],[25.488765,41.532801],[25.488727,41.533078],[25.488781,41.533339],[25.488866,41.533574],[25.489119,41.533913],[25.489163,41.534061],[25.489125,41.534152],[25.489244,41.534239],[25.489319,41.534269],[25.489728,41.534347],[25.489873,41.534394],[25.489993,41.534456],[25.490417,41.534829],[25.490603,41.534956],[25.490875,41.535073],[25.490965,41.535153],[25.491049,41.535246],[25.49114,41.535388],[25.491203,41.535569],[25.491227,41.535706],[25.491517,41.53629],[25.491609,41.536349],[25.491677,41.536498],[25.491835,41.536657],[25.492007,41.536742],[25.492858,41.537013],[25.493238,41.536997],[25.493688,41.537229],[25.494078,41.537259],[25.494387,41.537345],[25.494558,41.537504],[25.494797,41.537589],[25.495152,41.537676],[25.495873,41.537544],[25.496534,41.537534],[25.496955,41.537626],[25.497345,41.537979],[25.497342,41.538231],[25.49756,41.538411],[25.497814,41.538679],[25.498015,41.5388],[25.498345,41.538832],[25.498855,41.539148],[25.499108,41.539417],[25.499364,41.539552],[25.499456,41.539523],[25.499716,41.539333],[25.499866,41.539126],[25.500015,41.539008],[25.500493,41.538924],[25.500642,41.538836],[25.500755,41.538643],[25.500795,41.538451],[25.500888,41.538318],[25.501091,41.538245],[25.501857,41.538095],[25.502168,41.538098],[25.50248,41.538189],[25.502881,41.53846],[25.503278,41.538908],[25.503697,41.539223],[25.503978,41.5395],[25.504966,41.539849],[25.505406,41.539927],[25.505756,41.53987],[25.506144,41.539724],[25.506769,41.539655],[25.507324,41.539437],[25.508024,41.539279],[25.508504,41.539209],[25.508891,41.539093],[25.509531,41.538689],[25.509714,41.538676],[25.509861,41.538692],[25.510152,41.538917],[25.510262,41.538933],[25.51052,41.538905],[25.511258,41.538688],[25.512255,41.53834],[25.512402,41.538341],[25.512566,41.538387],[25.512766,41.538625],[25.512981,41.538969],[25.513127,41.539088],[25.513329,41.539105],[25.513531,41.539091],[25.513772,41.53899],[25.513994,41.538858],[25.514782,41.538352],[25.515228,41.538044],[25.516021,41.537887],[25.516261,41.537756],[25.51652,41.537669],[25.516724,41.537462],[25.516947,41.537301],[25.517297,41.537244],[25.517591,41.537246],[25.517885,41.537293],[25.518049,41.537413],[25.518055,41.537524],[25.517718,41.538011],[25.517661,41.538189],[25.517511,41.538469],[25.517527,41.538588],[25.517745,41.538739],[25.518033,41.539157],[25.518217,41.539232],[25.519006,41.539252],[25.519356,41.539285],[25.51974,41.539363],[25.520824,41.540016],[25.522127,41.54019],[25.522567,41.540223],[25.522899,41.540151],[25.523304,41.540125],[25.523782,41.540173],[25.524128,41.540339],[25.524765,41.540834],[25.525239,41.541164],[25.525622,41.54136],[25.526135,41.541557],[25.52652,41.54159],[25.527532,41.541463],[25.527772,41.541451],[25.528283,41.541692],[25.528521,41.541738],[25.52913,41.541594],[25.529385,41.541671],[25.529623,41.54182],[25.529896,41.542046],[25.53033,41.542569],[25.530877,41.542884],[25.531309,41.542866],[25.531752,41.542629],[25.532085,41.542513],[25.532509,41.542397],[25.532795,41.542391],[25.532997,41.542422],[25.533381,41.542514],[25.53386,41.542504],[25.534265,41.542402],[25.534652,41.542272],[25.53482,41.542125],[25.535339,41.541861],[25.535744,41.541716],[25.536531,41.541343],[25.536808,41.541256],[25.53703,41.541125],[25.537251,41.541053],[25.537564,41.541069],[25.53771,41.54113],[25.537855,41.541235],[25.537999,41.541473],[25.538146,41.541564],[25.538292,41.541565],[25.538402,41.541595],[25.538585,41.5417],[25.538621,41.54179],[25.538802,41.541925],[25.539377,41.542189],[25.539616,41.542161],[25.540023,41.542015],[25.540354,41.542018],[25.540502,41.542004],[25.540686,41.541931],[25.54113,41.541682],[25.541443,41.541699],[25.54183,41.541569],[25.542234,41.541586],[25.542391,41.541551],[25.543095,41.5412],[25.543464,41.54104],[25.543687,41.540893],[25.543911,41.540671],[25.544022,41.540584],[25.544281,41.540422],[25.544402,41.540297],[25.54459,41.539912],[25.544684,41.539809],[25.544777,41.539736],[25.545072,41.53962],[25.545294,41.539562],[25.5457,41.539387],[25.546218,41.539198],[25.546622,41.539186],[25.546853,41.539092],[25.547503,41.538607],[25.547906,41.538669],[25.548301,41.538707],[25.548154,41.538616],[25.547853,41.538489],[25.547599,41.538443],[25.547354,41.538425],[25.547052,41.538469],[25.546528,41.538589],[25.546086,41.538708],[25.545355,41.538948],[25.545116,41.538946],[25.544863,41.538923],[25.544127,41.538677],[25.544017,41.538584],[25.543984,41.538522],[25.543817,41.538069],[25.543723,41.537883],[25.543718,41.537683],[25.543816,41.537319],[25.543817,41.537097],[25.544098,41.536653],[25.5441,41.536493],[25.543854,41.536165],[25.543686,41.536048],[25.543183,41.535889],[25.542711,41.53569],[25.542439,41.535467],[25.542209,41.535224],[25.541972,41.535091],[25.541566,41.534978],[25.541381,41.534959],[25.541217,41.534918],[25.540977,41.534821],[25.540461,41.534552],[25.540208,41.534592],[25.539894,41.534759],[25.539619,41.534953],[25.53938,41.535017],[25.539265,41.535028],[25.539065,41.534928],[25.538766,41.534641],[25.538594,41.534209],[25.538523,41.534139],[25.538337,41.534105],[25.537808,41.533937],[25.537693,41.533883],[25.537291,41.533628],[25.53694,41.533471],[25.536611,41.533383],[25.536494,41.533333],[25.53623,41.533143],[25.535901,41.533139],[25.535309,41.533228],[25.535117,41.533206],[25.535027,41.533164],[25.534873,41.532992],[25.534788,41.532796],[25.534787,41.532647],[25.53467,41.532233],[25.534589,41.532071],[25.534365,41.531816],[25.534187,41.531727],[25.533985,41.531652],[25.533672,41.531562],[25.533282,41.53149],[25.533099,41.531416],[25.532979,41.531337],[25.532915,41.531356],[25.532597,41.531281],[25.532176,41.531122],[25.531915,41.530972],[25.531595,41.53082],[25.53138,41.530669],[25.530861,41.53037],[25.530202,41.529857],[25.528573,41.529833],[25.528376,41.529914],[25.528069,41.530004],[25.52751,41.529989],[25.526915,41.529893],[25.526479,41.529637],[25.525904,41.529249],[25.525326,41.529134],[25.524976,41.528987],[25.524757,41.528818],[25.524614,41.528663],[25.524387,41.528332],[25.524288,41.528247],[25.524114,41.528393],[25.523963,41.528452],[25.523589,41.528415],[25.52329,41.528558],[25.523067,41.528544],[25.522945,41.528642],[25.522802,41.528662],[25.522721,41.528614],[25.522723,41.528577],[25.522835,41.528449],[25.522866,41.528386],[25.522798,41.528298],[25.522725,41.528242],[25.522721,41.528148],[25.522757,41.528024],[25.522759,41.527839],[25.522626,41.527286],[25.522486,41.52696],[25.522351,41.526772],[25.522172,41.526681],[25.521755,41.526622],[25.521517,41.526558],[25.521311,41.52648],[25.520852,41.526191],[25.52032,41.525624],[25.520155,41.525272],[25.52005,41.525233],[25.519546,41.525194],[25.519287,41.525124],[25.519136,41.525029],[25.519011,41.524853],[25.518775,41.524743],[25.518525,41.524694],[25.51808,41.524687],[25.517516,41.524736],[25.517266,41.524693],[25.517056,41.524629],[25.516358,41.524467],[25.515055,41.524228],[25.514755,41.524225],[25.514494,41.524249],[25.514283,41.524289],[25.514165,41.524283],[25.514052,41.524212],[25.513806,41.523868],[25.513586,41.523598],[25.513627,41.523177],[25.513533,41.523016],[25.513397,41.522937],[25.513236,41.522927],[25.512865,41.523113],[25.512708,41.523108],[25.512546,41.523067],[25.512305,41.522937],[25.512231,41.522869],[25.512184,41.522768],[25.512182,41.52263],[25.512234,41.522392],[25.511891,41.522151],[25.511736,41.522064],[25.511436,41.521938],[25.511003,41.521823],[25.510711,41.521788],[25.510452,41.521942],[25.510201,41.522165],[25.510191,41.522095],[25.510113,41.522012],[25.510044,41.521967],[25.509614,41.521786],[25.50906,41.521491],[25.508576,41.52138],[25.508205,41.521375],[25.508056,41.52134],[25.507621,41.521153],[25.507294,41.520982],[25.507158,41.520866],[25.507131,41.520821],[25.507171,41.520738],[25.507311,41.520619],[25.507379,41.520524],[25.50768,41.520249],[25.50768,41.520172],[25.507563,41.520089],[25.507382,41.519995],[25.507249,41.519949],[25.506869,41.519915],[25.506257,41.519931],[25.505828,41.519961],[25.505484,41.520023],[25.504779,41.52022],[25.503853,41.520431],[25.50373,41.520528],[25.503562,41.520618],[25.503074,41.520852],[25.502975,41.520881],[25.502679,41.520881],[25.502041,41.521144],[25.501564,41.521218],[25.501247,41.521213],[25.501121,41.521276],[25.500729,41.521046],[25.499515,41.520575],[25.499199,41.520326],[25.498954,41.520275],[25.498698,41.520259],[25.497625,41.519966],[25.497178,41.51996],[25.49704,41.519933],[25.496761,41.520161],[25.496811,41.520178]],[[25.506297,41.523639],[25.506339,41.523504],[25.5064,41.523433],[25.506539,41.523436],[25.506608,41.523393],[25.506649,41.523316],[25.506397,41.523382],[25.506223,41.522988],[25.506636,41.522869],[25.506639,41.522736],[25.506723,41.522673],[25.506674,41.522579],[25.506648,41.52247],[25.506731,41.522471],[25.506802,41.522443],[25.506815,41.522504],[25.506855,41.52249],[25.506866,41.522529],[25.507036,41.522495],[25.507059,41.522349],[25.507067,41.52185],[25.507136,41.521815],[25.50724,41.521696],[25.507445,41.521376],[25.507859,41.521509],[25.507855,41.52192],[25.507819,41.522041],[25.507682,41.522173],[25.507649,41.522236],[25.507797,41.52217],[25.508155,41.522134],[25.508299,41.522134],[25.508518,41.522169],[25.508462,41.522283],[25.508368,41.52234],[25.508114,41.522401],[25.508039,41.522449],[25.508068,41.522524],[25.507949,41.522601],[25.507898,41.522655],[25.507774,41.522721],[25.507601,41.522736],[25.507421,41.522771],[25.507251,41.522842],[25.507075,41.522892],[25.506973,41.522948],[25.506915,41.523008],[25.50703,41.523111],[25.507177,41.52307],[25.507263,41.523063],[25.507247,41.523155],[25.507202,41.523238],[25.507025,41.523356],[25.50699,41.523431],[25.506998,41.523503],[25.50706,41.523585],[25.507094,41.523733],[25.507098,41.523885],[25.507055,41.523965],[25.506913,41.524076],[25.506684,41.524112],[25.506663,41.524258],[25.506634,41.524311],[25.506541,41.524392],[25.506385,41.524316],[25.506381,41.524264],[25.506441,41.52417],[25.506444,41.524111],[25.506308,41.52403],[25.506187,41.523848],[25.506133,41.523722],[25.506297,41.523639]],[[25.509978,41.52364],[25.510227,41.523567],[25.510457,41.523569],[25.510101,41.524245],[25.510058,41.524234],[25.510018,41.524295],[25.510353,41.524402],[25.510333,41.524656],[25.510173,41.524673],[25.51017,41.524798],[25.510213,41.524973],[25.510369,41.525045],[25.510512,41.525043],[25.51051,41.525144],[25.510729,41.525143],[25.510665,41.525406],[25.510858,41.525731],[25.510935,41.525903],[25.510937,41.526003],[25.510982,41.526142],[25.511134,41.526335],[25.511269,41.526437],[25.511345,41.526465],[25.511453,41.52641],[25.511607,41.526226],[25.511663,41.526127],[25.511697,41.526125],[25.51178,41.526199],[25.511793,41.526544],[25.511749,41.526831],[25.51163,41.527032],[25.511537,41.527058],[25.511367,41.527099],[25.511289,41.527102],[25.511225,41.527043],[25.511062,41.526797],[25.51096,41.52657],[25.510961,41.526531],[25.510856,41.526421],[25.510751,41.526265],[25.510534,41.52585],[25.510219,41.525571],[25.510118,41.525398],[25.510016,41.525137],[25.509887,41.524933],[25.509822,41.524794],[25.509803,41.524664],[25.50983,41.524615],[25.509757,41.524442],[25.509751,41.524339],[25.509795,41.524267],[25.50985,41.524229],[25.509893,41.524136],[25.509843,41.524121],[25.509978,41.52364]],[[25.526465,41.533193],[25.526861,41.532891],[25.527367,41.533068],[25.527652,41.533142],[25.527613,41.53327],[25.528054,41.533284],[25.527919,41.533592],[25.528211,41.533658],[25.528367,41.533777],[25.528333,41.533948],[25.528206,41.533997],[25.52829,41.534052],[25.528284,41.534116],[25.528171,41.534258],[25.528081,41.534257],[25.527989,41.534342],[25.527879,41.534566],[25.52768,41.534751],[25.52756,41.534819],[25.527461,41.535036],[25.527343,41.534972],[25.527296,41.535013],[25.527119,41.534902],[25.527221,41.534799],[25.527057,41.534706],[25.526919,41.534589],[25.526576,41.534164],[25.526513,41.534043],[25.526936,41.534021],[25.52704,41.533594],[25.527109,41.533465],[25.526943,41.533416],[25.526909,41.533424],[25.526775,41.533393],[25.526635,41.533335],[25.526493,41.533232],[25.526465,41.533193]]]},"properties":{"cadreg":1}},{"type":"Feature","geometry":{"type":"Polygon","coordinates":[[[25.468183,41.517504],[25.467972,41.517921],[25.467963,41.518238],[25.468165,41.518678],[25.468493,41.519185],[25.468869,41.519684],[25.469147,41.520316],[25.469359,41.520615],[25.469612,41.521283],[25.469952,41.521817],[25.470318,41.522207],[25.470421,41.522532],[25.470393,41.52282],[25.470279,41.523224],[25.470395,41.523504],[25.470784,41.52394],[25.4714,41.524423],[25.471236,41.524538],[25.471066,41.524729],[25.471015,41.524885],[25.470999,41.525027],[25.471008,41.525231],[25.471045,41.525308],[25.47111,41.52539],[25.471228,41.525465],[25.47153,41.525569],[25.471899,41.525626],[25.472103,41.525642],[25.472283,41.52568],[25.472397,41.52572],[25.472587,41.525818],[25.472807,41.525992],[25.472912,41.526122],[25.473077,41.526634],[25.473482,41.527369],[25.473526,41.527488],[25.473549,41.527608],[25.473546,41.527857],[25.473604,41.528029],[25.473751,41.528238],[25.474025,41.528568],[25.474468,41.528962],[25.474514,41.529176],[25.474478,41.52985],[25.474551,41.529797],[25.474668,41.529659],[25.475082,41.529394],[25.475339,41.529133],[25.475496,41.529014],[25.475793,41.528806],[25.47621,41.528562],[25.476494,41.528436],[25.477025,41.52827],[25.477176,41.528199],[25.477916,41.527788],[25.478196,41.527593],[25.478483,41.527437],[25.479316,41.52706],[25.480008,41.526721],[25.480415,41.52647],[25.480653,41.526263],[25.480993,41.526026],[25.481159,41.52586],[25.481249,41.525755],[25.481486,41.525322],[25.481584,41.525194],[25.481887,41.52509],[25.482459,41.525038],[25.483126,41.524883],[25.483519,41.524808],[25.483617,41.524801],[25.483299,41.524705],[25.482996,41.524672],[25.482554,41.524679],[25.48256,41.524481],[25.482029,41.524448],[25.48191,41.524368],[25.481876,41.524153],[25.481925,41.523988],[25.481927,41.523841],[25.481859,41.523762],[25.481707,41.523647],[25.481408,41.522945],[25.481403,41.522723],[25.481438,41.522534],[25.481604,41.5222],[25.48165,41.52204],[25.481662,41.521916],[25.481554,41.52163],[25.48147,41.521466],[25.481448,41.521301],[25.481448,41.520834],[25.481399,41.52063],[25.481715,41.520032],[25.481838,41.519526],[25.48185,41.519124],[25.481945,41.518569],[25.481704,41.518592],[25.480311,41.519232],[25.480017,41.519235],[25.477133,41.519997],[25.476729,41.520085],[25.476291,41.520308],[25.476091,41.520472],[25.474297,41.520819],[25.474384,41.521209],[25.474381,41.521435],[25.474587,41.522761],[25.474609,41.52308],[25.474301,41.522869],[25.474187,41.522733],[25.47414,41.522642],[25.474021,41.522536],[25.473867,41.522519],[25.473682,41.52252],[25.473347,41.522434],[25.473184,41.522375],[25.473062,41.522297],[25.472999,41.522228],[25.472976,41.522087],[25.472757,41.521861],[25.472602,41.521494],[25.472391,41.521261],[25.472024,41.521014],[25.471744,41.520673],[25.471358,41.52029],[25.471274,41.520154],[25.471163,41.519863],[25.471071,41.519738],[25.470824,41.519522],[25.470789,41.519431],[25.470774,41.519054],[25.470705,41.518886],[25.470589,41.518754],[25.470473,41.518441],[25.470373,41.518285],[25.47014,41.518011],[25.470083,41.517915],[25.470079,41.51782],[25.470133,41.517731],[25.470303,41.517539],[25.470811,41.517079],[25.470867,41.516847],[25.471179,41.51647],[25.470782,41.516446],[25.470307,41.516467],[25.470297,41.516328],[25.470252,41.516131],[25.470237,41.515719],[25.470134,41.51585],[25.469742,41.516459],[25.469426,41.516744],[25.469124,41.51694],[25.468437,41.517231],[25.468183,41.517504]]]},"properties":{"cadreg":2}},{"type":"Feature","geometry":{"type":"Polygon","coordinates":[[[25.485632,41.5171],[25.485571,41.517331],[25.48558,41.517857],[25.485564,41.518003],[25.485486,41.518146],[25.485199,41.51852],[25.485014,41.518936],[25.485027,41.519312],[25.485082,41.519848],[25.485103,41.520474],[25.485163,41.520707],[25.48542,41.521201],[25.485424,41.522048],[25.485463,41.522175],[25.485583,41.522243],[25.485735,41.522293],[25.48594,41.522494],[25.48619,41.522864],[25.486323,41.522895],[25.486396,41.522939],[25.486377,41.523017],[25.48633,41.523084],[25.486336,41.523162],[25.486517,41.52325],[25.486748,41.52326],[25.487004,41.523245],[25.487091,41.523298],[25.48716,41.523399],[25.487296,41.523749],[25.487361,41.523865],[25.487512,41.524018],[25.487666,41.524144],[25.48793,41.524287],[25.488251,41.524616],[25.488323,41.524804],[25.488583,41.52511],[25.488671,41.525166],[25.48891,41.52537],[25.488029,41.5252],[25.487842,41.525176],[25.48696,41.52514],[25.486637,41.525089],[25.486478,41.525037],[25.486184,41.52483],[25.48608,41.524816],[25.485768,41.524824],[25.485532,41.524855],[25.485251,41.524867],[25.484904,41.524859],[25.48443,41.524786],[25.484151,41.524772],[25.483961,41.524774],[25.483519,41.524808],[25.483126,41.524883],[25.482459,41.525038],[25.481887,41.52509],[25.481584,41.525194],[25.481486,41.525322],[25.481249,41.525755],[25.481159,41.52586],[25.480993,41.526026],[25.480653,41.526263],[25.480415,41.52647],[25.480284,41.526555],[25.480008,41.526721],[25.479316,41.52706],[25.478483,41.527437],[25.478196,41.527593],[25.477916,41.527788],[25.477176,41.528199],[25.477025,41.52827],[25.476494,41.528436],[25.47621,41.528562],[25.475793,41.528806],[25.475496,41.529014],[25.475339,41.529133],[25.475082,41.529394],[25.474668,41.529659],[25.474551,41.529797],[25.474478,41.52985],[25.474435,41.530016],[25.474382,41.530122],[25.474125,41.530455],[25.474037,41.530776],[25.473989,41.530883],[25.473768,41.531129],[25.473738,41.531218],[25.473749,41.531315],[25.473835,41.531511],[25.474226,41.531523],[25.475472,41.531623],[25.475652,41.531611],[25.475812,41.531574],[25.476102,41.53145],[25.476271,41.531425],[25.476395,41.531443],[25.476455,41.53151],[25.47646,41.531591],[25.476371,41.531751],[25.476164,41.531902],[25.475636,41.532146],[25.47555,41.532224],[25.475358,41.532575],[25.475277,41.532787],[25.475247,41.532921],[25.475252,41.533008],[25.475386,41.533054],[25.475559,41.533066],[25.475561,41.532946],[25.475616,41.532852],[25.475998,41.532699],[25.476743,41.532352],[25.477087,41.53231],[25.477475,41.532184],[25.47763,41.532109],[25.477692,41.532058],[25.477812,41.532046],[25.477959,41.53208],[25.478065,41.532138],[25.478211,41.532249],[25.478389,41.532337],[25.478717,41.53245],[25.478976,41.532458],[25.479064,41.532445],[25.479424,41.532327],[25.480119,41.53234],[25.480288,41.532318],[25.480524,41.532262],[25.480791,41.53229],[25.481566,41.532693],[25.481775,41.532769],[25.481836,41.532777],[25.481995,41.532785],[25.482434,41.532406],[25.482533,41.532391],[25.482646,41.532406],[25.482888,41.532518],[25.483348,41.532691],[25.483474,41.532766],[25.483558,41.53286],[25.48359,41.532964],[25.48366,41.533056],[25.483674,41.53314],[25.48381,41.5332],[25.483952,41.5332],[25.484224,41.533137],[25.484359,41.533082],[25.484319,41.533001],[25.48432,41.532924],[25.484356,41.532856],[25.48445,41.532769],[25.484801,41.532623],[25.485158,41.532559],[25.485399,41.532599],[25.485921,41.532904],[25.486032,41.532929],[25.486123,41.532924],[25.486395,41.532879],[25.486504,41.532931],[25.486688,41.533074],[25.486852,41.533419],[25.486969,41.533513],[25.487176,41.53349],[25.487473,41.533331],[25.487618,41.533312],[25.487739,41.53333],[25.487853,41.533401],[25.488117,41.533672],[25.488291,41.533741],[25.48873,41.53379],[25.488887,41.533865],[25.488988,41.533938],[25.489125,41.534152],[25.489163,41.534061],[25.489119,41.533913],[25.488866,41.533574],[25.488781,41.533339],[25.488727,41.533078],[25.488765,41.532801],[25.488942,41.53257],[25.489279,41.532381],[25.488879,41.53208],[25.488572,41.531799],[25.488935,41.531504],[25.489303,41.531391],[25.489653,41.531819],[25.48976,41.532315],[25.489773,41.532301],[25.490559,41.53238],[25.49061,41.532497],[25.489786,41.532431],[25.48983,41.532551],[25.490188,41.532648],[25.491223,41.532805],[25.491859,41.532871],[25.492227,41.532934],[25.492444,41.533067],[25.4926,41.53345],[25.492665,41.533693],[25.492892,41.534006],[25.494287,41.534993],[25.496666,41.533001],[25.496076,41.532363],[25.495536,41.532012],[25.495374,41.532106],[25.495011,41.532066],[25.494487,41.531887],[25.493974,41.531437],[25.493858,41.531427],[25.493514,41.531333],[25.493368,41.531161],[25.493329,41.531083],[25.493173,41.530578],[25.493015,41.530554],[25.492823,41.530595],[25.492796,41.530537],[25.492953,41.530311],[25.493195,41.530113],[25.49325,41.530046],[25.4935,41.529892],[25.493101,41.52923],[25.493172,41.529189],[25.493122,41.529105],[25.49312,41.52896],[25.493161,41.528702],[25.493146,41.528655],[25.492954,41.528584],[25.492846,41.528494],[25.492743,41.528225],[25.493251,41.527802],[25.493223,41.527709],[25.493129,41.527624],[25.493007,41.527548],[25.492966,41.527487],[25.492834,41.527392],[25.492578,41.527268],[25.492803,41.526866],[25.492963,41.526841],[25.49323,41.526662],[25.493083,41.526453],[25.492898,41.526554],[25.492705,41.526698],[25.492551,41.526578],[25.492447,41.526557],[25.492772,41.526505],[25.492614,41.526329],[25.492701,41.526232],[25.493308,41.526055],[25.493568,41.525895],[25.494228,41.525704],[25.493898,41.525421],[25.494433,41.52509],[25.494705,41.525383],[25.49501,41.525607],[25.495322,41.525915],[25.49538,41.525811],[25.49557,41.525829],[25.495632,41.525608],[25.495787,41.525661],[25.496109,41.52574],[25.496245,41.525792],[25.496246,41.525849],[25.497449,41.525757],[25.498271,41.525546],[25.498449,41.525535],[25.498796,41.525609],[25.498834,41.525604],[25.498952,41.525493],[25.49897,41.525394],[25.499003,41.525336],[25.499051,41.525303],[25.499145,41.525272],[25.49938,41.525212],[25.499646,41.525081],[25.499699,41.525002],[25.499779,41.524925],[25.499856,41.524884],[25.499995,41.524713],[25.500036,41.524633],[25.500078,41.52444],[25.500062,41.524281],[25.499917,41.524112],[25.499792,41.523813],[25.499711,41.523705],[25.499673,41.523483],[25.499587,41.523521],[25.499736,41.523888],[25.499944,41.524259],[25.499995,41.524488],[25.499977,41.524622],[25.499794,41.524855],[25.499518,41.525112],[25.499424,41.525147],[25.499203,41.525192],[25.498953,41.525298],[25.498916,41.525477],[25.498864,41.525529],[25.498814,41.525553],[25.498752,41.525527],[25.498622,41.525398],[25.498303,41.525281],[25.498058,41.525216],[25.497557,41.525149],[25.497302,41.525135],[25.496552,41.524966],[25.496123,41.524897],[25.496009,41.524817],[25.495936,41.52474],[25.495886,41.524634],[25.495778,41.52448],[25.495477,41.524235],[25.495235,41.524099],[25.495048,41.524045],[25.494745,41.523985],[25.494561,41.523888],[25.494457,41.523798],[25.494671,41.523877],[25.494864,41.523974],[25.494867,41.523725],[25.494815,41.522641],[25.494715,41.522386],[25.494678,41.522214],[25.4946,41.522093],[25.494474,41.52173],[25.494422,41.521675],[25.494383,41.521444],[25.494291,41.521181],[25.494218,41.521046],[25.493704,41.520928],[25.493385,41.520789],[25.493266,41.520705],[25.49286,41.520556],[25.492873,41.520451],[25.492802,41.5204],[25.492816,41.520183],[25.49313,41.520138],[25.493754,41.520339],[25.493782,41.520287],[25.493785,41.520144],[25.493527,41.520061],[25.493553,41.519965],[25.493306,41.51991],[25.493187,41.519835],[25.493276,41.519653],[25.492989,41.519591],[25.492921,41.519618],[25.492677,41.519568],[25.492515,41.519566],[25.492354,41.519523],[25.491965,41.519608],[25.491747,41.519416],[25.491633,41.519349],[25.491533,41.519316],[25.491353,41.519387],[25.49068,41.519344],[25.490668,41.519132],[25.49069,41.518973],[25.490652,41.518871],[25.49017,41.518563],[25.490586,41.518246],[25.490948,41.518066],[25.490555,41.517987],[25.490315,41.517878],[25.489885,41.517503],[25.489248,41.517284],[25.489018,41.517172],[25.488718,41.517081],[25.488542,41.517116],[25.488306,41.517235],[25.488063,41.517242],[25.487427,41.517195],[25.487224,41.517197],[25.486906,41.51727],[25.486692,41.517353],[25.486619,41.517126],[25.486485,41.517011],[25.486281,41.516949],[25.48574,41.51695],[25.485632,41.5171]]]},"properties":{"cadreg":3}},{"type":"Feature","geometry":{"type":"Polygon","coordinates":[[[25.486619,41.517126],[25.486692,41.517353],[25.486906,41.51727],[25.487224,41.517197],[25.487427,41.517195],[25.488063,41.517242],[25.488306,41.517235],[25.488542,41.517116],[25.488718,41.517081],[25.489018,41.517172],[25.489248,41.517284],[25.489885,41.517503],[25.490315,41.517878],[25.490555,41.517987],[25.490948,41.518066],[25.491302,41.518101],[25.491583,41.518171],[25.491873,41.518296],[25.492191,41.518461],[25.492317,41.518796],[25.492843,41.518522],[25.49261,41.51838],[25.492821,41.518267],[25.492897,41.518171],[25.492945,41.518032],[25.492994,41.517614],[25.493748,41.517621],[25.493769,41.517634],[25.493828,41.518572],[25.494366,41.518493],[25.494814,41.518495],[25.494906,41.518692],[25.495061,41.51872],[25.495137,41.518567],[25.49553,41.518802],[25.495741,41.518883],[25.495356,41.51909],[25.495601,41.519484],[25.496106,41.519372],[25.496194,41.519465],[25.496185,41.519531],[25.496089,41.519665],[25.496448,41.519663],[25.496854,41.519684],[25.497058,41.519741],[25.49704,41.519933],[25.497178,41.51996],[25.497625,41.519966],[25.498698,41.520259],[25.498954,41.520275],[25.499199,41.520326],[25.499515,41.520575],[25.500729,41.521046],[25.501121,41.521276],[25.501247,41.521213],[25.501564,41.521218],[25.502041,41.521144],[25.502679,41.520881],[25.502975,41.520881],[25.503074,41.520852],[25.503562,41.520618],[25.50373,41.520528],[25.503853,41.520431],[25.504779,41.52022],[25.505484,41.520023],[25.505828,41.519961],[25.506293,41.519929],[25.506869,41.519915],[25.507249,41.519949],[25.507382,41.519995],[25.507563,41.520089],[25.50768,41.520172],[25.50768,41.520249],[25.507379,41.520524],[25.507311,41.520619],[25.507171,41.520738],[25.507131,41.520821],[25.507158,41.520866],[25.507294,41.520982],[25.507621,41.521153],[25.508056,41.52134],[25.508205,41.521375],[25.508576,41.52138],[25.50906,41.521491],[25.509614,41.521786],[25.510044,41.521967],[25.510113,41.522012],[25.510191,41.522095],[25.510201,41.522165],[25.510452,41.521942],[25.510711,41.521788],[25.511003,41.521823],[25.511436,41.521938],[25.511736,41.522064],[25.511891,41.522151],[25.512234,41.522392],[25.512403,41.521692],[25.512799,41.521321],[25.513087,41.521023],[25.513184,41.52069],[25.513199,41.520549],[25.513353,41.520429],[25.513626,41.519653],[25.513728,41.519533],[25.513957,41.519455],[25.514164,41.519433],[25.514619,41.51943],[25.514945,41.519472],[25.515478,41.519489],[25.51597,41.519321],[25.516222,41.519301],[25.516901,41.519178],[25.516982,41.519092],[25.51708,41.519063],[25.516766,41.518679],[25.516435,41.51836],[25.516312,41.518281],[25.515965,41.518207],[25.515704,41.518062],[25.515672,41.517922],[25.515642,41.517613],[25.515521,41.517369],[25.515218,41.516823],[25.514944,41.516544],[25.514847,41.516373],[25.514842,41.516303],[25.514996,41.515778],[25.515263,41.515259],[25.51533,41.515024],[25.515592,41.514431],[25.515622,41.514219],[25.515759,41.513783],[25.515977,41.513419],[25.516074,41.513081],[25.516203,41.512736],[25.516272,41.512506],[25.516265,41.51192],[25.516009,41.511646],[25.515636,41.511377],[25.515587,41.511303],[25.515528,41.511141],[25.51516,41.511268],[25.514756,41.511525],[25.514615,41.511545],[25.514506,41.511537],[25.514398,41.511499],[25.51412,41.511305],[25.513141,41.51096],[25.512816,41.510739],[25.51267,41.510606],[25.512331,41.510216],[25.511278,41.509268],[25.510927,41.509063],[25.510587,41.508876],[25.510312,41.508761],[25.50969,41.508646],[25.509428,41.508583],[25.509222,41.508495],[25.508826,41.508262],[25.508646,41.508182],[25.508497,41.508138],[25.50826,41.508122],[25.508091,41.508133],[25.5079,41.508167],[25.507637,41.508232],[25.507381,41.508333],[25.506984,41.508621],[25.506819,41.508806],[25.506584,41.509158],[25.506491,41.509331],[25.506269,41.509999],[25.506152,41.510198],[25.506111,41.510313],[25.506084,41.510527],[25.506115,41.51067],[25.505966,41.510628],[25.505374,41.510517],[25.504289,41.510419],[25.504166,41.510396],[25.503724,41.510397],[25.503328,41.510527],[25.502949,41.510707],[25.502738,41.510837],[25.502213,41.511117],[25.501982,41.511262],[25.501892,41.511279],[25.500996,41.511187],[25.500394,41.511068],[25.500082,41.51103],[25.499822,41.511013],[25.499622,41.511025],[25.499455,41.51106],[25.499277,41.511129],[25.49881,41.511344],[25.498311,41.51143],[25.498075,41.511539],[25.497733,41.511772],[25.497583,41.511818],[25.497488,41.511836],[25.497398,41.511812],[25.497056,41.511797],[25.496587,41.511902],[25.496197,41.51203],[25.495976,41.511981],[25.495832,41.511912],[25.495467,41.51165],[25.494907,41.511379],[25.494787,41.511359],[25.493316,41.511671],[25.492893,41.511637],[25.492497,41.511642],[25.49212,41.511672],[25.491852,41.511745],[25.491505,41.511858],[25.491218,41.512003],[25.490341,41.51262],[25.48998,41.51231],[25.489839,41.511656],[25.489816,41.511343],[25.489879,41.511252],[25.489959,41.51105],[25.490011,41.510813],[25.49001,41.510591],[25.489981,41.510453],[25.489974,41.510249],[25.490088,41.509879],[25.490066,41.509696],[25.490096,41.509497],[25.490468,41.50919],[25.490519,41.5091],[25.490405,41.508934],[25.490243,41.508822],[25.489828,41.508832],[25.488771,41.509591],[25.488499,41.509717],[25.488139,41.509778],[25.488037,41.50984],[25.487878,41.509987],[25.487725,41.510011],[25.48711,41.509951],[25.486851,41.510027],[25.486675,41.510127],[25.486471,41.51021],[25.486361,41.510235],[25.486206,41.510235],[25.486021,41.510203],[25.485944,41.510222],[25.485847,41.510431],[25.485745,41.51047],[25.485439,41.510314],[25.484789,41.510355],[25.484466,41.510465],[25.484238,41.510499],[25.483912,41.510408],[25.483529,41.510357],[25.483301,41.510308],[25.483192,41.510307],[25.483123,41.510331],[25.483036,41.510409],[25.482974,41.510433],[25.482745,41.510453],[25.482574,41.510423],[25.482295,41.510281],[25.482168,41.510254],[25.482022,41.510252],[25.481753,41.510284],[25.481617,41.510286],[25.481361,41.510246],[25.481259,41.510282],[25.481041,41.510432],[25.480627,41.510674],[25.480396,41.510781],[25.48023,41.510763],[25.480024,41.510805],[25.479896,41.510857],[25.479523,41.510823],[25.479417,41.510827],[25.479241,41.510928],[25.478911,41.511224],[25.478761,41.511322],[25.478472,41.511373],[25.478304,41.511388],[25.478153,41.511462],[25.477978,41.51152],[25.477863,41.51161],[25.477573,41.511794],[25.477308,41.511892],[25.476998,41.511847],[25.476689,41.511877],[25.476303,41.512002],[25.476165,41.51207],[25.476082,41.512132],[25.475973,41.512284],[25.475702,41.51251],[25.475462,41.512618],[25.475338,41.5127],[25.475059,41.512946],[25.474786,41.513242],[25.474587,41.513394],[25.474236,41.513579],[25.473888,41.513793],[25.473285,41.51434],[25.473084,41.514216],[25.472965,41.514123],[25.47288,41.514013],[25.472841,41.513781],[25.472729,41.513435],[25.472497,41.512943],[25.472435,41.512523],[25.472366,41.512298],[25.47233,41.51234],[25.472316,41.512458],[25.472253,41.512616],[25.472102,41.512872],[25.472052,41.512911],[25.471987,41.513029],[25.471857,41.513158],[25.471766,41.51331],[25.471411,41.513678],[25.47097,41.514],[25.470821,41.514212],[25.470641,41.514573],[25.470544,41.514924],[25.470529,41.515305],[25.470402,41.515549],[25.470237,41.515719],[25.470252,41.516131],[25.470297,41.516328],[25.470307,41.516467],[25.470782,41.516446],[25.471179,41.51647],[25.470867,41.516847],[25.470811,41.517079],[25.470303,41.517539],[25.470133,41.517731],[25.470079,41.51782],[25.470083,41.517915],[25.47014,41.518011],[25.470373,41.518285],[25.470473,41.518441],[25.470589,41.518754],[25.470705,41.518886],[25.470774,41.519054],[25.470789,41.519431],[25.470824,41.519522],[25.471071,41.519738],[25.471163,41.519863],[25.471274,41.520154],[25.471358,41.52029],[25.471744,41.520673],[25.472024,41.521014],[25.472391,41.521261],[25.472602,41.521494],[25.472757,41.521861],[25.472976,41.522087],[25.472999,41.522228],[25.473062,41.522297],[25.473184,41.522375],[25.473347,41.522434],[25.473682,41.52252],[25.473867,41.522519],[25.474021,41.522536],[25.47414,41.522642],[25.474187,41.522733],[25.474301,41.522869],[25.474609,41.52308],[25.474587,41.522761],[25.474381,41.521435],[25.474384,41.521209],[25.474297,41.520819],[25.476091,41.520472],[25.476291,41.520308],[25.476729,41.520085],[25.477133,41.519997],[25.480017,41.519235],[25.480311,41.519232],[25.481704,41.518592],[25.481945,41.518569],[25.48185,41.519124],[25.481838,41.519526],[25.481715,41.520032],[25.481399,41.52063],[25.481448,41.520834],[25.481448,41.521301],[25.48147,41.521466],[25.481554,41.52163],[25.481662,41.521916],[25.48165,41.52204],[25.481604,41.5222],[25.481438,41.522534],[25.481403,41.522723],[25.481408,41.522945],[25.481707,41.523647],[25.481859,41.523762],[25.481927,41.523841],[25.481925,41.523988],[25.481876,41.524153],[25.48191,41.524368],[25.482029,41.524448],[25.48256,41.524481],[25.482554,41.524679],[25.482996,41.524672],[25.483299,41.524705],[25.483617,41.524801],[25.483961,41.524774],[25.484151,41.524772],[25.48443,41.524786],[25.484904,41.524859],[25.485054,41.524865],[25.485366,41.524866],[25.485768,41.524824],[25.48608,41.524816],[25.486184,41.52483],[25.486478,41.525037],[25.486637,41.525089],[25.48696,41.52514],[25.487842,41.525176],[25.488029,41.5252],[25.48891,41.52537],[25.488671,41.525166],[25.488583,41.52511],[25.488323,41.524804],[25.488251,41.524616],[25.48793,41.524287],[25.487666,41.524144],[25.487512,41.524018],[25.487361,41.523865],[25.487296,41.523749],[25.48716,41.523399],[25.487091,41.523298],[25.487004,41.523245],[25.486748,41.52326],[25.486517,41.52325],[25.486336,41.523162],[25.48633,41.523084],[25.486377,41.523017],[25.486396,41.522939],[25.486323,41.522895],[25.48619,41.522864],[25.48594,41.522494],[25.485735,41.522293],[25.485583,41.522243],[25.485463,41.522175],[25.485424,41.522048],[25.48542,41.521201],[25.485163,41.520707],[25.485103,41.520474],[25.485082,41.519848],[25.485027,41.519312],[25.485014,41.518936],[25.485199,41.51852],[25.485486,41.518146],[25.485564,41.518003],[25.48558,41.517857],[25.485571,41.517331],[25.48564,41.517074],[25.48574,41.51695],[25.486281,41.516949],[25.486485,41.517011],[25.486619,41.517126]],[[25.506094,41.511441],[25.50615,41.511085],[25.506273,41.511064],[25.506401,41.511073],[25.50651,41.511121],[25.506673,41.511741],[25.506551,41.511726],[25.506452,41.51185],[25.506,41.511804],[25.506001,41.511485],[25.506094,41.511441]],[[25.506899,41.512195],[25.507206,41.512204],[25.507208,41.512175],[25.507182,41.512089],[25.507078,41.511967],[25.507031,41.511779],[25.506979,41.511687],[25.50675,41.51165],[25.506605,41.511129],[25.506775,41.510855],[25.507372,41.511279],[25.507469,41.511416],[25.507322,41.511492],[25.50722,41.511511],[25.5071,41.511466],[25.507032,41.511487],[25.506955,41.511628],[25.507037,41.511668],[25.507072,41.511665],[25.507351,41.511763],[25.507436,41.511834],[25.507481,41.511923],[25.507586,41.511888],[25.507675,41.512009],[25.507849,41.512347],[25.507718,41.512364],[25.507464,41.512501],[25.507389,41.512516],[25.507387,41.512705],[25.50726,41.512792],[25.507196,41.512796],[25.507076,41.512743],[25.506783,41.512517],[25.506781,41.512405],[25.506899,41.512195]],[[25.50656,41.510556],[25.506631,41.510607],[25.506619,41.510793],[25.506646,41.51093],[25.506633,41.510976],[25.50657,41.511039],[25.506407,41.511037],[25.506268,41.510989],[25.506162,41.510688],[25.506145,41.510495],[25.506262,41.510485],[25.506334,41.510495],[25.50656,41.510556]]]},"properties":{"cadreg":4}}]}