{"type":"FeatureCollection","features":[{"type":"Feature","geometry":{"type":"Polygon","coordinates":[[[24.369647,41.662556],[24.36972,41.662537],[24.369733,41.662539],[24.369766,41.662531],[24.369718,41.662429],[24.369659,41.662408],[24.369591,41.66254],[24.369647,41.662556]]]},"properties":{"num":1}},{"type":"Feature","geometry":{"type":"Polygon","coordinates":[[[24.369835,41.662224],[24.369761,41.662208],[24.369723,41.662297],[24.369796,41.662315],[24.369835,41.662224]]]},"properties":{"num":2}},{"type":"Feature","geometry":{"type":"Polygon","coordinates":[[[24.35231,41.672325],[24.352109,41.672552],[24.352213,41.672606],[24.352414,41.672375],[24.35231,41.672325]]]},"properties":{"num":1}},{"type":"Feature","geometry":{"type":"Polygon","coordinates":[[[24.353048,41.670938],[24.352918,41.670685],[24.352849,41.670704],[24.352979,41.670957],[24.353048,41.670938]]]},"properties":{"num":1}},{"type":"Feature","geometry":{"type":"Polygon","coordinates":[[[24.352789,41.670585],[24.352696,41.6704],[24.352589,41.670431],[24.352685,41.670615],[24.352789,41.670585]]]},"properties":{"num":2}},{"type":"Feature","geometry":{"type":"Polygon","coordinates":[[[24.352948,41.670542],[24.352903,41.670454],[24.352749,41.670497],[24.352792,41.670583],[24.352948,41.670542]]]},"properties":{"num":3}},{"type":"Feature","geometry":{"type":"Polygon","coordinates":[[[24.35208,41.671],[24.352232,41.670939],[24.352197,41.670889],[24.352045,41.67095],[24.35208,41.671]]]},"properties":{"num":1}},{"type":"Feature","geometry":{"type":"Polygon","coordinates":[[[24.352045,41.67095],[24.351978,41.670977],[24.352014,41.671026],[24.35208,41.671],[24.352045,41.67095]]]},"properties":{"num":2}},{"type":"Feature","geometry":{"type":"Polygon","coordinates":[[[24.352502,41.67059],[24.352579,41.670696],[24.352643,41.670679],[24.352656,41.670662],[24.352643,41.670635],[24.352631,41.670636],[24.352577,41.67056],[24.352502,41.67059]]]},"properties":{"num":3}},{"type":"Feature","geometry":{"type":"Polygon","coordinates":[[[24.356925,41.66821],[24.35685,41.668192],[24.356822,41.668256],[24.356831,41.668258],[24.356796,41.668327],[24.356859,41.668345],[24.356925,41.66821]]]},"properties":{"num":1}},{"type":"Feature","geometry":{"type":"Polygon","coordinates":[[[24.356849,41.66839],[24.356805,41.668385],[24.356799,41.66841],[24.356841,41.668415],[24.356849,41.66839]]]},"properties":{"num":2}},{"type":"Feature","geometry":{"type":"Polygon","coordinates":[[[24.368688,41.662899],[24.368706,41.662864],[24.368687,41.662858],[24.368708,41.662818],[24.368595,41.662785],[24.36855,41.662872],[24.368523,41.662864],[24.368511,41.662888],[24.368538,41.662896],[24.368534,41.662903],[24.368677,41.662944],[24.368699,41.662902],[24.368688,41.662899]]]},"properties":{"num":1}},{"type":"Feature","geometry":{"type":"Polygon","coordinates":[[[24.379786,41.655927],[24.379742,41.655896],[24.379746,41.655893],[24.379699,41.655857],[24.379687,41.655855],[24.379669,41.65586],[24.379631,41.655887],[24.379627,41.655884],[24.379613,41.655895],[24.37959,41.655878],[24.379532,41.655924],[24.379609,41.655985],[24.379594,41.656021],[24.379639,41.656031],[24.379666,41.656026],[24.379714,41.655993],[24.379786,41.655927]]]},"properties":{"num":1}},{"type":"Feature","geometry":{"type":"Polygon","coordinates":[[[24.371605,41.661541],[24.371561,41.661509],[24.371633,41.661448],[24.371554,41.661391],[24.371372,41.661528],[24.371501,41.661621],[24.371605,41.661541]]]},"properties":{"num":1}},{"type":"Feature","geometry":{"type":"Polygon","coordinates":[[[24.371721,41.66129],[24.371692,41.661221],[24.371621,41.661238],[24.371651,41.661307],[24.371721,41.66129]]]},"properties":{"num":2}},{"type":"Feature","geometry":{"type":"Polygon","coordinates":[[[24.3839,41.664203],[24.383611,41.664212],[24.383575,41.66421],[24.383177,41.664218],[24.383181,41.664327],[24.383904,41.664313],[24.3839,41.664203]]]},"properties":{"num":1}},{"type":"Feature","geometry":{"type":"Polygon","coordinates":[[[24.38306,41.664227],[24.382979,41.664129],[24.382693,41.66427],[24.382774,41.664363],[24.38306,41.664227]]]},"properties":{"num":2}},{"type":"Feature","geometry":{"type":"Polygon","coordinates":[[[24.382086,41.664271],[24.38212,41.664376],[24.382475,41.66431],[24.38244,41.664205],[24.382086,41.664271]]]},"properties":{"num":1}},{"type":"Feature","geometry":{"type":"Polygon","coordinates":[[[24.382424,41.663961],[24.382721,41.663833],[24.382643,41.663735],[24.382354,41.66387],[24.382424,41.663961]]]},"properties":{"num":2}}]}