{"type":"FeatureCollection","features":[{"type":"Feature","geometry":{"type":"Polygon","coordinates":[[[24.377043,41.66065],[24.376954,41.660738],[24.376791,41.660684],[24.376518,41.660699],[24.376479,41.661036],[24.375955,41.661086],[24.374947,41.660766],[24.374743,41.660941],[24.374789,41.660998],[24.374739,41.661059],[24.374488,41.661242],[24.374343,41.661143],[24.374298,41.661068],[24.374283,41.660858],[24.374211,41.660748],[24.374041,41.660711],[24.373883,41.660759],[24.373823,41.660839],[24.373743,41.661089],[24.373576,41.661076],[24.373303,41.661286],[24.373295,41.661349],[24.373325,41.661425],[24.37303,41.661545],[24.373283,41.661894],[24.372587,41.661505],[24.372488,41.661493],[24.372546,41.661914],[24.372482,41.662799],[24.372516,41.662934],[24.372644,41.663041],[24.37241,41.663242],[24.372822,41.663489],[24.373154,41.663624],[24.37351,41.663693],[24.374069,41.663663],[24.374111,41.663931],[24.373933,41.664435],[24.373663,41.664403],[24.372995,41.664222],[24.372587,41.664213],[24.371842,41.66429],[24.371927,41.664831],[24.372652,41.664834],[24.373141,41.664965],[24.374247,41.665124],[24.374564,41.665104],[24.374905,41.665051],[24.375349,41.664907],[24.375532,41.66487],[24.375496,41.664725],[24.375575,41.664728],[24.375779,41.664695],[24.376024,41.664744],[24.376109,41.664733],[24.376321,41.664809],[24.376387,41.664896],[24.376445,41.664938],[24.376568,41.664963],[24.376692,41.664909],[24.376727,41.664837],[24.376703,41.664767],[24.377386,41.664695],[24.377792,41.66478],[24.378087,41.664971],[24.378247,41.665016],[24.378566,41.664999],[24.378787,41.665028],[24.378928,41.665133],[24.379094,41.665127],[24.37938,41.664996],[24.379591,41.665047],[24.379759,41.665064],[24.380415,41.664867],[24.380588,41.664838],[24.380777,41.664943],[24.380823,41.664901],[24.380654,41.664807],[24.380601,41.664748],[24.380918,41.664618],[24.380846,41.664306],[24.381004,41.663966],[24.380939,41.66394],[24.381152,41.663509],[24.380782,41.663213],[24.38074,41.663132],[24.380778,41.663115],[24.380798,41.663049],[24.380807,41.662948],[24.380782,41.662827],[24.380711,41.66282],[24.380592,41.662672],[24.380497,41.66262],[24.380466,41.662516],[24.380865,41.662384],[24.380686,41.662373],[24.380106,41.662559],[24.380021,41.662225],[24.379785,41.661946],[24.379731,41.661961],[24.379615,41.661952],[24.378891,41.662044],[24.378813,41.66188],[24.378652,41.661669],[24.378285,41.661812],[24.378211,41.661697],[24.378205,41.661591],[24.378249,41.661496],[24.378524,41.661248],[24.378571,41.661168],[24.378572,41.661011],[24.37867,41.660916],[24.378649,41.660868],[24.37759,41.661059],[24.377408,41.660887],[24.377151,41.660586],[24.377043,41.66065]]]},"properties":{"cadreg":500}},{"type":"Feature","geometry":{"type":"Polygon","coordinates":[[[24.39807,41.62678],[24.397955,41.626537],[24.397894,41.626349],[24.397712,41.626194],[24.397547,41.626149],[24.397453,41.626164],[24.397375,41.626206],[24.397253,41.62621],[24.39718,41.626206],[24.397112,41.626167],[24.397079,41.626102],[24.397055,41.625851],[24.39703,41.625788],[24.396951,41.625715],[24.396921,41.625624],[24.396809,41.625527],[24.396732,41.625417],[24.396703,41.625315],[24.396578,41.62508],[24.396504,41.624993],[24.396441,41.624834],[24.396357,41.624711],[24.396222,41.624384],[24.39618,41.624235],[24.395633,41.624078],[24.395231,41.623982],[24.395052,41.623987],[24.394858,41.624028],[24.394605,41.6242],[24.394126,41.624466],[24.393979,41.624697],[24.393928,41.624732],[24.393828,41.624747],[24.393576,41.624825],[24.393463,41.624825],[24.393244,41.62477],[24.392783,41.6247],[24.392552,41.624739],[24.392212,41.624874],[24.392001,41.624876],[24.391876,41.624835],[24.391582,41.624668],[24.39154,41.624669],[24.391361,41.624721],[24.391222,41.624792],[24.391066,41.624917],[24.390745,41.62501],[24.390472,41.625033],[24.389971,41.624829],[24.389794,41.624658],[24.389634,41.624629],[24.389496,41.624671],[24.388727,41.625185],[24.388543,41.625366],[24.388788,41.625683],[24.38892,41.625899],[24.389008,41.626184],[24.389012,41.626423],[24.388904,41.626698],[24.388893,41.626926],[24.38876,41.627276],[24.388576,41.627677],[24.38855,41.627786],[24.388532,41.628033],[24.388591,41.628665],[24.38856,41.628886],[24.388506,41.62898],[24.388367,41.629111],[24.388312,41.62919],[24.388271,41.629263],[24.388253,41.629388],[24.388278,41.62971],[24.388309,41.629854],[24.38839,41.630116],[24.388564,41.630525],[24.388567,41.630707],[24.388507,41.63096],[24.3884,41.631247],[24.388469,41.631241],[24.388577,41.631267],[24.388643,41.631327],[24.388645,41.63142],[24.388573,41.63151],[24.388413,41.631653],[24.38828,41.631741],[24.388253,41.631844],[24.388254,41.631935],[24.388284,41.632008],[24.388508,41.632213],[24.388545,41.632293],[24.388502,41.632467],[24.388497,41.632589],[24.388453,41.632665],[24.388444,41.632749],[24.388476,41.632813],[24.388527,41.632843],[24.388625,41.632941],[24.388662,41.633001],[24.388671,41.633088],[24.388599,41.633172],[24.3886,41.63324],[24.38877,41.633405],[24.388821,41.633718],[24.38886,41.633789],[24.388937,41.63388],[24.389036,41.633953],[24.38953,41.634234],[24.389636,41.634338],[24.389712,41.634529],[24.38985,41.63475],[24.389967,41.634864],[24.390118,41.634963],[24.390227,41.635014],[24.390282,41.635083],[24.390507,41.635261],[24.390563,41.635331],[24.390817,41.635473],[24.390942,41.635501],[24.391263,41.635504],[24.391672,41.63548],[24.392333,41.635369],[24.392881,41.635232],[24.393263,41.635153],[24.393589,41.635122],[24.393752,41.635148],[24.394017,41.635306],[24.394277,41.635373],[24.394628,41.635535],[24.394976,41.635648],[24.395339,41.635739],[24.395415,41.635816],[24.395601,41.63587],[24.395867,41.635904],[24.396058,41.63591],[24.396288,41.63587],[24.396545,41.635799],[24.396666,41.635798],[24.39674,41.635822],[24.396817,41.636023],[24.396887,41.636066],[24.397213,41.636134],[24.397272,41.636197],[24.397304,41.63629],[24.397408,41.636387],[24.397555,41.636459],[24.397705,41.636451],[24.397927,41.6364],[24.398249,41.636258],[24.398332,41.636248],[24.398456,41.636267],[24.3987,41.636419],[24.398845,41.636432],[24.398997,41.63641],[24.399161,41.636353],[24.399292,41.636365],[24.39946,41.636406],[24.400349,41.636933],[24.400584,41.637086],[24.400881,41.637339],[24.4011,41.637444],[24.401365,41.637503],[24.401616,41.63758],[24.402085,41.637752],[24.402564,41.63777],[24.402865,41.637865],[24.402986,41.637858],[24.403149,41.637782],[24.403185,41.63769],[24.403264,41.63761],[24.403422,41.637559],[24.403685,41.637517],[24.403834,41.637473],[24.403931,41.63739],[24.404042,41.63725],[24.404112,41.637106],[24.404184,41.637014],[24.404299,41.636948],[24.404737,41.63681],[24.405035,41.636746],[24.405268,41.636716],[24.405467,41.636714],[24.406373,41.636804],[24.406617,41.636864],[24.406801,41.636863],[24.40731,41.636685],[24.407474,41.636669],[24.407692,41.636688],[24.407888,41.636735],[24.408072,41.636733],[24.408296,41.63671],[24.408592,41.636547],[24.408881,41.636303],[24.409069,41.636111],[24.409204,41.636005],[24.409297,41.635972],[24.409633,41.635983],[24.409822,41.635939],[24.410148,41.635841],[24.410384,41.635678],[24.410518,41.635628],[24.410803,41.635583],[24.411098,41.635601],[24.411185,41.635587],[24.411577,41.635417],[24.411722,41.635372],[24.411805,41.635308],[24.411909,41.635274],[24.412075,41.63526],[24.412205,41.63528],[24.412704,41.635404],[24.413257,41.635661],[24.41384,41.635899],[24.414132,41.636066],[24.414611,41.636145],[24.414719,41.636248],[24.414829,41.636395],[24.415009,41.636698],[24.415127,41.636795],[24.415263,41.636849],[24.415347,41.636924],[24.415636,41.637001],[24.415878,41.637089],[24.416009,41.637164],[24.416089,41.637289],[24.415783,41.637224],[24.41562,41.637151],[24.415273,41.637149],[24.415151,41.637104],[24.415015,41.637006],[24.414988,41.636914],[24.414653,41.636568],[24.414518,41.636517],[24.414332,41.636512],[24.414219,41.636486],[24.413687,41.636257],[24.413056,41.636039],[24.412803,41.635888],[24.412568,41.63571],[24.412431,41.635523],[24.412258,41.635437],[24.412086,41.635427],[24.411565,41.635624],[24.411436,41.635649],[24.411344,41.635685],[24.411187,41.635805],[24.410971,41.635838],[24.410837,41.635889],[24.410593,41.636091],[24.410521,41.636178],[24.410522,41.636241],[24.410627,41.636404],[24.410656,41.636511],[24.410651,41.636611],[24.410461,41.636718],[24.410245,41.636749],[24.410109,41.636805],[24.410074,41.636889],[24.409929,41.636937],[24.409661,41.636981],[24.409745,41.637036],[24.410277,41.63722],[24.410323,41.637268],[24.410296,41.637317],[24.410288,41.637408],[24.410308,41.637456],[24.410494,41.637552],[24.410616,41.637593],[24.411033,41.637645],[24.411146,41.637706],[24.41123,41.637797],[24.411231,41.637866],[24.411057,41.638007],[24.41104,41.638063],[24.411088,41.638118],[24.411237,41.638222],[24.411424,41.638296],[24.411518,41.6384],[24.411537,41.638491],[24.411511,41.638554],[24.411391,41.638589],[24.411131,41.638571],[24.410974,41.638625],[24.410884,41.638736],[24.410954,41.63907],[24.410647,41.639017],[24.410434,41.639026],[24.410558,41.639241],[24.410626,41.639456],[24.410639,41.639663],[24.410726,41.639948],[24.410955,41.640329],[24.411156,41.640739],[24.411232,41.640941],[24.411261,41.641108],[24.411494,41.64142],[24.411674,41.641796],[24.411827,41.642207],[24.411942,41.642423],[24.411974,41.64286],[24.411869,41.642812],[24.411723,41.642775],[24.411422,41.642752],[24.411252,41.642763],[24.410995,41.642807],[24.41083,41.642891],[24.41074,41.642968],[24.410657,41.64308],[24.410579,41.643244],[24.410419,41.643388],[24.410279,41.643546],[24.409904,41.644141],[24.409805,41.64424],[24.409597,41.64434],[24.409459,41.644373],[24.409171,41.644394],[24.408958,41.644467],[24.408868,41.644526],[24.408788,41.644615],[24.408629,41.644853],[24.408593,41.644959],[24.408473,41.64495],[24.408308,41.644969],[24.408153,41.645001],[24.407972,41.64508],[24.407815,41.645105],[24.40729,41.645092],[24.407145,41.645126],[24.406792,41.645274],[24.406681,41.645358],[24.406525,41.645591],[24.406467,41.64572],[24.406524,41.645702],[24.406568,41.645603],[24.406724,41.645386],[24.406821,41.645297],[24.407153,41.645159],[24.407314,41.645119],[24.407822,41.645136],[24.407989,41.645109],[24.408168,41.645032],[24.408475,41.64498],[24.408588,41.644989],[24.408668,41.645036],[24.409215,41.645006],[24.409486,41.645025],[24.409819,41.64513],[24.410015,41.645132],[24.410245,41.645098],[24.410543,41.645148],[24.410686,41.645113],[24.411033,41.644875],[24.411159,41.644746],[24.411398,41.644435],[24.411572,41.644292],[24.411964,41.644147],[24.412375,41.644091],[24.412496,41.644104],[24.41252,41.644122],[24.412513,41.644227],[24.412449,41.644298],[24.412434,41.644356],[24.41247,41.644416],[24.412548,41.644455],[24.412707,41.644468],[24.41302,41.644452],[24.413363,41.644473],[24.41351,41.644519],[24.413916,41.644685],[24.414867,41.644911],[24.41504,41.644995],[24.415232,41.645056],[24.415747,41.645109],[24.416131,41.645126],[24.416538,41.645115],[24.416867,41.645186],[24.41744,41.645223],[24.417751,41.645302],[24.417969,41.645435],[24.418189,41.645637],[24.418325,41.645877],[24.418496,41.646385],[24.418618,41.646532],[24.418651,41.646503],[24.418544,41.646373],[24.418366,41.645854],[24.418235,41.645622],[24.418005,41.645411],[24.417772,41.645269],[24.417451,41.645186],[24.416873,41.64515],[24.416542,41.645079],[24.416133,41.64509],[24.415758,41.645073],[24.415241,41.645019],[24.415069,41.644966],[24.414889,41.644878],[24.414722,41.644831],[24.413937,41.644653],[24.413531,41.644486],[24.413372,41.644437],[24.413022,41.644416],[24.412707,41.644432],[24.412567,41.644421],[24.412505,41.644391],[24.412484,41.644354],[24.412497,41.644308],[24.412561,41.644237],[24.412579,41.644167],[24.412566,41.644106],[24.412517,41.644069],[24.412377,41.644055],[24.411956,41.644111],[24.411699,41.644195],[24.411536,41.644267],[24.411362,41.644411],[24.411123,41.644723],[24.410994,41.644854],[24.410662,41.645081],[24.410537,41.645112],[24.410245,41.645062],[24.410003,41.645096],[24.40983,41.645094],[24.409613,41.645016],[24.409492,41.644989],[24.409342,41.644977],[24.408652,41.644989],[24.40867,41.644862],[24.408829,41.644625],[24.4089,41.644546],[24.408983,41.644492],[24.409176,41.644424],[24.409474,41.644404],[24.409607,41.64437],[24.40976,41.644304],[24.409893,41.644214],[24.410303,41.643576],[24.410434,41.643427],[24.410613,41.643262],[24.410698,41.643088],[24.410774,41.642988],[24.410857,41.642916],[24.411014,41.642835],[24.411265,41.642793],[24.411577,41.642788],[24.411702,41.642804],[24.41196,41.642891],[24.412122,41.642889],[24.412318,41.642803],[24.412507,41.642689],[24.412774,41.642491],[24.412883,41.642435],[24.413033,41.642412],[24.413524,41.642454],[24.413761,41.64251],[24.414351,41.642728],[24.414532,41.642809],[24.414615,41.642908],[24.414661,41.643042],[24.414707,41.643092],[24.414798,41.643132],[24.414884,41.643107],[24.415046,41.642944],[24.415137,41.64289],[24.415283,41.642851],[24.415403,41.642844],[24.415661,41.642934],[24.415769,41.642913],[24.415869,41.642803],[24.416003,41.642783],[24.416298,41.64281],[24.416403,41.642802],[24.41647,41.642769],[24.416492,41.642697],[24.41645,41.642627],[24.416368,41.642609],[24.416237,41.642634],[24.41592,41.642618],[24.415699,41.642639],[24.415456,41.642549],[24.415064,41.64246],[24.414831,41.642279],[24.414782,41.64226],[24.414702,41.642241],[24.414413,41.642217],[24.414286,41.642185],[24.414105,41.642107],[24.413913,41.642052],[24.413805,41.641946],[24.4137,41.641677],[24.413637,41.641573],[24.413613,41.641495],[24.413637,41.641457],[24.413665,41.641446],[24.413771,41.641471],[24.414199,41.641672],[24.414559,41.641803],[24.414817,41.641844],[24.41505,41.641854],[24.41518,41.641881],[24.415265,41.64195],[24.415839,41.641836],[24.416026,41.641821],[24.416222,41.641847],[24.416592,41.642015],[24.417125,41.64215],[24.417273,41.642236],[24.417443,41.642421],[24.417506,41.642614],[24.417596,41.642767],[24.417764,41.642858],[24.417829,41.642857],[24.418008,41.64276],[24.418144,41.642726],[24.418249,41.642725],[24.418348,41.642749],[24.418443,41.642803],[24.418594,41.64293],[24.418679,41.642971],[24.418759,41.642995],[24.418916,41.642994],[24.419093,41.643017],[24.419383,41.643162],[24.419468,41.643185],[24.419525,41.643185],[24.419589,41.643171],[24.419649,41.643119],[24.419666,41.643037],[24.419623,41.642891],[24.419695,41.642683],[24.419705,41.642328],[24.419515,41.642078],[24.419419,41.64198],[24.41933,41.641927],[24.419274,41.641855],[24.419241,41.641795],[24.419242,41.641496],[24.419277,41.641374],[24.419478,41.640987],[24.419812,41.640438],[24.420016,41.640266],[24.420127,41.640208],[24.420526,41.640228],[24.420831,41.640195],[24.421274,41.639983],[24.421407,41.63987],[24.421566,41.639768],[24.421677,41.639717],[24.421744,41.63971],[24.422028,41.639743],[24.422259,41.639794],[24.42261,41.639906],[24.422961,41.63997],[24.424468,41.639929],[24.4251,41.639989],[24.425382,41.639993],[24.426119,41.640087],[24.426498,41.640114],[24.426735,41.640105],[24.426877,41.640119],[24.427181,41.640201],[24.42734,41.640199],[24.427414,41.640134],[24.427426,41.640066],[24.427192,41.63992],[24.427071,41.639876],[24.427014,41.639812],[24.42698,41.639726],[24.426895,41.639648],[24.426577,41.639465],[24.426414,41.639323],[24.426382,41.639239],[24.426299,41.639112],[24.426277,41.638969],[24.426283,41.638658],[24.426238,41.638517],[24.426159,41.638409],[24.42658,41.638152],[24.4267,41.638172],[24.426794,41.638254],[24.426943,41.63828],[24.427035,41.638272],[24.427183,41.638181],[24.427237,41.638118],[24.427236,41.638056],[24.427038,41.637815],[24.427017,41.637712],[24.427045,41.637655],[24.427164,41.637613],[24.427331,41.637604],[24.427402,41.63757],[24.427369,41.637705],[24.427482,41.638034],[24.428072,41.63795],[24.428313,41.637995],[24.428273,41.637923],[24.428262,41.637822],[24.42829,41.637797],[24.42836,41.637776],[24.428442,41.637772],[24.428797,41.637862],[24.428921,41.637861],[24.429041,41.637843],[24.429134,41.637808],[24.429382,41.637664],[24.429482,41.637582],[24.429518,41.637516],[24.429518,41.637464],[24.429267,41.637378],[24.429187,41.637383],[24.429099,41.637408],[24.429101,41.637518],[24.429074,41.637564],[24.428922,41.637621],[24.428746,41.637602],[24.428429,41.637522],[24.428271,41.637464],[24.428214,41.637388],[24.428218,41.637336],[24.428268,41.637274],[24.42848,41.637195],[24.428539,41.637125],[24.428602,41.637007],[24.428612,41.636754],[24.428726,41.636653],[24.428841,41.636582],[24.429026,41.63657],[24.429101,41.636607],[24.429142,41.636811],[24.429227,41.636845],[24.429347,41.636826],[24.42955,41.636769],[24.429776,41.636639],[24.429934,41.636651],[24.429976,41.636699],[24.429991,41.636755],[24.429924,41.636919],[24.429885,41.637095],[24.42984,41.637152],[24.429795,41.637258],[24.429842,41.637279],[24.429957,41.637268],[24.430063,41.637207],[24.430323,41.63692],[24.43043,41.636927],[24.430487,41.636971],[24.430473,41.637033],[24.430433,41.637118],[24.430328,41.637236],[24.43027,41.637358],[24.430289,41.637441],[24.430457,41.637458],[24.430643,41.637424],[24.430684,41.637393],[24.430841,41.637267],[24.430848,41.637212],[24.430731,41.637095],[24.430716,41.637043],[24.430775,41.636994],[24.430849,41.636969],[24.430919,41.636968],[24.431129,41.637073],[24.431158,41.637143],[24.431106,41.637355],[24.431121,41.637435],[24.431157,41.637466],[24.431232,41.637479],[24.431324,41.637471],[24.431434,41.63738],[24.431562,41.637233],[24.43155,41.637129],[24.431585,41.636983],[24.431668,41.636899],[24.431806,41.636822],[24.431925,41.636786],[24.432037,41.636838],[24.432186,41.636962],[24.432261,41.636969],[24.43233,41.63694],[24.432324,41.636871],[24.432272,41.636791],[24.432303,41.636694],[24.432412,41.636586],[24.432749,41.636458],[24.432701,41.636344],[24.432602,41.636262],[24.432551,41.636176],[24.432562,41.63579],[24.432664,41.635741],[24.432766,41.635779],[24.432832,41.635833],[24.432859,41.636006],[24.432892,41.636085],[24.432971,41.636109],[24.433263,41.636103],[24.433859,41.636215],[24.434222,41.63633],[24.434359,41.636394],[24.434811,41.636442],[24.434992,41.636447],[24.435164,41.63647],[24.435257,41.636501],[24.435375,41.63635],[24.435562,41.636361],[24.435683,41.636399],[24.435795,41.636411],[24.436026,41.636406],[24.436074,41.636461],[24.436075,41.63651],[24.435897,41.636716],[24.435818,41.636752],[24.435815,41.636862],[24.435882,41.637201],[24.435966,41.63731],[24.436089,41.637369],[24.436256,41.637401],[24.436474,41.637393],[24.436748,41.6373],[24.437034,41.637228],[24.437197,41.637237],[24.437476,41.637308],[24.437467,41.637363],[24.437372,41.637451],[24.43728,41.637497],[24.437564,41.637532],[24.437647,41.637482],[24.437789,41.637433],[24.437906,41.637442],[24.437976,41.637474],[24.438203,41.63751],[24.438561,41.6375],[24.438992,41.637437],[24.43916,41.637294],[24.439408,41.637139],[24.43958,41.636916],[24.439801,41.636861],[24.440071,41.636708],[24.440193,41.636686],[24.440749,41.636674],[24.440823,41.636639],[24.440931,41.636547],[24.440959,41.63645],[24.440928,41.636352],[24.440956,41.636254],[24.441029,41.636246],[24.441356,41.636362],[24.441458,41.636347],[24.441558,41.636242],[24.441592,41.636137],[24.441564,41.636103],[24.441406,41.636055],[24.441275,41.635994],[24.440947,41.635732],[24.440815,41.635545],[24.440702,41.635477],[24.440562,41.635457],[24.440479,41.635423],[24.440411,41.635284],[24.440317,41.635194],[24.440315,41.635097],[24.440406,41.634992],[24.440601,41.63492],[24.440822,41.634898],[24.440896,41.634864],[24.44095,41.634752],[24.440967,41.634668],[24.44105,41.634653],[24.441143,41.634694],[24.441201,41.634805],[24.441284,41.634818],[24.441311,41.63479],[24.441311,41.634735],[24.441244,41.634624],[24.441188,41.634569],[24.441196,41.634505],[24.441251,41.634471],[24.441352,41.63446],[24.440941,41.634231],[24.438574,41.633537],[24.437008,41.632716],[24.435803,41.631722],[24.432618,41.626791],[24.431676,41.627014],[24.43042,41.627023],[24.42981,41.626949],[24.429274,41.626764],[24.427728,41.626359],[24.427243,41.626248],[24.426589,41.626148],[24.425938,41.626107],[24.425204,41.626116],[24.424755,41.626085],[24.424655,41.626101],[24.424339,41.626085],[24.424208,41.626101],[24.423723,41.626078],[24.423462,41.626044],[24.423132,41.625972],[24.422337,41.625925],[24.422267,41.625965],[24.422167,41.6261],[24.422044,41.626215],[24.422029,41.626251],[24.421832,41.626362],[24.421733,41.626283],[24.421533,41.626161],[24.421397,41.626031],[24.421227,41.625958],[24.42096,41.625853],[24.420642,41.625767],[24.420263,41.62572],[24.419857,41.625725],[24.419481,41.625838],[24.418914,41.62621],[24.41859,41.626499],[24.417938,41.626672],[24.417323,41.62681],[24.416789,41.626814],[24.416107,41.626762],[24.415677,41.626681],[24.414579,41.626249],[24.414149,41.626099],[24.413664,41.626031],[24.413194,41.626016],[24.412257,41.626192],[24.411705,41.626209],[24.411296,41.626203],[24.410702,41.626243],[24.410402,41.626335],[24.409844,41.626558],[24.409307,41.626738],[24.409071,41.626787],[24.40862,41.626911],[24.407829,41.627037],[24.407196,41.627089],[24.406892,41.627081],[24.406616,41.627047],[24.406073,41.62691],[24.405608,41.626822],[24.404834,41.626723],[24.404235,41.626658],[24.404182,41.626688],[24.403955,41.62672],[24.403442,41.626723],[24.403289,41.626704],[24.403061,41.626635],[24.402957,41.626618],[24.402574,41.62673],[24.402273,41.626792],[24.402146,41.626804],[24.402023,41.626874],[24.401968,41.626884],[24.401502,41.626903],[24.401368,41.626897],[24.401309,41.626914],[24.401145,41.626872],[24.401075,41.62671],[24.401048,41.626591],[24.400957,41.626543],[24.40019,41.626698],[24.39993,41.6267],[24.398966,41.626633],[24.398799,41.626643],[24.398688,41.626658],[24.398625,41.626696],[24.398521,41.626842],[24.398473,41.626871],[24.398421,41.626876],[24.398226,41.626867],[24.398122,41.626822],[24.39807,41.62678]]]},"properties":{"cadreg":4}},{"type":"Feature","geometry":{"type":"Polygon","coordinates":[[[24.369778,41.66183],[24.369473,41.6621],[24.368503,41.663522],[24.368405,41.664062],[24.368292,41.664472],[24.368082,41.664936],[24.36804,41.665188],[24.368037,41.66557],[24.368015,41.665735],[24.367988,41.665784],[24.367937,41.665828],[24.367864,41.665855],[24.367642,41.665842],[24.367311,41.665859],[24.367039,41.665909],[24.366765,41.665986],[24.366618,41.666038],[24.366503,41.6661],[24.366315,41.666287],[24.366204,41.666435],[24.366144,41.666478],[24.366074,41.666487],[24.365994,41.66648],[24.365643,41.666396],[24.365462,41.666376],[24.364912,41.666395],[24.364824,41.666393],[24.364744,41.666366],[24.364646,41.666317],[24.364546,41.66619],[24.364625,41.66562],[24.364549,41.665503],[24.364479,41.665453],[24.3644,41.665409],[24.364287,41.66538],[24.36396,41.665327],[24.363583,41.66523],[24.36308,41.665075],[24.363038,41.665081],[24.362781,41.665006],[24.362661,41.665],[24.36259,41.665025],[24.36259,41.664987],[24.362139,41.665018],[24.361481,41.665198],[24.360998,41.66535],[24.360702,41.665471],[24.360514,41.665501],[24.360274,41.665586],[24.360233,41.665726],[24.360042,41.66595],[24.36001,41.666024],[24.359985,41.666208],[24.359759,41.666523],[24.358966,41.666724],[24.358445,41.666943],[24.358422,41.667007],[24.358197,41.667167],[24.358022,41.667269],[24.357807,41.667333],[24.357323,41.667639],[24.357168,41.667923],[24.357088,41.668167],[24.357035,41.668811],[24.356969,41.669089],[24.356922,41.669201],[24.356631,41.669538],[24.355504,41.669977],[24.355018,41.67013],[24.354694,41.670172],[24.354162,41.670311],[24.353652,41.670603],[24.353486,41.670738],[24.353203,41.671107],[24.352992,41.671331],[24.35212,41.672421],[24.352086,41.672548],[24.352017,41.672635],[24.352108,41.672766],[24.352168,41.673018],[24.352143,41.673175],[24.351728,41.673579],[24.351315,41.673929],[24.351332,41.673989],[24.351507,41.674021],[24.351881,41.673967],[24.353073,41.674158],[24.353515,41.674248],[24.353797,41.674189],[24.354246,41.674296],[24.355182,41.674716],[24.35533,41.674914],[24.355354,41.675115],[24.35547,41.675153],[24.355816,41.675131],[24.356329,41.675043],[24.356724,41.674903],[24.357054,41.674874],[24.357689,41.674833],[24.358363,41.674825],[24.359363,41.674778],[24.361882,41.674565],[24.36315,41.674571],[24.363782,41.67489],[24.364024,41.675255],[24.363943,41.675579],[24.364088,41.676132],[24.364368,41.676637],[24.365161,41.676931],[24.365665,41.677074],[24.366029,41.677073],[24.36622,41.677247],[24.366749,41.67741],[24.367233,41.67741],[24.367953,41.677219],[24.368392,41.676784],[24.369058,41.67619],[24.369439,41.675758],[24.369967,41.675067],[24.370355,41.674607],[24.370574,41.674457],[24.370689,41.674485],[24.370926,41.674445],[24.371144,41.674364],[24.371434,41.674378],[24.371607,41.674456],[24.371765,41.674602],[24.371871,41.675123],[24.371932,41.675561],[24.372082,41.675862],[24.372314,41.676139],[24.372703,41.676409],[24.372909,41.676623],[24.373046,41.677123],[24.37314,41.677312],[24.373409,41.677486],[24.373809,41.677567],[24.375031,41.677554],[24.375607,41.677485],[24.376373,41.677441],[24.377005,41.677455],[24.377568,41.677641],[24.378226,41.678083],[24.378663,41.678439],[24.378954,41.678536],[24.379287,41.678554],[24.379702,41.678553],[24.380324,41.678659],[24.380552,41.678748],[24.380773,41.678905],[24.380852,41.679196],[24.380846,41.679557],[24.38097,41.679848],[24.381177,41.680116],[24.38155,41.680308],[24.381828,41.680347],[24.382161,41.680338],[24.38257,41.680214],[24.382771,41.680092],[24.3829,41.67978],[24.383001,41.67937],[24.38313,41.679117],[24.38333,41.67899],[24.383712,41.678867],[24.384145,41.678784],[24.384376,41.678805],[24.384734,41.678923],[24.385184,41.678951],[24.385512,41.679033],[24.385804,41.679204],[24.385944,41.67934],[24.386471,41.679446],[24.386948,41.679674],[24.387082,41.679678],[24.38732,41.679629],[24.387567,41.67963],[24.387782,41.679822],[24.387949,41.680034],[24.388151,41.680179],[24.388832,41.680308],[24.389476,41.68066],[24.389753,41.680776],[24.390047,41.680788],[24.390348,41.680748],[24.390713,41.680583],[24.39136,41.680233],[24.39166,41.680169],[24.39197,41.680163],[24.392183,41.68025],[24.392356,41.680278],[24.392672,41.68019],[24.392976,41.679967],[24.393233,41.679706],[24.393513,41.679297],[24.393669,41.679233],[24.39397,41.679347],[24.394103,41.679498],[24.394292,41.679926],[24.394507,41.680115],[24.394605,41.680129],[24.3952,41.679884],[24.395866,41.679526],[24.39644,41.679282],[24.39658,41.679115],[24.396551,41.678942],[24.396373,41.678802],[24.396093,41.678784],[24.395854,41.678903],[24.395709,41.678851],[24.39563,41.678793],[24.395601,41.678593],[24.395893,41.678065],[24.396244,41.677564],[24.396431,41.677454],[24.396561,41.677434],[24.396946,41.677421],[24.397459,41.677338],[24.397839,41.677027],[24.398204,41.676787],[24.398507,41.676618],[24.398722,41.676567],[24.399295,41.676538],[24.399468,41.676551],[24.399939,41.676664],[24.400146,41.676966],[24.40025,41.677361],[24.40043,41.677632],[24.400601,41.677743],[24.401787,41.677917],[24.402179,41.678016],[24.403073,41.678037],[24.403371,41.677976],[24.403607,41.67783],[24.403969,41.677646],[24.404125,41.67761],[24.40438,41.677613],[24.404675,41.677728],[24.405081,41.678005],[24.405335,41.678033],[24.405568,41.677947],[24.405733,41.677838],[24.405996,41.677548],[24.406402,41.677251],[24.406772,41.677141],[24.407033,41.677153],[24.407352,41.677345],[24.407643,41.677553],[24.407819,41.677625],[24.408034,41.677613],[24.408267,41.677523],[24.40844,41.677311],[24.408839,41.676572],[24.409102,41.676242],[24.409297,41.676045],[24.409621,41.675912],[24.411226,41.675757],[24.411563,41.675656],[24.411763,41.675508],[24.411991,41.675017],[24.412237,41.674719],[24.41256,41.674556],[24.412749,41.674564],[24.413784,41.674872],[24.41433,41.674755],[24.414644,41.674606],[24.414733,41.674473],[24.414802,41.674262],[24.414772,41.674023],[24.414591,41.673717],[24.414589,41.673579],[24.414621,41.673347],[24.414756,41.673178],[24.414954,41.673037],[24.415683,41.672702],[24.416059,41.672493],[24.416224,41.672369],[24.41638,41.672178],[24.416452,41.67196],[24.416453,41.671812],[24.416559,41.671516],[24.416654,41.671365],[24.416797,41.671241],[24.416934,41.671168],[24.417174,41.671004],[24.417344,41.67078],[24.4175,41.670644],[24.417583,41.670496],[24.417613,41.670278],[24.41768,41.670088],[24.417754,41.669976],[24.417884,41.669869],[24.418076,41.669789],[24.418684,41.6697],[24.418861,41.669532],[24.418947,41.66933],[24.419157,41.669041],[24.419456,41.668682],[24.419516,41.668537],[24.419568,41.668149],[24.419507,41.667732],[24.419464,41.667671],[24.419456,41.66757],[24.419483,41.667492],[24.419576,41.667357],[24.419783,41.667317],[24.419998,41.667298],[24.420128,41.667253],[24.420293,41.667157],[24.4204,41.666977],[24.42046,41.666798],[24.420577,41.666538],[24.420659,41.666459],[24.420933,41.666362],[24.42105,41.666305],[24.421138,41.666198],[24.421122,41.665982],[24.42116,41.665808],[24.421226,41.665588],[24.421348,41.665475],[24.421472,41.665391],[24.421746,41.665276],[24.42218,41.665134],[24.422522,41.66493],[24.422707,41.664761],[24.422772,41.664565],[24.422758,41.664418],[24.42268,41.664262],[24.422661,41.66399],[24.422783,41.663777],[24.422966,41.663541],[24.423131,41.663467],[24.423426,41.663387],[24.423664,41.663263],[24.423705,41.663151],[24.423688,41.663046],[24.423618,41.66293],[24.423616,41.662813],[24.423655,41.662667],[24.423723,41.662572],[24.423991,41.662425],[24.424218,41.662372],[24.424549,41.662331],[24.424783,41.662278],[24.425335,41.662037],[24.425901,41.661525],[24.426638,41.661279],[24.427052,41.66079],[24.427286,41.660693],[24.427541,41.660663],[24.427747,41.660686],[24.427941,41.66074],[24.428295,41.660776],[24.428584,41.660718],[24.428851,41.660576],[24.429316,41.660215],[24.429562,41.660068],[24.429888,41.659917],[24.43006,41.65981],[24.430269,41.659501],[24.430357,41.659418],[24.430763,41.65923],[24.430954,41.659123],[24.43109,41.658999],[24.431316,41.658609],[24.431676,41.658155],[24.43222,41.657648],[24.433037,41.657098],[24.433255,41.656789],[24.433323,41.656304],[24.433431,41.656191],[24.433548,41.656157],[24.433714,41.656145],[24.434157,41.656146],[24.434478,41.65609],[24.434724,41.655954],[24.434972,41.655913],[24.435145,41.655911],[24.435413,41.655786],[24.435714,41.655622],[24.435929,41.655604],[24.436336,41.6556],[24.436515,41.655525],[24.436665,41.655374],[24.436773,41.655217],[24.436915,41.655065],[24.437544,41.654732],[24.437722,41.654608],[24.437949,41.654528],[24.43817,41.654537],[24.438615,41.654656],[24.438899,41.65467],[24.439063,41.654608],[24.439247,41.654383],[24.439389,41.654272],[24.439384,41.654218],[24.439337,41.65419],[24.439104,41.653056],[24.438491,41.651227],[24.437579,41.649929],[24.437198,41.648534],[24.436089,41.647792],[24.435501,41.647498],[24.435145,41.647009],[24.434597,41.646124],[24.433846,41.646086],[24.43304,41.645404],[24.433513,41.644808],[24.434026,41.644932],[24.434384,41.643914],[24.434961,41.644162],[24.435678,41.644313],[24.436139,41.64404],[24.436832,41.643665],[24.436112,41.643157],[24.43544,41.643474],[24.43532,41.642768],[24.434639,41.642198],[24.435601,41.641623],[24.437147,41.641305],[24.438422,41.640232],[24.439503,41.640565],[24.43998,41.640605],[24.440795,41.640408],[24.44154,41.64031],[24.442555,41.639358],[24.443344,41.638718],[24.44508,41.637701],[24.443873,41.636663],[24.44305,41.635405],[24.441352,41.63446],[24.441251,41.634471],[24.441196,41.634505],[24.441188,41.634569],[24.441244,41.634624],[24.441311,41.634735],[24.441311,41.63479],[24.441284,41.634818],[24.441201,41.634805],[24.441143,41.634694],[24.44105,41.634653],[24.440967,41.634668],[24.44095,41.634752],[24.440896,41.634864],[24.440822,41.634898],[24.440601,41.63492],[24.440406,41.634992],[24.440315,41.635097],[24.440317,41.635194],[24.440411,41.635284],[24.440479,41.635423],[24.440562,41.635457],[24.440702,41.635477],[24.440815,41.635545],[24.440947,41.635732],[24.441275,41.635994],[24.441406,41.636055],[24.441564,41.636103],[24.441592,41.636137],[24.441558,41.636242],[24.441458,41.636347],[24.441356,41.636362],[24.441029,41.636246],[24.440956,41.636254],[24.440928,41.636352],[24.440959,41.63645],[24.440931,41.636547],[24.440823,41.636639],[24.440749,41.636674],[24.440193,41.636686],[24.440071,41.636708],[24.439801,41.636861],[24.43958,41.636916],[24.439408,41.637139],[24.43916,41.637294],[24.438992,41.637437],[24.438561,41.6375],[24.438203,41.63751],[24.437976,41.637474],[24.437906,41.637442],[24.437789,41.637433],[24.437647,41.637482],[24.437564,41.637532],[24.43728,41.637497],[24.437372,41.637451],[24.437467,41.637363],[24.437476,41.637308],[24.437197,41.637237],[24.437034,41.637228],[24.436748,41.6373],[24.436474,41.637393],[24.436256,41.637401],[24.436089,41.637369],[24.435966,41.63731],[24.435882,41.637201],[24.435815,41.636862],[24.435818,41.636752],[24.435897,41.636716],[24.436075,41.63651],[24.436074,41.636461],[24.436026,41.636406],[24.435795,41.636411],[24.435683,41.636399],[24.435562,41.636361],[24.435375,41.63635],[24.435257,41.636501],[24.435164,41.63647],[24.434992,41.636447],[24.434811,41.636442],[24.434359,41.636394],[24.434222,41.63633],[24.433859,41.636215],[24.433263,41.636103],[24.432971,41.636109],[24.432892,41.636085],[24.432859,41.636006],[24.432832,41.635833],[24.432766,41.635779],[24.432664,41.635741],[24.432562,41.63579],[24.432551,41.636176],[24.432602,41.636262],[24.432701,41.636344],[24.432749,41.636458],[24.432412,41.636586],[24.432303,41.636694],[24.432272,41.636791],[24.432324,41.636871],[24.43233,41.63694],[24.432261,41.636969],[24.432186,41.636962],[24.432037,41.636838],[24.431925,41.636786],[24.431806,41.636822],[24.431668,41.636899],[24.431585,41.636983],[24.43155,41.637129],[24.431562,41.637233],[24.431434,41.63738],[24.431324,41.637471],[24.431232,41.637479],[24.431157,41.637466],[24.431121,41.637435],[24.431106,41.637355],[24.431158,41.637143],[24.431129,41.637073],[24.430919,41.636968],[24.430849,41.636969],[24.430775,41.636994],[24.430716,41.637043],[24.430731,41.637095],[24.430848,41.637212],[24.430841,41.637267],[24.430684,41.637393],[24.430643,41.637424],[24.430457,41.637458],[24.430289,41.637441],[24.43027,41.637358],[24.430328,41.637236],[24.430433,41.637118],[24.430473,41.637033],[24.430487,41.636971],[24.43043,41.636927],[24.430323,41.63692],[24.430063,41.637207],[24.429957,41.637268],[24.429842,41.637279],[24.429795,41.637258],[24.42984,41.637152],[24.429885,41.637095],[24.429924,41.636919],[24.429991,41.636755],[24.429976,41.636699],[24.429934,41.636651],[24.429776,41.636639],[24.42955,41.636769],[24.429347,41.636826],[24.429227,41.636845],[24.429142,41.636811],[24.429101,41.636607],[24.429026,41.63657],[24.428841,41.636582],[24.428726,41.636653],[24.428612,41.636754],[24.428602,41.637007],[24.428539,41.637125],[24.42848,41.637195],[24.428268,41.637274],[24.428218,41.637336],[24.428214,41.637388],[24.428271,41.637464],[24.428429,41.637522],[24.428746,41.637602],[24.428922,41.637621],[24.429074,41.637564],[24.429101,41.637518],[24.429099,41.637408],[24.429187,41.637383],[24.429267,41.637378],[24.429518,41.637464],[24.429518,41.637516],[24.429482,41.637582],[24.429382,41.637664],[24.429134,41.637808],[24.429041,41.637843],[24.428921,41.637861],[24.428797,41.637862],[24.428442,41.637772],[24.42836,41.637776],[24.42829,41.637797],[24.428262,41.637822],[24.428273,41.637923],[24.428313,41.637995],[24.428072,41.63795],[24.427482,41.638034],[24.427369,41.637705],[24.427402,41.63757],[24.427331,41.637604],[24.427164,41.637613],[24.427045,41.637655],[24.427017,41.637712],[24.427038,41.637815],[24.427236,41.638056],[24.427237,41.638118],[24.427183,41.638181],[24.427035,41.638272],[24.426943,41.63828],[24.426794,41.638254],[24.4267,41.638172],[24.42658,41.638152],[24.426159,41.638409],[24.426238,41.638517],[24.426283,41.638658],[24.426277,41.638969],[24.426299,41.639112],[24.426382,41.639239],[24.426414,41.639323],[24.426577,41.639465],[24.426895,41.639648],[24.42698,41.639726],[24.427014,41.639812],[24.427071,41.639876],[24.427192,41.63992],[24.427426,41.640066],[24.427414,41.640134],[24.42734,41.640199],[24.427181,41.640201],[24.426877,41.640119],[24.426735,41.640105],[24.426498,41.640114],[24.426119,41.640087],[24.425382,41.639993],[24.4251,41.639989],[24.424468,41.639929],[24.422961,41.63997],[24.42261,41.639906],[24.422259,41.639794],[24.422028,41.639743],[24.421744,41.63971],[24.421677,41.639717],[24.421566,41.639768],[24.421407,41.63987],[24.421274,41.639983],[24.420831,41.640195],[24.420526,41.640228],[24.420127,41.640208],[24.420016,41.640266],[24.419812,41.640438],[24.419478,41.640987],[24.419277,41.641374],[24.419242,41.641496],[24.419241,41.641795],[24.419274,41.641855],[24.41933,41.641927],[24.419419,41.64198],[24.419515,41.642078],[24.419705,41.642328],[24.419695,41.642683],[24.419623,41.642891],[24.419666,41.643037],[24.419649,41.643119],[24.419589,41.643171],[24.419468,41.643185],[24.419383,41.643162],[24.419093,41.643017],[24.418916,41.642994],[24.418759,41.642995],[24.418679,41.642971],[24.418594,41.64293],[24.418443,41.642803],[24.418348,41.642749],[24.418249,41.642725],[24.418144,41.642726],[24.418008,41.64276],[24.417829,41.642857],[24.417764,41.642858],[24.417596,41.642767],[24.417506,41.642614],[24.417443,41.642421],[24.417273,41.642236],[24.417125,41.64215],[24.416592,41.642015],[24.416222,41.641847],[24.416026,41.641821],[24.415839,41.641836],[24.415265,41.64195],[24.41518,41.641881],[24.41505,41.641854],[24.414817,41.641844],[24.414559,41.641803],[24.414199,41.641672],[24.413771,41.641471],[24.413665,41.641446],[24.413637,41.641457],[24.413613,41.641495],[24.413637,41.641573],[24.4137,41.641677],[24.413805,41.641946],[24.413913,41.642052],[24.414105,41.642107],[24.414286,41.642185],[24.414413,41.642217],[24.414702,41.642241],[24.414782,41.64226],[24.414831,41.642279],[24.415064,41.64246],[24.415456,41.642549],[24.415699,41.642639],[24.41592,41.642618],[24.416237,41.642634],[24.416368,41.642609],[24.41645,41.642627],[24.416492,41.642697],[24.41647,41.642769],[24.416403,41.642802],[24.416298,41.64281],[24.416003,41.642783],[24.415869,41.642803],[24.415769,41.642913],[24.415661,41.642934],[24.415403,41.642844],[24.415283,41.642851],[24.415137,41.64289],[24.415046,41.642944],[24.414884,41.643107],[24.414798,41.643132],[24.414707,41.643092],[24.414661,41.643042],[24.414615,41.642908],[24.414532,41.642809],[24.414351,41.642728],[24.413761,41.64251],[24.413524,41.642454],[24.413033,41.642412],[24.412883,41.642435],[24.412774,41.642491],[24.412507,41.642689],[24.412318,41.642803],[24.412122,41.642889],[24.41196,41.642891],[24.411702,41.642804],[24.411577,41.642788],[24.411265,41.642793],[24.411014,41.642835],[24.410857,41.642916],[24.410774,41.642988],[24.410698,41.643088],[24.410613,41.643262],[24.410434,41.643427],[24.410303,41.643576],[24.409893,41.644214],[24.40976,41.644304],[24.409607,41.64437],[24.409474,41.644404],[24.409176,41.644424],[24.408983,41.644492],[24.4089,41.644546],[24.408736,41.64475],[24.40867,41.644862],[24.408652,41.644989],[24.409342,41.644977],[24.409492,41.644989],[24.409613,41.645016],[24.40983,41.645094],[24.410003,41.645096],[24.410245,41.645062],[24.410537,41.645112],[24.410662,41.645081],[24.410994,41.644854],[24.411123,41.644723],[24.411362,41.644411],[24.411536,41.644267],[24.411699,41.644195],[24.411956,41.644111],[24.412377,41.644055],[24.412517,41.644069],[24.412566,41.644106],[24.412579,41.644167],[24.412561,41.644237],[24.412497,41.644308],[24.412484,41.644354],[24.412505,41.644391],[24.412567,41.644421],[24.412707,41.644432],[24.413022,41.644416],[24.413372,41.644437],[24.413531,41.644486],[24.413937,41.644653],[24.414722,41.644831],[24.414889,41.644878],[24.415069,41.644966],[24.415241,41.645019],[24.415758,41.645073],[24.416133,41.64509],[24.416542,41.645079],[24.416873,41.64515],[24.417451,41.645186],[24.417772,41.645269],[24.418005,41.645411],[24.418235,41.645622],[24.418366,41.645854],[24.418544,41.646373],[24.418651,41.646503],[24.418618,41.646532],[24.418496,41.646385],[24.418325,41.645877],[24.418189,41.645637],[24.417969,41.645435],[24.417751,41.645302],[24.41744,41.645223],[24.416867,41.645186],[24.416538,41.645115],[24.416131,41.645126],[24.415747,41.645109],[24.415232,41.645056],[24.41504,41.644995],[24.414867,41.644911],[24.413916,41.644685],[24.41351,41.644519],[24.413363,41.644473],[24.41302,41.644452],[24.412707,41.644468],[24.412548,41.644455],[24.41247,41.644416],[24.412434,41.644356],[24.412449,41.644298],[24.412513,41.644227],[24.412528,41.644165],[24.41252,41.644122],[24.412496,41.644104],[24.412375,41.644091],[24.411964,41.644147],[24.411572,41.644292],[24.411398,41.644435],[24.411159,41.644746],[24.411033,41.644875],[24.410686,41.645113],[24.410543,41.645148],[24.410245,41.645098],[24.410015,41.645132],[24.409819,41.64513],[24.409486,41.645025],[24.409215,41.645006],[24.408668,41.645036],[24.408588,41.644989],[24.408631,41.645075],[24.408694,41.645122],[24.409007,41.645201],[24.409273,41.645371],[24.409329,41.645439],[24.409397,41.645597],[24.409457,41.645682],[24.409534,41.645736],[24.409643,41.645788],[24.409995,41.645894],[24.410137,41.645954],[24.41054,41.646276],[24.410528,41.646371],[24.410478,41.646399],[24.410344,41.646411],[24.410234,41.646438],[24.410135,41.646486],[24.409774,41.646588],[24.409591,41.646623],[24.409344,41.646648],[24.408942,41.646749],[24.408304,41.647024],[24.407985,41.647214],[24.40774,41.647412],[24.407643,41.647503],[24.407414,41.647839],[24.407056,41.648273],[24.406986,41.648398],[24.406949,41.648477],[24.40695,41.648549],[24.407008,41.648766],[24.406992,41.648901],[24.406943,41.648985],[24.406896,41.649016],[24.406551,41.649092],[24.406266,41.64919],[24.406089,41.64931],[24.406026,41.649392],[24.405994,41.64948],[24.405986,41.649572],[24.405989,41.650101],[24.405974,41.65017],[24.405871,41.650261],[24.40564,41.650327],[24.405469,41.650354],[24.405253,41.650365],[24.404382,41.650358],[24.404237,41.650366],[24.4041,41.650393],[24.403958,41.650423],[24.403182,41.650704],[24.402609,41.650893],[24.402174,41.650962],[24.402081,41.650998],[24.402045,41.651055],[24.402035,41.651117],[24.402076,41.651282],[24.402267,41.651424],[24.402522,41.651564],[24.402612,41.65163],[24.402853,41.652011],[24.402979,41.65228],[24.403074,41.652413],[24.403158,41.652486],[24.403392,41.652621],[24.403698,41.652692],[24.404331,41.652682],[24.404434,41.65274],[24.404463,41.652799],[24.404488,41.65286],[24.404487,41.653021],[24.404438,41.653251],[24.40432,41.653629],[24.404365,41.653853],[24.404349,41.653952],[24.404285,41.653995],[24.404101,41.654044],[24.403875,41.654138],[24.403708,41.654299],[24.403659,41.654377],[24.403642,41.654447],[24.403653,41.654508],[24.403708,41.65456],[24.403774,41.654593],[24.403904,41.654611],[24.404185,41.654598],[24.404284,41.654613],[24.404303,41.654628],[24.404295,41.654761],[24.404174,41.655076],[24.404128,41.655324],[24.404166,41.655484],[24.40434,41.655843],[24.404359,41.65592],[24.404348,41.655962],[24.404329,41.655983],[24.40415,41.655998],[24.404034,41.656024],[24.403931,41.656069],[24.40377,41.656168],[24.40348,41.65644],[24.403373,41.656587],[24.403329,41.656685],[24.40326,41.656751],[24.403203,41.656756],[24.402732,41.656715],[24.402387,41.656726],[24.402222,41.656775],[24.40195,41.656967],[24.401906,41.657026],[24.401902,41.65708],[24.401972,41.657384],[24.401962,41.657678],[24.401853,41.658059],[24.40186,41.658219],[24.401817,41.658297],[24.401781,41.658325],[24.401612,41.658353],[24.401476,41.658343],[24.401342,41.658313],[24.401019,41.658318],[24.400414,41.658135],[24.400206,41.658012],[24.40004,41.65798],[24.399844,41.657969],[24.399651,41.658024],[24.398866,41.658421],[24.398756,41.658455],[24.398387,41.658476],[24.398058,41.658461],[24.397611,41.658479],[24.397384,41.658521],[24.397315,41.658564],[24.396972,41.658882],[24.396785,41.659004],[24.396572,41.659175],[24.396538,41.659241],[24.396549,41.6593],[24.39658,41.659363],[24.396652,41.659423],[24.396687,41.659481],[24.396684,41.659571],[24.396561,41.659691],[24.396225,41.659942],[24.396079,41.660084],[24.396,41.6602],[24.395956,41.660448],[24.39591,41.660501],[24.395785,41.660575],[24.395698,41.660681],[24.395669,41.660944],[24.395407,41.661288],[24.39537,41.661477],[24.395409,41.661693],[24.395492,41.661857],[24.39567,41.66198],[24.39575,41.662078],[24.395751,41.662114],[24.395697,41.662204],[24.395494,41.662287],[24.3953,41.662391],[24.3951,41.662609],[24.394998,41.662809],[24.394946,41.663033],[24.394876,41.663535],[24.394815,41.663628],[24.394765,41.663659],[24.39462,41.663681],[24.394526,41.663671],[24.394344,41.663624],[24.394296,41.663628],[24.394167,41.663677],[24.394059,41.663693],[24.393796,41.663692],[24.393664,41.66371],[24.393551,41.663737],[24.39343,41.663792],[24.393295,41.663889],[24.393159,41.66396],[24.392997,41.664014],[24.392662,41.664092],[24.39218,41.664159],[24.391745,41.664269],[24.391314,41.664432],[24.390754,41.664574],[24.390446,41.664674],[24.390081,41.664844],[24.390007,41.664909],[24.38993,41.665057],[24.389862,41.665139],[24.389735,41.665159],[24.389554,41.665158],[24.389112,41.665127],[24.388843,41.665161],[24.38851,41.665235],[24.388164,41.665381],[24.387891,41.665516],[24.387761,41.66563],[24.387688,41.665738],[24.387608,41.66577],[24.387019,41.665913],[24.386625,41.66603],[24.38624,41.666171],[24.385978,41.666222],[24.385841,41.666225],[24.385305,41.666292],[24.385096,41.66634],[24.385016,41.666373],[24.384869,41.666458],[24.384775,41.666544],[24.384726,41.6666],[24.384597,41.666828],[24.384508,41.666915],[24.384445,41.666951],[24.38428,41.666999],[24.383594,41.66706],[24.382748,41.667012],[24.382276,41.667006],[24.381767,41.667024],[24.381464,41.667054],[24.380511,41.667177],[24.379779,41.667324],[24.378999,41.667573],[24.378899,41.667626],[24.378808,41.667703],[24.37872,41.66768],[24.377682,41.66783],[24.377265,41.667864],[24.375875,41.667882],[24.376269,41.667951],[24.376555,41.668023],[24.376885,41.668141],[24.377212,41.668299],[24.377279,41.668406],[24.377275,41.668461],[24.377238,41.668646],[24.37714,41.66895],[24.377154,41.669087],[24.377297,41.669265],[24.377386,41.669298],[24.377573,41.669275],[24.37778,41.669209],[24.377958,41.669143],[24.378084,41.669067],[24.37813,41.669086],[24.377985,41.669173],[24.377785,41.669249],[24.37746,41.669333],[24.377318,41.669323],[24.377259,41.669286],[24.377108,41.669098],[24.377092,41.668948],[24.377188,41.668651],[24.377231,41.66841],[24.377176,41.668323],[24.376871,41.668177],[24.376539,41.668057],[24.376259,41.667987],[24.375706,41.667885],[24.375629,41.667853],[24.375589,41.667882],[24.375609,41.667929],[24.376035,41.668412],[24.376102,41.66846],[24.376313,41.668535],[24.376386,41.668598],[24.37642,41.66866],[24.376282,41.669168],[24.376201,41.669137],[24.376342,41.668699],[24.376319,41.668611],[24.376287,41.66856],[24.376039,41.668483],[24.375969,41.668417],[24.375935,41.668358],[24.375522,41.667884],[24.37554,41.667844],[24.375611,41.667821],[24.375615,41.667784],[24.37571,41.667709],[24.3763,41.667501],[24.377078,41.667051],[24.377764,41.666697],[24.378977,41.666228],[24.379352,41.665967],[24.380214,41.665513],[24.380584,41.665376],[24.380838,41.665337],[24.380698,41.66522],[24.380609,41.665114],[24.380837,41.664973],[24.380588,41.664838],[24.380415,41.664867],[24.379759,41.665064],[24.379591,41.665047],[24.37938,41.664996],[24.379094,41.665127],[24.378928,41.665133],[24.378787,41.665028],[24.378566,41.664999],[24.378247,41.665016],[24.378087,41.664971],[24.377792,41.66478],[24.377386,41.664695],[24.376703,41.664767],[24.376727,41.664837],[24.376692,41.664909],[24.376568,41.664963],[24.376445,41.664938],[24.376387,41.664896],[24.376321,41.664809],[24.376109,41.664733],[24.376024,41.664744],[24.375779,41.664695],[24.375575,41.664728],[24.375496,41.664725],[24.375532,41.66487],[24.375349,41.664907],[24.374905,41.665051],[24.374564,41.665104],[24.374247,41.665124],[24.373141,41.664965],[24.372652,41.664834],[24.371927,41.664831],[24.371842,41.66429],[24.372587,41.664213],[24.372995,41.664222],[24.373663,41.664403],[24.373933,41.664435],[24.374111,41.663931],[24.374069,41.663663],[24.37351,41.663693],[24.373154,41.663624],[24.372822,41.663489],[24.37241,41.663242],[24.372644,41.663041],[24.372516,41.662934],[24.372482,41.662799],[24.372546,41.661914],[24.372488,41.661493],[24.372557,41.661428],[24.372589,41.66135],[24.372664,41.660795],[24.372658,41.66074],[24.372621,41.660733],[24.372478,41.661065],[24.372447,41.6611],[24.37235,41.661103],[24.372299,41.661073],[24.372254,41.661026],[24.372232,41.660932],[24.372315,41.660573],[24.372307,41.660533],[24.372263,41.660526],[24.372237,41.66054],[24.372199,41.6606],[24.372169,41.660734],[24.372143,41.661148],[24.37209,41.661315],[24.371937,41.661575],[24.371641,41.661967],[24.37147,41.662164],[24.371405,41.662318],[24.371409,41.662487],[24.371391,41.662507],[24.371291,41.662522],[24.371134,41.66243],[24.371064,41.662345],[24.370972,41.662117],[24.370929,41.661425],[24.37097,41.661355],[24.371325,41.661012],[24.371388,41.660927],[24.371467,41.660499],[24.371556,41.66032],[24.371743,41.660041],[24.371717,41.659985],[24.371689,41.659977],[24.371664,41.65999],[24.371423,41.660315],[24.371241,41.660668],[24.371053,41.660892],[24.370733,41.66116],[24.369778,41.66183]]]},"properties":{"cadreg":1}},{"type":"Feature","geometry":{"type":"Polygon","coordinates":[[[24.358151,41.65087],[24.357943,41.650649],[24.357583,41.650171],[24.357386,41.649943],[24.357199,41.649812],[24.357086,41.649705],[24.356888,41.649057],[24.356856,41.649037],[24.356672,41.649612],[24.356573,41.649809],[24.355907,41.650513],[24.355634,41.650963],[24.355389,41.651426],[24.355242,41.651519],[24.355165,41.651616],[24.355016,41.651724],[24.354721,41.651866],[24.354492,41.652028],[24.354389,41.653829],[24.355089,41.654844],[24.355233,41.655163],[24.355291,41.655372],[24.355349,41.656099],[24.355429,41.656495],[24.355397,41.656879],[24.355307,41.65704],[24.355052,41.657383],[24.354766,41.657632],[24.3545,41.657837],[24.353655,41.658318],[24.35323,41.658495],[24.353026,41.658607],[24.352879,41.658699],[24.352723,41.658832],[24.352258,41.659344],[24.352076,41.65952],[24.351616,41.660112],[24.351204,41.660534],[24.350481,41.661146],[24.35023,41.661337],[24.350138,41.661446],[24.349949,41.661559],[24.349689,41.661656],[24.349283,41.661762],[24.349086,41.661796],[24.34867,41.66202],[24.348513,41.661997],[24.348004,41.66184],[24.347126,41.661727],[24.345191,41.662049],[24.344997,41.662099],[24.344441,41.662465],[24.343919,41.662838],[24.34306,41.66311],[24.3426,41.663378],[24.342047,41.663592],[24.342181,41.664061],[24.342141,41.664465],[24.342013,41.665225],[24.342132,41.665242],[24.342452,41.665231],[24.343139,41.665088],[24.343355,41.665062],[24.343682,41.665084],[24.343793,41.665129],[24.343866,41.665207],[24.343961,41.66543],[24.344084,41.665537],[24.344201,41.665595],[24.34505,41.665847],[24.345195,41.665925],[24.345536,41.666154],[24.345754,41.666327],[24.345868,41.666455],[24.345903,41.666553],[24.345933,41.667039],[24.346021,41.667412],[24.346112,41.667535],[24.346252,41.667667],[24.346465,41.667804],[24.3468,41.667976],[24.346929,41.668066],[24.347154,41.668272],[24.347268,41.668521],[24.347378,41.668618],[24.347506,41.668692],[24.347623,41.668729],[24.347806,41.668748],[24.3494,41.668768],[24.349605,41.668812],[24.349778,41.668902],[24.349857,41.66903],[24.349866,41.669238],[24.349812,41.669702],[24.349845,41.670088],[24.349822,41.670408],[24.349876,41.670579],[24.350427,41.671383],[24.350534,41.671617],[24.350544,41.671828],[24.350636,41.672032],[24.350793,41.672158],[24.351009,41.67226],[24.351447,41.672374],[24.351817,41.672492],[24.352017,41.672635],[24.352086,41.672548],[24.35212,41.672421],[24.352992,41.671331],[24.353203,41.671107],[24.353486,41.670738],[24.353652,41.670603],[24.354162,41.670311],[24.354694,41.670172],[24.355018,41.67013],[24.355504,41.669977],[24.356631,41.669538],[24.356922,41.669201],[24.356969,41.669089],[24.357035,41.668811],[24.357088,41.668167],[24.357168,41.667923],[24.357323,41.667639],[24.357807,41.667333],[24.358022,41.667269],[24.358197,41.667167],[24.358422,41.667007],[24.358445,41.666943],[24.358966,41.666724],[24.359759,41.666523],[24.359985,41.666208],[24.36001,41.666024],[24.360042,41.66595],[24.360233,41.665726],[24.360274,41.665586],[24.360514,41.665501],[24.360702,41.665471],[24.360998,41.66535],[24.361481,41.665198],[24.362139,41.665018],[24.36259,41.664987],[24.36259,41.665025],[24.362661,41.665],[24.362781,41.665006],[24.363038,41.665081],[24.36308,41.665075],[24.363583,41.66523],[24.36396,41.665327],[24.364287,41.66538],[24.3644,41.665409],[24.364479,41.665453],[24.364549,41.665503],[24.364625,41.66562],[24.364546,41.66619],[24.364646,41.666317],[24.364744,41.666366],[24.364824,41.666393],[24.364912,41.666395],[24.365462,41.666376],[24.365643,41.666396],[24.365994,41.66648],[24.366074,41.666487],[24.366144,41.666478],[24.366204,41.666435],[24.366315,41.666287],[24.366503,41.6661],[24.366618,41.666038],[24.366765,41.665986],[24.367039,41.665909],[24.367311,41.665859],[24.367642,41.665842],[24.367864,41.665855],[24.367937,41.665828],[24.367988,41.665784],[24.368015,41.665735],[24.368037,41.66557],[24.36804,41.665188],[24.368082,41.664936],[24.368292,41.664472],[24.368405,41.664062],[24.368503,41.663522],[24.369473,41.6621],[24.369778,41.66183],[24.370733,41.66116],[24.371053,41.660892],[24.371241,41.660668],[24.371423,41.660315],[24.371664,41.65999],[24.371689,41.659977],[24.371717,41.659985],[24.371743,41.660041],[24.371556,41.66032],[24.371467,41.660499],[24.371388,41.660927],[24.371325,41.661012],[24.37097,41.661355],[24.370929,41.661425],[24.370972,41.662117],[24.371064,41.662345],[24.371134,41.66243],[24.371291,41.662522],[24.371391,41.662507],[24.371409,41.662487],[24.371405,41.662318],[24.37147,41.662164],[24.371641,41.661967],[24.371937,41.661575],[24.37209,41.661315],[24.372143,41.661148],[24.372191,41.660632],[24.37222,41.660562],[24.372263,41.660526],[24.372307,41.660533],[24.372315,41.660573],[24.372235,41.660977],[24.372254,41.661026],[24.37235,41.661103],[24.372447,41.6611],[24.372478,41.661065],[24.372605,41.66075],[24.372634,41.66073],[24.372658,41.66074],[24.37266,41.66086],[24.372589,41.66135],[24.372557,41.661428],[24.372488,41.661493],[24.372587,41.661505],[24.372649,41.661361],[24.37272,41.660868],[24.372718,41.660723],[24.372687,41.66069],[24.372584,41.660694],[24.37255,41.66073],[24.372425,41.661044],[24.372411,41.661059],[24.372374,41.661059],[24.372309,41.661006],[24.372292,41.660937],[24.372372,41.660534],[24.372357,41.6605],[24.372301,41.660481],[24.372244,41.660482],[24.372196,41.660506],[24.372143,41.660582],[24.372019,41.661296],[24.371859,41.661552],[24.371589,41.661927],[24.371547,41.661945],[24.371362,41.662229],[24.371323,41.662451],[24.371281,41.662462],[24.371228,41.662438],[24.371129,41.662331],[24.371042,41.662115],[24.370989,41.661431],[24.371025,41.661374],[24.371371,41.661039],[24.371444,41.660945],[24.371527,41.660504],[24.371609,41.660343],[24.371821,41.660043],[24.371864,41.659931],[24.371956,41.659825],[24.372025,41.659783],[24.372192,41.659734],[24.373087,41.659586],[24.373186,41.659552],[24.373726,41.659439],[24.373958,41.65936],[24.374094,41.659286],[24.374351,41.659049],[24.375192,41.658401],[24.375342,41.658322],[24.375462,41.658292],[24.375698,41.658268],[24.376268,41.658248],[24.376475,41.658218],[24.376604,41.658178],[24.376738,41.658121],[24.376837,41.658055],[24.37733,41.657584],[24.377497,41.657462],[24.3776,41.65741],[24.377684,41.657391],[24.377799,41.657387],[24.37822,41.657468],[24.378372,41.65748],[24.378517,41.657448],[24.378719,41.65738],[24.378989,41.657229],[24.379155,41.657091],[24.379498,41.656773],[24.379671,41.656589],[24.3806,41.655741],[24.380917,41.655397],[24.381176,41.655144],[24.38148,41.654904],[24.381612,41.654747],[24.381655,41.65466],[24.381741,41.654374],[24.382188,41.653581],[24.382366,41.653168],[24.382498,41.652004],[24.382558,41.651864],[24.382739,41.651555],[24.382756,41.651478],[24.38283,41.651348],[24.382973,41.651217],[24.383517,41.650842],[24.383842,41.650724],[24.384365,41.650612],[24.384682,41.650521],[24.384757,41.650466],[24.384822,41.650385],[24.384894,41.650264],[24.384944,41.650132],[24.384946,41.649996],[24.384817,41.649486],[24.384796,41.649236],[24.384799,41.648989],[24.384845,41.648798],[24.385007,41.648549],[24.385121,41.648442],[24.385229,41.648369],[24.385599,41.648203],[24.385805,41.648142],[24.386147,41.648105],[24.38677,41.648129],[24.386932,41.648117],[24.387098,41.64807],[24.387191,41.647993],[24.38681,41.647961],[24.38657,41.647985],[24.385846,41.647997],[24.385649,41.648034],[24.385104,41.64822],[24.38481,41.64839],[24.384599,41.64849],[24.384557,41.648557],[24.384532,41.648702],[24.384511,41.649205],[24.384669,41.650084],[24.384672,41.650246],[24.384624,41.650308],[24.384443,41.650398],[24.384276,41.650452],[24.38376,41.650554],[24.383379,41.650718],[24.383053,41.650929],[24.382638,41.651291],[24.382556,41.651431],[24.382495,41.651599],[24.382283,41.651944],[24.382213,41.652381],[24.382203,41.652656],[24.382093,41.653277],[24.382047,41.653418],[24.381621,41.653993],[24.38131,41.654741],[24.38046,41.654734],[24.380067,41.654633],[24.379672,41.654387],[24.379052,41.654164],[24.378658,41.653959],[24.378265,41.653838],[24.377844,41.65378],[24.377341,41.653825],[24.376811,41.653934],[24.376392,41.653937],[24.375951,41.653884],[24.375514,41.653877],[24.375136,41.653922],[24.374617,41.653812],[24.374195,41.653629],[24.3739,41.65354],[24.37378,41.653442],[24.373758,41.652898],[24.37339,41.652578],[24.373254,41.652177],[24.373042,41.65194],[24.372689,41.651778],[24.372421,41.651623],[24.372111,41.65147],[24.371844,41.651421],[24.371621,41.651423],[24.371494,41.651392],[24.371138,41.650918],[24.370925,41.650712],[24.370866,41.650484],[24.370765,41.6503],[24.370721,41.650166],[24.370773,41.649843],[24.370602,41.649637],[24.370417,41.649483],[24.370249,41.649454],[24.370082,41.649496],[24.369576,41.649366],[24.369571,41.649002],[24.369087,41.648508],[24.368741,41.64833],[24.36859,41.648185],[24.368347,41.648076],[24.367785,41.647857],[24.367617,41.647754],[24.367356,41.647652],[24.366351,41.647354],[24.365698,41.647123],[24.365586,41.647103],[24.365383,41.647111],[24.365174,41.647092],[24.36498,41.647142],[24.36453,41.647369],[24.363659,41.647725],[24.363039,41.647786],[24.362529,41.647817],[24.361752,41.647791],[24.360763,41.648621],[24.360281,41.64906],[24.359569,41.649795],[24.358977,41.6501],[24.358703,41.650305],[24.358271,41.650862],[24.358151,41.65087]]]},"properties":{"cadreg":2}},{"type":"Feature","geometry":{"type":"Polygon","coordinates":[[[24.37976,41.656508],[24.379155,41.657091],[24.378989,41.657229],[24.378719,41.65738],[24.378517,41.657448],[24.378372,41.65748],[24.37822,41.657468],[24.377799,41.657387],[24.377684,41.657391],[24.3776,41.65741],[24.377497,41.657462],[24.37733,41.657584],[24.376837,41.658055],[24.376738,41.658121],[24.376604,41.658178],[24.376475,41.658218],[24.376268,41.658248],[24.375698,41.658268],[24.375462,41.658292],[24.375342,41.658322],[24.375192,41.658401],[24.374351,41.659049],[24.374094,41.659286],[24.373958,41.65936],[24.373726,41.659439],[24.373186,41.659552],[24.373087,41.659586],[24.372192,41.659734],[24.372025,41.659783],[24.371956,41.659825],[24.371864,41.659931],[24.371821,41.660043],[24.371609,41.660343],[24.371527,41.660504],[24.371444,41.660945],[24.371371,41.661039],[24.371025,41.661374],[24.370989,41.661431],[24.371042,41.662115],[24.371129,41.662331],[24.371228,41.662438],[24.371281,41.662462],[24.371323,41.662451],[24.371362,41.662229],[24.371471,41.662056],[24.371547,41.661945],[24.371589,41.661927],[24.371859,41.661552],[24.372019,41.661296],[24.372143,41.660582],[24.372196,41.660506],[24.372244,41.660482],[24.372301,41.660481],[24.372357,41.6605],[24.372372,41.660534],[24.372292,41.660937],[24.372309,41.661006],[24.372374,41.661059],[24.372411,41.661059],[24.372425,41.661044],[24.37255,41.66073],[24.372584,41.660694],[24.372687,41.66069],[24.372718,41.660723],[24.37272,41.660868],[24.37266,41.661302],[24.372587,41.661505],[24.373283,41.661894],[24.37303,41.661545],[24.373325,41.661425],[24.373295,41.661349],[24.373303,41.661286],[24.373576,41.661076],[24.373743,41.661089],[24.373823,41.660839],[24.373883,41.660759],[24.374041,41.660711],[24.374211,41.660748],[24.374283,41.660858],[24.374298,41.661068],[24.374343,41.661143],[24.374488,41.661242],[24.374739,41.661059],[24.374789,41.660998],[24.374743,41.660941],[24.374947,41.660766],[24.375955,41.661086],[24.376479,41.661036],[24.376518,41.660699],[24.376791,41.660684],[24.376954,41.660738],[24.377043,41.66065],[24.377151,41.660586],[24.377408,41.660887],[24.37759,41.661059],[24.378649,41.660868],[24.37867,41.660916],[24.378572,41.661011],[24.378571,41.661168],[24.378524,41.661248],[24.378249,41.661496],[24.378205,41.661591],[24.378211,41.661697],[24.378285,41.661812],[24.378652,41.661669],[24.378813,41.66188],[24.378891,41.662044],[24.379615,41.661952],[24.379731,41.661961],[24.379785,41.661946],[24.380021,41.662225],[24.380106,41.662559],[24.380686,41.662373],[24.380865,41.662384],[24.380466,41.662516],[24.380497,41.66262],[24.380592,41.662672],[24.380711,41.66282],[24.380782,41.662827],[24.380807,41.662948],[24.380798,41.663049],[24.380778,41.663115],[24.38074,41.663132],[24.380782,41.663213],[24.381152,41.663509],[24.380939,41.66394],[24.381004,41.663966],[24.380846,41.664306],[24.380918,41.664618],[24.380601,41.664748],[24.380654,41.664807],[24.380823,41.664901],[24.380777,41.664943],[24.380837,41.664973],[24.380609,41.665114],[24.380698,41.66522],[24.380838,41.665337],[24.380584,41.665376],[24.380214,41.665513],[24.379352,41.665967],[24.378977,41.666228],[24.377764,41.666697],[24.377078,41.667051],[24.3763,41.667501],[24.37571,41.667709],[24.375615,41.667784],[24.375611,41.667821],[24.37554,41.667844],[24.375522,41.667884],[24.375935,41.668358],[24.375969,41.668417],[24.376039,41.668483],[24.376287,41.66856],[24.376319,41.668611],[24.376342,41.668699],[24.376201,41.669137],[24.376282,41.669168],[24.37642,41.66866],[24.376386,41.668598],[24.376313,41.668535],[24.376102,41.66846],[24.376035,41.668412],[24.375609,41.667929],[24.375589,41.667882],[24.375629,41.667853],[24.375706,41.667885],[24.376259,41.667987],[24.376539,41.668057],[24.376871,41.668177],[24.377176,41.668323],[24.377231,41.66841],[24.377227,41.668452],[24.377088,41.669011],[24.377108,41.669098],[24.377259,41.669286],[24.377318,41.669323],[24.377384,41.669334],[24.37746,41.669333],[24.377605,41.669305],[24.377785,41.669249],[24.377985,41.669173],[24.37813,41.669086],[24.378084,41.669067],[24.377958,41.669143],[24.377573,41.669275],[24.377457,41.669297],[24.377339,41.66929],[24.377297,41.669265],[24.377154,41.669087],[24.377136,41.669007],[24.377275,41.668461],[24.377279,41.668406],[24.377212,41.668299],[24.376885,41.668141],[24.376555,41.668023],[24.376269,41.667951],[24.375875,41.667882],[24.377265,41.667864],[24.377682,41.66783],[24.37872,41.66768],[24.378808,41.667703],[24.378899,41.667626],[24.378999,41.667573],[24.379779,41.667324],[24.380511,41.667177],[24.381464,41.667054],[24.381767,41.667024],[24.382276,41.667006],[24.382748,41.667012],[24.383594,41.66706],[24.38428,41.666999],[24.384445,41.666951],[24.384508,41.666915],[24.384597,41.666828],[24.384726,41.6666],[24.384775,41.666544],[24.384869,41.666458],[24.385016,41.666373],[24.385096,41.66634],[24.385305,41.666292],[24.385841,41.666225],[24.385978,41.666222],[24.38624,41.666171],[24.386625,41.66603],[24.387019,41.665913],[24.387608,41.66577],[24.387688,41.665738],[24.387761,41.66563],[24.387891,41.665516],[24.388164,41.665381],[24.38851,41.665235],[24.388843,41.665161],[24.389112,41.665127],[24.389554,41.665158],[24.389735,41.665159],[24.389862,41.665139],[24.38993,41.665057],[24.390007,41.664909],[24.390081,41.664844],[24.390446,41.664674],[24.390754,41.664574],[24.391314,41.664432],[24.391745,41.664269],[24.39218,41.664159],[24.392662,41.664092],[24.392997,41.664014],[24.393159,41.66396],[24.393295,41.663889],[24.39343,41.663792],[24.393551,41.663737],[24.393664,41.66371],[24.393796,41.663692],[24.394059,41.663693],[24.394167,41.663677],[24.394296,41.663628],[24.394344,41.663624],[24.394526,41.663671],[24.39462,41.663681],[24.394765,41.663659],[24.394815,41.663628],[24.394876,41.663535],[24.394946,41.663033],[24.394998,41.662809],[24.3951,41.662609],[24.3953,41.662391],[24.395494,41.662287],[24.395697,41.662204],[24.395751,41.662114],[24.39575,41.662078],[24.39567,41.66198],[24.395492,41.661857],[24.395409,41.661693],[24.39537,41.661477],[24.395407,41.661288],[24.395669,41.660944],[24.395698,41.660681],[24.395785,41.660575],[24.39591,41.660501],[24.395956,41.660448],[24.396,41.6602],[24.396079,41.660084],[24.396225,41.659942],[24.396561,41.659691],[24.396684,41.659571],[24.396687,41.659481],[24.396652,41.659423],[24.39658,41.659363],[24.396549,41.6593],[24.396538,41.659241],[24.396572,41.659175],[24.396785,41.659004],[24.396972,41.658882],[24.397315,41.658564],[24.397384,41.658521],[24.397611,41.658479],[24.398058,41.658461],[24.398387,41.658476],[24.398756,41.658455],[24.398866,41.658421],[24.399651,41.658024],[24.399844,41.657969],[24.40004,41.65798],[24.400206,41.658012],[24.400414,41.658135],[24.401019,41.658318],[24.401342,41.658313],[24.401476,41.658343],[24.401612,41.658353],[24.401726,41.658341],[24.401781,41.658325],[24.401817,41.658297],[24.40186,41.658219],[24.401853,41.658059],[24.401962,41.657678],[24.40197,41.657597],[24.401961,41.657288],[24.401902,41.65708],[24.401906,41.657026],[24.40195,41.656967],[24.402222,41.656775],[24.402387,41.656726],[24.402732,41.656715],[24.403203,41.656756],[24.40326,41.656751],[24.403329,41.656685],[24.403373,41.656587],[24.40348,41.65644],[24.40377,41.656168],[24.403931,41.656069],[24.404034,41.656024],[24.40415,41.655998],[24.404329,41.655983],[24.404348,41.655962],[24.404359,41.65592],[24.40434,41.655843],[24.404166,41.655484],[24.404128,41.655324],[24.404174,41.655076],[24.404295,41.654761],[24.404303,41.654628],[24.404284,41.654613],[24.404185,41.654598],[24.403904,41.654611],[24.403774,41.654593],[24.403708,41.65456],[24.403653,41.654508],[24.403642,41.654447],[24.403659,41.654377],[24.403708,41.654299],[24.403875,41.654138],[24.404101,41.654044],[24.404285,41.653995],[24.404349,41.653952],[24.404365,41.653853],[24.40432,41.653629],[24.404438,41.653251],[24.404487,41.653021],[24.404488,41.65286],[24.404463,41.652799],[24.404434,41.65274],[24.404331,41.652682],[24.403698,41.652692],[24.403392,41.652621],[24.403158,41.652486],[24.403074,41.652413],[24.402979,41.65228],[24.402853,41.652011],[24.402612,41.65163],[24.402522,41.651564],[24.402267,41.651424],[24.402076,41.651282],[24.402035,41.651117],[24.402045,41.651055],[24.402081,41.650998],[24.402174,41.650962],[24.402609,41.650893],[24.403182,41.650704],[24.403958,41.650423],[24.4041,41.650393],[24.404237,41.650366],[24.404382,41.650358],[24.405253,41.650365],[24.405469,41.650354],[24.405751,41.650299],[24.405871,41.650261],[24.405931,41.650221],[24.405974,41.65017],[24.405989,41.650101],[24.405986,41.649572],[24.405994,41.64948],[24.406026,41.649392],[24.406089,41.64931],[24.406266,41.64919],[24.406551,41.649092],[24.406896,41.649016],[24.406943,41.648985],[24.406992,41.648901],[24.407008,41.648766],[24.40695,41.648549],[24.406949,41.648477],[24.406986,41.648398],[24.407056,41.648273],[24.407414,41.647839],[24.407643,41.647503],[24.40774,41.647412],[24.407985,41.647214],[24.408304,41.647024],[24.408739,41.646827],[24.409113,41.6467],[24.409344,41.646648],[24.409591,41.646623],[24.409774,41.646588],[24.410135,41.646486],[24.410234,41.646438],[24.410344,41.646411],[24.410478,41.646399],[24.410528,41.646371],[24.410545,41.646322],[24.41054,41.646276],[24.41049,41.646229],[24.410137,41.645954],[24.409995,41.645894],[24.409643,41.645788],[24.409534,41.645736],[24.409457,41.645682],[24.409397,41.645597],[24.409329,41.645439],[24.409273,41.645371],[24.409007,41.645201],[24.408694,41.645122],[24.408631,41.645075],[24.408588,41.644989],[24.408475,41.64498],[24.408326,41.644998],[24.408168,41.645032],[24.407989,41.645109],[24.407822,41.645136],[24.407314,41.645119],[24.407153,41.645159],[24.406821,41.645297],[24.406724,41.645386],[24.406568,41.645603],[24.406524,41.645702],[24.406467,41.64572],[24.406525,41.645591],[24.406681,41.645358],[24.406792,41.645274],[24.407145,41.645126],[24.40729,41.645092],[24.407815,41.645105],[24.407972,41.64508],[24.408153,41.645001],[24.408308,41.644969],[24.408473,41.64495],[24.408593,41.644959],[24.408629,41.644853],[24.408788,41.644615],[24.408868,41.644526],[24.408958,41.644467],[24.409171,41.644394],[24.409459,41.644373],[24.409597,41.64434],[24.409736,41.644279],[24.409862,41.644193],[24.410279,41.643546],[24.410419,41.643388],[24.410579,41.643244],[24.410657,41.64308],[24.41074,41.642968],[24.41083,41.642891],[24.410995,41.642807],[24.411252,41.642763],[24.411586,41.642757],[24.411869,41.642812],[24.411974,41.64286],[24.411942,41.642423],[24.411827,41.642207],[24.411674,41.641796],[24.411494,41.64142],[24.411261,41.641108],[24.411232,41.640941],[24.411156,41.640739],[24.410955,41.640329],[24.410726,41.639948],[24.410639,41.639663],[24.410626,41.639456],[24.410558,41.639241],[24.410434,41.639026],[24.410647,41.639017],[24.410954,41.63907],[24.410884,41.638736],[24.410974,41.638625],[24.411131,41.638571],[24.411391,41.638589],[24.411511,41.638554],[24.411537,41.638491],[24.411518,41.6384],[24.411424,41.638296],[24.411237,41.638222],[24.411088,41.638118],[24.41104,41.638063],[24.411057,41.638007],[24.411231,41.637866],[24.41123,41.637797],[24.411146,41.637706],[24.411033,41.637645],[24.410616,41.637593],[24.410494,41.637552],[24.410308,41.637456],[24.410288,41.637408],[24.410296,41.637317],[24.410323,41.637268],[24.410277,41.63722],[24.409745,41.637036],[24.409661,41.636981],[24.409929,41.636937],[24.410074,41.636889],[24.410109,41.636805],[24.410245,41.636749],[24.410461,41.636718],[24.410651,41.636611],[24.410656,41.636511],[24.410627,41.636404],[24.410522,41.636241],[24.410521,41.636178],[24.410593,41.636091],[24.410837,41.635889],[24.410971,41.635838],[24.411187,41.635805],[24.411344,41.635685],[24.411436,41.635649],[24.411565,41.635624],[24.412086,41.635427],[24.412258,41.635437],[24.412431,41.635523],[24.412568,41.63571],[24.412803,41.635888],[24.413056,41.636039],[24.413687,41.636257],[24.414219,41.636486],[24.414332,41.636512],[24.414518,41.636517],[24.414653,41.636568],[24.414988,41.636914],[24.415015,41.637006],[24.415151,41.637104],[24.415273,41.637149],[24.41562,41.637151],[24.415783,41.637224],[24.416089,41.637289],[24.416009,41.637164],[24.415878,41.637089],[24.415636,41.637001],[24.415347,41.636924],[24.415263,41.636849],[24.415127,41.636795],[24.415009,41.636698],[24.414829,41.636395],[24.414719,41.636248],[24.414611,41.636145],[24.414132,41.636066],[24.41384,41.635899],[24.413257,41.635661],[24.412704,41.635404],[24.412205,41.63528],[24.412075,41.63526],[24.411909,41.635274],[24.411805,41.635308],[24.411722,41.635372],[24.411577,41.635417],[24.411185,41.635587],[24.411098,41.635601],[24.410803,41.635583],[24.410518,41.635628],[24.410384,41.635678],[24.410148,41.635841],[24.409822,41.635939],[24.409633,41.635983],[24.409297,41.635972],[24.409204,41.636005],[24.409069,41.636111],[24.408881,41.636303],[24.408592,41.636547],[24.408296,41.63671],[24.408072,41.636733],[24.407888,41.636735],[24.407692,41.636688],[24.407474,41.636669],[24.40731,41.636685],[24.406801,41.636863],[24.406617,41.636864],[24.406373,41.636804],[24.405467,41.636714],[24.405268,41.636716],[24.405035,41.636746],[24.404737,41.63681],[24.404299,41.636948],[24.404184,41.637014],[24.404112,41.637106],[24.404042,41.63725],[24.403931,41.63739],[24.403834,41.637473],[24.403685,41.637517],[24.403422,41.637559],[24.403264,41.63761],[24.403185,41.63769],[24.403149,41.637782],[24.402986,41.637858],[24.402865,41.637865],[24.402564,41.63777],[24.402085,41.637752],[24.401616,41.63758],[24.401365,41.637503],[24.4011,41.637444],[24.400881,41.637339],[24.400584,41.637086],[24.400349,41.636933],[24.39946,41.636406],[24.399292,41.636365],[24.399161,41.636353],[24.398997,41.63641],[24.398845,41.636432],[24.3987,41.636419],[24.398456,41.636267],[24.398332,41.636248],[24.398249,41.636258],[24.397927,41.6364],[24.397705,41.636451],[24.397555,41.636459],[24.397408,41.636387],[24.397304,41.63629],[24.397272,41.636197],[24.397213,41.636134],[24.396887,41.636066],[24.396817,41.636023],[24.39674,41.635822],[24.396666,41.635798],[24.396545,41.635799],[24.396288,41.63587],[24.396058,41.63591],[24.395867,41.635904],[24.395601,41.63587],[24.395415,41.635816],[24.395339,41.635739],[24.394976,41.635648],[24.394628,41.635535],[24.394277,41.635373],[24.394017,41.635306],[24.393752,41.635148],[24.393589,41.635122],[24.393263,41.635153],[24.392881,41.635232],[24.392333,41.635369],[24.391672,41.63548],[24.391263,41.635504],[24.390942,41.635501],[24.390817,41.635473],[24.390563,41.635331],[24.390507,41.635261],[24.390282,41.635083],[24.390227,41.635014],[24.390118,41.634963],[24.389967,41.634864],[24.38985,41.63475],[24.389772,41.634643],[24.389636,41.634338],[24.38953,41.634234],[24.389036,41.633953],[24.388937,41.63388],[24.38886,41.633789],[24.388821,41.633718],[24.38877,41.633405],[24.3886,41.63324],[24.388599,41.633172],[24.388671,41.633088],[24.388662,41.633001],[24.388625,41.632941],[24.388527,41.632843],[24.388476,41.632813],[24.388444,41.632749],[24.388453,41.632665],[24.388497,41.632589],[24.388502,41.632467],[24.388545,41.632293],[24.388508,41.632213],[24.388284,41.632008],[24.388254,41.631935],[24.388253,41.631844],[24.38828,41.631741],[24.388413,41.631653],[24.388573,41.63151],[24.388645,41.63142],[24.388643,41.631327],[24.388577,41.631267],[24.388469,41.631241],[24.3884,41.631247],[24.388387,41.631376],[24.388306,41.631533],[24.388093,41.631769],[24.388067,41.631836],[24.388092,41.632181],[24.388011,41.632374],[24.387947,41.632702],[24.387965,41.633048],[24.387925,41.633163],[24.387719,41.633329],[24.387567,41.633475],[24.387513,41.633637],[24.387502,41.633875],[24.387748,41.634376],[24.387894,41.63477],[24.388133,41.635331],[24.388192,41.635523],[24.388226,41.635912],[24.388182,41.636187],[24.388104,41.63648],[24.388107,41.636675],[24.388144,41.636779],[24.388284,41.636848],[24.388479,41.636867],[24.388851,41.636947],[24.388954,41.63703],[24.389013,41.637176],[24.388926,41.637525],[24.388862,41.637637],[24.388753,41.637742],[24.388376,41.637989],[24.387889,41.63822],[24.387761,41.638318],[24.387668,41.638416],[24.387633,41.638556],[24.387601,41.638772],[24.387702,41.639364],[24.387798,41.639586],[24.388081,41.63989],[24.388193,41.640024],[24.38826,41.640135],[24.388337,41.640295],[24.38833,41.64042],[24.388257,41.640525],[24.387677,41.640802],[24.387429,41.640888],[24.387281,41.64098],[24.387171,41.641058],[24.3871,41.641245],[24.387104,41.641455],[24.38718,41.641667],[24.387294,41.641798],[24.387425,41.641887],[24.387798,41.642072],[24.387939,41.642183],[24.388023,41.642272],[24.388168,41.642591],[24.388505,41.642874],[24.38862,41.64304],[24.388707,41.643249],[24.388718,41.643457],[24.388702,41.643584],[24.388621,41.643767],[24.388242,41.644431],[24.387989,41.644813],[24.387935,41.644988],[24.38792,41.64517],[24.387941,41.645364],[24.38802,41.64567],[24.388193,41.646079],[24.38846,41.646606],[24.388559,41.646961],[24.388635,41.647155],[24.388675,41.647315],[24.388669,41.647496],[24.388641,41.647584],[24.388531,41.647703],[24.388319,41.64783],[24.387719,41.647968],[24.387442,41.647991],[24.387191,41.647993],[24.387098,41.64807],[24.386932,41.648117],[24.38677,41.648129],[24.386147,41.648105],[24.385805,41.648142],[24.385599,41.648203],[24.385229,41.648369],[24.385121,41.648442],[24.385007,41.648549],[24.384845,41.648798],[24.384799,41.648989],[24.384796,41.649236],[24.384817,41.649486],[24.384946,41.649996],[24.384944,41.650132],[24.384894,41.650264],[24.384822,41.650385],[24.384757,41.650466],[24.384682,41.650521],[24.384365,41.650612],[24.383842,41.650724],[24.383517,41.650842],[24.382973,41.651217],[24.38283,41.651348],[24.382756,41.651478],[24.382739,41.651555],[24.382558,41.651864],[24.382498,41.652004],[24.382366,41.653168],[24.382188,41.653581],[24.381741,41.654374],[24.381655,41.65466],[24.381612,41.654747],[24.38148,41.654904],[24.381176,41.655144],[24.380917,41.655397],[24.3806,41.655741],[24.37976,41.656508]]]},"properties":{"cadreg":3}}]}