{"type":"FeatureCollection","features":[{"type":"Feature","geometry":{"type":"Polygon","coordinates":[[[24.795397,42.269425],[24.787792,42.270622],[24.787757,42.270693],[24.7862,42.281956],[24.78631,42.281962],[24.786336,42.28185],[24.789925,42.281905],[24.791753,42.274497],[24.792865,42.270139],[24.792945,42.270079],[24.793259,42.269923],[24.793375,42.269896],[24.793599,42.269781],[24.795244,42.269528],[24.795414,42.269512],[24.795397,42.269425]]]},"properties":{"cadreg":1}},{"type":"Feature","geometry":{"type":"Polygon","coordinates":[[[24.79173,42.281933],[24.792533,42.277674],[24.792504,42.277671],[24.792386,42.277701],[24.79222,42.277853],[24.791821,42.279216],[24.791769,42.279294],[24.790935,42.280216],[24.790397,42.280322],[24.790001,42.281907],[24.79173,42.281933]]]},"properties":{"cadreg":2}},{"type":"Feature","geometry":{"type":"Polygon","coordinates":[[[24.79173,42.281933],[24.786336,42.28185],[24.78631,42.281962],[24.795804,42.282153],[24.798453,42.282098],[24.798479,42.282021],[24.798422,42.282021],[24.799708,42.2774],[24.796365,42.277838],[24.7959,42.277833],[24.794633,42.277778],[24.792619,42.277631],[24.792569,42.277643],[24.792533,42.277674],[24.79173,42.281933]]]},"properties":{"cadreg":3}},{"type":"Feature","geometry":{"type":"Polygon","coordinates":[[[24.801989,42.270543],[24.80193,42.271184],[24.801895,42.271353],[24.801868,42.271439],[24.801801,42.27155],[24.801739,42.271585],[24.801669,42.271589],[24.800737,42.274365],[24.799953,42.27679],[24.799593,42.277978],[24.798453,42.282098],[24.802436,42.282191],[24.809445,42.282294],[24.807241,42.271277],[24.806567,42.269385],[24.806099,42.269591],[24.80555,42.269704],[24.805541,42.269685],[24.803937,42.27003],[24.803866,42.270075],[24.803824,42.270137],[24.803798,42.270551],[24.801989,42.270543]]]},"properties":{"cadreg":4}},{"type":"Feature","geometry":{"type":"Polygon","coordinates":[[[24.806664,42.269492],[24.80729,42.271257],[24.807381,42.271682],[24.809509,42.282292],[24.811869,42.282246],[24.811899,42.282221],[24.811915,42.282118],[24.81207,42.274276],[24.812285,42.266013],[24.812324,42.265866],[24.812361,42.265808],[24.812407,42.265763],[24.812539,42.265704],[24.813931,42.265465],[24.813953,42.265394],[24.812278,42.265685],[24.81225,42.265736],[24.812181,42.266892],[24.812122,42.268439],[24.806664,42.269492]]]},"properties":{"cadreg":5}},{"type":"Feature","geometry":{"type":"Polygon","coordinates":[[[24.799163,42.271264],[24.797382,42.27118],[24.797348,42.272193],[24.7971,42.272186],[24.796768,42.272291],[24.796679,42.272355],[24.7959,42.277833],[24.796365,42.277838],[24.799708,42.2774],[24.798422,42.282021],[24.798479,42.282021],[24.799763,42.277384],[24.800737,42.274365],[24.801669,42.271589],[24.799183,42.271474],[24.799163,42.271264]]]},"properties":{"cadreg":6}},{"type":"Feature","geometry":{"type":"Polygon","coordinates":[[[24.7971,42.272186],[24.795461,42.272142],[24.795441,42.271225],[24.795628,42.269766],[24.795634,42.269622],[24.795612,42.269489],[24.795413,42.269503],[24.793599,42.269781],[24.793375,42.269896],[24.793259,42.269923],[24.792945,42.270079],[24.792865,42.270139],[24.791753,42.274497],[24.789925,42.281905],[24.790001,42.281907],[24.790397,42.280322],[24.790935,42.280216],[24.791769,42.279294],[24.791821,42.279216],[24.79222,42.277853],[24.792386,42.277701],[24.792469,42.277672],[24.792533,42.277674],[24.792569,42.277643],[24.792619,42.277631],[24.794633,42.277778],[24.7959,42.277833],[24.796679,42.272355],[24.796768,42.272291],[24.7971,42.272186]]]},"properties":{"cadreg":7}},{"type":"Feature","geometry":{"type":"Polygon","coordinates":[[[24.787813,42.264988],[24.787789,42.26115],[24.787758,42.261127],[24.787718,42.261123],[24.787792,42.270622],[24.793079,42.269786],[24.793749,42.268229],[24.793765,42.268138],[24.793797,42.2656],[24.793794,42.265534],[24.793745,42.265534],[24.793776,42.262628],[24.793898,42.262489],[24.795562,42.262461],[24.795573,42.262496],[24.795659,42.262495],[24.795648,42.262451],[24.800748,42.262337],[24.800738,42.2623],[24.800377,42.262304],[24.793846,42.26245],[24.793743,42.262604],[24.791736,42.264013],[24.791646,42.26406],[24.791538,42.264102],[24.78786,42.264951],[24.787813,42.264988]]]},"properties":{"cadreg":8}},{"type":"Feature","geometry":{"type":"Polygon","coordinates":[[[24.793765,42.268138],[24.793749,42.268229],[24.793079,42.269786],[24.795397,42.269425],[24.795184,42.268122],[24.796213,42.267967],[24.796918,42.267844],[24.795913,42.265979],[24.795863,42.265839],[24.795807,42.265648],[24.795563,42.263885],[24.795959,42.26387],[24.795952,42.263828],[24.799091,42.263705],[24.799133,42.264015],[24.79969,42.263968],[24.799896,42.263762],[24.799846,42.263708],[24.800233,42.263345],[24.800934,42.26393],[24.800985,42.263828],[24.801039,42.263512],[24.801011,42.263279],[24.800748,42.262337],[24.795648,42.262451],[24.795659,42.262495],[24.795573,42.262496],[24.795562,42.262461],[24.793898,42.262489],[24.793776,42.262628],[24.793745,42.265534],[24.793794,42.265534],[24.793797,42.2656],[24.793765,42.268138]]]},"properties":{"cadreg":9}},{"type":"Feature","geometry":{"type":"Polygon","coordinates":[[[24.787919,42.262722],[24.787916,42.263458],[24.787804,42.263474],[24.787813,42.264988],[24.78786,42.264951],[24.791538,42.264102],[24.791646,42.26406],[24.791736,42.264013],[24.793743,42.262604],[24.793846,42.26245],[24.800738,42.2623],[24.801011,42.263279],[24.801039,42.263512],[24.800985,42.263828],[24.800934,42.26393],[24.801037,42.263986],[24.80107,42.263986],[24.801181,42.26375],[24.801239,42.263418],[24.801233,42.263342],[24.800924,42.26235],[24.800949,42.262235],[24.799051,42.255397],[24.798843,42.255454],[24.799132,42.256478],[24.792385,42.258426],[24.792033,42.258354],[24.789419,42.262661],[24.789383,42.262686],[24.787919,42.262722]]]},"properties":{"cadreg":10}},{"type":"Feature","geometry":{"type":"Polygon","coordinates":[[[24.800924,42.26235],[24.801233,42.263342],[24.801239,42.263418],[24.801181,42.26375],[24.80107,42.263986],[24.801648,42.263967],[24.802028,42.265518],[24.80278,42.265429],[24.802987,42.265356],[24.804459,42.265002],[24.804393,42.265117],[24.805151,42.266768],[24.805224,42.26689],[24.805273,42.266871],[24.805332,42.266954],[24.804356,42.267334],[24.804473,42.26748],[24.804758,42.268094],[24.804402,42.268179],[24.804632,42.268656],[24.805014,42.268528],[24.805066,42.268615],[24.805028,42.268627],[24.805484,42.269604],[24.805565,42.26968],[24.805541,42.269685],[24.80555,42.269704],[24.806099,42.269591],[24.806567,42.269385],[24.805645,42.266789],[24.805709,42.266777],[24.804653,42.263806],[24.802415,42.262379],[24.802263,42.262385],[24.802194,42.262337],[24.802343,42.262333],[24.802406,42.262299],[24.800924,42.26235]]]},"properties":{"cadreg":11}},{"type":"Feature","geometry":{"type":"Polygon","coordinates":[[[24.789644,42.257911],[24.787586,42.260982],[24.787692,42.26107],[24.787718,42.261123],[24.787758,42.261127],[24.787789,42.26115],[24.787804,42.263474],[24.787916,42.263458],[24.787919,42.262722],[24.789383,42.262686],[24.789419,42.262661],[24.792033,42.258354],[24.792385,42.258426],[24.799132,42.256478],[24.798843,42.255454],[24.789644,42.257911]]]},"properties":{"cadreg":12}},{"type":"Feature","geometry":{"type":"Polygon","coordinates":[[[24.806434,42.253331],[24.799051,42.255397],[24.800949,42.262235],[24.800924,42.26235],[24.802406,42.262299],[24.805402,42.260605],[24.807725,42.259142],[24.806434,42.253331]]]},"properties":{"cadreg":13}},{"type":"Feature","geometry":{"type":"Polygon","coordinates":[[[24.809887,42.257801],[24.805402,42.260605],[24.802343,42.262333],[24.802194,42.262337],[24.802263,42.262385],[24.802415,42.262379],[24.804653,42.263806],[24.805709,42.266777],[24.813968,42.265333],[24.813931,42.265465],[24.814016,42.265449],[24.814678,42.261829],[24.814439,42.261807],[24.813784,42.261671],[24.813285,42.261551],[24.813074,42.261448],[24.812926,42.261343],[24.810193,42.258236],[24.8102,42.258151],[24.809887,42.257801]]]},"properties":{"cadreg":14}},{"type":"Feature","geometry":{"type":"Polygon","coordinates":[[[24.805645,42.266789],[24.807241,42.271277],[24.809445,42.282294],[24.809509,42.282292],[24.80729,42.271257],[24.806664,42.269492],[24.812122,42.268439],[24.812181,42.266892],[24.81225,42.265736],[24.812278,42.265685],[24.813953,42.265394],[24.813968,42.265333],[24.805645,42.266789]]]},"properties":{"cadreg":15}},{"type":"Feature","geometry":{"type":"Polygon","coordinates":[[[24.795959,42.26387],[24.795563,42.263885],[24.795564,42.263933],[24.795807,42.265648],[24.795913,42.265979],[24.796918,42.267844],[24.796213,42.267967],[24.795184,42.268122],[24.79541,42.269503],[24.795612,42.269489],[24.795634,42.269622],[24.795613,42.269903],[24.795441,42.271225],[24.795461,42.272142],[24.797348,42.272193],[24.797382,42.27118],[24.799163,42.271264],[24.799183,42.271474],[24.801739,42.271585],[24.801809,42.271539],[24.801868,42.271439],[24.801909,42.271299],[24.801989,42.270543],[24.803798,42.270551],[24.803815,42.270172],[24.803852,42.27009],[24.803917,42.270039],[24.803991,42.270013],[24.805565,42.26968],[24.805484,42.269604],[24.805028,42.268627],[24.805066,42.268615],[24.805014,42.268528],[24.804632,42.268656],[24.804402,42.268179],[24.804758,42.268094],[24.804473,42.26748],[24.804356,42.267334],[24.805332,42.266954],[24.805273,42.266871],[24.805224,42.26689],[24.805151,42.266768],[24.804393,42.265117],[24.804459,42.265002],[24.802987,42.265356],[24.80278,42.265429],[24.802028,42.265518],[24.801648,42.263967],[24.801037,42.263986],[24.800912,42.263918],[24.800233,42.263345],[24.799846,42.263708],[24.799896,42.263762],[24.79969,42.263968],[24.799133,42.264015],[24.799091,42.263705],[24.795952,42.263828],[24.795959,42.26387]]]},"properties":{"cadreg":501}}]}