{"type":"FeatureCollection","features":[{"type":"Feature","geometry":{"type":"Polygon","coordinates":[[[24.775599,42.224107],[24.775499,42.22409],[24.775441,42.224102],[24.779071,42.235051],[24.781549,42.234422],[24.781243,42.233425],[24.779976,42.229514],[24.777686,42.222706],[24.777464,42.222903],[24.776703,42.22337],[24.775599,42.224107]]]},"properties":{"cadreg":1}},{"type":"Feature","geometry":{"type":"Polygon","coordinates":[[[24.779748,42.220732],[24.779173,42.221365],[24.778539,42.22187],[24.778006,42.222345],[24.777716,42.22261],[24.777734,42.222664],[24.777686,42.222706],[24.779976,42.229514],[24.781243,42.233425],[24.781549,42.234422],[24.784148,42.233761],[24.780474,42.222756],[24.780595,42.222703],[24.780359,42.222389],[24.780635,42.222276],[24.781045,42.221145],[24.781247,42.220835],[24.781301,42.220865],[24.781356,42.220827],[24.781927,42.220299],[24.782428,42.219932],[24.782739,42.219808],[24.783349,42.219621],[24.783417,42.219503],[24.780568,42.220292],[24.780291,42.220343],[24.780132,42.22042],[24.779748,42.220732]]]},"properties":{"cadreg":2}},{"type":"Feature","geometry":{"type":"Polygon","coordinates":[[[24.784599,42.220142],[24.784136,42.219292],[24.783417,42.219503],[24.783349,42.219621],[24.782739,42.219808],[24.782428,42.219932],[24.781927,42.220299],[24.781356,42.220827],[24.781301,42.220865],[24.781247,42.220835],[24.781045,42.221145],[24.780635,42.222276],[24.780359,42.222389],[24.780595,42.222703],[24.780474,42.222756],[24.784148,42.233761],[24.786166,42.233249],[24.785763,42.23236],[24.785717,42.232031],[24.785714,42.231834],[24.785858,42.229446],[24.785958,42.227132],[24.785888,42.226641],[24.785366,42.224267],[24.785354,42.223066],[24.785239,42.222525],[24.784938,42.221365],[24.784915,42.2212],[24.784782,42.220891],[24.784599,42.220142]]]},"properties":{"cadreg":3}},{"type":"Feature","geometry":{"type":"Polygon","coordinates":[[[24.790039,42.231944],[24.787706,42.22146],[24.790857,42.221073],[24.790454,42.219222],[24.789594,42.219024],[24.787489,42.218297],[24.787315,42.218098],[24.787,42.218056],[24.787011,42.218099],[24.786887,42.218106],[24.786945,42.218376],[24.78691,42.218407],[24.786523,42.218528],[24.785624,42.218755],[24.785598,42.218728],[24.785475,42.218761],[24.785239,42.218793],[24.784259,42.21914],[24.784117,42.219168],[24.784098,42.219194],[24.784152,42.219343],[24.784599,42.220142],[24.784782,42.220891],[24.784915,42.2212],[24.784938,42.221365],[24.785056,42.221855],[24.785239,42.222525],[24.785354,42.223066],[24.785366,42.224267],[24.785888,42.226641],[24.785958,42.227132],[24.785858,42.229446],[24.785714,42.231834],[24.785717,42.232031],[24.785763,42.23236],[24.786166,42.233249],[24.786369,42.233224],[24.790039,42.231944]]]},"properties":{"cadreg":4}},{"type":"Feature","geometry":{"type":"Polygon","coordinates":[[[24.791228,42.222881],[24.790857,42.221073],[24.787706,42.22146],[24.790039,42.231944],[24.793277,42.230815],[24.793249,42.230733],[24.793193,42.230752],[24.792727,42.229462],[24.792236,42.227425],[24.791228,42.222881]]]},"properties":{"cadreg":5}},{"type":"Feature","geometry":{"type":"Polygon","coordinates":[[[24.796069,42.229841],[24.793347,42.217472],[24.790862,42.219305],[24.790743,42.219248],[24.790519,42.219237],[24.790454,42.219222],[24.791044,42.221934],[24.791228,42.222881],[24.792236,42.227425],[24.792727,42.229462],[24.793193,42.230752],[24.793249,42.230733],[24.793277,42.230815],[24.796069,42.229841]]]},"properties":{"cadreg":6}},{"type":"Feature","geometry":{"type":"Polygon","coordinates":[[[24.797181,42.220415],[24.794278,42.216785],[24.793347,42.217472],[24.796069,42.229841],[24.798785,42.228882],[24.797449,42.220618],[24.79741,42.220588],[24.797406,42.220747],[24.797181,42.220415]]]},"properties":{"cadreg":7}},{"type":"Feature","geometry":{"type":"Polygon","coordinates":[[[24.802756,42.213889],[24.795168,42.21762],[24.794953,42.217628],[24.797181,42.220415],[24.797406,42.220747],[24.79741,42.220588],[24.797449,42.220618],[24.80207,42.217349],[24.802146,42.217316],[24.804849,42.216901],[24.804989,42.216636],[24.802756,42.213889]]]},"properties":{"cadreg":8}},{"type":"Feature","geometry":{"type":"Polygon","coordinates":[[[24.800843,42.211537],[24.79312,42.215338],[24.794953,42.217628],[24.795168,42.21762],[24.802756,42.213889],[24.800843,42.211537]]]},"properties":{"cadreg":9}},{"type":"Feature","geometry":{"type":"Polygon","coordinates":[[[24.789847,42.2145],[24.789828,42.214452],[24.786769,42.216634],[24.786551,42.216854],[24.786493,42.217028],[24.786511,42.217386],[24.786631,42.217872],[24.786631,42.21805],[24.786994,42.21803],[24.787,42.218056],[24.787315,42.218098],[24.787489,42.218297],[24.789594,42.219024],[24.790519,42.219237],[24.790743,42.219248],[24.790862,42.219305],[24.794278,42.216785],[24.79312,42.215338],[24.792039,42.216053],[24.791244,42.213679],[24.789925,42.214596],[24.789877,42.214478],[24.789847,42.2145]]]},"properties":{"cadreg":10}},{"type":"Feature","geometry":{"type":"Polygon","coordinates":[[[24.784679,42.210731],[24.783786,42.210757],[24.78767,42.215991],[24.789828,42.214452],[24.789847,42.2145],[24.789877,42.214478],[24.788287,42.210647],[24.788249,42.210647],[24.788268,42.210692],[24.784679,42.210731]]]},"properties":{"cadreg":11}},{"type":"Feature","geometry":{"type":"Polygon","coordinates":[[[24.782321,42.210839],[24.782329,42.210623],[24.782126,42.210634],[24.782117,42.212034],[24.782096,42.212581],[24.782182,42.212665],[24.782948,42.213665],[24.783002,42.21365],[24.783086,42.213724],[24.782935,42.213764],[24.783651,42.215185],[24.784018,42.21508],[24.784185,42.215401],[24.784816,42.216157],[24.786128,42.218078],[24.786631,42.21805],[24.786631,42.217872],[24.786511,42.217386],[24.786493,42.217028],[24.786551,42.216854],[24.786769,42.216634],[24.78767,42.215991],[24.783786,42.210757],[24.782517,42.210794],[24.782381,42.210863],[24.782321,42.210839]]]},"properties":{"cadreg":12}},{"type":"Feature","geometry":{"type":"Polygon","coordinates":[[[24.786051,42.218152],[24.785599,42.218178],[24.785271,42.218163],[24.785159,42.218817],[24.785598,42.218728],[24.785922,42.218345],[24.786051,42.218152]]]},"properties":{"cadreg":13}},{"type":"Feature","geometry":{"type":"Polygon","coordinates":[[[24.784816,42.216157],[24.784264,42.215491],[24.783869,42.215634],[24.784678,42.216786],[24.784803,42.217006],[24.784846,42.21727],[24.784814,42.217488],[24.785724,42.217499],[24.785772,42.218102],[24.786128,42.218078],[24.784816,42.216157]]]},"properties":{"cadreg":14}},{"type":"Feature","geometry":{"type":"Polygon","coordinates":[[[24.782948,42.213665],[24.782497,42.21308],[24.782182,42.212665],[24.782159,42.213878],[24.782948,42.213665]]]},"properties":{"cadreg":15}},{"type":"Feature","geometry":{"type":"Polygon","coordinates":[[[24.78182,42.213004],[24.781813,42.213242],[24.781771,42.213403],[24.781164,42.214091],[24.781194,42.21413],[24.781584,42.21402],[24.781722,42.213996],[24.781871,42.214072],[24.781879,42.213646],[24.781928,42.213639],[24.781932,42.213203],[24.78182,42.213004]]]},"properties":{"cadreg":16}},{"type":"Feature","geometry":{"type":"Polygon","coordinates":[[[24.780452,42.214983],[24.781169,42.214797],[24.781085,42.214613],[24.781348,42.214505],[24.78112,42.214212],[24.780452,42.214983]]]},"properties":{"cadreg":17}},{"type":"Feature","geometry":{"type":"Polygon","coordinates":[[[24.779867,42.215662],[24.779799,42.215799],[24.779791,42.215946],[24.779757,42.217599],[24.779811,42.217648],[24.780236,42.217456],[24.779863,42.215925],[24.779914,42.215608],[24.779867,42.215662]]]},"properties":{"cadreg":18}},{"type":"Feature","geometry":{"type":"Polygon","coordinates":[[[24.782522,42.217741],[24.781749,42.217726],[24.780596,42.217854],[24.780427,42.217935],[24.780299,42.218053],[24.779788,42.21774],[24.77972,42.217766],[24.780084,42.218107],[24.78029,42.218339],[24.780317,42.218502],[24.780757,42.21954],[24.781071,42.21993],[24.781197,42.219939],[24.781275,42.220096],[24.784136,42.219292],[24.784098,42.219194],[24.784117,42.219168],[24.784011,42.218983],[24.7833,42.21926],[24.782957,42.218674],[24.78318,42.218585],[24.782763,42.217761],[24.782522,42.217741]]]},"properties":{"cadreg":20}},{"type":"Feature","geometry":{"type":"Polygon","coordinates":[[[24.773519,42.212898],[24.767788,42.218743],[24.774953,42.222619],[24.775441,42.224102],[24.775499,42.22409],[24.775599,42.224107],[24.776703,42.22337],[24.777464,42.222903],[24.777734,42.222664],[24.777716,42.22261],[24.778539,42.22187],[24.779173,42.221365],[24.779719,42.220755],[24.780132,42.22042],[24.780291,42.220343],[24.780568,42.220292],[24.781275,42.220096],[24.781197,42.219939],[24.781071,42.21993],[24.780757,42.21954],[24.780317,42.218502],[24.78029,42.218339],[24.780084,42.218107],[24.77972,42.217766],[24.779741,42.217762],[24.779707,42.217696],[24.779811,42.217648],[24.779757,42.217599],[24.779789,42.216098],[24.779607,42.216078],[24.773519,42.212898]]]},"properties":{"cadreg":21}},{"type":"Feature","geometry":{"type":"Polygon","coordinates":[[[24.76811,42.211471],[24.763233,42.216247],[24.767788,42.218743],[24.773519,42.212898],[24.770877,42.211479],[24.770306,42.211243],[24.76811,42.211471]]]},"properties":{"cadreg":22}},{"type":"Feature","geometry":{"type":"Polygon","coordinates":[[[24.776351,42.210676],[24.773804,42.210881],[24.771012,42.211163],[24.770313,42.211246],[24.770877,42.211479],[24.773519,42.212898],[24.779607,42.216078],[24.779789,42.216098],[24.779799,42.215799],[24.779917,42.215589],[24.780415,42.214993],[24.780452,42.214983],[24.781066,42.214284],[24.78112,42.214212],[24.781072,42.214149],[24.781151,42.214074],[24.781164,42.214091],[24.781771,42.213403],[24.781813,42.213242],[24.78182,42.213004],[24.781932,42.213203],[24.781928,42.213639],[24.78203,42.213623],[24.782024,42.213857],[24.782107,42.213892],[24.782159,42.213878],[24.782182,42.212665],[24.782096,42.212581],[24.782117,42.212034],[24.782126,42.210634],[24.782329,42.210623],[24.782336,42.210314],[24.781609,42.210399],[24.780143,42.21048],[24.779914,42.210448],[24.776351,42.210676]]]},"properties":{"cadreg":23}},{"type":"Feature","geometry":{"type":"Polygon","coordinates":[[[24.774823,42.205895],[24.769819,42.210988],[24.770313,42.211246],[24.771012,42.211163],[24.773804,42.210881],[24.775487,42.210745],[24.775478,42.210691],[24.776221,42.209851],[24.777086,42.208742],[24.776488,42.207832],[24.775923,42.207133],[24.774823,42.205895]]]},"properties":{"cadreg":24}},{"type":"Feature","geometry":{"type":"Polygon","coordinates":[[[24.780104,42.210442],[24.777299,42.208928],[24.777203,42.208871],[24.777086,42.208742],[24.776221,42.209851],[24.775478,42.210691],[24.775487,42.210745],[24.776351,42.210676],[24.779914,42.210448],[24.780143,42.21048],[24.780104,42.210442]]]},"properties":{"cadreg":25}},{"type":"Feature","geometry":{"type":"Polygon","coordinates":[[[24.782249,42.202487],[24.77653,42.206791],[24.776494,42.206786],[24.775061,42.204975],[24.774972,42.205003],[24.774765,42.204739],[24.774683,42.204763],[24.774089,42.205035],[24.774823,42.205895],[24.775923,42.207133],[24.776488,42.207832],[24.777086,42.208742],[24.777203,42.208871],[24.779826,42.210287],[24.780104,42.210442],[24.780143,42.21048],[24.781609,42.210399],[24.781784,42.210378],[24.781761,42.210254],[24.781782,42.209489],[24.781872,42.209366],[24.781968,42.209103],[24.782124,42.202634],[24.782248,42.202543],[24.782249,42.202487]]]},"properties":{"cadreg":26}},{"type":"Feature","geometry":{"type":"Polygon","coordinates":[[[24.777893,42.200705],[24.771612,42.201193],[24.770754,42.201314],[24.771236,42.201561],[24.771531,42.201865],[24.771981,42.202439],[24.772276,42.202878],[24.772943,42.203692],[24.774089,42.205035],[24.774683,42.204763],[24.774765,42.204739],[24.774972,42.205003],[24.775061,42.204975],[24.776494,42.206786],[24.77653,42.206791],[24.782249,42.202487],[24.782272,42.201501],[24.777929,42.201172],[24.777893,42.200705]]]},"properties":{"cadreg":27}},{"type":"Feature","geometry":{"type":"Polygon","coordinates":[[[24.782283,42.201502],[24.782248,42.202543],[24.782124,42.202634],[24.781968,42.209103],[24.781872,42.209366],[24.781782,42.209489],[24.781761,42.210254],[24.781784,42.210378],[24.782336,42.210314],[24.782321,42.210839],[24.782381,42.210863],[24.782517,42.210794],[24.784679,42.210731],[24.788268,42.210692],[24.788249,42.210647],[24.788287,42.210647],[24.788187,42.210405],[24.787117,42.206894],[24.78679,42.201177],[24.782386,42.20151],[24.782283,42.201502]]]},"properties":{"cadreg":28}},{"type":"Feature","geometry":{"type":"Polygon","coordinates":[[[24.780415,42.214993],[24.779917,42.215589],[24.779863,42.215925],[24.780236,42.217456],[24.779707,42.217696],[24.779741,42.217762],[24.779788,42.21774],[24.780299,42.218053],[24.780427,42.217935],[24.780596,42.217854],[24.781749,42.217726],[24.782522,42.217741],[24.782763,42.217761],[24.78318,42.218585],[24.782957,42.218674],[24.7833,42.21926],[24.784011,42.218983],[24.784117,42.219168],[24.784259,42.21914],[24.785159,42.218817],[24.785271,42.218163],[24.785599,42.218178],[24.786051,42.218152],[24.785922,42.218345],[24.785598,42.218728],[24.785624,42.218755],[24.786523,42.218528],[24.78691,42.218407],[24.786945,42.218376],[24.786887,42.218106],[24.787011,42.218099],[24.786994,42.21803],[24.785772,42.218102],[24.785724,42.217499],[24.784814,42.217488],[24.784846,42.21727],[24.784803,42.217006],[24.784678,42.216786],[24.783869,42.215634],[24.784264,42.215491],[24.784185,42.215401],[24.784018,42.21508],[24.783651,42.215185],[24.782935,42.213764],[24.783086,42.213724],[24.783002,42.21365],[24.782107,42.213892],[24.782024,42.213857],[24.78203,42.213623],[24.781879,42.213646],[24.781871,42.214072],[24.781722,42.213996],[24.781584,42.21402],[24.781194,42.21413],[24.781151,42.214074],[24.781072,42.214149],[24.781348,42.214505],[24.781085,42.214613],[24.781169,42.214797],[24.780415,42.214993]]]},"properties":{"cadreg":29}}]}