{"type":"FeatureCollection","features":[{"type":"Feature","geometry":{"type":"Polygon","coordinates":[[[24.552296,42.124916],[24.552253,42.125269],[24.552342,42.125275],[24.552385,42.124922],[24.552296,42.124916]]]},"properties":{"num":1}},{"type":"Feature","geometry":{"type":"Polygon","coordinates":[[[24.552355,42.125276],[24.552443,42.125282],[24.552486,42.124927],[24.552397,42.124923],[24.552355,42.125276]]]},"properties":{"num":2}},{"type":"Feature","geometry":{"type":"Polygon","coordinates":[[[24.552451,42.125283],[24.55254,42.125289],[24.552572,42.125024],[24.552483,42.125019],[24.552451,42.125283]]]},"properties":{"num":3}},{"type":"Feature","geometry":{"type":"Polygon","coordinates":[[[24.552674,42.12503],[24.552585,42.125024],[24.552553,42.125289],[24.552642,42.125295],[24.552674,42.12503]]]},"properties":{"num":4}},{"type":"Feature","geometry":{"type":"Polygon","coordinates":[[[24.552686,42.12503],[24.552653,42.125296],[24.552742,42.125302],[24.552775,42.125036],[24.552686,42.12503]]]},"properties":{"num":5}},{"type":"Feature","geometry":{"type":"Polygon","coordinates":[[[24.552874,42.125041],[24.552785,42.125036],[24.552753,42.125303],[24.552842,42.125309],[24.552874,42.125041]]]},"properties":{"num":6}},{"type":"Feature","geometry":{"type":"Polygon","coordinates":[[[24.552852,42.12531],[24.552942,42.125316],[24.552974,42.125046],[24.552884,42.125042],[24.552852,42.12531]]]},"properties":{"num":7}},{"type":"Feature","geometry":{"type":"Polygon","coordinates":[[[24.551459,42.126617],[24.551368,42.126612],[24.55136,42.126662],[24.551403,42.126665],[24.551402,42.126673],[24.55145,42.126677],[24.551459,42.126617]]]},"properties":{"num":1}},{"type":"Feature","geometry":{"type":"Polygon","coordinates":[[[24.553016,42.121515],[24.553051,42.121438],[24.55304,42.12142],[24.552995,42.121409],[24.552984,42.12143],[24.552958,42.121423],[24.55295,42.12144],[24.55291,42.121429],[24.552884,42.121481],[24.553016,42.121515]]]},"properties":{"num":1}},{"type":"Feature","geometry":{"type":"Polygon","coordinates":[[[24.554158,42.123975],[24.553717,42.12395],[24.553701,42.124119],[24.554142,42.124143],[24.554158,42.123975]]]},"properties":{"num":1}},{"type":"Feature","geometry":{"type":"Polygon","coordinates":[[[24.552404,42.121285],[24.552346,42.121244],[24.552286,42.121291],[24.552344,42.121332],[24.552404,42.121285]]]},"properties":{"num":1}},{"type":"Feature","geometry":{"type":"Polygon","coordinates":[[[24.552344,42.121332],[24.552286,42.121291],[24.552218,42.121345],[24.552275,42.121386],[24.552344,42.121332]]]},"properties":{"num":2}},{"type":"Feature","geometry":{"type":"Polygon","coordinates":[[[24.552408,42.12153],[24.552193,42.121369],[24.552059,42.121468],[24.552103,42.121502],[24.552133,42.12148],[24.552303,42.121608],[24.552408,42.12153]]]},"properties":{"num":3}},{"type":"Feature","geometry":{"type":"Polygon","coordinates":[[[24.552698,42.121277],[24.55264,42.121242],[24.552422,42.121436],[24.552479,42.121471],[24.552698,42.121277]]]},"properties":{"num":4}},{"type":"Feature","geometry":{"type":"Polygon","coordinates":[[[24.549972,42.123717],[24.549533,42.123692],[24.549521,42.123805],[24.549961,42.123829],[24.549972,42.123717]]]},"properties":{"num":1}},{"type":"Feature","geometry":{"type":"Polygon","coordinates":[[[24.550155,42.123634],[24.550003,42.123625],[24.549992,42.123737],[24.550144,42.123746],[24.550155,42.123634]]]},"properties":{"num":2}},{"type":"Feature","geometry":{"type":"Polygon","coordinates":[[[24.550109,42.123744],[24.54997,42.123736],[24.549961,42.123829],[24.550049,42.123834],[24.550106,42.123773],[24.550109,42.123744]]]},"properties":{"num":3}},{"type":"Feature","geometry":{"type":"Polygon","coordinates":[[[24.5544,42.122802],[24.554796,42.122747],[24.554761,42.122607],[24.554364,42.122662],[24.5544,42.122802]]]},"properties":{"num":1}},{"type":"Feature","geometry":{"type":"Polygon","coordinates":[[[24.554495,42.122558],[24.554486,42.122523],[24.554383,42.122537],[24.554392,42.122573],[24.554495,42.122558]]]},"properties":{"num":1}},{"type":"Feature","geometry":{"type":"Polygon","coordinates":[[[24.55466,42.123367],[24.554673,42.123422],[24.554725,42.123416],[24.554726,42.123421],[24.554789,42.123412],[24.554788,42.123407],[24.554834,42.123401],[24.554821,42.123346],[24.55466,42.123367]]]},"properties":{"num":1}},{"type":"Feature","geometry":{"type":"Polygon","coordinates":[[[24.555694,42.123229],[24.555772,42.123551],[24.555918,42.123533],[24.55584,42.12321],[24.555694,42.123229]]]},"properties":{"num":2}},{"type":"Feature","geometry":{"type":"Polygon","coordinates":[[[24.554821,42.123346],[24.554807,42.123288],[24.554755,42.123295],[24.554753,42.12329],[24.554714,42.123295],[24.554715,42.1233],[24.554646,42.12331],[24.55466,42.123367],[24.554821,42.123346]]]},"properties":{"num":1}},{"type":"Feature","geometry":{"type":"Polygon","coordinates":[[[24.55584,42.12321],[24.555763,42.122887],[24.555617,42.122906],[24.555694,42.123229],[24.55584,42.12321]]]},"properties":{"num":2}},{"type":"Feature","geometry":{"type":"Polygon","coordinates":[[[24.555694,42.123229],[24.55568,42.123173],[24.555104,42.123252],[24.555114,42.123306],[24.555694,42.123229]]]},"properties":{"num":3}},{"type":"Feature","geometry":{"type":"Polygon","coordinates":[[[24.553994,42.121493],[24.553916,42.12142],[24.553826,42.121474],[24.553905,42.121546],[24.553994,42.121493]]]},"properties":{"num":1}},{"type":"Feature","geometry":{"type":"Polygon","coordinates":[[[24.553906,42.121426],[24.55386,42.121383],[24.553805,42.121443],[24.553833,42.121469],[24.553906,42.121426]]]},"properties":{"num":2}},{"type":"Feature","geometry":{"type":"Polygon","coordinates":[[[24.553887,42.121557],[24.553835,42.121509],[24.553779,42.121543],[24.553831,42.121591],[24.553887,42.121557]]]},"properties":{"num":3}},{"type":"Feature","geometry":{"type":"Polygon","coordinates":[[[24.568259,42.126885],[24.568228,42.126875],[24.568215,42.126898],[24.568245,42.126908],[24.568259,42.126885]]]},"properties":{"num":6}},{"type":"Feature","geometry":{"type":"Polygon","coordinates":[[[24.567325,42.126659],[24.567341,42.12668],[24.567362,42.126671],[24.567347,42.12665],[24.567325,42.126659]]]},"properties":{"num":1}},{"type":"Feature","geometry":{"type":"Polygon","coordinates":[[[24.567478,42.126667],[24.567501,42.126699],[24.567585,42.126666],[24.567558,42.126634],[24.567478,42.126667]]]},"properties":{"num":2}},{"type":"Feature","geometry":{"type":"Polygon","coordinates":[[[24.567766,42.12659],[24.567701,42.126691],[24.568099,42.126832],[24.568164,42.126732],[24.567766,42.12659]]]},"properties":{"num":3}},{"type":"Feature","geometry":{"type":"Polygon","coordinates":[[[24.568158,42.126668],[24.567838,42.126555],[24.567803,42.126603],[24.568127,42.126719],[24.568158,42.126668]]]},"properties":{"num":4}},{"type":"Feature","geometry":{"type":"Polygon","coordinates":[[[24.567749,42.126522],[24.567762,42.126513],[24.567742,42.126496],[24.567729,42.126505],[24.567749,42.126522]]]},"properties":{"num":5}},{"type":"Feature","geometry":{"type":"Polygon","coordinates":[[[24.569625,42.127239],[24.569595,42.127287],[24.56964,42.127303],[24.56967,42.127254],[24.569625,42.127239]]]},"properties":{"num":7}},{"type":"Feature","geometry":{"type":"Polygon","coordinates":[[[24.568249,42.126546],[24.567985,42.126453],[24.567962,42.126488],[24.568226,42.126581],[24.568249,42.126546]]]},"properties":{"num":8}},{"type":"Feature","geometry":{"type":"Polygon","coordinates":[[[24.568509,42.126644],[24.568249,42.126546],[24.568226,42.126581],[24.568488,42.126677],[24.568509,42.126644]]]},"properties":{"num":9}},{"type":"Feature","geometry":{"type":"Polygon","coordinates":[[[24.568895,42.126772],[24.568517,42.126639],[24.568487,42.126685],[24.568865,42.126819],[24.568895,42.126772]]]},"properties":{"num":10}},{"type":"Feature","geometry":{"type":"Polygon","coordinates":[[[24.576919,42.122287],[24.576967,42.122305],[24.576987,42.122276],[24.576937,42.122258],[24.576919,42.122287]]]},"properties":{"num":1}},{"type":"Feature","geometry":{"type":"Polygon","coordinates":[[[24.577507,42.121915],[24.577124,42.121776],[24.576868,42.122163],[24.577198,42.122285],[24.577361,42.122039],[24.577412,42.122057],[24.577507,42.121915]]]},"properties":{"num":2}},{"type":"Feature","geometry":{"type":"Polygon","coordinates":[[[24.577507,42.121915],[24.577393,42.122086],[24.57735,42.12207],[24.577205,42.122287],[24.577248,42.122303],[24.577217,42.12235],[24.577413,42.122424],[24.577415,42.122421],[24.577544,42.122468],[24.577834,42.122033],[24.577507,42.121915]]]},"properties":{"num":3}},{"type":"Feature","geometry":{"type":"Polygon","coordinates":[[[24.577392,42.121813],[24.57742,42.121771],[24.577404,42.121765],[24.577433,42.121721],[24.577392,42.121706],[24.577399,42.121694],[24.577262,42.121644],[24.577254,42.121656],[24.577214,42.121641],[24.577124,42.121776],[24.577344,42.121855],[24.577376,42.121807],[24.577392,42.121813]]]},"properties":{"num":4}},{"type":"Feature","geometry":{"type":"Polygon","coordinates":[[[24.577589,42.121758],[24.577619,42.121769],[24.577633,42.121748],[24.577602,42.121737],[24.577589,42.121758]]]},"properties":{"num":5}},{"type":"Feature","geometry":{"type":"Polygon","coordinates":[[[24.577185,42.122399],[24.577518,42.122519],[24.577653,42.122508],[24.577943,42.122072],[24.577834,42.122033],[24.577544,42.122468],[24.577415,42.122421],[24.577413,42.122424],[24.577217,42.12235],[24.577185,42.122399]]]},"properties":{"num":6}},{"type":"Feature","geometry":{"type":"Polygon","coordinates":[[[24.57702,42.122348],[24.57689,42.122546],[24.577379,42.122723],[24.577508,42.122525],[24.57702,42.122348]]]},"properties":{"num":7}},{"type":"Feature","geometry":{"type":"Polygon","coordinates":[[[24.577374,42.12273],[24.576783,42.122514],[24.576391,42.123104],[24.576982,42.12332],[24.577374,42.12273]]]},"properties":{"num":8}},{"type":"Feature","geometry":{"type":"Polygon","coordinates":[[[24.577031,42.123256],[24.57701,42.123288],[24.577038,42.123298],[24.577059,42.123266],[24.577031,42.123256]]]},"properties":{"num":9}},{"type":"Feature","geometry":{"type":"Polygon","coordinates":[[[24.577248,42.122303],[24.577177,42.122277],[24.57712,42.12236],[24.577134,42.12238],[24.577185,42.122399],[24.577248,42.122303]]]},"properties":{"num":10}},{"type":"Feature","geometry":{"type":"Polygon","coordinates":[[[24.577397,42.114485],[24.57733,42.114472],[24.577299,42.114556],[24.577367,42.114569],[24.577397,42.114485]]]},"properties":{"num":1}},{"type":"Feature","geometry":{"type":"Polygon","coordinates":[[[24.56706,42.115512],[24.566914,42.115479],[24.566876,42.115568],[24.567023,42.115602],[24.56706,42.115512]]]},"properties":{"num":1}},{"type":"Feature","geometry":{"type":"Polygon","coordinates":[[[24.572682,42.118079],[24.572704,42.118065],[24.572709,42.11807],[24.572732,42.118057],[24.572747,42.118072],[24.57281,42.118035],[24.572794,42.11802],[24.572831,42.117997],[24.572791,42.117959],[24.572772,42.11797],[24.572749,42.117949],[24.572731,42.11796],[24.572712,42.117942],[24.572689,42.117956],[24.572696,42.117964],[24.572651,42.11799],[24.572644,42.117983],[24.57261,42.118002],[24.572641,42.118032],[24.572635,42.118036],[24.572682,42.118079]]]},"properties":{"num":1}},{"type":"Feature","geometry":{"type":"Polygon","coordinates":[[[24.572911,42.117953],[24.572958,42.117925],[24.572974,42.117939],[24.573036,42.117903],[24.573021,42.11789],[24.573059,42.117866],[24.573019,42.117828],[24.573,42.117839],[24.572977,42.117817],[24.572958,42.117828],[24.572939,42.117811],[24.572916,42.117824],[24.572923,42.117832],[24.572878,42.117858],[24.572871,42.117851],[24.572837,42.11787],[24.572868,42.117899],[24.572861,42.117903],[24.572911,42.117953]]]},"properties":{"num":1}},{"type":"Feature","geometry":{"type":"Polygon","coordinates":[[[24.567108,42.115806],[24.567106,42.115756],[24.567094,42.115756],[24.567089,42.11568],[24.56697,42.115683],[24.566977,42.115809],[24.567108,42.115806]]]},"properties":{"num":1}},{"type":"Feature","geometry":{"type":"Polygon","coordinates":[[[24.566973,42.115],[24.566999,42.114939],[24.566841,42.114906],[24.566816,42.114964],[24.566973,42.115]]]},"properties":{"num":1}},{"type":"Feature","geometry":{"type":"Polygon","coordinates":[[[24.565341,42.125095],[24.565161,42.125081],[24.565151,42.125152],[24.56533,42.125166],[24.565341,42.125095]]]},"properties":{"num":1}},{"type":"Feature","geometry":{"type":"Polygon","coordinates":[[[24.551905,42.119523],[24.551905,42.119541],[24.551987,42.119541],[24.551988,42.119456],[24.551837,42.119457],[24.551836,42.119522],[24.551905,42.119523]]]},"properties":{"num":1}},{"type":"Feature","geometry":{"type":"Polygon","coordinates":[[[24.552492,42.11973],[24.552445,42.11972],[24.552432,42.119755],[24.552479,42.119764],[24.552492,42.11973]]]},"properties":{"num":1}},{"type":"Feature","geometry":{"type":"Polygon","coordinates":[[[24.552558,42.119558],[24.552593,42.119464],[24.552546,42.119454],[24.552511,42.119549],[24.552558,42.119558]]]},"properties":{"num":2}},{"type":"Feature","geometry":{"type":"Polygon","coordinates":[[[24.553192,42.11997],[24.5532,42.119954],[24.553231,42.119963],[24.553267,42.119908],[24.553172,42.11988],[24.553131,42.119953],[24.553192,42.11997]]]},"properties":{"num":1}},{"type":"Feature","geometry":{"type":"Polygon","coordinates":[[[24.553369,42.119885],[24.553355,42.11985],[24.553341,42.119853],[24.553336,42.119842],[24.553256,42.119861],[24.553276,42.119906],[24.553369,42.119885]]]},"properties":{"num":2}},{"type":"Feature","geometry":{"type":"Polygon","coordinates":[[[24.553336,42.119842],[24.553321,42.119811],[24.553353,42.119803],[24.553322,42.119734],[24.553232,42.119757],[24.553268,42.119832],[24.553291,42.119826],[24.553303,42.11985],[24.553336,42.119842]]]},"properties":{"num":3}},{"type":"Feature","geometry":{"type":"Polygon","coordinates":[[[24.552624,42.119854],[24.552688,42.119871],[24.552705,42.119838],[24.552591,42.119808],[24.55257,42.119852],[24.552618,42.119865],[24.552624,42.119854]]]},"properties":{"num":1}},{"type":"Feature","geometry":{"type":"Polygon","coordinates":[[[24.552732,42.1195],[24.552667,42.119484],[24.552633,42.119563],[24.55277,42.119598],[24.5528,42.119534],[24.552725,42.119515],[24.552732,42.1195]]]},"properties":{"num":2}}]}