{"type":"FeatureCollection","features":[{"type":"Feature","geometry":{"type":"Polygon","coordinates":[[[24.558449,42.117769],[24.558112,42.117525],[24.557328,42.117316],[24.556923,42.117334],[24.557026,42.119037],[24.557108,42.119273],[24.55693,42.119311],[24.556985,42.119386],[24.556322,42.119488],[24.556429,42.11973],[24.557255,42.12028],[24.55845,42.121155],[24.56015,42.122574],[24.560647,42.122938],[24.561056,42.123154],[24.561109,42.123077],[24.562132,42.123814],[24.563383,42.124752],[24.56367,42.124956],[24.563811,42.125018],[24.569019,42.124794],[24.569116,42.124771],[24.56923,42.124707],[24.569473,42.124466],[24.569473,42.124155],[24.569412,42.123417],[24.569627,42.121966],[24.569706,42.121654],[24.569889,42.121369],[24.570741,42.120356],[24.570979,42.120129],[24.571385,42.119854],[24.571738,42.119675],[24.572246,42.119679],[24.5742,42.120371],[24.574229,42.120312],[24.574216,42.120245],[24.574094,42.120187],[24.574722,42.118835],[24.573246,42.118107],[24.571971,42.11884],[24.571706,42.118564],[24.571427,42.11853],[24.571327,42.118685],[24.569994,42.118212],[24.569879,42.118159],[24.566763,42.116092],[24.566424,42.114385],[24.566375,42.114341],[24.56629,42.114305],[24.563192,42.114557],[24.563078,42.114914],[24.562934,42.115001],[24.562094,42.115032],[24.560288,42.115139],[24.560186,42.115168],[24.560311,42.115369],[24.560227,42.115401],[24.560852,42.116534],[24.561037,42.117442],[24.561011,42.117672],[24.560609,42.118479],[24.559057,42.118508],[24.558694,42.118604],[24.558645,42.118537],[24.558572,42.118538],[24.558449,42.117769]]]},"properties":{"cadreg":888}},{"type":"Feature","geometry":{"type":"Polygon","coordinates":[[[24.583143,42.134195],[24.58314,42.134105],[24.570194,42.134522],[24.569591,42.134535],[24.568385,42.134525],[24.567181,42.134488],[24.567115,42.134506],[24.567128,42.134569],[24.56941,42.134631],[24.572294,42.134566],[24.573454,42.134537],[24.583143,42.134195]]]},"properties":{"cadreg":25}},{"type":"Feature","geometry":{"type":"Polygon","coordinates":[[[24.552337,42.120869],[24.552366,42.120445],[24.552456,42.120062],[24.552316,42.120036],[24.552292,42.120018],[24.552242,42.120942],[24.552083,42.121222],[24.551607,42.121637],[24.548794,42.123915],[24.547506,42.125001],[24.547849,42.125217],[24.548151,42.125533],[24.548209,42.125708],[24.548226,42.126001],[24.548207,42.126285],[24.548214,42.126699],[24.548387,42.127571],[24.548425,42.12766],[24.548528,42.127673],[24.550465,42.127753],[24.555078,42.128013],[24.555186,42.127989],[24.555349,42.128001],[24.555373,42.127609],[24.555155,42.12659],[24.554337,42.123478],[24.553971,42.121964],[24.553914,42.121803],[24.55382,42.121646],[24.553648,42.121481],[24.55341,42.121331],[24.553008,42.121204],[24.552455,42.121061],[24.552358,42.121008],[24.552337,42.120869]]]},"properties":{"cadreg":1}},{"type":"Feature","geometry":{"type":"Polygon","coordinates":[[[24.553219,42.120135],[24.552643,42.120042],[24.552456,42.120062],[24.552366,42.120445],[24.552337,42.120869],[24.552358,42.121008],[24.552455,42.121061],[24.553008,42.121204],[24.55341,42.121331],[24.553648,42.121481],[24.55382,42.121646],[24.553914,42.121803],[24.553971,42.121964],[24.554337,42.123478],[24.555155,42.12659],[24.555373,42.127609],[24.555349,42.128001],[24.555299,42.128204],[24.555014,42.129207],[24.55483,42.12974],[24.554551,42.13071],[24.554673,42.13075],[24.555093,42.129206],[24.555391,42.128293],[24.555507,42.127662],[24.555415,42.127258],[24.555378,42.127204],[24.565178,42.129713],[24.565183,42.129672],[24.564132,42.12939],[24.563869,42.129271],[24.563978,42.129248],[24.563808,42.129204],[24.563575,42.129045],[24.562785,42.128841],[24.562237,42.128639],[24.561413,42.128197],[24.561339,42.128122],[24.561307,42.128023],[24.561158,42.127813],[24.561069,42.127602],[24.561187,42.127439],[24.561251,42.12729],[24.561341,42.127253],[24.561686,42.127227],[24.561872,42.127166],[24.562071,42.127137],[24.562605,42.126889],[24.561851,42.126352],[24.561654,42.126169],[24.561128,42.125832],[24.560735,42.125517],[24.560492,42.125415],[24.560107,42.125181],[24.559598,42.124799],[24.559343,42.124428],[24.558309,42.123425],[24.55817,42.123111],[24.558087,42.122842],[24.557716,42.122382],[24.55742,42.122088],[24.557351,42.12194],[24.557305,42.121751],[24.556801,42.121284],[24.556526,42.121129],[24.556367,42.120986],[24.555972,42.120562],[24.555473,42.120237],[24.555385,42.120225],[24.555038,42.119848],[24.553863,42.120096],[24.553499,42.120143],[24.553219,42.120135]]]},"properties":{"cadreg":2}},{"type":"Feature","geometry":{"type":"Polygon","coordinates":[[[24.555507,42.127662],[24.555391,42.128293],[24.555093,42.129206],[24.554673,42.13075],[24.554551,42.13071],[24.554512,42.130904],[24.555017,42.131039],[24.555997,42.131407],[24.556686,42.131702],[24.557688,42.131944],[24.558811,42.132158],[24.559963,42.132318],[24.56017,42.132397],[24.56034,42.132431],[24.560377,42.132462],[24.560791,42.132624],[24.564092,42.133568],[24.56468,42.133635],[24.564922,42.131953],[24.56512,42.130897],[24.565304,42.129685],[24.565183,42.129672],[24.565178,42.129713],[24.555378,42.127204],[24.555415,42.127258],[24.555507,42.127662]]]},"properties":{"cadreg":3}},{"type":"Feature","geometry":{"type":"Polygon","coordinates":[[[24.565304,42.129685],[24.56512,42.130897],[24.564922,42.131953],[24.56468,42.133635],[24.565243,42.133656],[24.565788,42.133709],[24.56693,42.13399],[24.56749,42.134151],[24.567337,42.1344],[24.567338,42.134436],[24.567181,42.134488],[24.567782,42.13451],[24.569591,42.134535],[24.57396,42.134406],[24.574479,42.134342],[24.575178,42.134209],[24.577213,42.134035],[24.577324,42.128204],[24.577311,42.127821],[24.577461,42.127761],[24.577467,42.127401],[24.577384,42.127519],[24.576785,42.127795],[24.57658,42.127856],[24.576078,42.128181],[24.575808,42.128296],[24.57555,42.128717],[24.575187,42.129072],[24.574743,42.129279],[24.574184,42.129429],[24.574251,42.129464],[24.574162,42.129573],[24.573954,42.129746],[24.573772,42.129707],[24.572451,42.129581],[24.57177,42.129399],[24.571293,42.129431],[24.571233,42.129449],[24.569462,42.130494],[24.568711,42.13078],[24.568299,42.130771],[24.567606,42.130566],[24.567129,42.130292],[24.566831,42.130156],[24.566394,42.129777],[24.566352,42.12976],[24.565328,42.128973],[24.565157,42.128885],[24.564675,42.128696],[24.564293,42.128592],[24.564027,42.128617],[24.563455,42.128744],[24.563256,42.128823],[24.563738,42.129025],[24.563978,42.129248],[24.563869,42.129271],[24.564132,42.12939],[24.565183,42.129672],[24.565304,42.129685]]]},"properties":{"cadreg":4}},{"type":"Feature","geometry":{"type":"Polygon","coordinates":[[[24.580909,42.126817],[24.580212,42.126378],[24.579828,42.126234],[24.579082,42.126129],[24.578307,42.126051],[24.577606,42.126103],[24.577257,42.126179],[24.576599,42.126595],[24.57635,42.127156],[24.576212,42.127553],[24.575808,42.128296],[24.576078,42.128181],[24.57658,42.127856],[24.576785,42.127795],[24.577384,42.127519],[24.577467,42.127401],[24.577461,42.127761],[24.577311,42.127821],[24.577324,42.128204],[24.577213,42.134035],[24.575178,42.134209],[24.574479,42.134342],[24.57396,42.134406],[24.58314,42.134105],[24.582665,42.12792],[24.582628,42.127857],[24.582652,42.127848],[24.582599,42.127259],[24.5825,42.127138],[24.582286,42.127033],[24.581971,42.127004],[24.581681,42.12703],[24.58139,42.126992],[24.581104,42.126901],[24.580909,42.126817]]]},"properties":{"cadreg":5}},{"type":"Feature","geometry":{"type":"Polygon","coordinates":[[[24.562071,42.127137],[24.561872,42.127166],[24.561686,42.127227],[24.561341,42.127253],[24.561251,42.12729],[24.561187,42.127439],[24.561069,42.127602],[24.561158,42.127813],[24.561307,42.128023],[24.561339,42.128122],[24.561413,42.128197],[24.562237,42.128639],[24.562785,42.128841],[24.563575,42.129045],[24.563808,42.129204],[24.563978,42.129248],[24.563738,42.129025],[24.563256,42.128823],[24.563455,42.128744],[24.564027,42.128617],[24.564293,42.128592],[24.564675,42.128696],[24.565157,42.128885],[24.565328,42.128973],[24.566352,42.12976],[24.566394,42.129777],[24.566831,42.130156],[24.567129,42.130292],[24.567606,42.130566],[24.568299,42.130771],[24.568711,42.13078],[24.569462,42.130494],[24.571233,42.129449],[24.571293,42.129431],[24.57177,42.129399],[24.572451,42.129581],[24.573772,42.129707],[24.573954,42.129746],[24.574162,42.129573],[24.574251,42.129464],[24.574184,42.129429],[24.573664,42.129447],[24.573252,42.129384],[24.573069,42.129314],[24.572775,42.129123],[24.572437,42.128825],[24.572281,42.128539],[24.572163,42.128405],[24.572053,42.128338],[24.572015,42.128213],[24.57195,42.127664],[24.57186,42.127359],[24.57149,42.126624],[24.571162,42.126222],[24.570862,42.126018],[24.56977,42.125498],[24.569315,42.125435],[24.569002,42.125519],[24.56866,42.125671],[24.568423,42.125903],[24.568101,42.126154],[24.567549,42.126412],[24.56705,42.126588],[24.566737,42.126672],[24.566393,42.12668],[24.566174,42.126601],[24.565907,42.126559],[24.565647,42.126557],[24.565472,42.126586],[24.565191,42.126449],[24.564961,42.126406],[24.564707,42.126422],[24.564464,42.126366],[24.564312,42.1263],[24.564256,42.126251],[24.56375,42.126022],[24.563495,42.125939],[24.563415,42.125872],[24.56274,42.125668],[24.56215,42.125511],[24.561989,42.12563],[24.561743,42.125727],[24.561508,42.125761],[24.561295,42.125673],[24.561089,42.125662],[24.561054,42.125734],[24.561128,42.125832],[24.561654,42.126169],[24.561851,42.126352],[24.562605,42.126889],[24.562071,42.127137]]]},"properties":{"cadreg":6}},{"type":"Feature","geometry":{"type":"Polygon","coordinates":[[[24.570741,42.120356],[24.569889,42.121369],[24.569706,42.121654],[24.569627,42.121966],[24.569412,42.123417],[24.569473,42.124155],[24.569473,42.124466],[24.56923,42.124707],[24.569116,42.124771],[24.569019,42.124794],[24.564276,42.125004],[24.564422,42.125048],[24.564559,42.125006],[24.565552,42.12507],[24.566233,42.125187],[24.566354,42.125195],[24.567054,42.125102],[24.567398,42.125076],[24.567688,42.125073],[24.568772,42.125143],[24.569213,42.125148],[24.569443,42.125119],[24.569739,42.125116],[24.569939,42.125145],[24.571139,42.12561],[24.571463,42.125828],[24.571558,42.125692],[24.572177,42.126527],[24.57244,42.127002],[24.572415,42.127286],[24.572592,42.12773],[24.572759,42.128237],[24.573107,42.128769],[24.573462,42.129013],[24.573803,42.129122],[24.574148,42.129123],[24.574736,42.128865],[24.575107,42.128636],[24.575361,42.128327],[24.575537,42.128051],[24.575702,42.127433],[24.575737,42.127068],[24.575939,42.126552],[24.576203,42.126086],[24.576339,42.125931],[24.576719,42.125842],[24.57731,42.125755],[24.577859,42.125682],[24.578577,42.125612],[24.579352,42.12564],[24.579812,42.125698],[24.580447,42.126011],[24.580899,42.126268],[24.581394,42.126524],[24.581771,42.126633],[24.582031,42.126662],[24.58234,42.126667],[24.582676,42.12678],[24.582768,42.126443],[24.58279,42.126268],[24.582757,42.126152],[24.582764,42.126038],[24.583626,42.123697],[24.583551,42.123671],[24.583504,42.123626],[24.583518,42.123592],[24.574229,42.120312],[24.5742,42.120371],[24.572246,42.119679],[24.571992,42.119682],[24.572017,42.119691],[24.571478,42.120331],[24.570979,42.120129],[24.570741,42.120356]]]},"properties":{"cadreg":7}},{"type":"Feature","geometry":{"type":"Polygon","coordinates":[[[24.574094,42.120187],[24.574216,42.120245],[24.574229,42.120312],[24.583414,42.12355],[24.583518,42.123592],[24.583504,42.123626],[24.583551,42.123671],[24.583626,42.123697],[24.584217,42.122074],[24.584097,42.121932],[24.58266,42.121388],[24.581388,42.120933],[24.580604,42.120698],[24.578589,42.120007],[24.576234,42.119171],[24.573555,42.118171],[24.573246,42.118107],[24.574722,42.118835],[24.574094,42.120187]]]},"properties":{"cadreg":8}},{"type":"Feature","geometry":{"type":"Polygon","coordinates":[[[24.571046,42.111872],[24.567182,42.111186],[24.566737,42.112635],[24.566375,42.114341],[24.566424,42.114385],[24.566763,42.116092],[24.569879,42.118159],[24.569994,42.118212],[24.571327,42.118685],[24.571427,42.11853],[24.571706,42.118564],[24.571971,42.11884],[24.575077,42.117067],[24.575071,42.117053],[24.575951,42.116562],[24.57759,42.115601],[24.577545,42.115475],[24.577577,42.115258],[24.578053,42.114826],[24.578792,42.114202],[24.579136,42.113856],[24.579171,42.113766],[24.579108,42.113627],[24.578796,42.113459],[24.577838,42.113275],[24.576466,42.112978],[24.571046,42.111872]]]},"properties":{"cadreg":9}},{"type":"Feature","geometry":{"type":"Polygon","coordinates":[[[24.546315,42.116498],[24.545912,42.11625],[24.545514,42.115975],[24.545106,42.115822],[24.544268,42.115632],[24.543623,42.115399],[24.543441,42.115365],[24.543212,42.11539],[24.543133,42.115373],[24.541951,42.115537],[24.541581,42.116509],[24.541553,42.116658],[24.541765,42.117313],[24.54199,42.117729],[24.542406,42.118036],[24.543546,42.118205],[24.543836,42.118185],[24.544833,42.118319],[24.546611,42.118616],[24.546706,42.118723],[24.546644,42.118158],[24.546406,42.116488],[24.546315,42.116498]]]},"properties":{"cadreg":10}},{"type":"Feature","geometry":{"type":"Polygon","coordinates":[[[24.571738,42.119675],[24.571385,42.119854],[24.570979,42.120129],[24.571478,42.120331],[24.572017,42.119691],[24.571738,42.119675]]]},"properties":{"cadreg":11}},{"type":"Feature","geometry":{"type":"Polygon","coordinates":[[[24.561056,42.123154],[24.560647,42.122938],[24.56015,42.122574],[24.55845,42.121155],[24.557255,42.12028],[24.556429,42.11973],[24.556353,42.119559],[24.555371,42.119772],[24.555711,42.120178],[24.556087,42.120588],[24.556344,42.120752],[24.556682,42.121046],[24.557099,42.121339],[24.557696,42.121621],[24.5583,42.121881],[24.558803,42.122322],[24.559112,42.123025],[24.55941,42.123414],[24.559704,42.12365],[24.559885,42.123981],[24.559968,42.124516],[24.560308,42.124945],[24.560583,42.125104],[24.561033,42.125248],[24.561841,42.125425],[24.56274,42.125668],[24.563415,42.125872],[24.563495,42.125939],[24.56375,42.126022],[24.564256,42.126251],[24.564312,42.1263],[24.564464,42.126366],[24.564707,42.126422],[24.564961,42.126406],[24.565191,42.126449],[24.565472,42.126586],[24.565647,42.126557],[24.565907,42.126559],[24.566174,42.126601],[24.566393,42.12668],[24.566737,42.126672],[24.56705,42.126588],[24.567549,42.126412],[24.568101,42.126154],[24.568423,42.125903],[24.56866,42.125671],[24.569002,42.125519],[24.569315,42.125435],[24.56977,42.125498],[24.570862,42.126018],[24.571162,42.126222],[24.57149,42.126624],[24.57186,42.127359],[24.57195,42.127664],[24.572015,42.128213],[24.572053,42.128338],[24.572163,42.128405],[24.572281,42.128539],[24.572437,42.128825],[24.572775,42.129123],[24.573069,42.129314],[24.573252,42.129384],[24.573664,42.129447],[24.574184,42.129429],[24.574743,42.129279],[24.575187,42.129072],[24.57555,42.128717],[24.575808,42.128296],[24.576212,42.127553],[24.57635,42.127156],[24.576599,42.126595],[24.577257,42.126179],[24.577606,42.126103],[24.578307,42.126051],[24.579082,42.126129],[24.579828,42.126234],[24.580212,42.126378],[24.580909,42.126817],[24.581104,42.126901],[24.58139,42.126992],[24.581681,42.12703],[24.581971,42.127004],[24.582286,42.127033],[24.5825,42.127138],[24.582599,42.127259],[24.582617,42.127241],[24.582595,42.126939],[24.582676,42.12678],[24.58234,42.126667],[24.582031,42.126662],[24.581771,42.126633],[24.581394,42.126524],[24.580899,42.126268],[24.580447,42.126011],[24.579812,42.125698],[24.579352,42.12564],[24.578577,42.125612],[24.577859,42.125682],[24.576719,42.125842],[24.576339,42.125931],[24.576203,42.126086],[24.575939,42.126552],[24.575737,42.127068],[24.575702,42.127433],[24.575537,42.128051],[24.575361,42.128327],[24.575107,42.128636],[24.574736,42.128865],[24.574148,42.129123],[24.573803,42.129122],[24.573462,42.129013],[24.573107,42.128769],[24.572759,42.128237],[24.572592,42.12773],[24.572415,42.127286],[24.57244,42.127002],[24.572177,42.126527],[24.571558,42.125692],[24.571463,42.125828],[24.571139,42.12561],[24.569939,42.125145],[24.569739,42.125116],[24.569443,42.125119],[24.569213,42.125148],[24.568772,42.125143],[24.567688,42.125073],[24.567398,42.125076],[24.567054,42.125102],[24.566354,42.125195],[24.566233,42.125187],[24.565552,42.12507],[24.565405,42.125058],[24.564559,42.125006],[24.564422,42.125048],[24.564276,42.125004],[24.563811,42.125018],[24.56367,42.124956],[24.563383,42.124752],[24.562132,42.123814],[24.561109,42.123077],[24.561056,42.123154]]]},"properties":{"cadreg":12}},{"type":"Feature","geometry":{"type":"Polygon","coordinates":[[[24.555473,42.120237],[24.555972,42.120562],[24.556367,42.120986],[24.556526,42.121129],[24.556801,42.121284],[24.557305,42.121751],[24.557351,42.12194],[24.55742,42.122088],[24.557716,42.122382],[24.558087,42.122842],[24.55817,42.123111],[24.558309,42.123425],[24.559343,42.124428],[24.559598,42.124799],[24.560107,42.125181],[24.560492,42.125415],[24.560735,42.125517],[24.561128,42.125832],[24.561054,42.125734],[24.561089,42.125662],[24.561295,42.125673],[24.561508,42.125761],[24.561743,42.125727],[24.561989,42.12563],[24.56215,42.125511],[24.561841,42.125425],[24.561033,42.125248],[24.560583,42.125104],[24.560308,42.124945],[24.559968,42.124516],[24.559885,42.123981],[24.559704,42.12365],[24.55941,42.123414],[24.559112,42.123025],[24.558803,42.122322],[24.5583,42.121881],[24.557696,42.121621],[24.557099,42.121339],[24.556682,42.121046],[24.556344,42.120752],[24.556087,42.120588],[24.555711,42.120178],[24.555371,42.119772],[24.555038,42.119848],[24.555385,42.120225],[24.555473,42.120237]]]},"properties":{"cadreg":13}},{"type":"Feature","geometry":{"type":"Polygon","coordinates":[[[24.554368,42.119712],[24.554294,42.119601],[24.553816,42.119674],[24.553707,42.11987],[24.553665,42.119912],[24.553776,42.119935],[24.554513,42.119803],[24.554554,42.119772],[24.554368,42.119712]]]},"properties":{"cadreg":14}},{"type":"Feature","geometry":{"type":"Polygon","coordinates":[[[24.552456,42.120062],[24.552643,42.120042],[24.553219,42.120135],[24.553499,42.120143],[24.553745,42.120115],[24.556353,42.119559],[24.556322,42.119488],[24.55471,42.119799],[24.554643,42.119799],[24.554554,42.119772],[24.554513,42.119803],[24.553776,42.119935],[24.553665,42.119912],[24.553623,42.119948],[24.553585,42.119766],[24.553474,42.119623],[24.553711,42.119563],[24.553897,42.119498],[24.553568,42.119371],[24.553115,42.119384],[24.552952,42.119422],[24.552776,42.119356],[24.552634,42.119218],[24.552313,42.119185],[24.551812,42.119244],[24.551385,42.119361],[24.551339,42.119474],[24.551227,42.119646],[24.550559,42.119509],[24.549102,42.119172],[24.546706,42.118723],[24.546611,42.118616],[24.544833,42.118319],[24.543836,42.118185],[24.543546,42.118205],[24.54243,42.11804],[24.542694,42.118218],[24.545501,42.118627],[24.548182,42.119118],[24.55087,42.119636],[24.552165,42.119913],[24.552223,42.119946],[24.552316,42.120036],[24.552456,42.120062]]]},"properties":{"cadreg":15}},{"type":"Feature","geometry":{"type":"Polygon","coordinates":[[[24.551227,42.113195],[24.549136,42.112617],[24.549069,42.112582],[24.548863,42.11253],[24.548766,42.112188],[24.548434,42.111895],[24.547471,42.111454],[24.546677,42.111331],[24.542868,42.109649],[24.543245,42.110082],[24.543354,42.110441],[24.543362,42.110891],[24.543269,42.111468],[24.542879,42.111261],[24.542374,42.111423],[24.543021,42.11211],[24.543211,42.112261],[24.544062,42.112523],[24.544349,42.112673],[24.544594,42.112864],[24.544761,42.113083],[24.545082,42.113094],[24.545341,42.113406],[24.545421,42.113459],[24.545416,42.113523],[24.545607,42.113741],[24.546521,42.114489],[24.547482,42.115127],[24.548428,42.115622],[24.549429,42.116121],[24.550504,42.116416],[24.551665,42.11677],[24.552424,42.117275],[24.553593,42.117718],[24.554215,42.118041],[24.554646,42.118464],[24.555124,42.118784],[24.555342,42.119146],[24.5554,42.119344],[24.555297,42.119678],[24.556322,42.119488],[24.556985,42.119386],[24.55693,42.119311],[24.557108,42.119273],[24.557026,42.119037],[24.556923,42.117334],[24.557328,42.117316],[24.557122,42.117247],[24.556864,42.116709],[24.556591,42.116311],[24.555996,42.115858],[24.55507,42.115457],[24.554983,42.115305],[24.555164,42.11497],[24.555406,42.114612],[24.555514,42.114255],[24.554749,42.114092],[24.553747,42.113845],[24.551227,42.113195]]]},"properties":{"cadreg":16}},{"type":"Feature","geometry":{"type":"Polygon","coordinates":[[[24.542103,42.111511],[24.541953,42.111589],[24.546119,42.114965],[24.548786,42.117708],[24.548994,42.117886],[24.54903,42.117846],[24.549187,42.117867],[24.549336,42.118005],[24.550371,42.118612],[24.550337,42.119457],[24.551227,42.119646],[24.551339,42.119474],[24.551385,42.119361],[24.551812,42.119244],[24.552313,42.119185],[24.552634,42.119218],[24.552776,42.119356],[24.552952,42.119422],[24.553115,42.119384],[24.553568,42.119371],[24.553897,42.119498],[24.553711,42.119563],[24.553474,42.119623],[24.553585,42.119766],[24.553623,42.119948],[24.553707,42.11987],[24.553816,42.119674],[24.554294,42.119601],[24.554368,42.119712],[24.554643,42.119799],[24.55471,42.119799],[24.555297,42.119678],[24.5554,42.119344],[24.555342,42.119146],[24.555124,42.118784],[24.554646,42.118464],[24.554215,42.118041],[24.553593,42.117718],[24.552424,42.117275],[24.551665,42.11677],[24.550504,42.116416],[24.549429,42.116121],[24.548428,42.115622],[24.547482,42.115127],[24.546521,42.114489],[24.545607,42.113741],[24.545416,42.113523],[24.545421,42.113459],[24.545341,42.113406],[24.545082,42.113094],[24.544761,42.113083],[24.544594,42.112864],[24.544349,42.112673],[24.544062,42.112523],[24.543211,42.112261],[24.543021,42.11211],[24.542374,42.111423],[24.542103,42.111511]]]},"properties":{"cadreg":17}},{"type":"Feature","geometry":{"type":"Polygon","coordinates":[[[24.540011,42.112189],[24.539965,42.114049],[24.540084,42.114597],[24.540235,42.115973],[24.541556,42.116095],[24.541553,42.116658],[24.541581,42.116509],[24.541951,42.115537],[24.543133,42.115373],[24.543212,42.11539],[24.543441,42.115365],[24.543623,42.115399],[24.544268,42.115632],[24.545106,42.115822],[24.545514,42.115975],[24.545912,42.11625],[24.546315,42.116498],[24.546406,42.116488],[24.546644,42.118158],[24.546706,42.118723],[24.549102,42.119172],[24.550337,42.119457],[24.550371,42.118612],[24.549336,42.118005],[24.549187,42.117867],[24.54903,42.117846],[24.548994,42.117886],[24.548786,42.117708],[24.546119,42.114965],[24.541953,42.111589],[24.540011,42.112189]]]},"properties":{"cadreg":18}}]}