{"type":"FeatureCollection","features":[{"type":"Feature","geometry":{"type":"Polygon","coordinates":[[[24.753513,42.335959],[24.75357,42.335942],[24.753562,42.335926],[24.753505,42.335942],[24.753513,42.335959]]]},"properties":{"num":8}},{"type":"Feature","geometry":{"type":"Polygon","coordinates":[[[24.752632,42.33514],[24.75261,42.3351],[24.75257,42.335112],[24.752592,42.335152],[24.752632,42.33514]]]},"properties":{"num":9}},{"type":"Feature","geometry":{"type":"Polygon","coordinates":[[[24.751678,42.336612],[24.75063,42.336022],[24.750542,42.336108],[24.75159,42.336698],[24.751678,42.336612]]]},"properties":{"num":1}},{"type":"Feature","geometry":{"type":"Polygon","coordinates":[[[24.751365,42.335667],[24.751248,42.335599],[24.750808,42.336035],[24.750927,42.336101],[24.751365,42.335667]]]},"properties":{"num":2}},{"type":"Feature","geometry":{"type":"Polygon","coordinates":[[[24.751248,42.335599],[24.751128,42.335531],[24.750687,42.335968],[24.750808,42.336035],[24.751248,42.335599]]]},"properties":{"num":3}},{"type":"Feature","geometry":{"type":"Polygon","coordinates":[[[24.752816,42.337249],[24.751766,42.336657],[24.751676,42.336745],[24.752726,42.337338],[24.752816,42.337249]]]},"properties":{"num":1}},{"type":"Feature","geometry":{"type":"Polygon","coordinates":[[[24.752977,42.337126],[24.752397,42.336798],[24.752307,42.336886],[24.752887,42.337215],[24.752977,42.337126]]]},"properties":{"num":2}},{"type":"Feature","geometry":{"type":"Polygon","coordinates":[[[24.753072,42.337032],[24.752494,42.336704],[24.752397,42.336798],[24.752977,42.337126],[24.753072,42.337032]]]},"properties":{"num":3}},{"type":"Feature","geometry":{"type":"Polygon","coordinates":[[[24.753161,42.336944],[24.752585,42.336617],[24.752494,42.336704],[24.753072,42.337032],[24.753161,42.336944]]]},"properties":{"num":4}},{"type":"Feature","geometry":{"type":"Polygon","coordinates":[[[24.753251,42.336854],[24.752675,42.336527],[24.752585,42.336617],[24.753161,42.336944],[24.753251,42.336854]]]},"properties":{"num":5}},{"type":"Feature","geometry":{"type":"Polygon","coordinates":[[[24.75334,42.336765],[24.752766,42.33644],[24.752675,42.336527],[24.753251,42.336854],[24.75334,42.336765]]]},"properties":{"num":6}},{"type":"Feature","geometry":{"type":"Polygon","coordinates":[[[24.753431,42.336676],[24.752858,42.33635],[24.752766,42.33644],[24.75334,42.336765],[24.753431,42.336676]]]},"properties":{"num":7}},{"type":"Feature","geometry":{"type":"Polygon","coordinates":[[[24.753522,42.336585],[24.75295,42.33626],[24.752858,42.33635],[24.753431,42.336676],[24.753522,42.336585]]]},"properties":{"num":8}},{"type":"Feature","geometry":{"type":"Polygon","coordinates":[[[24.752443,42.336399],[24.752137,42.336225],[24.75203,42.336329],[24.752337,42.336503],[24.752443,42.336399]]]},"properties":{"num":1}},{"type":"Feature","geometry":{"type":"Polygon","coordinates":[[[24.752541,42.336302],[24.752236,42.336129],[24.752137,42.336225],[24.752443,42.336399],[24.752541,42.336302]]]},"properties":{"num":1}},{"type":"Feature","geometry":{"type":"Polygon","coordinates":[[[24.751803,42.33628],[24.751321,42.336007],[24.751117,42.336206],[24.751599,42.33648],[24.751803,42.33628]]]},"properties":{"num":1}},{"type":"Feature","geometry":{"type":"Polygon","coordinates":[[[24.752061,42.33603],[24.751581,42.335758],[24.751374,42.335957],[24.751855,42.33623],[24.752061,42.33603]]]},"properties":{"num":2}},{"type":"Feature","geometry":{"type":"Polygon","coordinates":[[[24.752867,42.336187],[24.752914,42.336135],[24.752921,42.336139],[24.752944,42.336112],[24.752906,42.336092],[24.752772,42.336234],[24.752816,42.336256],[24.752874,42.336191],[24.752867,42.336187]]]},"properties":{"num":1}},{"type":"Feature","geometry":{"type":"Polygon","coordinates":[[[24.753204,42.335852],[24.75261,42.335534],[24.752476,42.335668],[24.753071,42.335988],[24.753204,42.335852]]]},"properties":{"num":1}},{"type":"Feature","geometry":{"type":"Polygon","coordinates":[[[24.752761,42.336009],[24.752654,42.33595],[24.752527,42.336081],[24.752636,42.336139],[24.752761,42.336009]]]},"properties":{"num":2}},{"type":"Feature","geometry":{"type":"Polygon","coordinates":[[[24.752281,42.335702],[24.752158,42.335633],[24.751976,42.335808],[24.7521,42.335877],[24.752281,42.335702]]]},"properties":{"num":3}},{"type":"Feature","geometry":{"type":"Polygon","coordinates":[[[24.752588,42.335918],[24.752469,42.335906],[24.752462,42.335947],[24.752581,42.335959],[24.752588,42.335918]]]},"properties":{"num":4}},{"type":"Feature","geometry":{"type":"Polygon","coordinates":[[[24.752469,42.33591],[24.752397,42.335889],[24.752382,42.335923],[24.752462,42.335947],[24.752469,42.33591]]]},"properties":{"num":5}},{"type":"Feature","geometry":{"type":"Polygon","coordinates":[[[24.752398,42.335885],[24.752346,42.335871],[24.75232,42.335932],[24.752372,42.335945],[24.752398,42.335885]]]},"properties":{"num":6}},{"type":"Feature","geometry":{"type":"Polygon","coordinates":[[[24.752486,42.336003],[24.752446,42.335981],[24.752357,42.33607],[24.752397,42.336092],[24.752486,42.336003]]]},"properties":{"num":7}},{"type":"Feature","geometry":{"type":"Polygon","coordinates":[[[24.751962,42.335699],[24.75193,42.335679],[24.751889,42.335714],[24.751922,42.335734],[24.751962,42.335699]]]},"properties":{"num":8}},{"type":"Feature","geometry":{"type":"Polygon","coordinates":[[[24.75184,42.335673],[24.751564,42.33549],[24.751524,42.335524],[24.7518,42.335707],[24.75184,42.335673]]]},"properties":{"num":9}},{"type":"Feature","geometry":{"type":"Polygon","coordinates":[[[24.751903,42.335495],[24.752084,42.335382],[24.752049,42.335353],[24.751974,42.3354],[24.751957,42.335385],[24.751892,42.335425],[24.751905,42.335437],[24.751865,42.335462],[24.751903,42.335495]]]},"properties":{"num":10}},{"type":"Feature","geometry":{"type":"Polygon","coordinates":[[[24.752184,42.335464],[24.752141,42.335429],[24.752095,42.335458],[24.752138,42.335493],[24.752184,42.335464]]]},"properties":{"num":11}},{"type":"Feature","geometry":{"type":"Polygon","coordinates":[[[24.752848,42.336059],[24.752823,42.336044],[24.752798,42.336071],[24.752823,42.336086],[24.752848,42.336059]]]},"properties":{"num":12}},{"type":"Feature","geometry":{"type":"Polygon","coordinates":[[[24.753817,42.336176],[24.753688,42.336212],[24.753915,42.336644],[24.754044,42.336606],[24.753817,42.336176]]]},"properties":{"num":1}},{"type":"Feature","geometry":{"type":"Polygon","coordinates":[[[24.751874,42.336481],[24.751774,42.336579],[24.75208,42.336753],[24.752181,42.336655],[24.751874,42.336481]]]},"properties":{"num":1}},{"type":"Feature","geometry":{"type":"Polygon","coordinates":[[[24.752285,42.336554],[24.751978,42.33638],[24.751874,42.336481],[24.752181,42.336655],[24.752285,42.336554]]]},"properties":{"num":1}},{"type":"Feature","geometry":{"type":"Polygon","coordinates":[[[24.753085,42.337544],[24.753103,42.337528],[24.753064,42.337504],[24.753046,42.33752],[24.753085,42.337544]]]},"properties":{"num":1}},{"type":"Feature","geometry":{"type":"Polygon","coordinates":[[[24.75391,42.33691],[24.753795,42.336702],[24.753453,42.33681],[24.753569,42.337017],[24.75391,42.33691]]]},"properties":{"num":5}},{"type":"Feature","geometry":{"type":"Polygon","coordinates":[[[24.75365,42.336748],[24.753604,42.336665],[24.753406,42.336727],[24.753453,42.33681],[24.75365,42.336748]]]},"properties":{"num":6}},{"type":"Feature","geometry":{"type":"Polygon","coordinates":[[[24.753795,42.336702],[24.753477,42.336125],[24.753331,42.336171],[24.75365,42.336748],[24.753795,42.336702]]]},"properties":{"num":8}},{"type":"Feature","geometry":{"type":"Polygon","coordinates":[[[24.75438,42.337318],[24.754303,42.337152],[24.753599,42.337331],[24.753676,42.337497],[24.75438,42.337318]]]},"properties":{"num":9}},{"type":"Feature","geometry":{"type":"Polygon","coordinates":[[[24.754472,42.33744],[24.754428,42.337345],[24.75439,42.337354],[24.754375,42.337319],[24.754319,42.337333],[24.754378,42.337464],[24.754472,42.33744]]]},"properties":{"num":11}},{"type":"Feature","geometry":{"type":"Polygon","coordinates":[[[24.754303,42.337152],[24.754248,42.337032],[24.753544,42.337211],[24.753599,42.337331],[24.754303,42.337152]]]},"properties":{"num":12}},{"type":"Feature","geometry":{"type":"Polygon","coordinates":[[[24.754251,42.337031],[24.754244,42.33703],[24.754091,42.336732],[24.753978,42.336764],[24.754011,42.336829],[24.754008,42.33685],[24.754023,42.336851],[24.754019,42.336872],[24.754035,42.336874],[24.75405,42.336904],[24.754046,42.336925],[24.754061,42.336927],[24.754058,42.336948],[24.754073,42.336949],[24.754089,42.336979],[24.754085,42.337],[24.7541,42.337002],[24.754097,42.337023],[24.754112,42.337025],[24.754129,42.337059],[24.754125,42.337063],[24.754251,42.337031]]]},"properties":{"num":14}},{"type":"Feature","geometry":{"type":"Polygon","coordinates":[[[24.752573,42.335477],[24.752635,42.335419],[24.752291,42.335219],[24.752229,42.335278],[24.752573,42.335477]]]},"properties":{"num":1}},{"type":"Feature","geometry":{"type":"Polygon","coordinates":[[[24.753001,42.334972],[24.752658,42.335067],[24.752693,42.335136],[24.753037,42.335043],[24.753001,42.334972]]]},"properties":{"num":2}},{"type":"Feature","geometry":{"type":"Polygon","coordinates":[[[24.753133,42.335621],[24.753169,42.335587],[24.75278,42.33536],[24.752672,42.335463],[24.75262,42.335433],[24.752573,42.335477],[24.752675,42.335536],[24.752794,42.335423],[24.753133,42.335621]]]},"properties":{"num":3}},{"type":"Feature","geometry":{"type":"Polygon","coordinates":[[[24.75329,42.335476],[24.753438,42.335434],[24.753171,42.334923],[24.753024,42.334965],[24.75329,42.335476]]]},"properties":{"num":4}},{"type":"Feature","geometry":{"type":"Polygon","coordinates":[[[24.753495,42.335543],[24.753438,42.335434],[24.75329,42.335476],[24.753349,42.335585],[24.753495,42.335543]]]},"properties":{"num":5}},{"type":"Feature","geometry":{"type":"Polygon","coordinates":[[[24.753337,42.335752],[24.753381,42.335712],[24.753189,42.335598],[24.753145,42.335638],[24.753337,42.335752]]]},"properties":{"num":6}},{"type":"Feature","geometry":{"type":"Polygon","coordinates":[[[24.753276,42.336071],[24.753289,42.336097],[24.753325,42.336087],[24.753311,42.336061],[24.753276,42.336071]]]},"properties":{"num":7}},{"type":"Feature","geometry":{"type":"Polygon","coordinates":[[[24.737617,42.346563],[24.737563,42.346529],[24.737505,42.34658],[24.737559,42.346613],[24.737617,42.346563]]]},"properties":{"num":2}},{"type":"Feature","geometry":{"type":"Polygon","coordinates":[[[24.733938,42.346796],[24.733993,42.346733],[24.733728,42.346613],[24.733675,42.346678],[24.733938,42.346796]]]},"properties":{"num":1}},{"type":"Feature","geometry":{"type":"Polygon","coordinates":[[[24.73529,42.348233],[24.734878,42.348048],[24.734801,42.348142],[24.735214,42.348327],[24.73529,42.348233]]]},"properties":{"num":1}},{"type":"Feature","geometry":{"type":"Polygon","coordinates":[[[24.734878,42.348048],[24.73479,42.34801],[24.734714,42.348103],[24.734801,42.348142],[24.734878,42.348048]]]},"properties":{"num":2}},{"type":"Feature","geometry":{"type":"Polygon","coordinates":[[[24.735365,42.348143],[24.735281,42.348106],[24.735215,42.348186],[24.735298,42.348224],[24.735365,42.348143]]]},"properties":{"num":3}},{"type":"Feature","geometry":{"type":"Polygon","coordinates":[[[24.734858,42.34804],[24.73504,42.347823],[24.734972,42.347794],[24.73479,42.34801],[24.734858,42.34804]]]},"properties":{"num":4}},{"type":"Feature","geometry":{"type":"Polygon","coordinates":[[[24.7341,42.346046],[24.733868,42.345963],[24.733826,42.346025],[24.734057,42.34611],[24.7341,42.346046]]]},"properties":{"num":1}},{"type":"Feature","geometry":{"type":"Polygon","coordinates":[[[24.734374,42.346143],[24.734238,42.346095],[24.734255,42.346068],[24.734213,42.346053],[24.734195,42.34608],[24.7341,42.346046],[24.734057,42.34611],[24.734329,42.34621],[24.734374,42.346143]]]},"properties":{"num":1}},{"type":"Feature","geometry":{"type":"Polygon","coordinates":[[[24.734329,42.34621],[24.734587,42.346306],[24.734633,42.346238],[24.734374,42.346143],[24.734329,42.34621]]]},"properties":{"num":1}},{"type":"Feature","geometry":{"type":"Polygon","coordinates":[[[24.734607,42.346633],[24.734566,42.34662],[24.734532,42.346676],[24.734572,42.346689],[24.734607,42.346633]]]},"properties":{"num":1}},{"type":"Feature","geometry":{"type":"Polygon","coordinates":[[[24.735638,42.347125],[24.735109,42.346796],[24.735034,42.346862],[24.735562,42.347192],[24.735638,42.347125]]]},"properties":{"num":1}},{"type":"Feature","geometry":{"type":"Polygon","coordinates":[[[24.736149,42.346609],[24.736251,42.346518],[24.736071,42.346407],[24.7361,42.346379],[24.736056,42.346352],[24.736026,42.346379],[24.735811,42.346248],[24.736073,42.346014],[24.735964,42.345946],[24.735596,42.346267],[24.736149,42.346609]]]},"properties":{"num":1}},{"type":"Feature","geometry":{"type":"Polygon","coordinates":[[[24.736271,42.346652],[24.736171,42.346588],[24.736149,42.346609],[24.736249,42.346671],[24.736271,42.346652]]]},"properties":{"num":2}},{"type":"Feature","geometry":{"type":"Polygon","coordinates":[[[24.736216,42.346617],[24.7363,42.346545],[24.736254,42.346516],[24.736171,42.346588],[24.736216,42.346617]]]},"properties":{"num":3}},{"type":"Feature","geometry":{"type":"Polygon","coordinates":[[[24.735127,42.345939],[24.735203,42.345871],[24.734727,42.345578],[24.73465,42.345646],[24.735127,42.345939]]]},"properties":{"num":1}},{"type":"Feature","geometry":{"type":"Polygon","coordinates":[[[24.735718,42.34541],[24.735779,42.345355],[24.735446,42.345149],[24.735385,42.345204],[24.735718,42.34541]]]},"properties":{"num":1}},{"type":"Feature","geometry":{"type":"Polygon","coordinates":[[[24.735738,42.345247],[24.735899,42.345095],[24.735825,42.345051],[24.735664,42.345203],[24.735738,42.345247]]]},"properties":{"num":2}},{"type":"Feature","geometry":{"type":"Polygon","coordinates":[[[24.735822,42.347715],[24.735876,42.347645],[24.735761,42.347594],[24.735706,42.347664],[24.735822,42.347715]]]},"properties":{"num":1}},{"type":"Feature","geometry":{"type":"Polygon","coordinates":[[[24.735542,42.347592],[24.735661,42.347457],[24.735605,42.347429],[24.735486,42.347566],[24.735542,42.347592]]]},"properties":{"num":1}},{"type":"Feature","geometry":{"type":"Polygon","coordinates":[[[24.73671,42.34584],[24.736617,42.345783],[24.736639,42.345763],[24.736611,42.345746],[24.736589,42.345765],[24.736398,42.345647],[24.736296,42.345736],[24.736341,42.345766],[24.73636,42.345749],[24.736563,42.345876],[24.736524,42.345911],[24.736558,42.345932],[24.736625,42.345873],[24.736683,42.345865],[24.73671,42.34584]]]},"properties":{"num":3}},{"type":"Feature","geometry":{"type":"Polygon","coordinates":[[[24.739361,42.342169],[24.739334,42.342158],[24.739329,42.342164],[24.739302,42.342152],[24.739284,42.342175],[24.739311,42.342187],[24.739305,42.342193],[24.739333,42.342205],[24.739361,42.342169]]]},"properties":{"num":1}},{"type":"Feature","geometry":{"type":"Polygon","coordinates":[[[24.738966,42.342042],[24.739012,42.342062],[24.739094,42.34196],[24.739048,42.34194],[24.738966,42.342042]]]},"properties":{"num":2}},{"type":"Feature","geometry":{"type":"Polygon","coordinates":[[[24.739213,42.34271],[24.739133,42.34286],[24.739207,42.342883],[24.739288,42.342732],[24.739213,42.34271]]]},"properties":{"num":1}},{"type":"Feature","geometry":{"type":"Polygon","coordinates":[[[24.739272,42.342845],[24.7393,42.342794],[24.739261,42.342782],[24.739234,42.342833],[24.739272,42.342845]]]},"properties":{"num":2}},{"type":"Feature","geometry":{"type":"Polygon","coordinates":[[[24.738479,42.343735],[24.738569,42.343633],[24.73816,42.343429],[24.738071,42.34353],[24.738479,42.343735]]]},"properties":{"num":1}},{"type":"Feature","geometry":{"type":"Polygon","coordinates":[[[24.738192,42.343381],[24.738565,42.342975],[24.73844,42.342912],[24.738065,42.34332],[24.738192,42.343381]]]},"properties":{"num":2}},{"type":"Feature","geometry":{"type":"Polygon","coordinates":[[[24.738524,42.34282],[24.73844,42.342912],[24.73862,42.343003],[24.738705,42.342912],[24.738524,42.34282]]]},"properties":{"num":3}},{"type":"Feature","geometry":{"type":"Polygon","coordinates":[[[24.738705,42.342912],[24.73862,42.343003],[24.738922,42.343157],[24.739006,42.343065],[24.738705,42.342912]]]},"properties":{"num":4}},{"type":"Feature","geometry":{"type":"Polygon","coordinates":[[[24.739126,42.343125],[24.739006,42.343065],[24.738922,42.343157],[24.739042,42.343218],[24.739126,42.343125]]]},"properties":{"num":5}},{"type":"Feature","geometry":{"type":"Polygon","coordinates":[[[24.738103,42.344031],[24.738189,42.343938],[24.737271,42.343457],[24.737182,42.343548],[24.738103,42.344031]]]},"properties":{"num":1}},{"type":"Feature","geometry":{"type":"Polygon","coordinates":[[[24.736785,42.34712],[24.737164,42.346701],[24.737041,42.346639],[24.736662,42.347059],[24.736785,42.34712]]]},"properties":{"num":3}},{"type":"Feature","geometry":{"type":"Polygon","coordinates":[[[24.736757,42.347151],[24.736785,42.34712],[24.736662,42.347059],[24.736634,42.34709],[24.736757,42.347151]]]},"properties":{"num":4}},{"type":"Feature","geometry":{"type":"Polygon","coordinates":[[[24.735789,42.345691],[24.735715,42.345645],[24.735277,42.346032],[24.735351,42.346079],[24.735789,42.345691]]]},"properties":{"num":2}},{"type":"Feature","geometry":{"type":"Polygon","coordinates":[[[24.736502,42.34628],[24.736604,42.346195],[24.736319,42.346016],[24.73622,42.346105],[24.736502,42.34628]]]},"properties":{"num":6}},{"type":"Feature","geometry":{"type":"Polygon","coordinates":[[[24.736657,42.346318],[24.736542,42.346244],[24.736502,42.34628],[24.736618,42.346352],[24.736657,42.346318]]]},"properties":{"num":7}},{"type":"Feature","geometry":{"type":"Polygon","coordinates":[[[24.735964,42.345946],[24.73622,42.346105],[24.736319,42.346016],[24.736063,42.345859],[24.735964,42.345946]]]},"properties":{"num":8}},{"type":"Feature","geometry":{"type":"Polygon","coordinates":[[[24.736063,42.345859],[24.736545,42.346156],[24.736597,42.346108],[24.736119,42.345812],[24.736063,42.345859]]]},"properties":{"num":9}},{"type":"Feature","geometry":{"type":"Polygon","coordinates":[[[24.736634,42.346301],[24.736693,42.346249],[24.736653,42.346226],[24.736596,42.346278],[24.736634,42.346301]]]},"properties":{"num":10}},{"type":"Feature","geometry":{"type":"Polygon","coordinates":[[[24.736683,42.345865],[24.736625,42.345873],[24.736558,42.345932],[24.73662,42.345971],[24.736658,42.345936],[24.736912,42.346093],[24.736996,42.346019],[24.736806,42.3459],[24.736827,42.345881],[24.7368,42.345864],[24.736778,42.345883],[24.73671,42.34584],[24.736683,42.345865]]]},"properties":{"num":4}},{"type":"Feature","geometry":{"type":"Polygon","coordinates":[[[24.736658,42.345936],[24.736614,42.345976],[24.736679,42.346015],[24.736723,42.345976],[24.736658,42.345936]]]},"properties":{"num":5}},{"type":"Feature","geometry":{"type":"Polygon","coordinates":[[[24.737579,42.345436],[24.737696,42.345332],[24.737144,42.344989],[24.737027,42.345093],[24.737579,42.345436]]]},"properties":{"num":3}},{"type":"Feature","geometry":{"type":"Polygon","coordinates":[[[24.737362,42.344874],[24.737322,42.344846],[24.737286,42.344875],[24.737327,42.344903],[24.737362,42.344874]]]},"properties":{"num":4}},{"type":"Feature","geometry":{"type":"Polygon","coordinates":[[[24.73757,42.344731],[24.737603,42.3447],[24.737505,42.344644],[24.737471,42.344675],[24.73757,42.344731]]]},"properties":{"num":5}},{"type":"Feature","geometry":{"type":"Polygon","coordinates":[[[24.737656,42.344781],[24.737723,42.344717],[24.737635,42.344667],[24.73757,42.344731],[24.737656,42.344781]]]},"properties":{"num":6}},{"type":"Feature","geometry":{"type":"Polygon","coordinates":[[[24.737916,42.34493],[24.737982,42.344865],[24.737936,42.344839],[24.737869,42.344903],[24.737916,42.34493]]]},"properties":{"num":7}},{"type":"Feature","geometry":{"type":"Polygon","coordinates":[[[24.73605,42.345553],[24.73609,42.345578],[24.736117,42.345554],[24.736076,42.345529],[24.73605,42.345553]]]},"properties":{"num":3}},{"type":"Feature","geometry":{"type":"Polygon","coordinates":[[[24.736104,42.345586],[24.736034,42.345543],[24.735996,42.345578],[24.736066,42.34562],[24.736104,42.345586]]]},"properties":{"num":4}},{"type":"Feature","geometry":{"type":"Polygon","coordinates":[[[24.73384,42.34499],[24.733799,42.345055],[24.734086,42.345155],[24.734127,42.34509],[24.73384,42.34499]]]},"properties":{"num":1}},{"type":"Feature","geometry":{"type":"Polygon","coordinates":[[[24.733898,42.344747],[24.733959,42.344691],[24.733378,42.344324],[24.733315,42.344378],[24.733898,42.344747]]]},"properties":{"num":1}},{"type":"Feature","geometry":{"type":"Polygon","coordinates":[[[24.73502,42.342082],[24.735145,42.342143],[24.735339,42.341923],[24.735214,42.341862],[24.73502,42.342082]]]},"properties":{"num":1}},{"type":"Feature","geometry":{"type":"Polygon","coordinates":[[[24.735145,42.342143],[24.73502,42.342082],[24.734826,42.342303],[24.734951,42.342363],[24.735145,42.342143]]]},"properties":{"num":2}},{"type":"Feature","geometry":{"type":"Polygon","coordinates":[[[24.737724,42.341172],[24.7375,42.341229],[24.737527,42.341297],[24.737752,42.34124],[24.737724,42.341172]]]},"properties":{"num":3}},{"type":"Feature","geometry":{"type":"Polygon","coordinates":[[[24.737421,42.341249],[24.73746,42.341343],[24.737811,42.341253],[24.737773,42.341159],[24.737724,42.341172],[24.737752,42.34124],[24.737527,42.341297],[24.7375,42.341229],[24.737421,42.341249]]]},"properties":{"num":4}},{"type":"Feature","geometry":{"type":"Polygon","coordinates":[[[24.733949,42.342884],[24.733983,42.34291],[24.734044,42.342867],[24.73401,42.342841],[24.733949,42.342884]]]},"properties":{"num":5}},{"type":"Feature","geometry":{"type":"Polygon","coordinates":[[[24.738312,42.341328],[24.738271,42.341353],[24.738318,42.341399],[24.73836,42.341374],[24.738312,42.341328]]]},"properties":{"num":6}},{"type":"Feature","geometry":{"type":"Polygon","coordinates":[[[24.735144,42.3413],[24.735167,42.341031],[24.735161,42.340952],[24.73514,42.340857],[24.73514,42.340831],[24.735153,42.340762],[24.735181,42.340705],[24.736296,42.339973],[24.736357,42.339947],[24.736429,42.339933],[24.736509,42.339932],[24.736577,42.339945],[24.736738,42.340022],[24.736808,42.340063],[24.737088,42.340251],[24.737205,42.340173],[24.737022,42.340025],[24.736947,42.340031],[24.736551,42.339805],[24.736572,42.339787],[24.736441,42.339705],[24.736367,42.339648],[24.73233,42.342266],[24.732815,42.342707],[24.732913,42.342646],[24.732718,42.342498],[24.7327,42.342465],[24.732691,42.34243],[24.732694,42.342385],[24.732706,42.342351],[24.732726,42.342318],[24.732773,42.342267],[24.732816,42.342236],[24.732855,42.342217],[24.732898,42.342202],[24.732955,42.34219],[24.733014,42.342187],[24.733072,42.342192],[24.733117,42.342606],[24.733289,42.342596],[24.73319,42.342162],[24.733193,42.342074],[24.733219,42.341987],[24.73379,42.341613],[24.733919,42.341592],[24.734038,42.341586],[24.734671,42.341621],[24.735144,42.3413]]]},"properties":{"num":7}},{"type":"Feature","geometry":{"type":"Polygon","coordinates":[[[24.726739,42.325532],[24.726806,42.32565],[24.726863,42.325631],[24.726796,42.325513],[24.726739,42.325532]]]},"properties":{"num":1}},{"type":"Feature","geometry":{"type":"Polygon","coordinates":[[[24.753845,42.330887],[24.753752,42.330909],[24.753769,42.33095],[24.753862,42.330928],[24.753845,42.330887]]]},"properties":{"num":1}},{"type":"Feature","geometry":{"type":"Polygon","coordinates":[[[24.751773,42.332167],[24.75202,42.332285],[24.752108,42.332194],[24.751853,42.332074],[24.751773,42.332167]]]},"properties":{"num":2}},{"type":"Feature","geometry":{"type":"Polygon","coordinates":[[[24.751985,42.332055],[24.752022,42.332072],[24.752068,42.332017],[24.752029,42.332],[24.751985,42.332055]]]},"properties":{"num":3}},{"type":"Feature","geometry":{"type":"Polygon","coordinates":[[[24.752,42.331988],[24.751987,42.332004],[24.752016,42.332017],[24.752029,42.332],[24.752,42.331988]]]},"properties":{"num":4}},{"type":"Feature","geometry":{"type":"Polygon","coordinates":[[[24.752065,42.331807],[24.751941,42.331962],[24.752068,42.332017],[24.752119,42.331954],[24.752129,42.331958],[24.75215,42.331931],[24.752141,42.331927],[24.752193,42.331862],[24.752065,42.331807]]]},"properties":{"num":5}},{"type":"Feature","geometry":{"type":"Polygon","coordinates":[[[24.752761,42.331316],[24.75281,42.331458],[24.753176,42.331387],[24.753128,42.331245],[24.752761,42.331316]]]},"properties":{"num":6}},{"type":"Feature","geometry":{"type":"Polygon","coordinates":[[[24.753299,42.331364],[24.75325,42.331221],[24.753128,42.331245],[24.753176,42.331387],[24.753299,42.331364]]]},"properties":{"num":7}},{"type":"Feature","geometry":{"type":"Polygon","coordinates":[[[24.753554,42.331637],[24.753517,42.331622],[24.7535,42.331644],[24.753534,42.331658],[24.753554,42.331637]]]},"properties":{"num":8}},{"type":"Feature","geometry":{"type":"Polygon","coordinates":[[[24.753574,42.331604],[24.753711,42.331435],[24.753643,42.331405],[24.753505,42.331574],[24.753574,42.331604]]]},"properties":{"num":9}},{"type":"Feature","geometry":{"type":"Polygon","coordinates":[[[24.753896,42.331128],[24.753865,42.331168],[24.753913,42.331189],[24.753944,42.331148],[24.753896,42.331128]]]},"properties":{"num":10}},{"type":"Feature","geometry":{"type":"Polygon","coordinates":[[[24.753628,42.331088],[24.75359,42.331031],[24.753563,42.331041],[24.753601,42.331097],[24.753628,42.331088]]]},"properties":{"num":11}},{"type":"Feature","geometry":{"type":"Polygon","coordinates":[[[24.753463,42.331119],[24.753535,42.331094],[24.753435,42.330944],[24.753364,42.33097],[24.753463,42.331119]]]},"properties":{"num":12}},{"type":"Feature","geometry":{"type":"Polygon","coordinates":[[[24.753508,42.331053],[24.753553,42.331036],[24.753501,42.33096],[24.753457,42.330976],[24.753508,42.331053]]]},"properties":{"num":13}},{"type":"Feature","geometry":{"type":"Polygon","coordinates":[[[24.753429,42.330945],[24.753392,42.330894],[24.753338,42.330915],[24.753369,42.330968],[24.753429,42.330945]]]},"properties":{"num":14}},{"type":"Feature","geometry":{"type":"Polygon","coordinates":[[[24.752426,42.331017],[24.752463,42.331126],[24.753175,42.330991],[24.753139,42.330881],[24.752426,42.331017]]]},"properties":{"num":15}},{"type":"Feature","geometry":{"type":"Polygon","coordinates":[[[24.753223,42.331102],[24.753183,42.331109],[24.753192,42.331137],[24.753232,42.331129],[24.753223,42.331102]]]},"properties":{"num":16}},{"type":"Feature","geometry":{"type":"Polygon","coordinates":[[[24.752118,42.330783],[24.752001,42.330806],[24.752133,42.331186],[24.752249,42.331164],[24.752118,42.330783]]]},"properties":{"num":17}},{"type":"Feature","geometry":{"type":"Polygon","coordinates":[[[24.752036,42.330799],[24.752021,42.33077],[24.751987,42.330777],[24.752001,42.330806],[24.752036,42.330799]]]},"properties":{"num":18}},{"type":"Feature","geometry":{"type":"Polygon","coordinates":[[[24.751693,42.330334],[24.751793,42.330595],[24.751913,42.330576],[24.751812,42.330312],[24.751693,42.330334]]]},"properties":{"num":19}},{"type":"Feature","geometry":{"type":"Polygon","coordinates":[[[24.751933,42.330248],[24.751817,42.330268],[24.751927,42.330584],[24.752043,42.330566],[24.751933,42.330248]]]},"properties":{"num":20}},{"type":"Feature","geometry":{"type":"Polygon","coordinates":[[[24.751849,42.330004],[24.751731,42.330023],[24.751817,42.330268],[24.751933,42.330248],[24.751849,42.330004]]]},"properties":{"num":21}},{"type":"Feature","geometry":{"type":"Polygon","coordinates":[[[24.751806,42.32988],[24.75169,42.329899],[24.751731,42.330023],[24.751849,42.330004],[24.751806,42.32988]]]},"properties":{"num":22}},{"type":"Feature","geometry":{"type":"Polygon","coordinates":[[[24.752019,42.329793],[24.752193,42.329759],[24.752158,42.329661],[24.751983,42.329695],[24.752019,42.329793]]]},"properties":{"num":23}},{"type":"Feature","geometry":{"type":"Polygon","coordinates":[[[24.751983,42.329695],[24.752064,42.329679],[24.752049,42.329635],[24.751967,42.329652],[24.751983,42.329695]]]},"properties":{"num":24}},{"type":"Feature","geometry":{"type":"Polygon","coordinates":[[[24.752331,42.330142],[24.75284,42.330046],[24.752797,42.329925],[24.752289,42.33002],[24.752331,42.330142]]]},"properties":{"num":25}},{"type":"Feature","geometry":{"type":"Polygon","coordinates":[[[24.75284,42.330046],[24.752913,42.330032],[24.75289,42.329968],[24.75282,42.329984],[24.75284,42.330046]]]},"properties":{"num":26}},{"type":"Feature","geometry":{"type":"Polygon","coordinates":[[[24.752897,42.330196],[24.752183,42.330334],[24.752221,42.330446],[24.752934,42.330308],[24.752897,42.330196]]]},"properties":{"num":27}},{"type":"Feature","geometry":{"type":"Polygon","coordinates":[[[24.753294,42.330726],[24.753337,42.330716],[24.753324,42.330677],[24.753281,42.330686],[24.753294,42.330726]]]},"properties":{"num":28}},{"type":"Feature","geometry":{"type":"Polygon","coordinates":[[[24.751005,42.331566],[24.751013,42.331583],[24.751036,42.331577],[24.751029,42.33156],[24.751005,42.331566]]]},"properties":{"num":29}},{"type":"Feature","geometry":{"type":"Polygon","coordinates":[[[24.750941,42.331548],[24.750888,42.33155],[24.750889,42.331566],[24.750942,42.331564],[24.750941,42.331548]]]},"properties":{"num":30}},{"type":"Feature","geometry":{"type":"Polygon","coordinates":[[[24.750865,42.331614],[24.750897,42.331596],[24.750876,42.331574],[24.750842,42.33159],[24.750865,42.331614]]]},"properties":{"num":31}},{"type":"Feature","geometry":{"type":"Polygon","coordinates":[[[24.750593,42.331848],[24.750558,42.331896],[24.750605,42.331914],[24.75064,42.331866],[24.750593,42.331848]]]},"properties":{"num":32}},{"type":"Feature","geometry":{"type":"Polygon","coordinates":[[[24.752482,42.328197],[24.752504,42.328266],[24.752551,42.328258],[24.752529,42.328189],[24.752482,42.328197]]]},"properties":{"num":33}},{"type":"Feature","geometry":{"type":"Polygon","coordinates":[[[24.752091,42.332323],[24.752434,42.332484],[24.752513,42.332388],[24.752172,42.332227],[24.752091,42.332323]]]},"properties":{"num":1}},{"type":"Feature","geometry":{"type":"Polygon","coordinates":[[[24.752331,42.332741],[24.75244,42.332603],[24.75238,42.332579],[24.75227,42.332717],[24.752331,42.332741]]]},"properties":{"num":2}},{"type":"Feature","geometry":{"type":"Polygon","coordinates":[[[24.752377,42.332683],[24.752407,42.332696],[24.752447,42.332645],[24.752417,42.332632],[24.752377,42.332683]]]},"properties":{"num":3}},{"type":"Feature","geometry":{"type":"Polygon","coordinates":[[[24.75246,42.332487],[24.752522,42.332515],[24.752537,42.332497],[24.752475,42.332468],[24.75246,42.332487]]]},"properties":{"num":4}},{"type":"Feature","geometry":{"type":"Polygon","coordinates":[[[24.752489,42.332474],[24.75254,42.332498],[24.752579,42.332452],[24.752528,42.332428],[24.752489,42.332474]]]},"properties":{"num":5}},{"type":"Feature","geometry":{"type":"Polygon","coordinates":[[[24.72747,42.362605],[24.727525,42.362594],[24.727566,42.362715],[24.727684,42.362693],[24.727613,42.362478],[24.727497,42.362499],[24.727494,42.362489],[24.727467,42.362504],[24.727438,42.362509],[24.72747,42.362605]]]},"properties":{"num":1}},{"type":"Feature","geometry":{"type":"Polygon","coordinates":[[[24.752576,42.33245],[24.752591,42.332432],[24.75253,42.332403],[24.752514,42.332422],[24.752576,42.33245]]]},"properties":{"num":6}},{"type":"Feature","geometry":{"type":"Polygon","coordinates":[[[24.72804,42.363814],[24.728276,42.363621],[24.728144,42.363532],[24.727908,42.363725],[24.72804,42.363814]]]},"properties":{"num":1}},{"type":"Feature","geometry":{"type":"Polygon","coordinates":[[[24.72804,42.363814],[24.728137,42.363879],[24.72816,42.363847],[24.72815,42.36384],[24.728198,42.363792],[24.728223,42.363749],[24.728245,42.363695],[24.728212,42.363673],[24.72804,42.363814]]]},"properties":{"num":2}},{"type":"Feature","geometry":{"type":"Polygon","coordinates":[[[24.732818,42.365452],[24.732743,42.365428],[24.732722,42.365464],[24.732796,42.365487],[24.732818,42.365452]]]},"properties":{"num":1}},{"type":"Feature","geometry":{"type":"Polygon","coordinates":[[[24.733167,42.365564],[24.733189,42.365526],[24.733144,42.365511],[24.733122,42.365549],[24.732839,42.365458],[24.732815,42.3655],[24.733418,42.365695],[24.733444,42.365653],[24.733167,42.365564]]]},"properties":{"num":2}},{"type":"Feature","geometry":{"type":"Polygon","coordinates":[[[24.732416,42.366563],[24.732343,42.366537],[24.732458,42.366348],[24.732322,42.366302],[24.73217,42.366552],[24.73238,42.366623],[24.732416,42.366563]]]},"properties":{"num":1}},{"type":"Feature","geometry":{"type":"Polygon","coordinates":[[[24.73217,42.366552],[24.732048,42.366753],[24.732184,42.366799],[24.732306,42.366598],[24.73217,42.366552]]]},"properties":{"num":1}},{"type":"Feature","geometry":{"type":"Polygon","coordinates":[[[24.73238,42.366623],[24.732437,42.366642],[24.732315,42.366843],[24.732452,42.366889],[24.732726,42.366438],[24.73259,42.366392],[24.732474,42.366583],[24.732416,42.366563],[24.73238,42.366623]]]},"properties":{"num":1}},{"type":"Feature","geometry":{"type":"Polygon","coordinates":[[[24.757827,42.339051],[24.757813,42.339022],[24.757778,42.339031],[24.757793,42.33906],[24.757827,42.339051]]]},"properties":{"num":1}},{"type":"Feature","geometry":{"type":"Polygon","coordinates":[[[24.751963,42.334318],[24.751925,42.334301],[24.751906,42.334304],[24.751842,42.334383],[24.75185,42.334396],[24.751888,42.334412],[24.751963,42.334318]]]},"properties":{"num":1}},{"type":"Feature","geometry":{"type":"Polygon","coordinates":[[[24.752697,42.334556],[24.752891,42.334503],[24.752813,42.334346],[24.75262,42.334398],[24.752697,42.334556]]]},"properties":{"num":1}},{"type":"Feature","geometry":{"type":"Polygon","coordinates":[[[24.752687,42.334558],[24.752791,42.33477],[24.753004,42.334712],[24.752901,42.334501],[24.752687,42.334558]]]},"properties":{"num":2}},{"type":"Feature","geometry":{"type":"Polygon","coordinates":[[[24.7543,42.331119],[24.754287,42.331089],[24.754251,42.331098],[24.754265,42.331128],[24.7543,42.331119]]]},"properties":{"num":1}},{"type":"Feature","geometry":{"type":"Polygon","coordinates":[[[24.753996,42.333725],[24.753943,42.333619],[24.753847,42.333645],[24.7539,42.333751],[24.753996,42.333725]]]},"properties":{"num":1}},{"type":"Feature","geometry":{"type":"Polygon","coordinates":[[[24.754189,42.333727],[24.754188,42.333692],[24.754082,42.333697],[24.754087,42.333739],[24.75416,42.333734],[24.754189,42.333727]]]},"properties":{"num":2}},{"type":"Feature","geometry":{"type":"Polygon","coordinates":[[[24.754557,42.333489],[24.754562,42.333471],[24.754587,42.333479],[24.754609,42.333475],[24.754622,42.333466],[24.754628,42.333449],[24.754646,42.333462],[24.754675,42.333463],[24.754691,42.333454],[24.754698,42.33344],[24.754697,42.333427],[24.754688,42.333418],[24.754675,42.333412],[24.754659,42.333411],[24.754674,42.333394],[24.754669,42.333376],[24.754648,42.333366],[24.754628,42.333368],[24.754648,42.333355],[24.75465,42.333339],[24.754637,42.333323],[24.754622,42.333318],[24.754606,42.333319],[24.754622,42.33331],[24.754628,42.333292],[24.75462,42.333278],[24.754598,42.333269],[24.754569,42.333276],[24.754559,42.333297],[24.754541,42.333283],[24.754511,42.333283],[24.754493,42.333297],[24.754491,42.333312],[24.75447,42.333299],[24.754443,42.333301],[24.75443,42.333308],[24.754423,42.333323],[24.754431,42.333342],[24.754445,42.33335],[24.754461,42.333351],[24.754446,42.33337],[24.75445,42.333389],[24.754467,42.3334],[24.754492,42.333401],[24.754474,42.333412],[24.754468,42.33343],[24.754474,42.333443],[24.754484,42.33345],[24.754511,42.333452],[24.754493,42.333469],[24.754499,42.333491],[24.754516,42.3335],[24.754536,42.3335],[24.754557,42.333489]]]},"properties":{"num":3}},{"type":"Feature","geometry":{"type":"Polygon","coordinates":[[[24.754448,42.333262],[24.754454,42.333243],[24.754463,42.333253],[24.754477,42.333259],[24.754499,42.333259],[24.75452,42.333247],[24.754524,42.333227],[24.754541,42.333242],[24.754562,42.333245],[24.754581,42.333238],[24.754591,42.333224],[24.754591,42.333212],[24.754583,42.333202],[24.754564,42.333194],[24.754548,42.333195],[24.754566,42.333181],[24.754567,42.333162],[24.754551,42.333148],[24.754525,42.333145],[24.754541,42.333135],[24.754545,42.333116],[24.754527,42.333099],[24.754502,42.333097],[24.754519,42.333084],[24.754522,42.333069],[24.754514,42.333055],[24.754492,42.333046],[24.754464,42.333052],[24.75445,42.333072],[24.754433,42.333061],[24.75441,42.33306],[24.75439,42.33307],[24.754383,42.333086],[24.754369,42.333077],[24.75435,42.333074],[24.754332,42.33308],[24.75432,42.333095],[24.754321,42.333109],[24.754329,42.333119],[24.754355,42.333126],[24.754339,42.333145],[24.754345,42.333163],[24.754361,42.333173],[24.754381,42.333174],[24.754363,42.33319],[24.754364,42.333209],[24.754379,42.333221],[24.754403,42.333223],[24.754385,42.333242],[24.75439,42.333261],[24.754406,42.333271],[24.754427,42.333272],[24.754448,42.333262]]]},"properties":{"num":4}},{"type":"Feature","geometry":{"type":"Polygon","coordinates":[[[24.75447,42.333031],[24.754436,42.332958],[24.7543,42.332988],[24.754333,42.333061],[24.75447,42.333031]]]},"properties":{"num":5}},{"type":"Feature","geometry":{"type":"Polygon","coordinates":[[[24.754821,42.332727],[24.754627,42.332293],[24.754414,42.33235],[24.754607,42.332781],[24.754821,42.332727]]]},"properties":{"num":6}},{"type":"Feature","geometry":{"type":"Polygon","coordinates":[[[24.754595,42.332222],[24.754568,42.332161],[24.754418,42.332195],[24.754445,42.332259],[24.754595,42.332222]]]},"properties":{"num":7}},{"type":"Feature","geometry":{"type":"Polygon","coordinates":[[[24.754568,42.332161],[24.754329,42.331626],[24.754098,42.331686],[24.754327,42.332216],[24.754568,42.332161]]]},"properties":{"num":8}},{"type":"Feature","geometry":{"type":"Polygon","coordinates":[[[24.754313,42.332613],[24.753942,42.331807],[24.7537,42.331864],[24.754064,42.332671],[24.754313,42.332613]]]},"properties":{"num":9}},{"type":"Feature","geometry":{"type":"Polygon","coordinates":[[[24.753706,42.331855],[24.753697,42.331835],[24.753665,42.331843],[24.753674,42.331864],[24.753706,42.331855]]]},"properties":{"num":10}},{"type":"Feature","geometry":{"type":"Polygon","coordinates":[[[24.753661,42.332171],[24.753601,42.332045],[24.753468,42.33208],[24.753527,42.332206],[24.753661,42.332171]]]},"properties":{"num":11}},{"type":"Feature","geometry":{"type":"Polygon","coordinates":[[[24.753446,42.332296],[24.753408,42.33224],[24.753374,42.332253],[24.753413,42.332309],[24.753446,42.332296]]]},"properties":{"num":12}},{"type":"Feature","geometry":{"type":"Polygon","coordinates":[[[24.75382,42.333055],[24.753811,42.333034],[24.753881,42.333016],[24.753546,42.332285],[24.753338,42.332338],[24.753674,42.333067],[24.753754,42.333048],[24.753764,42.33307],[24.75382,42.333055]]]},"properties":{"num":13}},{"type":"Feature","geometry":{"type":"Polygon","coordinates":[[[24.753894,42.33274],[24.753844,42.332633],[24.753803,42.332644],[24.753848,42.332751],[24.753894,42.33274]]]},"properties":{"num":14}},{"type":"Feature","geometry":{"type":"Polygon","coordinates":[[[24.753801,42.333615],[24.7536,42.333206],[24.753548,42.333221],[24.753748,42.33363],[24.753801,42.333615]]]},"properties":{"num":15}},{"type":"Feature","geometry":{"type":"Polygon","coordinates":[[[24.754707,42.334042],[24.754018,42.334232],[24.754122,42.33444],[24.754811,42.334249],[24.754707,42.334042]]]},"properties":{"num":16}},{"type":"Feature","geometry":{"type":"Polygon","coordinates":[[[24.753817,42.333602],[24.754244,42.333493],[24.754054,42.333085],[24.753628,42.333194],[24.753817,42.333602]]]},"properties":{"num":17}},{"type":"Feature","geometry":{"type":"Polygon","coordinates":[[[24.737439,42.347517],[24.737498,42.347447],[24.737457,42.34743],[24.737438,42.347435],[24.737412,42.347469],[24.737406,42.347467],[24.737385,42.347494],[24.737439,42.347517]]]},"properties":{"num":1}},{"type":"Feature","geometry":{"type":"Polygon","coordinates":[[[24.745587,42.340847],[24.745705,42.340845],[24.745704,42.34079],[24.745586,42.340791],[24.745587,42.340847]]]},"properties":{"num":1}},{"type":"Feature","geometry":{"type":"Polygon","coordinates":[[[24.745843,42.338314],[24.745876,42.338329],[24.745895,42.338305],[24.745863,42.33829],[24.745843,42.338314]]]},"properties":{"num":1}},{"type":"Feature","geometry":{"type":"Polygon","coordinates":[[[24.738322,42.345891],[24.738284,42.34587],[24.73826,42.345894],[24.738298,42.345915],[24.738322,42.345891]]]},"properties":{"num":1}},{"type":"Feature","geometry":{"type":"Polygon","coordinates":[[[24.744992,42.340606],[24.745509,42.340435],[24.745599,42.340393],[24.745568,42.340356],[24.745517,42.34038],[24.7455,42.34036],[24.745461,42.340377],[24.745479,42.340398],[24.744969,42.340567],[24.744992,42.340606]]]},"properties":{"num":1}},{"type":"Feature","geometry":{"type":"Polygon","coordinates":[[[24.743118,42.336428],[24.743322,42.336391],[24.743163,42.335897],[24.742958,42.335935],[24.743118,42.336428]]]},"properties":{"num":1}},{"type":"Feature","geometry":{"type":"Polygon","coordinates":[[[24.743591,42.336342],[24.743556,42.336235],[24.743331,42.336275],[24.743366,42.336383],[24.743591,42.336342]]]},"properties":{"num":2}},{"type":"Feature","geometry":{"type":"Polygon","coordinates":[[[24.743669,42.336328],[24.743635,42.336222],[24.743556,42.336235],[24.743591,42.336342],[24.743669,42.336328]]]},"properties":{"num":3}},{"type":"Feature","geometry":{"type":"Polygon","coordinates":[[[24.743194,42.33582],[24.743328,42.335782],[24.743209,42.335543],[24.743074,42.33558],[24.743194,42.33582]]]},"properties":{"num":4}},{"type":"Feature","geometry":{"type":"Polygon","coordinates":[[[24.742857,42.335584],[24.742946,42.33557],[24.742874,42.33533],[24.742785,42.335346],[24.742857,42.335584]]]},"properties":{"num":5}},{"type":"Feature","geometry":{"type":"Polygon","coordinates":[[[24.742776,42.335298],[24.742846,42.335285],[24.7428,42.335152],[24.74273,42.335165],[24.742776,42.335298]]]},"properties":{"num":6}},{"type":"Feature","geometry":{"type":"Polygon","coordinates":[[[24.743118,42.335381],[24.743153,42.335438],[24.743196,42.335423],[24.74316,42.335367],[24.743118,42.335381]]]},"properties":{"num":7}},{"type":"Feature","geometry":{"type":"Polygon","coordinates":[[[24.743284,42.335795],[24.743293,42.335813],[24.743344,42.335802],[24.743335,42.335785],[24.743328,42.335782],[24.743284,42.335795]]]},"properties":{"num":8}},{"type":"Feature","geometry":{"type":"Polygon","coordinates":[[[24.737488,42.346371],[24.737522,42.346333],[24.737491,42.346319],[24.737777,42.34599],[24.737654,42.34593],[24.73731,42.346324],[24.737434,42.346383],[24.737457,42.346356],[24.737488,42.346371]]]},"properties":{"num":1}},{"type":"Feature","geometry":{"type":"Polygon","coordinates":[[[24.737434,42.346383],[24.73731,42.346324],[24.73726,42.346381],[24.737383,42.34644],[24.737434,42.346383]]]},"properties":{"num":2}},{"type":"Feature","geometry":{"type":"Polygon","coordinates":[[[24.737831,42.345929],[24.737707,42.34587],[24.737654,42.34593],[24.737777,42.34599],[24.737831,42.345929]]]},"properties":{"num":3}},{"type":"Feature","geometry":{"type":"Polygon","coordinates":[[[24.737827,42.346059],[24.737908,42.345966],[24.737831,42.345929],[24.73775,42.346022],[24.737827,42.346059]]]},"properties":{"num":4}},{"type":"Feature","geometry":{"type":"Polygon","coordinates":[[[24.737734,42.346601],[24.737694,42.346638],[24.737733,42.346663],[24.737774,42.346626],[24.737734,42.346601]]]},"properties":{"num":1}}]}