{"type":"FeatureCollection","features":[{"type":"Feature","geometry":{"type":"Polygon","coordinates":[[[24.748663,42.317278],[24.741663,42.318292],[24.74167,42.3184],[24.741621,42.318406],[24.742884,42.320877],[24.747534,42.330375],[24.74873,42.332924],[24.749806,42.335134],[24.749822,42.33516],[24.750511,42.335453],[24.752156,42.333382],[24.754095,42.331009],[24.754232,42.33087],[24.754483,42.330758],[24.754658,42.330854],[24.748663,42.317278]]]},"properties":{"cadreg":50}},{"type":"Feature","geometry":{"type":"Polygon","coordinates":[[[24.732546,42.365038],[24.736527,42.362116],[24.7375,42.361185],[24.736904,42.360886],[24.737122,42.360607],[24.736888,42.36048],[24.736221,42.359739],[24.737368,42.359149],[24.73751,42.359341],[24.73781,42.359185],[24.738058,42.359444],[24.738281,42.359319],[24.738095,42.35912],[24.738355,42.358971],[24.73818,42.35881],[24.73851,42.358608],[24.738223,42.358281],[24.738398,42.35817],[24.737687,42.357512],[24.739178,42.356409],[24.739426,42.356185],[24.739599,42.356107],[24.739605,42.355901],[24.739665,42.355611],[24.739777,42.354178],[24.739939,42.351652],[24.740057,42.351293],[24.740536,42.350593],[24.740749,42.350333],[24.742276,42.348872],[24.739831,42.348226],[24.739794,42.348253],[24.73699,42.347464],[24.736724,42.347747],[24.735638,42.349061],[24.734968,42.348756],[24.734842,42.348907],[24.733904,42.348462],[24.733536,42.348849],[24.733454,42.348788],[24.732372,42.350112],[24.731857,42.349904],[24.731547,42.349756],[24.731015,42.349574],[24.730754,42.349513],[24.730441,42.349488],[24.729933,42.349475],[24.729993,42.349013],[24.729325,42.34899],[24.729307,42.348944],[24.729314,42.348881],[24.72916,42.348873],[24.729131,42.349126],[24.729216,42.349481],[24.728984,42.349513],[24.728185,42.350033],[24.728614,42.350356],[24.727622,42.35156],[24.727413,42.351778],[24.727268,42.351963],[24.726696,42.353029],[24.726396,42.353429],[24.726424,42.353444],[24.725966,42.353957],[24.725249,42.354652],[24.724719,42.355268],[24.724623,42.35523],[24.724265,42.355662],[24.724559,42.355765],[24.724368,42.356067],[24.72461,42.356169],[24.724755,42.356254],[24.724844,42.356332],[24.724824,42.35636],[24.725128,42.35658],[24.725379,42.356682],[24.724977,42.357106],[24.725507,42.357375],[24.724073,42.358987],[24.726681,42.35964],[24.726398,42.360633],[24.72763,42.360857],[24.727483,42.36126],[24.727434,42.361519],[24.727242,42.361542],[24.727288,42.361858],[24.727414,42.362248],[24.729608,42.361852],[24.729765,42.362011],[24.728514,42.363787],[24.729773,42.364244],[24.730889,42.362503],[24.730899,42.362487],[24.73088,42.362479],[24.730942,42.362397],[24.73297,42.363299],[24.731579,42.364339],[24.731516,42.364452],[24.731615,42.364607],[24.732253,42.365043],[24.732406,42.36508],[24.732546,42.365038]]]},"properties":{"cadreg":888}},{"type":"Feature","geometry":{"type":"Polygon","coordinates":[[[24.754095,42.331009],[24.752156,42.333382],[24.750936,42.334929],[24.747112,42.339649],[24.746646,42.339995],[24.746222,42.34021],[24.746331,42.340439],[24.746112,42.341205],[24.74538,42.34232],[24.745142,42.342403],[24.744994,42.342616],[24.744996,42.342646],[24.747683,42.342376],[24.759495,42.341371],[24.757283,42.336491],[24.757203,42.336503],[24.754658,42.330854],[24.754483,42.330758],[24.754232,42.33087],[24.754095,42.331009]]]},"properties":{"cadreg":28}},{"type":"Feature","geometry":{"type":"Polygon","coordinates":[[[24.688533,42.35048],[24.68856,42.350698],[24.688627,42.350913],[24.68895,42.35152],[24.68887,42.351887],[24.687981,42.353189],[24.687651,42.353524],[24.687456,42.35366],[24.687294,42.353831],[24.687028,42.354256],[24.686555,42.354546],[24.685788,42.355125],[24.685353,42.355622],[24.685264,42.355539],[24.685326,42.355407],[24.685459,42.355223],[24.685427,42.355153],[24.685391,42.355132],[24.684984,42.355503],[24.685057,42.355561],[24.68525,42.355649],[24.686242,42.356252],[24.68862,42.35793],[24.691001,42.359464],[24.69472,42.356286],[24.697264,42.35404],[24.699066,42.352517],[24.700766,42.351032],[24.700718,42.35099],[24.700769,42.350951],[24.700693,42.350882],[24.696659,42.345778],[24.6966,42.345799],[24.692061,42.348304],[24.688408,42.350357],[24.688525,42.350406],[24.688568,42.350387],[24.688533,42.35048]]]},"properties":{"cadreg":1}},{"type":"Feature","geometry":{"type":"Polygon","coordinates":[[[24.700766,42.351032],[24.699066,42.352517],[24.697264,42.35404],[24.700942,42.356453],[24.704203,42.354478],[24.704644,42.354255],[24.705459,42.353926],[24.706617,42.353536],[24.706991,42.353459],[24.707332,42.353299],[24.706857,42.35325],[24.706552,42.353312],[24.706284,42.353448],[24.706024,42.353612],[24.705653,42.353747],[24.705333,42.353755],[24.700766,42.351032]]]},"properties":{"cadreg":2}},{"type":"Feature","geometry":{"type":"Polygon","coordinates":[[[24.700766,42.351032],[24.705333,42.353755],[24.705653,42.353747],[24.706024,42.353612],[24.706284,42.353448],[24.706552,42.353312],[24.706857,42.35325],[24.707332,42.353299],[24.707436,42.353261],[24.716287,42.349497],[24.716763,42.348829],[24.71718,42.348192],[24.717185,42.34807],[24.716106,42.346683],[24.716082,42.346551],[24.715913,42.346436],[24.712841,42.343679],[24.703893,42.349056],[24.700769,42.350951],[24.700718,42.35099],[24.700766,42.351032]]]},"properties":{"cadreg":3}},{"type":"Feature","geometry":{"type":"Polygon","coordinates":[[[24.716287,42.349497],[24.707332,42.353299],[24.706991,42.353459],[24.706906,42.353526],[24.706829,42.353614],[24.706819,42.353773],[24.707487,42.356161],[24.707476,42.356317],[24.707376,42.356502],[24.706879,42.357056],[24.708565,42.35807],[24.712996,42.354238],[24.71828,42.349722],[24.718306,42.349665],[24.717616,42.349226],[24.717258,42.348978],[24.716793,42.348783],[24.716287,42.349497]]]},"properties":{"cadreg":4}},{"type":"Feature","geometry":{"type":"Polygon","coordinates":[[[24.721758,42.347414],[24.719208,42.347023],[24.7186,42.346872],[24.718106,42.346833],[24.716134,42.346587],[24.716082,42.346551],[24.716106,42.346683],[24.717185,42.34807],[24.71718,42.348192],[24.716793,42.348783],[24.717258,42.348978],[24.717616,42.349226],[24.718306,42.349665],[24.718386,42.349702],[24.718469,42.349795],[24.718738,42.350647],[24.719284,42.351518],[24.719427,42.351717],[24.719376,42.351545],[24.721758,42.347414]]]},"properties":{"cadreg":5}},{"type":"Feature","geometry":{"type":"Polygon","coordinates":[[[24.708565,42.35807],[24.713372,42.361177],[24.714012,42.359822],[24.714157,42.359644],[24.720819,42.354155],[24.720894,42.353986],[24.720824,42.353413],[24.720811,42.353141],[24.720661,42.352937],[24.719427,42.351717],[24.719284,42.351518],[24.718738,42.350647],[24.718469,42.349795],[24.718386,42.349702],[24.718306,42.349665],[24.71828,42.349722],[24.712996,42.354238],[24.708565,42.35807]]]},"properties":{"cadreg":6}},{"type":"Feature","geometry":{"type":"Polygon","coordinates":[[[24.720824,42.353413],[24.720894,42.353986],[24.720819,42.354155],[24.714157,42.359644],[24.714012,42.359822],[24.713372,42.361177],[24.717802,42.364041],[24.719164,42.363051],[24.722296,42.358512],[24.722327,42.358242],[24.722424,42.355857],[24.723431,42.354644],[24.72159,42.353824],[24.720824,42.353413]]]},"properties":{"cadreg":7}},{"type":"Feature","geometry":{"type":"Polygon","coordinates":[[[24.719376,42.351545],[24.719427,42.351717],[24.720661,42.352937],[24.720811,42.353141],[24.720824,42.353413],[24.72159,42.353824],[24.723508,42.354681],[24.723605,42.354503],[24.722734,42.354108],[24.727283,42.348137],[24.727409,42.348153],[24.72746,42.348069],[24.721758,42.347414],[24.719376,42.351545]]]},"properties":{"cadreg":8}},{"type":"Feature","geometry":{"type":"Polygon","coordinates":[[[24.727409,42.348153],[24.727283,42.348137],[24.722734,42.354108],[24.723605,42.354503],[24.723508,42.354681],[24.723456,42.354741],[24.723662,42.354836],[24.72362,42.354881],[24.724559,42.355307],[24.724623,42.35523],[24.724719,42.355268],[24.725249,42.354652],[24.725966,42.353957],[24.726424,42.353444],[24.726396,42.353429],[24.726696,42.353029],[24.727268,42.351963],[24.727413,42.351778],[24.727622,42.35156],[24.728614,42.350356],[24.728185,42.350033],[24.728984,42.349513],[24.729216,42.349481],[24.729131,42.349126],[24.72916,42.348873],[24.729242,42.348877],[24.729362,42.348356],[24.72746,42.348069],[24.727409,42.348153]]]},"properties":{"cadreg":9}},{"type":"Feature","geometry":{"type":"Polygon","coordinates":[[[24.723431,42.354644],[24.722424,42.355857],[24.722327,42.358242],[24.722296,42.358512],[24.719164,42.363051],[24.717802,42.364041],[24.718182,42.364286],[24.718526,42.363968],[24.719046,42.363797],[24.727775,42.362211],[24.727782,42.362182],[24.727414,42.362248],[24.727288,42.361858],[24.727242,42.361542],[24.727434,42.361519],[24.727483,42.36126],[24.72763,42.360857],[24.726398,42.360633],[24.726681,42.35964],[24.724073,42.358987],[24.725507,42.357375],[24.724977,42.357106],[24.725379,42.356682],[24.725128,42.35658],[24.724824,42.35636],[24.724844,42.356332],[24.724755,42.356254],[24.72461,42.356169],[24.724368,42.356067],[24.724559,42.355765],[24.724265,42.355662],[24.724559,42.355307],[24.72362,42.354881],[24.723662,42.354836],[24.723456,42.354741],[24.723508,42.354681],[24.723431,42.354644]]]},"properties":{"cadreg":10}},{"type":"Feature","geometry":{"type":"Polygon","coordinates":[[[24.727775,42.362211],[24.723097,42.363055],[24.726979,42.36566],[24.727537,42.365062],[24.728758,42.365537],[24.729487,42.364907],[24.729751,42.364604],[24.730266,42.363718],[24.731094,42.362599],[24.731182,42.362504],[24.730942,42.362397],[24.73088,42.362479],[24.730899,42.362487],[24.730889,42.362503],[24.729773,42.364244],[24.728514,42.363787],[24.729765,42.362011],[24.729608,42.361852],[24.727782,42.362182],[24.727775,42.362211]]]},"properties":{"cadreg":11}},{"type":"Feature","geometry":{"type":"Polygon","coordinates":[[[24.73297,42.363299],[24.731182,42.362504],[24.731094,42.362599],[24.730266,42.363718],[24.729751,42.364604],[24.729487,42.364907],[24.728758,42.365537],[24.728219,42.366083],[24.729846,42.368028],[24.733941,42.369641],[24.733978,42.36963],[24.733853,42.36958],[24.733495,42.369372],[24.733068,42.368866],[24.73286,42.368226],[24.735013,42.364404],[24.735347,42.364071],[24.737475,42.362657],[24.737634,42.362535],[24.737777,42.362382],[24.737931,42.362174],[24.738047,42.361851],[24.738056,42.361632],[24.737422,42.361261],[24.736527,42.362116],[24.732546,42.365038],[24.732406,42.36508],[24.732253,42.365043],[24.731615,42.364607],[24.731516,42.364452],[24.731579,42.364339],[24.73297,42.363299]]]},"properties":{"cadreg":12}},{"type":"Feature","geometry":{"type":"Polygon","coordinates":[[[24.735013,42.364404],[24.73286,42.368226],[24.733068,42.368866],[24.733495,42.369372],[24.733853,42.36958],[24.733978,42.36963],[24.735593,42.369159],[24.736672,42.369634],[24.741969,42.370345],[24.742039,42.370311],[24.745602,42.367423],[24.745315,42.367249],[24.742551,42.365149],[24.73887,42.362599],[24.738753,42.362362],[24.738519,42.361958],[24.738056,42.361632],[24.738047,42.361851],[24.737931,42.362174],[24.737777,42.362382],[24.737634,42.362535],[24.737475,42.362657],[24.735347,42.364071],[24.735013,42.364404]]]},"properties":{"cadreg":13}},{"type":"Feature","geometry":{"type":"Polygon","coordinates":[[[24.736672,42.369634],[24.735593,42.369159],[24.733941,42.369641],[24.743737,42.37405],[24.744822,42.374564],[24.744861,42.374357],[24.744966,42.374172],[24.747552,42.372642],[24.748129,42.372218],[24.748294,42.371929],[24.748941,42.370594],[24.748493,42.370317],[24.748269,42.3703],[24.747957,42.370338],[24.746383,42.370799],[24.745081,42.371348],[24.744406,42.371368],[24.742081,42.370404],[24.741969,42.370345],[24.736672,42.369634]]]},"properties":{"cadreg":14}},{"type":"Feature","geometry":{"type":"Polygon","coordinates":[[[24.749341,42.364393],[24.742039,42.370311],[24.741969,42.370345],[24.742081,42.370404],[24.744406,42.371368],[24.745081,42.371348],[24.746383,42.370799],[24.747957,42.370338],[24.748269,42.3703],[24.748493,42.370317],[24.748941,42.370594],[24.749122,42.370232],[24.749211,42.37016],[24.7494,42.370073],[24.752948,42.368818],[24.753334,42.368658],[24.753534,42.368477],[24.755323,42.366659],[24.755465,42.366542],[24.758151,42.36469],[24.755549,42.363013],[24.754059,42.361999],[24.75391,42.361969],[24.753181,42.361981],[24.753109,42.361972],[24.752498,42.361791],[24.749341,42.364393]]]},"properties":{"cadreg":15}},{"type":"Feature","geometry":{"type":"Polygon","coordinates":[[[24.748028,42.351347],[24.745351,42.353645],[24.746443,42.354399],[24.746962,42.354797],[24.747903,42.356683],[24.748049,42.357077],[24.746814,42.358978],[24.746741,42.360142],[24.746518,42.360986],[24.746524,42.363102],[24.746504,42.363188],[24.743363,42.365766],[24.745315,42.367249],[24.745602,42.367423],[24.749341,42.364393],[24.752498,42.361791],[24.752395,42.361681],[24.749224,42.354365],[24.748122,42.351504],[24.74809,42.351425],[24.748028,42.351347]]]},"properties":{"cadreg":16}},{"type":"Feature","geometry":{"type":"Polygon","coordinates":[[[24.739935,42.359131],[24.739459,42.359442],[24.738028,42.360516],[24.737621,42.360971],[24.7375,42.361185],[24.737422,42.361261],[24.738056,42.361632],[24.738519,42.361958],[24.738753,42.362362],[24.73887,42.362599],[24.742551,42.365149],[24.743363,42.365766],[24.746504,42.363188],[24.746524,42.363102],[24.746518,42.360986],[24.746741,42.360142],[24.746814,42.358978],[24.748049,42.357077],[24.747903,42.356683],[24.746962,42.354797],[24.746443,42.354399],[24.745351,42.353645],[24.743749,42.355025],[24.743586,42.354967],[24.742913,42.356183],[24.74279,42.35628],[24.742562,42.35641],[24.742261,42.356536],[24.742308,42.356668],[24.742469,42.356826],[24.742487,42.356887],[24.742391,42.358011],[24.74233,42.35805],[24.740872,42.358645],[24.740169,42.358996],[24.739935,42.359131]]]},"properties":{"cadreg":17}},{"type":"Feature","geometry":{"type":"Polygon","coordinates":[[[24.738223,42.358281],[24.73851,42.358608],[24.73818,42.35881],[24.738355,42.358971],[24.738095,42.35912],[24.738281,42.359319],[24.738058,42.359444],[24.73781,42.359185],[24.73751,42.359341],[24.737368,42.359149],[24.736221,42.359739],[24.736888,42.36048],[24.737122,42.360607],[24.736904,42.360886],[24.7375,42.361185],[24.737621,42.360971],[24.738028,42.360516],[24.739459,42.359442],[24.739935,42.359131],[24.740169,42.358996],[24.740872,42.358645],[24.74233,42.35805],[24.742391,42.358011],[24.742487,42.356887],[24.742469,42.356826],[24.742308,42.356668],[24.742101,42.35609],[24.74273,42.35263],[24.743425,42.348488],[24.743501,42.344732],[24.744162,42.343508],[24.7443,42.343267],[24.744383,42.343176],[24.744511,42.343099],[24.74519,42.342922],[24.745049,42.342719],[24.744999,42.342682],[24.74456,42.342745],[24.744273,42.342859],[24.743911,42.343137],[24.743572,42.34373],[24.743156,42.344505],[24.743076,42.344687],[24.743054,42.344773],[24.743037,42.347595],[24.742943,42.348013],[24.742789,42.348256],[24.742234,42.348861],[24.742276,42.348872],[24.740749,42.350333],[24.740536,42.350593],[24.740057,42.351293],[24.739939,42.351652],[24.739777,42.354178],[24.739665,42.355611],[24.739605,42.355901],[24.739599,42.356107],[24.739426,42.356185],[24.739178,42.356409],[24.737687,42.357512],[24.738398,42.35817],[24.738223,42.358281]]]},"properties":{"cadreg":18}},{"type":"Feature","geometry":{"type":"Polygon","coordinates":[[[24.743433,42.34767],[24.743425,42.348488],[24.74273,42.35263],[24.742101,42.35609],[24.742261,42.356536],[24.742562,42.35641],[24.74279,42.35628],[24.742913,42.356183],[24.745168,42.352157],[24.745617,42.350702],[24.745814,42.350533],[24.746173,42.350274],[24.747476,42.349526],[24.747352,42.349366],[24.746142,42.347039],[24.745731,42.345794],[24.745213,42.342954],[24.74519,42.342922],[24.744511,42.343099],[24.744383,42.343176],[24.7443,42.343267],[24.744162,42.343508],[24.743501,42.344732],[24.743486,42.346069],[24.743433,42.34767]]]},"properties":{"cadreg":19}},{"type":"Feature","geometry":{"type":"Polygon","coordinates":[[[24.747476,42.349526],[24.746173,42.350274],[24.745814,42.350533],[24.745617,42.350702],[24.745168,42.352157],[24.743586,42.354967],[24.743749,42.355025],[24.755397,42.345003],[24.749826,42.348222],[24.747476,42.349526]]]},"properties":{"cadreg":20}},{"type":"Feature","geometry":{"type":"Polygon","coordinates":[[[24.74809,42.351425],[24.749224,42.354365],[24.751074,42.358655],[24.752303,42.357627],[24.753319,42.35683],[24.754112,42.356248],[24.756319,42.354326],[24.758141,42.353546],[24.759949,42.352499],[24.763134,42.350456],[24.763195,42.350589],[24.763446,42.350966],[24.763518,42.350948],[24.766112,42.356605],[24.766298,42.356564],[24.765055,42.353685],[24.764447,42.352378],[24.764527,42.352285],[24.759686,42.341731],[24.759495,42.341371],[24.759153,42.341399],[24.759309,42.341724],[24.759235,42.341729],[24.756614,42.343986],[24.755397,42.345003],[24.748092,42.351286],[24.748028,42.351347],[24.74809,42.351425]]]},"properties":{"cadreg":21}},{"type":"Feature","geometry":{"type":"Polygon","coordinates":[[[24.763518,42.350948],[24.763446,42.350966],[24.763195,42.350589],[24.763134,42.350456],[24.759949,42.352499],[24.758141,42.353546],[24.756319,42.354326],[24.754112,42.356248],[24.753319,42.35683],[24.752303,42.357627],[24.751074,42.358655],[24.752395,42.361681],[24.752497,42.361791],[24.756382,42.358658],[24.760598,42.355189],[24.763896,42.352524],[24.764171,42.352373],[24.763518,42.350948]]]},"properties":{"cadreg":22}},{"type":"Feature","geometry":{"type":"Polygon","coordinates":[[[24.766112,42.356605],[24.764171,42.352373],[24.763896,42.352524],[24.760598,42.355189],[24.756382,42.358658],[24.752497,42.361791],[24.753109,42.361972],[24.753181,42.361981],[24.75391,42.361969],[24.754059,42.361999],[24.755549,42.363013],[24.758151,42.36469],[24.759983,42.363451],[24.763979,42.360676],[24.764125,42.360522],[24.764233,42.360283],[24.765571,42.356888],[24.765639,42.356767],[24.765719,42.356715],[24.765844,42.356667],[24.766112,42.356605]]]},"properties":{"cadreg":23}},{"type":"Feature","geometry":{"type":"Polygon","coordinates":[[[24.7694,42.347598],[24.767023,42.342647],[24.76229,42.347086],[24.762181,42.347172],[24.764527,42.352285],[24.764612,42.352219],[24.7694,42.347598]]]},"properties":{"cadreg":24}},{"type":"Feature","geometry":{"type":"Polygon","coordinates":[[[24.759686,42.341731],[24.762149,42.347101],[24.762181,42.347172],[24.76229,42.347086],[24.767023,42.342647],[24.766377,42.341303],[24.759686,42.341731]]]},"properties":{"cadreg":25}},{"type":"Feature","geometry":{"type":"Polygon","coordinates":[[[24.764768,42.335719],[24.760605,42.336],[24.757283,42.336491],[24.759495,42.341371],[24.759684,42.341731],[24.766377,42.341303],[24.766255,42.341049],[24.766728,42.340924],[24.764768,42.335719]]]},"properties":{"cadreg":26}},{"type":"Feature","geometry":{"type":"Polygon","coordinates":[[[24.744996,42.342646],[24.744999,42.342682],[24.745049,42.342719],[24.745213,42.342954],[24.745731,42.345794],[24.746142,42.347039],[24.747352,42.349366],[24.747476,42.349526],[24.749826,42.348222],[24.755397,42.345003],[24.756614,42.343986],[24.759235,42.341729],[24.759309,42.341724],[24.759153,42.341399],[24.747683,42.342376],[24.744996,42.342646]]]},"properties":{"cadreg":27}},{"type":"Feature","geometry":{"type":"Polygon","coordinates":[[[24.739794,42.348253],[24.739831,42.348226],[24.742234,42.348861],[24.742789,42.348256],[24.742943,42.348013],[24.743037,42.347595],[24.743054,42.344773],[24.743076,42.344687],[24.743156,42.344505],[24.743572,42.34373],[24.743911,42.343137],[24.744273,42.342859],[24.74456,42.342745],[24.744999,42.342682],[24.744994,42.342616],[24.745142,42.342403],[24.74538,42.34232],[24.746112,42.341205],[24.746331,42.340439],[24.746235,42.340236],[24.745636,42.34042],[24.744458,42.340827],[24.744318,42.340913],[24.741787,42.343112],[24.737706,42.346727],[24.737421,42.346981],[24.736959,42.347452],[24.739794,42.348253]]]},"properties":{"cadreg":29}},{"type":"Feature","geometry":{"type":"Polygon","coordinates":[[[24.745894,42.335076],[24.744053,42.334904],[24.744047,42.335327],[24.744131,42.335863],[24.744598,42.336668],[24.745151,42.337136],[24.745385,42.337543],[24.745667,42.338263],[24.746097,42.340279],[24.746235,42.340236],[24.746222,42.34021],[24.746646,42.339995],[24.747112,42.339649],[24.750385,42.33561],[24.75029,42.335562],[24.745993,42.335065],[24.745894,42.335076]]]},"properties":{"cadreg":30}},{"type":"Feature","geometry":{"type":"Polygon","coordinates":[[[24.739831,42.341918],[24.739126,42.343125],[24.739042,42.343218],[24.738794,42.34366],[24.738719,42.34381],[24.738834,42.34385],[24.738334,42.344776],[24.737817,42.345619],[24.73715,42.346382],[24.737706,42.346727],[24.741787,42.343112],[24.744318,42.340913],[24.744458,42.340827],[24.745636,42.34042],[24.746097,42.340279],[24.745667,42.338263],[24.745385,42.337543],[24.745181,42.337177],[24.745151,42.337136],[24.744598,42.336668],[24.744131,42.335863],[24.744047,42.335327],[24.744053,42.334904],[24.742364,42.334681],[24.739116,42.334333],[24.739259,42.339711],[24.738768,42.340296],[24.739831,42.341918]]]},"properties":{"cadreg":31}},{"type":"Feature","geometry":{"type":"Polygon","coordinates":[[[24.7315,42.340892],[24.731491,42.341471],[24.731419,42.341726],[24.730638,42.343718],[24.730591,42.343697],[24.72977,42.346303],[24.729516,42.347455],[24.729441,42.347991],[24.729352,42.348447],[24.729242,42.348877],[24.729314,42.348881],[24.729307,42.348944],[24.729325,42.34899],[24.729993,42.349013],[24.729933,42.349475],[24.730441,42.349488],[24.730754,42.349513],[24.731015,42.349574],[24.731547,42.349756],[24.731857,42.349904],[24.732372,42.350112],[24.733454,42.348788],[24.733536,42.348849],[24.733904,42.348462],[24.734842,42.348907],[24.734968,42.348756],[24.735638,42.349061],[24.736724,42.347747],[24.73699,42.347464],[24.736959,42.347452],[24.737421,42.346981],[24.737706,42.346727],[24.73715,42.346382],[24.737817,42.345619],[24.738334,42.344776],[24.738834,42.34385],[24.738719,42.34381],[24.738794,42.34366],[24.739042,42.343218],[24.739126,42.343125],[24.739831,42.341918],[24.738768,42.340296],[24.739259,42.339711],[24.739111,42.334262],[24.737446,42.334078],[24.736696,42.334007],[24.736414,42.333993],[24.73512,42.333838],[24.737138,42.336558],[24.737503,42.33717],[24.737544,42.337501],[24.737121,42.337875],[24.734723,42.339188],[24.7315,42.340892]]]},"properties":{"cadreg":32}},{"type":"Feature","geometry":{"type":"Polygon","coordinates":[[[24.729115,42.343034],[24.726288,42.343564],[24.725999,42.343679],[24.725419,42.344107],[24.724939,42.34457],[24.722088,42.347102],[24.721883,42.347426],[24.72746,42.348069],[24.729362,42.348356],[24.729441,42.347991],[24.729516,42.347455],[24.72977,42.346303],[24.730591,42.343697],[24.729115,42.343034]]]},"properties":{"cadreg":33}},{"type":"Feature","geometry":{"type":"Polygon","coordinates":[[[24.723584,42.342654],[24.7204,42.345385],[24.718683,42.346895],[24.719208,42.347023],[24.721382,42.347363],[24.721883,42.347426],[24.722088,42.347102],[24.724939,42.34457],[24.725419,42.344107],[24.725999,42.343679],[24.726288,42.343564],[24.729115,42.343034],[24.72873,42.342751],[24.725405,42.341041],[24.723584,42.342654]]]},"properties":{"cadreg":34}},{"type":"Feature","geometry":{"type":"Polygon","coordinates":[[[24.731039,42.338417],[24.725405,42.341041],[24.72873,42.342751],[24.729115,42.343034],[24.730638,42.343718],[24.731419,42.341726],[24.731491,42.341471],[24.731502,42.340698],[24.731039,42.338417]]]},"properties":{"cadreg":35}},{"type":"Feature","geometry":{"type":"Polygon","coordinates":[[[24.734918,42.333805],[24.730469,42.333341],[24.730579,42.334867],[24.73102,42.33834],[24.731502,42.340698],[24.7315,42.340892],[24.734723,42.339188],[24.737121,42.337875],[24.737544,42.337501],[24.737503,42.33717],[24.737138,42.336558],[24.73512,42.333838],[24.734918,42.333805]]]},"properties":{"cadreg":36}},{"type":"Feature","geometry":{"type":"Polygon","coordinates":[[[24.727503,42.333271],[24.72167,42.338336],[24.721555,42.3385],[24.721439,42.339005],[24.721954,42.339208],[24.723221,42.339842],[24.725405,42.341041],[24.731039,42.338417],[24.730579,42.334867],[24.730469,42.333341],[24.730477,42.333215],[24.729758,42.333176],[24.727547,42.333146],[24.727503,42.333271]]]},"properties":{"cadreg":37}},{"type":"Feature","geometry":{"type":"Polygon","coordinates":[[[24.716172,42.346271],[24.716082,42.346551],[24.716134,42.346587],[24.718106,42.346833],[24.7186,42.346872],[24.718683,42.346895],[24.7204,42.345385],[24.723412,42.342806],[24.725405,42.341041],[24.723221,42.339842],[24.721954,42.339208],[24.721439,42.339005],[24.721046,42.341817],[24.720834,42.342482],[24.720627,42.342671],[24.71978,42.343332],[24.716172,42.346271]]]},"properties":{"cadreg":38}},{"type":"Feature","geometry":{"type":"Polygon","coordinates":[[[24.718714,42.33697],[24.716196,42.338575],[24.710847,42.34205],[24.712616,42.343485],[24.715913,42.346436],[24.716082,42.346551],[24.716172,42.346271],[24.71978,42.343332],[24.720627,42.342671],[24.720834,42.342482],[24.721046,42.341817],[24.721439,42.339005],[24.721306,42.338956],[24.718714,42.33697]]]},"properties":{"cadreg":39}},{"type":"Feature","geometry":{"type":"Polygon","coordinates":[[[24.717476,42.333106],[24.715917,42.334363],[24.716119,42.334472],[24.716193,42.33465],[24.716286,42.334739],[24.716109,42.334928],[24.716091,42.334997],[24.71612,42.335058],[24.716261,42.335199],[24.718,42.336479],[24.718752,42.336992],[24.721306,42.338956],[24.721439,42.339005],[24.721555,42.3385],[24.72167,42.338336],[24.727503,42.333271],[24.727547,42.333146],[24.717659,42.332981],[24.717476,42.333106]]]},"properties":{"cadreg":40}},{"type":"Feature","geometry":{"type":"Polygon","coordinates":[[[24.716286,42.334739],[24.716193,42.33465],[24.716119,42.334472],[24.715917,42.334363],[24.715637,42.334557],[24.711843,42.334839],[24.707773,42.337149],[24.707514,42.33759],[24.707462,42.337996],[24.707747,42.339066],[24.707738,42.33919],[24.707665,42.339364],[24.710847,42.34205],[24.716196,42.338575],[24.718714,42.33697],[24.718,42.336479],[24.716261,42.335199],[24.71612,42.335058],[24.716091,42.334997],[24.716109,42.334928],[24.716286,42.334739]]]},"properties":{"cadreg":41}},{"type":"Feature","geometry":{"type":"Polygon","coordinates":[[[24.707362,42.339441],[24.707032,42.339772],[24.704441,42.341338],[24.696633,42.345745],[24.700693,42.350882],[24.700769,42.350951],[24.703893,42.349056],[24.712841,42.343679],[24.710847,42.34205],[24.707665,42.339364],[24.707468,42.339271],[24.707436,42.339346],[24.707362,42.339441]]]},"properties":{"cadreg":42}},{"type":"Feature","geometry":{"type":"Polygon","coordinates":[[[24.69158,42.339431],[24.691613,42.339547],[24.691724,42.33964],[24.693725,42.340605],[24.69392,42.340836],[24.694591,42.342332],[24.694667,42.342657],[24.694667,42.3429],[24.694604,42.343063],[24.694529,42.343175],[24.694806,42.343336],[24.694924,42.343529],[24.696633,42.345745],[24.704441,42.341338],[24.707032,42.339772],[24.707362,42.339441],[24.707436,42.339346],[24.707468,42.339271],[24.705941,42.338021],[24.705945,42.337538],[24.705139,42.337673],[24.703608,42.337957],[24.702855,42.338073],[24.701571,42.338122],[24.692168,42.338369],[24.691607,42.339352],[24.69158,42.339431]]]},"properties":{"cadreg":43}},{"type":"Feature","geometry":{"type":"Polygon","coordinates":[[[24.688408,42.350357],[24.692061,42.348304],[24.6966,42.345799],[24.696659,42.345778],[24.694924,42.343529],[24.694806,42.343336],[24.694529,42.343175],[24.694457,42.34327],[24.694266,42.343392],[24.691608,42.344745],[24.688333,42.347011],[24.685455,42.348969],[24.685389,42.349085],[24.685431,42.349187],[24.685528,42.349275],[24.688402,42.351182],[24.688523,42.351477],[24.687941,42.352699],[24.687669,42.353061],[24.685391,42.355132],[24.685427,42.355153],[24.685459,42.355223],[24.685326,42.355407],[24.685264,42.355539],[24.685353,42.355622],[24.685788,42.355125],[24.686555,42.354546],[24.687028,42.354256],[24.687294,42.353831],[24.687456,42.35366],[24.687651,42.353524],[24.687981,42.353189],[24.68887,42.351887],[24.68895,42.35152],[24.688627,42.350913],[24.68856,42.350698],[24.688533,42.35048],[24.688568,42.350387],[24.688525,42.350406],[24.688408,42.350357]]]},"properties":{"cadreg":44}},{"type":"Feature","geometry":{"type":"Polygon","coordinates":[[[24.689497,42.338421],[24.681914,42.350621],[24.681974,42.350644],[24.682078,42.350751],[24.682294,42.351236],[24.682681,42.351968],[24.683164,42.352606],[24.683237,42.35279],[24.683281,42.353083],[24.683332,42.35319],[24.683916,42.353962],[24.684204,42.354308],[24.684793,42.35493],[24.684878,42.355058],[24.684898,42.355134],[24.68488,42.355323],[24.684898,42.355407],[24.68492,42.355452],[24.684984,42.355503],[24.687669,42.353061],[24.687941,42.352699],[24.688523,42.351477],[24.688402,42.351182],[24.685528,42.349275],[24.685431,42.349187],[24.685389,42.349085],[24.685455,42.348969],[24.688333,42.347011],[24.691608,42.344745],[24.694266,42.343392],[24.694457,42.34327],[24.694604,42.343063],[24.694667,42.3429],[24.694667,42.342657],[24.694591,42.342332],[24.69392,42.340836],[24.693725,42.340605],[24.691724,42.33964],[24.691613,42.339547],[24.69158,42.339431],[24.691607,42.339352],[24.692168,42.338369],[24.689497,42.338421]]]},"properties":{"cadreg":45}},{"type":"Feature","geometry":{"type":"Polygon","coordinates":[[[24.699455,42.331743],[24.693913,42.331629],[24.691514,42.335181],[24.689497,42.338421],[24.691785,42.338379],[24.697892,42.338223],[24.701571,42.338122],[24.702855,42.338073],[24.703608,42.337957],[24.705139,42.337673],[24.705945,42.337538],[24.705941,42.338021],[24.707468,42.339271],[24.707665,42.339364],[24.707738,42.33919],[24.707747,42.339066],[24.707462,42.337996],[24.707514,42.33759],[24.707773,42.337149],[24.711843,42.334839],[24.715637,42.334557],[24.715917,42.334363],[24.717476,42.333106],[24.717659,42.332981],[24.705199,42.332766],[24.705255,42.332192],[24.705204,42.330596],[24.705177,42.330497],[24.705129,42.330438],[24.705049,42.330411],[24.703388,42.330563],[24.699619,42.33172],[24.699455,42.331743]]]},"properties":{"cadreg":46}},{"type":"Feature","geometry":{"type":"Polygon","coordinates":[[[24.725487,42.32396],[24.704379,42.330205],[24.704403,42.330253],[24.703388,42.330563],[24.705049,42.330411],[24.705129,42.330438],[24.705177,42.330497],[24.705204,42.330596],[24.705255,42.332192],[24.705199,42.332766],[24.729758,42.333176],[24.730551,42.333218],[24.73012,42.33037],[24.729974,42.329684],[24.729939,42.329589],[24.729644,42.329067],[24.729173,42.328375],[24.726849,42.324524],[24.726871,42.324325],[24.726824,42.324262],[24.726781,42.324095],[24.727236,42.323508],[24.727202,42.323319],[24.725487,42.32396]]]},"properties":{"cadreg":47}},{"type":"Feature","geometry":{"type":"Polygon","coordinates":[[[24.736496,42.325004],[24.727782,42.32607],[24.729173,42.328375],[24.729644,42.329067],[24.729939,42.329589],[24.729974,42.329684],[24.73012,42.33037],[24.730551,42.333218],[24.730477,42.333215],[24.730469,42.333341],[24.734918,42.333805],[24.736414,42.333993],[24.736696,42.334007],[24.737446,42.334078],[24.739111,42.334262],[24.739116,42.334333],[24.742364,42.334681],[24.743067,42.334774],[24.741732,42.332657],[24.741779,42.332605],[24.739804,42.329257],[24.739699,42.32912],[24.738864,42.32875],[24.738125,42.327893],[24.738028,42.327746],[24.737695,42.325369],[24.737535,42.324958],[24.736905,42.324743],[24.736242,42.323082],[24.736335,42.322636],[24.73628,42.322123],[24.736218,42.322054],[24.735814,42.321798],[24.735627,42.321597],[24.735394,42.321167],[24.735069,42.321234],[24.7354,42.321785],[24.735613,42.322502],[24.735803,42.322978],[24.735939,42.323635],[24.736133,42.324097],[24.736345,42.324426],[24.736496,42.325004]]]},"properties":{"cadreg":48}},{"type":"Feature","geometry":{"type":"Polygon","coordinates":[[[24.745991,42.327994],[24.744458,42.329642],[24.741732,42.332657],[24.743067,42.334774],[24.744053,42.334904],[24.745894,42.335076],[24.745993,42.335065],[24.75029,42.335562],[24.750385,42.33561],[24.750511,42.335453],[24.749822,42.33516],[24.749806,42.335134],[24.74873,42.332924],[24.747534,42.330375],[24.746319,42.327907],[24.746164,42.327961],[24.745991,42.327994]]]},"properties":{"cadreg":49}},{"type":"Feature","geometry":{"type":"Polygon","coordinates":[[[24.741266,42.318131],[24.734547,42.319157],[24.734564,42.319197],[24.733952,42.319288],[24.733976,42.319377],[24.734539,42.319287],[24.737268,42.318913],[24.738046,42.320622],[24.735394,42.321167],[24.735627,42.321597],[24.735814,42.321798],[24.736218,42.322054],[24.73628,42.322123],[24.736335,42.322636],[24.736242,42.323082],[24.736905,42.324743],[24.737535,42.324958],[24.737695,42.325369],[24.738028,42.327746],[24.738125,42.327893],[24.738864,42.32875],[24.739699,42.32912],[24.739804,42.329257],[24.741779,42.332605],[24.744458,42.329642],[24.745991,42.327994],[24.746164,42.327961],[24.746319,42.327907],[24.742884,42.320877],[24.741621,42.318406],[24.74167,42.3184],[24.741663,42.318292],[24.74158,42.318107],[24.741266,42.318131]]]},"properties":{"cadreg":51}},{"type":"Feature","geometry":{"type":"Polygon","coordinates":[[[24.702858,42.328771],[24.70286,42.32872],[24.701817,42.327609],[24.701807,42.327565],[24.69506,42.329163],[24.694967,42.330401],[24.694035,42.331446],[24.693913,42.331629],[24.699455,42.331743],[24.699619,42.33172],[24.704403,42.330253],[24.704379,42.330205],[24.71427,42.327282],[24.713543,42.325827],[24.706179,42.327931],[24.702969,42.328888],[24.702858,42.328771]]]},"properties":{"cadreg":52}},{"type":"Feature","geometry":{"type":"Polygon","coordinates":[[[24.712939,42.324308],[24.70322,42.327201],[24.703187,42.327142],[24.701807,42.327565],[24.701817,42.327609],[24.70286,42.32872],[24.702858,42.328771],[24.702969,42.328888],[24.706179,42.327931],[24.713543,42.325827],[24.713526,42.325793],[24.713577,42.325778],[24.713524,42.325675],[24.713598,42.325646],[24.712939,42.324308]]]},"properties":{"cadreg":53}},{"type":"Feature","geometry":{"type":"Polygon","coordinates":[[[24.704141,42.318287],[24.700891,42.319062],[24.703158,42.327056],[24.70632,42.326115],[24.706087,42.325347],[24.704813,42.320589],[24.704421,42.319201],[24.704385,42.319206],[24.704141,42.318287]]]},"properties":{"cadreg":54}},{"type":"Feature","geometry":{"type":"Polygon","coordinates":[[[24.707554,42.317478],[24.704141,42.318287],[24.704385,42.319206],[24.704421,42.319201],[24.704813,42.320589],[24.706087,42.325347],[24.70632,42.326115],[24.709747,42.325094],[24.709078,42.322724],[24.708237,42.319921],[24.707554,42.317478]]]},"properties":{"cadreg":55}},{"type":"Feature","geometry":{"type":"Polygon","coordinates":[[[24.700865,42.318965],[24.700891,42.319062],[24.707554,42.317478],[24.708237,42.319921],[24.709078,42.322724],[24.709747,42.325094],[24.703158,42.327056],[24.70322,42.327201],[24.709572,42.325302],[24.713063,42.324278],[24.712996,42.324128],[24.713107,42.324095],[24.711016,42.316669],[24.710822,42.316712],[24.710794,42.316631],[24.710796,42.316549],[24.705746,42.317796],[24.700865,42.318965]]]},"properties":{"cadreg":56}},{"type":"Feature","geometry":{"type":"Polygon","coordinates":[[[24.713903,42.315984],[24.711016,42.316669],[24.713107,42.324095],[24.715902,42.323276],[24.714991,42.319814],[24.714225,42.317082],[24.714194,42.317082],[24.713903,42.315984]]]},"properties":{"cadreg":57}},{"type":"Feature","geometry":{"type":"Polygon","coordinates":[[[24.719237,42.322451],[24.712939,42.324308],[24.713598,42.325646],[24.713524,42.325675],[24.713577,42.325778],[24.713526,42.325793],[24.71427,42.327282],[24.720803,42.325347],[24.719237,42.322451]]]},"properties":{"cadreg":58}},{"type":"Feature","geometry":{"type":"Polygon","coordinates":[[[24.723706,42.321137],[24.719237,42.322451],[24.720803,42.325347],[24.725487,42.32396],[24.727202,42.323319],[24.727131,42.323166],[24.726752,42.322532],[24.725554,42.320614],[24.723706,42.321137]]]},"properties":{"cadreg":59}},{"type":"Feature","geometry":{"type":"Polygon","coordinates":[[[24.710822,42.316712],[24.713903,42.315984],[24.714194,42.317082],[24.714225,42.317082],[24.714991,42.319814],[24.715902,42.323276],[24.712996,42.324128],[24.713063,42.324278],[24.719176,42.322468],[24.717051,42.315074],[24.710796,42.316549],[24.710794,42.316631],[24.710822,42.316712]]]},"properties":{"cadreg":60}},{"type":"Feature","geometry":{"type":"Polygon","coordinates":[[[24.717095,42.315213],[24.719135,42.322329],[24.722287,42.321391],[24.720651,42.31557],[24.720612,42.315577],[24.720292,42.314431],[24.717095,42.315213]]]},"properties":{"cadreg":61}},{"type":"Feature","geometry":{"type":"Polygon","coordinates":[[[24.717095,42.315213],[24.720292,42.314431],[24.720612,42.315577],[24.720651,42.31557],[24.722287,42.321391],[24.719135,42.322329],[24.719176,42.322468],[24.723686,42.321143],[24.725554,42.320614],[24.725496,42.320368],[24.725547,42.320265],[24.725231,42.319226],[24.723814,42.31416],[24.723779,42.314173],[24.723768,42.313793],[24.723785,42.313678],[24.723923,42.31354],[24.723925,42.313404],[24.717051,42.315074],[24.717095,42.315213]]]},"properties":{"cadreg":62}},{"type":"Feature","geometry":{"type":"Polygon","coordinates":[[[24.731056,42.319723],[24.731035,42.319627],[24.728041,42.312587],[24.728038,42.312471],[24.72814,42.312274],[24.736089,42.30599],[24.736044,42.305907],[24.727772,42.312447],[24.727547,42.312527],[24.723925,42.313404],[24.723923,42.31354],[24.723785,42.313678],[24.723768,42.313793],[24.723779,42.314173],[24.723814,42.31416],[24.725231,42.319226],[24.725547,42.320265],[24.725496,42.320368],[24.725538,42.320539],[24.731056,42.319723]]]},"properties":{"cadreg":63}},{"type":"Feature","geometry":{"type":"Polygon","coordinates":[[[24.728303,42.320235],[24.725554,42.320614],[24.726752,42.322532],[24.727131,42.323166],[24.727202,42.323319],[24.731311,42.322358],[24.731564,42.322234],[24.731737,42.322079],[24.731832,42.321948],[24.731848,42.321859],[24.731836,42.321745],[24.731188,42.32027],[24.731025,42.319824],[24.728303,42.320235]]]},"properties":{"cadreg":64}},{"type":"Feature","geometry":{"type":"Polygon","coordinates":[[[24.731311,42.322358],[24.727202,42.323319],[24.727236,42.323508],[24.726781,42.324095],[24.726824,42.324262],[24.726871,42.324325],[24.726849,42.324524],[24.727782,42.32607],[24.736496,42.325004],[24.736345,42.324426],[24.736133,42.324097],[24.735939,42.323635],[24.735803,42.322978],[24.735613,42.322502],[24.7354,42.321785],[24.731848,42.321859],[24.731832,42.321948],[24.731737,42.322079],[24.731564,42.322234],[24.731311,42.322358]]]},"properties":{"cadreg":65}},{"type":"Feature","geometry":{"type":"Polygon","coordinates":[[[24.73388,42.31939],[24.731025,42.319824],[24.731188,42.32027],[24.731836,42.321745],[24.731848,42.321859],[24.7354,42.321785],[24.735069,42.321234],[24.738046,42.320622],[24.737268,42.318913],[24.734539,42.319287],[24.733976,42.319377],[24.733952,42.319288],[24.733856,42.319302],[24.73388,42.31939]]]},"properties":{"cadreg":66}},{"type":"Feature","geometry":{"type":"Polygon","coordinates":[[[24.736089,42.30599],[24.72814,42.312274],[24.728038,42.312471],[24.728041,42.312587],[24.731035,42.319627],[24.731056,42.319723],[24.725538,42.320539],[24.725554,42.320614],[24.728303,42.320235],[24.73388,42.31939],[24.733856,42.319302],[24.734564,42.319197],[24.733786,42.317401],[24.733777,42.317348],[24.732931,42.31551],[24.731324,42.311769],[24.737933,42.31072],[24.739597,42.314552],[24.741266,42.318131],[24.74158,42.318107],[24.736292,42.306252],[24.736078,42.30588],[24.736044,42.305907],[24.736089,42.30599]]]},"properties":{"cadreg":67}},{"type":"Feature","geometry":{"type":"Polygon","coordinates":[[[24.737933,42.31072],[24.731324,42.311769],[24.73292,42.315477],[24.734652,42.315244],[24.736792,42.314931],[24.739597,42.314552],[24.737933,42.31072]]]},"properties":{"cadreg":68}},{"type":"Feature","geometry":{"type":"Polygon","coordinates":[[[24.741266,42.318131],[24.739597,42.314552],[24.736792,42.314931],[24.734652,42.315244],[24.73292,42.315477],[24.733777,42.317348],[24.733786,42.317401],[24.734547,42.319157],[24.741266,42.318131]]]},"properties":{"cadreg":69}},{"type":"Feature","geometry":{"type":"Polygon","coordinates":[[[24.747236,42.31546],[24.740812,42.316386],[24.741663,42.318292],[24.748362,42.317326],[24.748342,42.317285],[24.748057,42.317329],[24.748021,42.31721],[24.747236,42.31546]]]},"properties":{"cadreg":70}},{"type":"Feature","geometry":{"type":"Polygon","coordinates":[[[24.741461,42.314213],[24.739945,42.314442],[24.740812,42.316386],[24.747236,42.31546],[24.747138,42.315277],[24.746355,42.313516],[24.741461,42.314213]]]},"properties":{"cadreg":71}},{"type":"Feature","geometry":{"type":"Polygon","coordinates":[[[24.745538,42.311559],[24.739071,42.312483],[24.739945,42.314442],[24.741461,42.314213],[24.746355,42.313516],[24.748021,42.31721],[24.748057,42.317329],[24.748106,42.317321],[24.745538,42.311559]]]},"properties":{"cadreg":72}},{"type":"Feature","geometry":{"type":"Polygon","coordinates":[[[24.744748,42.309776],[24.738268,42.310681],[24.739071,42.312483],[24.745538,42.311559],[24.744748,42.309776]]]},"properties":{"cadreg":73}},{"type":"Feature","geometry":{"type":"Polygon","coordinates":[[[24.743925,42.307922],[24.737904,42.308728],[24.737811,42.308675],[24.737394,42.308723],[24.738268,42.310681],[24.744748,42.309776],[24.744728,42.309678],[24.743925,42.307922]]]},"properties":{"cadreg":74}},{"type":"Feature","geometry":{"type":"Polygon","coordinates":[[[24.74284,42.305463],[24.737528,42.306199],[24.73635,42.306381],[24.737394,42.308723],[24.737811,42.308675],[24.737904,42.308728],[24.743925,42.307922],[24.743913,42.307846],[24.74284,42.305463]]]},"properties":{"cadreg":75}},{"type":"Feature","geometry":{"type":"Polygon","coordinates":[[[24.736078,42.30588],[24.73635,42.306381],[24.737528,42.306199],[24.74284,42.305463],[24.743913,42.307846],[24.743925,42.307922],[24.744728,42.309678],[24.744748,42.309776],[24.745564,42.311631],[24.745605,42.311689],[24.748106,42.317321],[24.74829,42.317294],[24.747486,42.315344],[24.74142,42.301645],[24.736078,42.30588]]]},"properties":{"cadreg":76}},{"type":"Feature","geometry":{"type":"Polygon","coordinates":[[[24.740582,42.300643],[24.734455,42.302185],[24.734353,42.302238],[24.734326,42.3023],[24.734351,42.302379],[24.735871,42.305718],[24.733147,42.307882],[24.727585,42.312258],[24.727323,42.312382],[24.723805,42.313235],[24.711145,42.31624],[24.710967,42.316285],[24.710929,42.316407],[24.700817,42.318759],[24.700865,42.318965],[24.705746,42.317796],[24.710734,42.316562],[24.717051,42.315074],[24.727547,42.312527],[24.727772,42.312447],[24.74142,42.301645],[24.740684,42.29997],[24.740427,42.300013],[24.740668,42.300596],[24.740582,42.300643]]]},"properties":{"cadreg":77}},{"type":"Feature","geometry":{"type":"Polygon","coordinates":[[[24.73098,42.303176],[24.733026,42.307719],[24.733107,42.307809],[24.733177,42.307847],[24.735871,42.305718],[24.734351,42.302379],[24.734326,42.3023],[24.73434,42.302271],[24.73098,42.303176]]]},"properties":{"cadreg":78}},{"type":"Feature","geometry":{"type":"Polygon","coordinates":[[[24.73234,42.306347],[24.726406,42.311066],[24.723428,42.311796],[24.723905,42.313211],[24.727323,42.312382],[24.727585,42.312258],[24.733147,42.307882],[24.733064,42.307842],[24.732983,42.307744],[24.73234,42.306347]]]},"properties":{"cadreg":79}},{"type":"Feature","geometry":{"type":"Polygon","coordinates":[[[24.725545,42.30859],[24.72394,42.309845],[24.72273,42.309852],[24.723428,42.311796],[24.726406,42.311066],[24.73234,42.306347],[24.731262,42.303988],[24.725542,42.308501],[24.72549,42.308555],[24.725545,42.30859]]]},"properties":{"cadreg":80}},{"type":"Feature","geometry":{"type":"Polygon","coordinates":[[[24.730888,42.303161],[24.728914,42.303662],[24.727216,42.305019],[24.722462,42.308769],[24.722364,42.308812],[24.72273,42.309852],[24.72394,42.309845],[24.725545,42.30859],[24.72549,42.308555],[24.725542,42.308501],[24.731262,42.303988],[24.73094,42.303309],[24.730888,42.303161]]]},"properties":{"cadreg":81}},{"type":"Feature","geometry":{"type":"Polygon","coordinates":[[[24.717595,42.31002],[24.717259,42.313309],[24.723337,42.311862],[24.722281,42.308839],[24.717545,42.309918],[24.717536,42.310028],[24.717595,42.31002]]]},"properties":{"cadreg":82}},{"type":"Feature","geometry":{"type":"Polygon","coordinates":[[[24.717259,42.313309],[24.717111,42.314822],[24.723805,42.313235],[24.723337,42.311862],[24.717259,42.313309]]]},"properties":{"cadreg":83}},{"type":"Feature","geometry":{"type":"Polygon","coordinates":[[[24.710967,42.316285],[24.717111,42.314822],[24.717121,42.314756],[24.717452,42.311329],[24.717595,42.31002],[24.717536,42.310028],[24.717545,42.309918],[24.717417,42.309944],[24.713211,42.311416],[24.712396,42.311582],[24.710967,42.316285]]]},"properties":{"cadreg":84}},{"type":"Feature","geometry":{"type":"Polygon","coordinates":[[[24.722281,42.308839],[24.723805,42.313235],[24.723905,42.313211],[24.72389,42.313144],[24.723437,42.311822],[24.722364,42.308812],[24.720888,42.301869],[24.720636,42.301963],[24.717085,42.305046],[24.715625,42.306566],[24.713307,42.309058],[24.712396,42.311582],[24.713211,42.311416],[24.717417,42.309944],[24.722281,42.308839]]]},"properties":{"cadreg":85}},{"type":"Feature","geometry":{"type":"Polygon","coordinates":[[[24.721345,42.303979],[24.722012,42.307164],[24.722364,42.308812],[24.722462,42.308769],[24.725923,42.306034],[24.725163,42.303025],[24.721345,42.303979]]]},"properties":{"cadreg":86}},{"type":"Feature","geometry":{"type":"Polygon","coordinates":[[[24.730224,42.301697],[24.721333,42.303916],[24.721345,42.303979],[24.725163,42.303025],[24.725923,42.306034],[24.728914,42.303662],[24.730888,42.303161],[24.730224,42.301697]]]},"properties":{"cadreg":87}},{"type":"Feature","geometry":{"type":"Polygon","coordinates":[[[24.724628,42.301048],[24.720906,42.301969],[24.721319,42.303867],[24.725432,42.302844],[24.724628,42.301048]]]},"properties":{"cadreg":88}},{"type":"Feature","geometry":{"type":"Polygon","coordinates":[[[24.727604,42.300306],[24.724628,42.301048],[24.725432,42.302844],[24.721319,42.303867],[24.721333,42.303916],[24.730224,42.301697],[24.730888,42.303161],[24.73094,42.303309],[24.732983,42.307744],[24.733064,42.307842],[24.733147,42.307882],[24.733177,42.307847],[24.733107,42.307809],[24.733026,42.307719],[24.729479,42.299846],[24.727729,42.300311],[24.727604,42.300306]]]},"properties":{"cadreg":89}},{"type":"Feature","geometry":{"type":"Polygon","coordinates":[[[24.732738,42.299047],[24.729752,42.299815],[24.729479,42.299846],[24.73098,42.303176],[24.734302,42.302278],[24.733529,42.300664],[24.7328,42.29898],[24.732738,42.299047]]]},"properties":{"cadreg":90}},{"type":"Feature","geometry":{"type":"Polygon","coordinates":[[[24.738499,42.301164],[24.737026,42.297834],[24.736954,42.297812],[24.720888,42.301869],[24.720906,42.301969],[24.727604,42.300306],[24.727729,42.300311],[24.729479,42.299846],[24.729752,42.299815],[24.732738,42.299047],[24.7328,42.29898],[24.733529,42.300664],[24.734302,42.302278],[24.73434,42.302271],[24.734353,42.302238],[24.734455,42.302185],[24.738499,42.301164]]]},"properties":{"cadreg":91}},{"type":"Feature","geometry":{"type":"Polygon","coordinates":[[[24.737026,42.297834],[24.738499,42.301164],[24.740582,42.300643],[24.740668,42.300596],[24.740427,42.300013],[24.740684,42.29997],[24.739422,42.297122],[24.738017,42.297464],[24.736954,42.297812],[24.737026,42.297834]]]},"properties":{"cadreg":92}},{"type":"Feature","geometry":{"type":"Polygon","coordinates":[[[24.749694,42.295507],[24.740271,42.297774],[24.740695,42.29871],[24.740728,42.298863],[24.741005,42.299111],[24.741305,42.299473],[24.741361,42.299459],[24.741177,42.299623],[24.741155,42.299698],[24.741197,42.299786],[24.750905,42.297406],[24.749694,42.295507]]]},"properties":{"cadreg":93}},{"type":"Feature","geometry":{"type":"Polygon","coordinates":[[[24.749694,42.295507],[24.748325,42.29336],[24.743582,42.294579],[24.738934,42.295752],[24.739558,42.297092],[24.739422,42.297122],[24.747486,42.315344],[24.74829,42.317294],[24.748342,42.317285],[24.748362,42.317326],[24.748663,42.317278],[24.740926,42.29985],[24.741197,42.299786],[24.741155,42.299698],[24.741177,42.299623],[24.741361,42.299459],[24.741305,42.299473],[24.741005,42.299111],[24.740728,42.298863],[24.740695,42.29871],[24.740271,42.297774],[24.749694,42.295507]]]},"properties":{"cadreg":94}}]}