{"type":"FeatureCollection","features":[{"type":"Feature","geometry":{"type":"MultiPolygon","coordinates":[[[[24.87747,42.095903],[24.877297,42.095327],[24.876779,42.095408],[24.876593,42.094943],[24.876289,42.094281],[24.876327,42.094177],[24.874247,42.094754],[24.873743,42.094505],[24.873236,42.094306],[24.872706,42.094223],[24.872109,42.094182],[24.872184,42.093833],[24.872211,42.093414],[24.871872,42.09338],[24.871911,42.093055],[24.871399,42.093004],[24.871393,42.092708],[24.871173,42.09266],[24.871159,42.092293],[24.870698,42.092268],[24.869536,42.092284],[24.869555,42.091705],[24.868995,42.091656],[24.869009,42.091475],[24.868362,42.091452],[24.868214,42.091489],[24.867786,42.091478],[24.867755,42.092219],[24.866403,42.092261],[24.866389,42.092298],[24.866433,42.092683],[24.865414,42.09272],[24.864729,42.092819],[24.864195,42.093039],[24.863975,42.093174],[24.863822,42.093289],[24.8636,42.093512],[24.863487,42.093669],[24.863418,42.0938],[24.863315,42.094045],[24.86327,42.094412],[24.863291,42.094887],[24.863152,42.094891],[24.862858,42.093938],[24.862724,42.093628],[24.862402,42.093041],[24.861008,42.093288],[24.861574,42.095233],[24.861433,42.095256],[24.862149,42.097408],[24.862681,42.097792],[24.863487,42.09846],[24.864495,42.09841],[24.864578,42.098667],[24.864658,42.098798],[24.865683,42.10003],[24.865487,42.10012],[24.865792,42.100384],[24.866135,42.100753],[24.866461,42.101199],[24.866679,42.101659],[24.867744,42.101653],[24.868351,42.101678],[24.872812,42.101656],[24.873002,42.101637],[24.873181,42.101593],[24.875389,42.101583],[24.875368,42.101527],[24.875472,42.10151],[24.875475,42.101494],[24.875505,42.101482],[24.879365,42.101508],[24.879364,42.101455],[24.88005,42.10146],[24.880075,42.101435],[24.880085,42.101328],[24.880236,42.101311],[24.881706,42.10141],[24.882863,42.101466],[24.88321,42.100097],[24.882968,42.099916],[24.882969,42.098282],[24.883029,42.09828],[24.883029,42.097979],[24.883865,42.097988],[24.883779,42.097311],[24.882326,42.097344],[24.882325,42.097448],[24.879387,42.097634],[24.879409,42.098809],[24.878994,42.098737],[24.877748,42.098444],[24.877858,42.097711],[24.877889,42.097339],[24.877558,42.09732],[24.877575,42.09638],[24.87747,42.095903]]],[[[24.866732,42.10177],[24.86676,42.10183],[24.866835,42.101826],[24.866818,42.101772],[24.866732,42.10177]]],[[[24.874978,42.108182],[24.874834,42.106662],[24.874699,42.106149],[24.87688,42.105971],[24.878165,42.105939],[24.878112,42.104714],[24.878215,42.104693],[24.878173,42.104347],[24.878326,42.104339],[24.878297,42.103985],[24.878147,42.103898],[24.878086,42.103178],[24.878907,42.103145],[24.879642,42.103473],[24.879799,42.104149],[24.881148,42.104027],[24.881498,42.10355],[24.881479,42.103463],[24.881496,42.103376],[24.881588,42.103314],[24.88192,42.102987],[24.882056,42.102171],[24.882002,42.102153],[24.881463,42.102103],[24.881464,42.10209],[24.879046,42.10194],[24.873635,42.101896],[24.87339,42.101906],[24.870136,42.101892],[24.867814,42.101898],[24.866895,42.101941],[24.867024,42.103358],[24.868152,42.103313],[24.86794,42.107136],[24.867931,42.107671],[24.869298,42.107652],[24.869266,42.10678],[24.869355,42.106277],[24.869747,42.106304],[24.869758,42.106202],[24.870469,42.106119],[24.870724,42.106065],[24.8718,42.105994],[24.871796,42.106186],[24.872031,42.106201],[24.872113,42.107876],[24.874978,42.108182]]]]},"properties":{"cadreg":888}},{"type":"Feature","geometry":{"type":"Polygon","coordinates":[[[24.879365,42.101508],[24.875505,42.101482],[24.875475,42.101494],[24.875472,42.10151],[24.875368,42.101527],[24.875389,42.101583],[24.873181,42.101593],[24.873002,42.101637],[24.872812,42.101656],[24.868351,42.101678],[24.867744,42.101653],[24.866782,42.101657],[24.866872,42.101942],[24.867814,42.101898],[24.870136,42.101892],[24.87339,42.101906],[24.873635,42.101896],[24.879046,42.10194],[24.881464,42.10209],[24.881463,42.102103],[24.882002,42.102153],[24.88275,42.102286],[24.882768,42.102228],[24.882127,42.102118],[24.88269,42.102054],[24.882765,42.101851],[24.883872,42.101879],[24.884534,42.101918],[24.884563,42.101611],[24.883901,42.101536],[24.882848,42.101523],[24.882863,42.101466],[24.881706,42.10141],[24.880236,42.101311],[24.880085,42.101328],[24.880075,42.101435],[24.880042,42.101462],[24.879364,42.101455],[24.879365,42.101508]]]},"properties":{"cadreg":501}},{"type":"Feature","geometry":{"type":"Polygon","coordinates":[[[24.852535,42.089295],[24.850212,42.08773],[24.850193,42.087754],[24.850158,42.08773],[24.850106,42.08778],[24.851804,42.088934],[24.85226,42.091621],[24.853665,42.095583],[24.855709,42.096762],[24.855948,42.097091],[24.855794,42.097343],[24.856095,42.097684],[24.856199,42.098046],[24.856431,42.098234],[24.856567,42.098598],[24.856656,42.099234],[24.857732,42.099413],[24.858982,42.099772],[24.860591,42.100536],[24.860944,42.100459],[24.861988,42.100666],[24.86272,42.100614],[24.862828,42.101761],[24.866121,42.101822],[24.86612,42.101873],[24.866759,42.101851],[24.866748,42.101805],[24.865952,42.101792],[24.866165,42.101757],[24.866818,42.101772],[24.866782,42.101657],[24.866165,42.101667],[24.865841,42.101654],[24.86555,42.101292],[24.865322,42.101081],[24.864857,42.100708],[24.863909,42.100007],[24.863139,42.099627],[24.863063,42.099544],[24.862977,42.099181],[24.862852,42.098907],[24.862571,42.098607],[24.862233,42.098447],[24.861631,42.098319],[24.860826,42.098248],[24.860284,42.098177],[24.859974,42.0981],[24.859326,42.097785],[24.858735,42.097392],[24.857604,42.096465],[24.857134,42.096166],[24.856182,42.095359],[24.855263,42.094357],[24.854848,42.093547],[24.854496,42.092966],[24.854521,42.092917],[24.854626,42.092922],[24.854722,42.09298],[24.854727,42.09292],[24.854396,42.092665],[24.854408,42.092519],[24.854248,42.09247],[24.854373,42.09224],[24.854074,42.091145],[24.853883,42.090659],[24.853719,42.090326],[24.853713,42.09013],[24.853657,42.089904],[24.853566,42.089782],[24.853263,42.089613],[24.853267,42.089566],[24.853532,42.089548],[24.852936,42.089475],[24.852535,42.089295]]]},"properties":{"cadreg":129}},{"type":"Feature","geometry":{"type":"Polygon","coordinates":[[[24.876116,42.054756],[24.877124,42.060227],[24.871884,42.057074],[24.871878,42.057138],[24.871901,42.057221],[24.877288,42.060497],[24.881458,42.061955],[24.882423,42.065822],[24.881695,42.074335],[24.881621,42.074331],[24.882755,42.079052],[24.88361,42.082475],[24.884879,42.087437],[24.884933,42.087436],[24.884968,42.087766],[24.885035,42.087762],[24.885095,42.087999],[24.885259,42.087976],[24.884656,42.085647],[24.881875,42.074333],[24.881801,42.074331],[24.881805,42.074277],[24.881878,42.074279],[24.882585,42.0658],[24.880736,42.058538],[24.879859,42.054907],[24.885056,42.054978],[24.885041,42.054924],[24.885116,42.054925],[24.885087,42.05479],[24.874258,42.054585],[24.874355,42.054743],[24.876116,42.054756]]]},"properties":{"cadreg":127}},{"type":"Feature","geometry":{"type":"Polygon","coordinates":[[[24.880614,42.058032],[24.88158,42.06182],[24.88688,42.061765],[24.886951,42.061754],[24.885116,42.054925],[24.885041,42.054924],[24.885056,42.054978],[24.879859,42.054907],[24.880614,42.058032]]]},"properties":{"cadreg":128}},{"type":"Feature","geometry":{"type":"Polygon","coordinates":[[[24.879876,42.145209],[24.879863,42.145235],[24.879325,42.145183],[24.879094,42.145187],[24.878732,42.14524],[24.878546,42.145285],[24.878414,42.145378],[24.878321,42.145337],[24.877401,42.145704],[24.880508,42.147175],[24.881911,42.148949],[24.883364,42.150174],[24.88591,42.151641],[24.890778,42.152717],[24.89258,42.153519],[24.89351,42.154095],[24.894668,42.155249],[24.895835,42.155858],[24.895883,42.156009],[24.894606,42.1562],[24.893706,42.156028],[24.893493,42.156092],[24.893268,42.156355],[24.893402,42.156578],[24.893719,42.15676],[24.895977,42.157072],[24.897605,42.15714],[24.89774,42.156258],[24.897151,42.156081],[24.89707,42.155953],[24.897026,42.15486],[24.896937,42.154851],[24.896796,42.153805],[24.896813,42.153752],[24.895262,42.153204],[24.894082,42.153003],[24.892928,42.152934],[24.890988,42.152231],[24.887668,42.151335],[24.886395,42.150921],[24.884683,42.15008],[24.883697,42.149439],[24.882795,42.148699],[24.880977,42.146856],[24.881091,42.146473],[24.881406,42.145712],[24.881335,42.1457],[24.881357,42.145648],[24.883896,42.146092],[24.883928,42.146001],[24.881952,42.145632],[24.881404,42.145557],[24.881423,42.145495],[24.879876,42.145209]]]},"properties":{"cadreg":140}},{"type":"Feature","geometry":{"type":"Polygon","coordinates":[[[24.884966,42.122157],[24.885569,42.123096],[24.886579,42.123766],[24.886946,42.125418],[24.887785,42.125692],[24.887507,42.123357],[24.886319,42.121731],[24.884966,42.122157]]]},"properties":{"cadreg":141}},{"type":"Feature","geometry":{"type":"Polygon","coordinates":[[[24.878414,42.145136],[24.878675,42.145067],[24.879104,42.145028],[24.879488,42.145036],[24.880226,42.145196],[24.880257,42.145129],[24.879428,42.144981],[24.877296,42.144686],[24.876983,42.144672],[24.876698,42.144684],[24.876584,42.14475],[24.876354,42.144948],[24.876213,42.145214],[24.876213,42.145381],[24.877161,42.145631],[24.878414,42.145136]]]},"properties":{"cadreg":156}},{"type":"Feature","geometry":{"type":"Polygon","coordinates":[[[24.862822,42.089643],[24.862045,42.089723],[24.861976,42.089834],[24.862788,42.092517],[24.863818,42.092316],[24.863788,42.092076],[24.863724,42.092087],[24.863718,42.092035],[24.863763,42.092027],[24.863618,42.091354],[24.863571,42.089553],[24.862822,42.089624],[24.862822,42.089643]]]},"properties":{"cadreg":200}},{"type":"Feature","geometry":{"type":"Polygon","coordinates":[[[24.86701,42.103407],[24.86683,42.107528],[24.866819,42.107862],[24.866833,42.108203],[24.866954,42.109005],[24.867379,42.111079],[24.867439,42.111466],[24.867459,42.111978],[24.867428,42.112368],[24.867379,42.112636],[24.866654,42.115373],[24.866571,42.115987],[24.866621,42.116768],[24.867841,42.121174],[24.867927,42.121631],[24.868191,42.123659],[24.868416,42.124978],[24.868675,42.124961],[24.868799,42.124866],[24.868857,42.124706],[24.869127,42.124318],[24.869349,42.124131],[24.869676,42.123938],[24.869823,42.123991],[24.870309,42.123593],[24.870248,42.122723],[24.869683,42.12241],[24.869339,42.117812],[24.869334,42.117704],[24.869383,42.117702],[24.869318,42.117081],[24.86912,42.116814],[24.868358,42.116303],[24.867621,42.114796],[24.868608,42.113726],[24.868735,42.11355],[24.86908,42.112571],[24.86945,42.11097],[24.869417,42.110718],[24.869276,42.110328],[24.868817,42.109458],[24.868025,42.108171],[24.868027,42.107671],[24.867931,42.107671],[24.867925,42.108014],[24.867973,42.108193],[24.867737,42.10812],[24.867202,42.10722],[24.867129,42.107045],[24.867126,42.106888],[24.86722,42.106665],[24.867226,42.106515],[24.867168,42.105843],[24.867045,42.104949],[24.867062,42.103935],[24.867113,42.103511],[24.867064,42.10343],[24.86701,42.103407]]]},"properties":{"cadreg":213}},{"type":"Feature","geometry":{"type":"Polygon","coordinates":[[[24.870755,42.140652],[24.870604,42.14066],[24.870478,42.14073],[24.870431,42.140775],[24.871426,42.142815],[24.872844,42.144374],[24.876213,42.145214],[24.876354,42.144948],[24.874106,42.144353],[24.873745,42.144234],[24.873274,42.144009],[24.872817,42.143747],[24.872658,42.143627],[24.872332,42.143289],[24.872149,42.143031],[24.870755,42.140652]]]},"properties":{"cadreg":224}},{"type":"Feature","geometry":{"type":"Polygon","coordinates":[[[24.86612,42.101873],[24.866126,42.103246],[24.866403,42.104457],[24.866077,42.106054],[24.8661,42.108407],[24.866237,42.109522],[24.866719,42.110861],[24.866865,42.112402],[24.866653,42.113137],[24.865768,42.114447],[24.865893,42.116431],[24.86597,42.116925],[24.86623,42.118216],[24.866238,42.118923],[24.866865,42.119832],[24.867894,42.130749],[24.867665,42.134605],[24.867832,42.136385],[24.867944,42.136847],[24.871281,42.142944],[24.872722,42.144508],[24.876213,42.145381],[24.876213,42.145214],[24.872844,42.144374],[24.871426,42.142815],[24.870431,42.140775],[24.870478,42.14073],[24.870604,42.14066],[24.870755,42.140652],[24.869558,42.138567],[24.869035,42.137539],[24.868875,42.137155],[24.868747,42.136758],[24.868578,42.135932],[24.868449,42.135068],[24.8684,42.134481],[24.868179,42.134465],[24.868259,42.134358],[24.868326,42.134215],[24.868317,42.133199],[24.868348,42.132899],[24.868393,42.132671],[24.868271,42.132376],[24.868272,42.131822],[24.86832,42.131637],[24.868298,42.131149],[24.868255,42.130984],[24.868313,42.130435],[24.868298,42.129703],[24.868331,42.128967],[24.868367,42.128795],[24.868362,42.128161],[24.868386,42.127856],[24.868324,42.127195],[24.868348,42.127085],[24.868319,42.126646],[24.86815,42.125569],[24.868039,42.125161],[24.868025,42.124836],[24.868063,42.124616],[24.868054,42.12427],[24.868174,42.124104],[24.867861,42.122076],[24.867842,42.121776],[24.867729,42.121123],[24.867203,42.119289],[24.866614,42.117118],[24.866531,42.116748],[24.866479,42.115976],[24.866558,42.115409],[24.867286,42.112691],[24.867333,42.112408],[24.867359,42.111606],[24.867322,42.11126],[24.866746,42.108219],[24.866738,42.107967],[24.86677,42.106966],[24.8669,42.104291],[24.866922,42.10325],[24.867014,42.103249],[24.866895,42.101941],[24.866872,42.101942],[24.866835,42.101826],[24.86676,42.10183],[24.866759,42.101851],[24.86612,42.101873]]]},"properties":{"cadreg":226}},{"type":"Feature","geometry":{"type":"Polygon","coordinates":[[[24.868331,42.128967],[24.868298,42.129703],[24.868313,42.130435],[24.868255,42.130984],[24.868298,42.131149],[24.86832,42.131637],[24.868272,42.131822],[24.868271,42.132376],[24.868393,42.132671],[24.868348,42.132899],[24.868317,42.133199],[24.868326,42.134215],[24.868259,42.134358],[24.868179,42.134465],[24.8684,42.134481],[24.868543,42.130869],[24.868571,42.130555],[24.868654,42.128611],[24.868368,42.128608],[24.868367,42.128795],[24.868331,42.128967]]]},"properties":{"cadreg":230}},{"type":"Feature","geometry":{"type":"Polygon","coordinates":[[[24.868421,42.125605],[24.868174,42.124104],[24.868054,42.12427],[24.868063,42.124616],[24.868025,42.124836],[24.868039,42.125161],[24.86815,42.125569],[24.868319,42.126646],[24.868348,42.127085],[24.868324,42.127195],[24.868386,42.127856],[24.868362,42.128161],[24.868368,42.128608],[24.868654,42.128611],[24.868663,42.128352],[24.868616,42.127115],[24.868421,42.125605]]]},"properties":{"cadreg":232}},{"type":"Feature","geometry":{"type":"Polygon","coordinates":[[[24.883711,42.149449],[24.884683,42.15008],[24.886395,42.150921],[24.887668,42.151335],[24.890988,42.152231],[24.892928,42.152934],[24.894082,42.153003],[24.895262,42.153204],[24.896813,42.153752],[24.897551,42.15147],[24.897584,42.15065],[24.897353,42.150572],[24.882052,42.147946],[24.882795,42.148699],[24.883711,42.149449]]]},"properties":{"cadreg":1}},{"type":"Feature","geometry":{"type":"Polygon","coordinates":[[[24.881091,42.146473],[24.880977,42.146856],[24.882052,42.147946],[24.897353,42.150572],[24.897584,42.15065],[24.897551,42.15147],[24.896796,42.153805],[24.896937,42.154851],[24.897026,42.15486],[24.89691,42.153775],[24.897565,42.152131],[24.897775,42.150563],[24.897422,42.15055],[24.89741,42.148569],[24.89732,42.14851],[24.890506,42.147246],[24.881357,42.145648],[24.881335,42.1457],[24.881406,42.145712],[24.881091,42.146473]]]},"properties":{"cadreg":2}},{"type":"Feature","geometry":{"type":"Polygon","coordinates":[[[24.88398,42.143615],[24.876223,42.144032],[24.876269,42.144567],[24.876698,42.144684],[24.876983,42.144672],[24.877296,42.144686],[24.879428,42.144981],[24.880142,42.1451],[24.880257,42.145129],[24.880226,42.145196],[24.882438,42.145605],[24.882237,42.145372],[24.883288,42.145623],[24.883494,42.145528],[24.883144,42.145255],[24.88314,42.145116],[24.88398,42.143615]]]},"properties":{"cadreg":3}},{"type":"Feature","geometry":{"type":"Polygon","coordinates":[[[24.876223,42.144032],[24.88398,42.143615],[24.884709,42.142238],[24.876085,42.142638],[24.876223,42.144032]]]},"properties":{"cadreg":4}},{"type":"Feature","geometry":{"type":"Polygon","coordinates":[[[24.875945,42.141221],[24.876085,42.142638],[24.884709,42.142238],[24.885233,42.141241],[24.88564,42.140547],[24.875945,42.141221]]]},"properties":{"cadreg":5}},{"type":"Feature","geometry":{"type":"Polygon","coordinates":[[[24.885366,42.141222],[24.888755,42.135542],[24.88865,42.135502],[24.885233,42.141241],[24.88398,42.143615],[24.88314,42.145116],[24.883144,42.145255],[24.883494,42.145528],[24.883288,42.145623],[24.882237,42.145372],[24.882438,42.145605],[24.880226,42.145196],[24.879488,42.145036],[24.879104,42.145028],[24.878675,42.145067],[24.878414,42.145136],[24.877161,42.145631],[24.877401,42.145704],[24.878321,42.145337],[24.878414,42.145378],[24.878546,42.145285],[24.878937,42.145206],[24.879094,42.145187],[24.879325,42.145183],[24.879863,42.145235],[24.879876,42.145209],[24.881423,42.145495],[24.881404,42.145557],[24.881952,42.145632],[24.883928,42.146001],[24.883896,42.146092],[24.890506,42.147246],[24.89732,42.14851],[24.89741,42.148569],[24.897409,42.148424],[24.888136,42.146704],[24.89171,42.143398],[24.891739,42.143334],[24.885366,42.141222]]]},"properties":{"cadreg":6}},{"type":"Feature","geometry":{"type":"Polygon","coordinates":[[[24.888755,42.135542],[24.885366,42.141222],[24.891739,42.143334],[24.89247,42.141103],[24.893683,42.137605],[24.888755,42.135542]]]},"properties":{"cadreg":7}},{"type":"Feature","geometry":{"type":"Polygon","coordinates":[[[24.881128,42.134795],[24.881817,42.140809],[24.88564,42.140547],[24.888621,42.135552],[24.886414,42.134679],[24.881128,42.134795]]]},"properties":{"cadreg":8}},{"type":"Feature","geometry":{"type":"Polygon","coordinates":[[[24.881128,42.134795],[24.877423,42.134876],[24.877947,42.139307],[24.878131,42.141062],[24.881817,42.140809],[24.881128,42.134795]]]},"properties":{"cadreg":9}},{"type":"Feature","geometry":{"type":"Polygon","coordinates":[[[24.875778,42.139413],[24.875945,42.141221],[24.878131,42.141062],[24.877939,42.139253],[24.875778,42.139413]]]},"properties":{"cadreg":10}},{"type":"Feature","geometry":{"type":"Polygon","coordinates":[[[24.877726,42.137452],[24.875603,42.137599],[24.875778,42.139413],[24.877939,42.139253],[24.877726,42.137452]]]},"properties":{"cadreg":11}},{"type":"Feature","geometry":{"type":"Polygon","coordinates":[[[24.875438,42.135798],[24.875603,42.137599],[24.877726,42.137452],[24.877513,42.13566],[24.875438,42.135798]]]},"properties":{"cadreg":12}},{"type":"Feature","geometry":{"type":"Polygon","coordinates":[[[24.875274,42.133976],[24.875438,42.135798],[24.877513,42.13566],[24.877307,42.133872],[24.875274,42.133976]]]},"properties":{"cadreg":13}},{"type":"Feature","geometry":{"type":"Polygon","coordinates":[[[24.875822,42.141221],[24.871428,42.141236],[24.8726,42.1432],[24.872728,42.143328],[24.873381,42.143782],[24.873819,42.144016],[24.874018,42.144103],[24.876126,42.144638],[24.875822,42.141221]]]},"properties":{"cadreg":14}},{"type":"Feature","geometry":{"type":"Polygon","coordinates":[[[24.872025,42.134055],[24.872719,42.141232],[24.875822,42.141221],[24.875659,42.139396],[24.875129,42.134049],[24.872025,42.134055]]]},"properties":{"cadreg":15}},{"type":"Feature","geometry":{"type":"Polygon","coordinates":[[[24.869894,42.130346],[24.869519,42.129137],[24.868802,42.128982],[24.868811,42.128207],[24.86875,42.126857],[24.868492,42.124971],[24.868416,42.124978],[24.868225,42.123877],[24.867927,42.121631],[24.867841,42.121174],[24.867774,42.120919],[24.866621,42.116768],[24.866571,42.115987],[24.866654,42.115373],[24.867379,42.112636],[24.867428,42.112368],[24.867459,42.111978],[24.867439,42.111466],[24.867379,42.111079],[24.866954,42.109005],[24.866833,42.108203],[24.866819,42.107862],[24.86683,42.107528],[24.867024,42.103358],[24.867014,42.103249],[24.866922,42.10325],[24.8669,42.104291],[24.86677,42.106966],[24.866738,42.107967],[24.866746,42.108219],[24.867322,42.11126],[24.867359,42.111606],[24.867333,42.112408],[24.867286,42.112691],[24.866558,42.115409],[24.866479,42.115976],[24.866531,42.116748],[24.866614,42.117118],[24.867203,42.119289],[24.867729,42.121123],[24.867842,42.121776],[24.867861,42.122076],[24.868128,42.123879],[24.868421,42.125605],[24.868592,42.126887],[24.868628,42.127236],[24.868663,42.128352],[24.868571,42.130555],[24.868543,42.130869],[24.8684,42.134481],[24.868449,42.135068],[24.868578,42.135932],[24.868747,42.136758],[24.868875,42.137155],[24.869035,42.137539],[24.869558,42.138567],[24.870493,42.140208],[24.872149,42.143031],[24.872332,42.143289],[24.872658,42.143627],[24.872817,42.143747],[24.873274,42.144009],[24.873745,42.144234],[24.874106,42.144353],[24.876354,42.144948],[24.876584,42.14475],[24.876131,42.144697],[24.876126,42.144638],[24.874018,42.144103],[24.873819,42.144016],[24.873381,42.143782],[24.872728,42.143328],[24.8726,42.1432],[24.871428,42.141236],[24.872719,42.141232],[24.872025,42.134055],[24.868621,42.134061],[24.868611,42.133951],[24.868877,42.13161],[24.870223,42.13057],[24.870128,42.129012],[24.870052,42.12901],[24.870132,42.130277],[24.869894,42.130346]]]},"properties":{"cadreg":16}},{"type":"Feature","geometry":{"type":"Polygon","coordinates":[[[24.868877,42.13161],[24.868611,42.133951],[24.87043,42.133946],[24.870223,42.13057],[24.868877,42.13161]]]},"properties":{"cadreg":17}},{"type":"Feature","geometry":{"type":"Polygon","coordinates":[[[24.872375,42.133886],[24.87205,42.129056],[24.870128,42.129012],[24.87043,42.133946],[24.868611,42.133951],[24.868621,42.134061],[24.875129,42.134049],[24.875107,42.133878],[24.872375,42.133886]]]},"properties":{"cadreg":18}},{"type":"Feature","geometry":{"type":"Polygon","coordinates":[[[24.868857,42.124706],[24.868799,42.124866],[24.868675,42.124961],[24.868492,42.124971],[24.86875,42.126857],[24.868811,42.128207],[24.868802,42.128982],[24.869519,42.129137],[24.869894,42.130346],[24.870132,42.130277],[24.869734,42.123951],[24.869676,42.123938],[24.869349,42.124131],[24.869127,42.124318],[24.868857,42.124706]]]},"properties":{"cadreg":20}},{"type":"Feature","geometry":{"type":"Polygon","coordinates":[[[24.87205,42.129056],[24.871286,42.117715],[24.869339,42.117812],[24.869683,42.12241],[24.870248,42.122723],[24.870309,42.123593],[24.869823,42.123991],[24.869734,42.123951],[24.870052,42.12901],[24.87205,42.129056]]]},"properties":{"cadreg":21}},{"type":"Feature","geometry":{"type":"Polygon","coordinates":[[[24.873984,42.117494],[24.869334,42.117704],[24.869339,42.117812],[24.871286,42.117715],[24.872375,42.133886],[24.875107,42.133878],[24.875659,42.139396],[24.876131,42.144697],[24.876584,42.14475],[24.876698,42.144684],[24.876269,42.144567],[24.875279,42.13403],[24.875054,42.131351],[24.874727,42.124473],[24.874294,42.118552],[24.874151,42.117103],[24.873519,42.108916],[24.873628,42.10874],[24.874854,42.108193],[24.874853,42.108169],[24.873491,42.108029],[24.873455,42.10849],[24.87334,42.108752],[24.873774,42.114466],[24.873984,42.117494]]]},"properties":{"cadreg":22}},{"type":"Feature","geometry":{"type":"Polygon","coordinates":[[[24.874725,42.12463],[24.875054,42.131351],[24.875274,42.133976],[24.877307,42.133872],[24.876755,42.124492],[24.874725,42.12463]]]},"properties":{"cadreg":23}},{"type":"Feature","geometry":{"type":"Polygon","coordinates":[[[24.876755,42.124492],[24.877307,42.133872],[24.877423,42.134876],[24.881128,42.134795],[24.881097,42.134741],[24.880748,42.128824],[24.882113,42.12878],[24.886377,42.134665],[24.888621,42.135552],[24.88865,42.135502],[24.888755,42.135542],[24.893683,42.137605],[24.893752,42.137496],[24.892468,42.136959],[24.892287,42.136856],[24.886514,42.134497],[24.880655,42.126379],[24.880722,42.126358],[24.880518,42.125893],[24.880077,42.125293],[24.879697,42.124263],[24.879597,42.1241],[24.874727,42.124473],[24.874725,42.12463],[24.876755,42.124492]]]},"properties":{"cadreg":24}},{"type":"Feature","geometry":{"type":"Polygon","coordinates":[[[24.886377,42.134665],[24.882113,42.12878],[24.880748,42.128824],[24.881097,42.134741],[24.881128,42.134795],[24.886414,42.134679],[24.886377,42.134665]]]},"properties":{"cadreg":25}},{"type":"Feature","geometry":{"type":"Polygon","coordinates":[[[24.885466,42.129337],[24.882546,42.128987],[24.886514,42.134497],[24.887096,42.134734],[24.885654,42.129378],[24.885466,42.129337]]]},"properties":{"cadreg":26}},{"type":"Feature","geometry":{"type":"Polygon","coordinates":[[[24.885654,42.129378],[24.887096,42.134734],[24.892287,42.136856],[24.892468,42.136959],[24.890028,42.130365],[24.889906,42.130368],[24.886386,42.129516],[24.885654,42.129378]]]},"properties":{"cadreg":27}},{"type":"Feature","geometry":{"type":"Polygon","coordinates":[[[24.893397,42.128179],[24.889401,42.128972],[24.890088,42.130505],[24.892468,42.136959],[24.893752,42.137496],[24.893683,42.137605],[24.89247,42.141103],[24.89171,42.143398],[24.891901,42.143217],[24.892562,42.1412],[24.8938,42.137627],[24.893869,42.137518],[24.895366,42.132928],[24.894814,42.131261],[24.894042,42.128803],[24.894084,42.128547],[24.893897,42.12829],[24.890825,42.125532],[24.890625,42.125302],[24.890508,42.124879],[24.890654,42.124228],[24.889956,42.11908],[24.889792,42.118695],[24.889458,42.118425],[24.885904,42.116824],[24.885776,42.116743],[24.885699,42.116572],[24.885579,42.116586],[24.885659,42.116754],[24.885805,42.116873],[24.889408,42.11852],[24.889721,42.118777],[24.889864,42.119144],[24.890511,42.123709],[24.890439,42.123699],[24.8903,42.125066],[24.890614,42.125592],[24.893397,42.128179]]]},"properties":{"cadreg":28}},{"type":"Feature","geometry":{"type":"Polygon","coordinates":[[[24.8903,42.125066],[24.890439,42.123699],[24.888671,42.123458],[24.887579,42.123353],[24.887507,42.123357],[24.88779,42.125733],[24.888176,42.126254],[24.889401,42.128972],[24.893397,42.128179],[24.890614,42.125592],[24.8903,42.125066]]]},"properties":{"cadreg":29}},{"type":"Feature","geometry":{"type":"Polygon","coordinates":[[[24.890028,42.130365],[24.888152,42.126222],[24.885365,42.126807],[24.886495,42.129413],[24.88648,42.129489],[24.886445,42.129512],[24.886386,42.129516],[24.889906,42.130368],[24.890028,42.130365]]]},"properties":{"cadreg":30}},{"type":"Feature","geometry":{"type":"Polygon","coordinates":[[[24.886946,42.125418],[24.885909,42.125149],[24.884433,42.124767],[24.885365,42.126807],[24.888152,42.126222],[24.88779,42.125733],[24.887785,42.125692],[24.886946,42.125418]]]},"properties":{"cadreg":31}},{"type":"Feature","geometry":{"type":"Polygon","coordinates":[[[24.87972,42.124325],[24.880077,42.125293],[24.880518,42.125893],[24.880722,42.126358],[24.880655,42.126379],[24.882442,42.12887],[24.886304,42.129368],[24.884377,42.124846],[24.882516,42.125005],[24.87972,42.124325]]]},"properties":{"cadreg":32}},{"type":"Feature","geometry":{"type":"Polygon","coordinates":[[[24.879403,42.122859],[24.874613,42.123009],[24.874727,42.124473],[24.879524,42.124105],[24.879403,42.122859]]]},"properties":{"cadreg":33}},{"type":"Feature","geometry":{"type":"Polygon","coordinates":[[[24.87931,42.121759],[24.874534,42.1219],[24.874613,42.123009],[24.879403,42.122859],[24.87931,42.121759]]]},"properties":{"cadreg":34}},{"type":"Feature","geometry":{"type":"Polygon","coordinates":[[[24.879229,42.120629],[24.874452,42.120776],[24.874534,42.1219],[24.87931,42.121759],[24.879229,42.120629]]]},"properties":{"cadreg":35}},{"type":"Feature","geometry":{"type":"Polygon","coordinates":[[[24.87914,42.119494],[24.874372,42.119661],[24.874452,42.120776],[24.879229,42.120629],[24.87914,42.119494]]]},"properties":{"cadreg":36}},{"type":"Feature","geometry":{"type":"Polygon","coordinates":[[[24.87907,42.118385],[24.874294,42.118552],[24.874372,42.119661],[24.87914,42.119494],[24.87907,42.118385]]]},"properties":{"cadreg":37}},{"type":"Feature","geometry":{"type":"Polygon","coordinates":[[[24.878899,42.116937],[24.874158,42.117157],[24.874294,42.118552],[24.87907,42.118385],[24.878967,42.117002],[24.878903,42.116999],[24.878899,42.116937]]]},"properties":{"cadreg":38}},{"type":"Feature","geometry":{"type":"Polygon","coordinates":[[[24.884377,42.124846],[24.882574,42.118836],[24.881608,42.1171],[24.881313,42.116927],[24.878967,42.117002],[24.87931,42.121759],[24.879524,42.124105],[24.879597,42.1241],[24.87972,42.124325],[24.882516,42.125005],[24.884377,42.124846]]]},"properties":{"cadreg":39}},{"type":"Feature","geometry":{"type":"Polygon","coordinates":[[[24.87906,42.116877],[24.878301,42.106068],[24.878229,42.106072],[24.878169,42.105202],[24.878133,42.105204],[24.878172,42.106074],[24.878383,42.108997],[24.878903,42.116999],[24.87904,42.117005],[24.881313,42.116927],[24.881608,42.1171],[24.882574,42.118836],[24.884354,42.124793],[24.886304,42.129368],[24.882442,42.12887],[24.882546,42.128987],[24.885466,42.129337],[24.886386,42.129516],[24.886445,42.129512],[24.88648,42.129489],[24.886495,42.129413],[24.88538,42.126841],[24.884433,42.124767],[24.886946,42.125418],[24.886579,42.123766],[24.885569,42.123096],[24.884966,42.122157],[24.886319,42.121731],[24.886066,42.120219],[24.88504,42.120259],[24.883899,42.116737],[24.881461,42.116854],[24.881387,42.116804],[24.87906,42.116877]]]},"properties":{"cadreg":40}},{"type":"Feature","geometry":{"type":"Polygon","coordinates":[[[24.867064,42.10343],[24.867113,42.103511],[24.867062,42.103935],[24.867045,42.104949],[24.867168,42.105843],[24.867226,42.106515],[24.86722,42.106665],[24.867126,42.106888],[24.867129,42.107045],[24.867202,42.10722],[24.867737,42.10812],[24.867973,42.108193],[24.867925,42.108014],[24.86794,42.107136],[24.868152,42.103313],[24.867024,42.103358],[24.86701,42.103407],[24.867064,42.10343]]]},"properties":{"cadreg":41}},{"type":"Feature","geometry":{"type":"Polygon","coordinates":[[[24.883899,42.116737],[24.88504,42.120259],[24.886066,42.120219],[24.885348,42.116667],[24.883899,42.116737]]]},"properties":{"cadreg":42}},{"type":"Feature","geometry":{"type":"Polygon","coordinates":[[[24.886066,42.120219],[24.886319,42.121731],[24.887507,42.123357],[24.887579,42.123353],[24.888671,42.123458],[24.890511,42.123709],[24.889864,42.119144],[24.889721,42.118777],[24.889408,42.11852],[24.885805,42.116873],[24.885659,42.116754],[24.885579,42.116586],[24.885337,42.116614],[24.886066,42.120219]]]},"properties":{"cadreg":43}},{"type":"Feature","geometry":{"type":"Polygon","coordinates":[[[24.878824,42.113563],[24.87906,42.116877],[24.881387,42.116804],[24.881461,42.116854],[24.885348,42.116667],[24.88444,42.113341],[24.878824,42.113563]]]},"properties":{"cadreg":44}},{"type":"Feature","geometry":{"type":"Polygon","coordinates":[[[24.878595,42.110312],[24.878824,42.113563],[24.88444,42.113341],[24.883514,42.110156],[24.883516,42.110112],[24.878595,42.110312]]]},"properties":{"cadreg":45}},{"type":"Feature","geometry":{"type":"Polygon","coordinates":[[[24.873646,42.110559],[24.874158,42.117157],[24.878899,42.116937],[24.878466,42.110317],[24.873646,42.110559]]]},"properties":{"cadreg":46}},{"type":"Feature","geometry":{"type":"Polygon","coordinates":[[[24.870379,42.110271],[24.870919,42.117632],[24.873984,42.117494],[24.873774,42.114466],[24.873476,42.110565],[24.870379,42.110271]]]},"properties":{"cadreg":47}},{"type":"Feature","geometry":{"type":"Polygon","coordinates":[[[24.869417,42.110718],[24.86945,42.11097],[24.86908,42.112571],[24.868735,42.11355],[24.868608,42.113726],[24.867621,42.114796],[24.868358,42.116303],[24.86912,42.116814],[24.869318,42.117081],[24.869383,42.117702],[24.870919,42.117632],[24.870379,42.110271],[24.869178,42.110157],[24.869276,42.110328],[24.869417,42.110718]]]},"properties":{"cadreg":48}},{"type":"Feature","geometry":{"type":"Polygon","coordinates":[[[24.873429,42.109895],[24.869189,42.109493],[24.868817,42.109458],[24.869178,42.110157],[24.873476,42.110565],[24.873429,42.109895]]]},"properties":{"cadreg":49}},{"type":"Feature","geometry":{"type":"Polygon","coordinates":[[[24.873308,42.108942],[24.868206,42.108457],[24.868817,42.109458],[24.873429,42.109895],[24.87334,42.108752],[24.873292,42.108754],[24.873308,42.108942]]]},"properties":{"cadreg":50}},{"type":"Feature","geometry":{"type":"Polygon","coordinates":[[[24.868206,42.108457],[24.873308,42.108942],[24.873292,42.108754],[24.87334,42.108752],[24.873455,42.10849],[24.873491,42.108029],[24.872062,42.107868],[24.872064,42.107904],[24.869298,42.107652],[24.868027,42.107671],[24.868025,42.108171],[24.868206,42.108457]]]},"properties":{"cadreg":51}},{"type":"Feature","geometry":{"type":"Polygon","coordinates":[[[24.869747,42.106304],[24.869355,42.106277],[24.869266,42.10678],[24.869298,42.107652],[24.872064,42.107904],[24.872062,42.107868],[24.872113,42.107876],[24.872031,42.106201],[24.871796,42.106186],[24.8718,42.105994],[24.870724,42.106065],[24.870469,42.106119],[24.869758,42.106202],[24.869747,42.106304]]]},"properties":{"cadreg":52}},{"type":"Feature","geometry":{"type":"Polygon","coordinates":[[[24.873646,42.110559],[24.878466,42.110317],[24.878379,42.108961],[24.873542,42.109204],[24.873646,42.110559]]]},"properties":{"cadreg":53}},{"type":"Feature","geometry":{"type":"Polygon","coordinates":[[[24.87629,42.109064],[24.876214,42.10814],[24.874978,42.108182],[24.874853,42.108169],[24.874854,42.108193],[24.873628,42.10874],[24.873519,42.108916],[24.873542,42.109204],[24.87629,42.109064]]]},"properties":{"cadreg":54}},{"type":"Feature","geometry":{"type":"Polygon","coordinates":[[[24.878308,42.108038],[24.876214,42.10814],[24.87629,42.109064],[24.878379,42.108961],[24.878308,42.108038]]]},"properties":{"cadreg":56}},{"type":"Feature","geometry":{"type":"Polygon","coordinates":[[[24.874892,42.107171],[24.874978,42.108182],[24.876197,42.108149],[24.878308,42.108038],[24.878231,42.106971],[24.874892,42.107171]]]},"properties":{"cadreg":57}},{"type":"Feature","geometry":{"type":"Polygon","coordinates":[[[24.874841,42.106722],[24.874892,42.107171],[24.878231,42.106971],[24.878165,42.105939],[24.87688,42.105971],[24.874699,42.106149],[24.874841,42.106722]]]},"properties":{"cadreg":58}},{"type":"Feature","geometry":{"type":"Polygon","coordinates":[[[24.883871,42.108746],[24.878501,42.108963],[24.878595,42.110312],[24.883516,42.110112],[24.883532,42.109717],[24.883871,42.108746]]]},"properties":{"cadreg":59}},{"type":"Feature","geometry":{"type":"Polygon","coordinates":[[[24.884219,42.107757],[24.878437,42.107994],[24.878501,42.108963],[24.883871,42.108746],[24.884219,42.107757]]]},"properties":{"cadreg":60}},{"type":"Feature","geometry":{"type":"Polygon","coordinates":[[[24.884589,42.106713],[24.878365,42.10697],[24.878437,42.107994],[24.884219,42.107757],[24.884589,42.106713]]]},"properties":{"cadreg":61}},{"type":"Feature","geometry":{"type":"Polygon","coordinates":[[[24.884695,42.105772],[24.878411,42.106031],[24.878301,42.106068],[24.878365,42.10697],[24.884589,42.106713],[24.884746,42.106255],[24.884695,42.105772]]]},"properties":{"cadreg":62}},{"type":"Feature","geometry":{"type":"Polygon","coordinates":[[[24.878411,42.106031],[24.884695,42.105772],[24.884746,42.106255],[24.883532,42.109717],[24.883514,42.110156],[24.88444,42.113341],[24.885337,42.116614],[24.885699,42.116572],[24.883848,42.110154],[24.883847,42.109807],[24.885062,42.106734],[24.885162,42.106135],[24.884889,42.104804],[24.881979,42.104916],[24.880008,42.104965],[24.879909,42.105024],[24.878463,42.105094],[24.878127,42.10505],[24.878133,42.105204],[24.878169,42.105202],[24.878229,42.106072],[24.878301,42.106068],[24.878411,42.106031]]]},"properties":{"cadreg":63}},{"type":"Feature","geometry":{"type":"Polygon","coordinates":[[[24.878147,42.103898],[24.878297,42.103985],[24.878326,42.104339],[24.878173,42.104347],[24.878215,42.104693],[24.878112,42.104714],[24.878127,42.10505],[24.878463,42.105094],[24.879909,42.105024],[24.880008,42.104965],[24.879429,42.103378],[24.878907,42.103145],[24.878086,42.103178],[24.878147,42.103898]]]},"properties":{"cadreg":64}},{"type":"Feature","geometry":{"type":"Polygon","coordinates":[[[24.881496,42.103376],[24.881479,42.103463],[24.881498,42.10355],[24.881148,42.104027],[24.879799,42.104149],[24.879642,42.103473],[24.879429,42.103378],[24.880008,42.104965],[24.881979,42.104916],[24.884889,42.104804],[24.884464,42.102622],[24.884487,42.102397],[24.88381,42.102257],[24.88269,42.102054],[24.882127,42.102118],[24.882768,42.102228],[24.88275,42.102286],[24.882056,42.102171],[24.88192,42.102987],[24.881588,42.103314],[24.881496,42.103376]]]},"properties":{"cadreg":65}},{"type":"Feature","geometry":{"type":"MultiPolygon","coordinates":[[[[24.88321,42.100097],[24.882848,42.101523],[24.883901,42.101536],[24.884563,42.101611],[24.884699,42.100217],[24.88321,42.100097]]],[[[24.883751,42.101876],[24.882765,42.101851],[24.88269,42.102054],[24.88381,42.102257],[24.884487,42.102397],[24.884534,42.101918],[24.883751,42.101876]]]]},"properties":{"cadreg":66}},{"type":"Feature","geometry":{"type":"Polygon","coordinates":[[[24.885422,42.092563],[24.885747,42.096441],[24.885838,42.098011],[24.883029,42.097979],[24.883029,42.09828],[24.882969,42.098282],[24.882968,42.099916],[24.88321,42.100097],[24.884699,42.100217],[24.884704,42.100146],[24.886012,42.100255],[24.885839,42.097071],[24.885422,42.092563]]]},"properties":{"cadreg":67}},{"type":"Feature","geometry":{"type":"Polygon","coordinates":[[[24.885747,42.096441],[24.879371,42.096748],[24.879387,42.097634],[24.882325,42.097448],[24.882326,42.097344],[24.883779,42.097311],[24.883865,42.097988],[24.885838,42.098011],[24.885747,42.096441]]]},"properties":{"cadreg":68}},{"type":"Feature","geometry":{"type":"Polygon","coordinates":[[[24.879388,42.097668],[24.87786,42.097675],[24.877748,42.098444],[24.878994,42.098737],[24.879409,42.098809],[24.879388,42.097668]]]},"properties":{"cadreg":69}},{"type":"Feature","geometry":{"type":"Polygon","coordinates":[[[24.877563,42.096781],[24.877558,42.09732],[24.877889,42.097339],[24.87786,42.097675],[24.879388,42.097668],[24.879372,42.096784],[24.877563,42.096781]]]},"properties":{"cadreg":70}},{"type":"Feature","geometry":{"type":"Polygon","coordinates":[[[24.877462,42.095867],[24.877575,42.09638],[24.877563,42.096781],[24.879372,42.096784],[24.87936,42.095855],[24.877462,42.095867]]]},"properties":{"cadreg":71}},{"type":"Feature","geometry":{"type":"Polygon","coordinates":[[[24.876593,42.094943],[24.876779,42.095408],[24.877297,42.095327],[24.877462,42.095867],[24.87936,42.095855],[24.879345,42.094919],[24.876593,42.094943]]]},"properties":{"cadreg":72}},{"type":"Feature","geometry":{"type":"Polygon","coordinates":[[[24.876289,42.094281],[24.876593,42.094943],[24.879345,42.094919],[24.879332,42.09422],[24.876303,42.094243],[24.876289,42.094281]]]},"properties":{"cadreg":73}},{"type":"Feature","geometry":{"type":"Polygon","coordinates":[[[24.875916,42.092806],[24.876447,42.094242],[24.879332,42.09422],[24.879299,42.092776],[24.875916,42.092806]]]},"properties":{"cadreg":74}},{"type":"Feature","geometry":{"type":"Polygon","coordinates":[[[24.879286,42.09184],[24.875591,42.091875],[24.875916,42.092806],[24.879299,42.092776],[24.879286,42.09184]]]},"properties":{"cadreg":75}},{"type":"Feature","geometry":{"type":"Polygon","coordinates":[[[24.875591,42.091875],[24.879286,42.09184],[24.879275,42.09115],[24.875282,42.09105],[24.875591,42.091875]]]},"properties":{"cadreg":76}},{"type":"Feature","geometry":{"type":"Polygon","coordinates":[[[24.885652,42.09539],[24.879356,42.095697],[24.879371,42.096748],[24.885747,42.096441],[24.885652,42.09539]]]},"properties":{"cadreg":77}},{"type":"Feature","geometry":{"type":"Polygon","coordinates":[[[24.88557,42.09438],[24.879342,42.094658],[24.879356,42.095697],[24.885652,42.09539],[24.88557,42.09438]]]},"properties":{"cadreg":78}},{"type":"Feature","geometry":{"type":"Polygon","coordinates":[[[24.883516,42.093578],[24.879322,42.093748],[24.879342,42.094658],[24.88557,42.09438],[24.885498,42.093552],[24.883521,42.093628],[24.883516,42.093578]]]},"properties":{"cadreg":79}},{"type":"Feature","geometry":{"type":"Polygon","coordinates":[[[24.8793,42.092812],[24.879322,42.093748],[24.883516,42.093578],[24.883449,42.092642],[24.8793,42.092812]]]},"properties":{"cadreg":80}},{"type":"Feature","geometry":{"type":"Polygon","coordinates":[[[24.88341,42.091711],[24.879282,42.091877],[24.8793,42.092812],[24.883449,42.092642],[24.88341,42.091711]]]},"properties":{"cadreg":81}},{"type":"Feature","geometry":{"type":"Polygon","coordinates":[[[24.879282,42.091877],[24.88341,42.091711],[24.883449,42.092642],[24.883521,42.093628],[24.885498,42.093552],[24.885492,42.093498],[24.8836,42.093578],[24.883465,42.091253],[24.879275,42.09115],[24.879282,42.091877]]]},"properties":{"cadreg":82}},{"type":"Feature","geometry":{"type":"Polygon","coordinates":[[[24.885413,42.092563],[24.883534,42.09264],[24.8836,42.093578],[24.885492,42.093498],[24.885413,42.092563]]]},"properties":{"cadreg":83}},{"type":"Feature","geometry":{"type":"Polygon","coordinates":[[[24.885301,42.091632],[24.883498,42.091702],[24.883534,42.09264],[24.885413,42.092563],[24.885301,42.091632]]]},"properties":{"cadreg":84}},{"type":"Feature","geometry":{"type":"Polygon","coordinates":[[[24.885266,42.091174],[24.883465,42.091253],[24.883498,42.091702],[24.885301,42.091632],[24.885266,42.091174]]]},"properties":{"cadreg":85}},{"type":"Feature","geometry":{"type":"Polygon","coordinates":[[[24.879226,42.088205],[24.879275,42.09115],[24.883465,42.091253],[24.885266,42.091174],[24.885301,42.091632],[24.885422,42.092563],[24.885001,42.088012],[24.885095,42.087999],[24.885075,42.087918],[24.884943,42.087954],[24.884907,42.087951],[24.884352,42.087724],[24.883058,42.08788],[24.880989,42.088153],[24.879226,42.088205]]]},"properties":{"cadreg":86}},{"type":"Feature","geometry":{"type":"Polygon","coordinates":[[[24.87856,42.088223],[24.875918,42.088352],[24.874856,42.088391],[24.875282,42.09105],[24.879275,42.09115],[24.879226,42.088205],[24.87856,42.088223]]]},"properties":{"cadreg":87}},{"type":"Feature","geometry":{"type":"Polygon","coordinates":[[[24.875927,42.093046],[24.873247,42.092717],[24.874266,42.094749],[24.876327,42.094177],[24.875927,42.093046]]]},"properties":{"cadreg":88}},{"type":"Feature","geometry":{"type":"Polygon","coordinates":[[[24.875599,42.092144],[24.872842,42.091852],[24.873247,42.092717],[24.875927,42.093046],[24.875599,42.092144]]]},"properties":{"cadreg":89}},{"type":"Feature","geometry":{"type":"Polygon","coordinates":[[[24.872842,42.091852],[24.874071,42.091982],[24.875599,42.092144],[24.875205,42.091055],[24.872282,42.090748],[24.872842,42.091852]]]},"properties":{"cadreg":90}},{"type":"Feature","geometry":{"type":"Polygon","coordinates":[[[24.874979,42.089587],[24.871663,42.089478],[24.872282,42.090748],[24.875205,42.091055],[24.874979,42.089587]]]},"properties":{"cadreg":91}},{"type":"Feature","geometry":{"type":"Polygon","coordinates":[[[24.871212,42.088561],[24.871663,42.089478],[24.874979,42.089587],[24.874781,42.088408],[24.873684,42.088399],[24.871059,42.08828],[24.87116,42.088457],[24.871154,42.08856],[24.871212,42.088561]]]},"properties":{"cadreg":92}},{"type":"Feature","geometry":{"type":"Polygon","coordinates":[[[24.872572,42.093315],[24.872285,42.094194],[24.872706,42.094223],[24.873236,42.094306],[24.873743,42.094505],[24.874133,42.094702],[24.874247,42.094754],[24.874266,42.094749],[24.873265,42.09275],[24.87258,42.092716],[24.872572,42.093315]]]},"properties":{"cadreg":93}},{"type":"Feature","geometry":{"type":"Polygon","coordinates":[[[24.869555,42.091705],[24.869536,42.092284],[24.870698,42.092268],[24.871159,42.092293],[24.871173,42.09266],[24.871393,42.092708],[24.871399,42.093004],[24.871911,42.093055],[24.871872,42.09338],[24.872211,42.093414],[24.872184,42.093833],[24.872109,42.094182],[24.872285,42.094194],[24.872572,42.093315],[24.87258,42.092716],[24.873265,42.09275],[24.872842,42.091852],[24.869558,42.091669],[24.868998,42.09162],[24.868995,42.091656],[24.869555,42.091705]]]},"properties":{"cadreg":94}},{"type":"Feature","geometry":{"type":"Polygon","coordinates":[[[24.864195,42.093039],[24.863909,42.092059],[24.863802,42.091137],[24.863779,42.090027],[24.863789,42.089553],[24.863571,42.089553],[24.863618,42.091354],[24.863763,42.092027],[24.863718,42.092035],[24.863724,42.092087],[24.863788,42.092076],[24.863818,42.092316],[24.862905,42.092494],[24.863057,42.092794],[24.863197,42.09341],[24.863418,42.0938],[24.863487,42.093669],[24.8636,42.093512],[24.863822,42.093289],[24.863975,42.093174],[24.864195,42.093039]]]},"properties":{"cadreg":95}},{"type":"Feature","geometry":{"type":"Polygon","coordinates":[[[24.872282,42.090748],[24.868481,42.090596],[24.868362,42.091452],[24.869009,42.091475],[24.868998,42.09162],[24.869558,42.091669],[24.872842,42.091852],[24.872282,42.090748]]]},"properties":{"cadreg":96}},{"type":"Feature","geometry":{"type":"Polygon","coordinates":[[[24.871663,42.089478],[24.868628,42.089354],[24.868481,42.090596],[24.872282,42.090748],[24.871663,42.089478]]]},"properties":{"cadreg":97}},{"type":"Feature","geometry":{"type":"Polygon","coordinates":[[[24.871059,42.08828],[24.868762,42.088188],[24.868628,42.089354],[24.871663,42.089478],[24.871212,42.088561],[24.871154,42.08856],[24.87116,42.088457],[24.871059,42.08828]]]},"properties":{"cadreg":98}},{"type":"Feature","geometry":{"type":"Polygon","coordinates":[[[24.863909,42.092059],[24.864195,42.093039],[24.864729,42.092819],[24.865414,42.09272],[24.866433,42.092683],[24.866389,42.092298],[24.866403,42.092261],[24.863909,42.092059]]]},"properties":{"cadreg":99}},{"type":"Feature","geometry":{"type":"Polygon","coordinates":[[[24.863909,42.092059],[24.866403,42.092261],[24.867755,42.092219],[24.867786,42.091478],[24.868214,42.091489],[24.868215,42.091457],[24.867782,42.09144],[24.8638,42.091105],[24.863909,42.092059]]]},"properties":{"cadreg":100}},{"type":"Feature","geometry":{"type":"Polygon","coordinates":[[[24.868314,42.09019],[24.863779,42.089991],[24.8638,42.091105],[24.867782,42.09144],[24.868215,42.091457],[24.868314,42.09019]]]},"properties":{"cadreg":101}},{"type":"Feature","geometry":{"type":"Polygon","coordinates":[[[24.868421,42.089077],[24.863806,42.088868],[24.863779,42.089991],[24.868314,42.09019],[24.868421,42.089077]]]},"properties":{"cadreg":102}},{"type":"Feature","geometry":{"type":"Polygon","coordinates":[[[24.863806,42.088868],[24.868421,42.089077],[24.868525,42.088098],[24.863831,42.087903],[24.863806,42.088868]]]},"properties":{"cadreg":103}},{"type":"Feature","geometry":{"type":"Polygon","coordinates":[[[24.864041,42.084863],[24.862286,42.084872],[24.862501,42.085445],[24.862349,42.087252],[24.862847,42.08727],[24.862822,42.089624],[24.863571,42.089553],[24.863789,42.089553],[24.863831,42.087903],[24.864242,42.084935],[24.864041,42.084863]]]},"properties":{"cadreg":104}},{"type":"Feature","geometry":{"type":"Polygon","coordinates":[[[24.855385,42.075939],[24.852808,42.078929],[24.85401,42.081108],[24.852858,42.083174],[24.852147,42.084723],[24.852036,42.085797],[24.851276,42.085541],[24.850158,42.08773],[24.850193,42.087754],[24.850212,42.08773],[24.852535,42.089295],[24.852936,42.089475],[24.853532,42.089548],[24.853714,42.089512],[24.853785,42.089319],[24.853967,42.089037],[24.854561,42.088423],[24.854597,42.088216],[24.854567,42.088016],[24.854436,42.087742],[24.854286,42.087175],[24.854271,42.086785],[24.854186,42.085889],[24.854202,42.085038],[24.854433,42.084061],[24.854861,42.083403],[24.855036,42.082855],[24.855445,42.082677],[24.855746,42.082145],[24.856111,42.08169],[24.856178,42.080432],[24.856846,42.079032],[24.857289,42.078221],[24.857821,42.077603],[24.858445,42.077182],[24.858812,42.076873],[24.859233,42.076408],[24.858081,42.076134],[24.855385,42.075939]]]},"properties":{"cadreg":105}},{"type":"Feature","geometry":{"type":"Polygon","coordinates":[[[24.864242,42.084935],[24.863831,42.087903],[24.868525,42.088098],[24.868314,42.09019],[24.868214,42.091489],[24.868362,42.091452],[24.868481,42.090596],[24.868762,42.088188],[24.86915,42.084383],[24.869218,42.083932],[24.869966,42.076104],[24.871184,42.064037],[24.871901,42.057221],[24.871878,42.057138],[24.872151,42.054544],[24.871937,42.05454],[24.87192,42.05468],[24.871366,42.060182],[24.870993,42.063689],[24.869994,42.073687],[24.864807,42.07363],[24.864358,42.073499],[24.863463,42.073679],[24.863213,42.07356],[24.86318,42.073608],[24.863119,42.073579],[24.862181,42.074973],[24.862016,42.075104],[24.862002,42.076116],[24.861867,42.076537],[24.861132,42.076765],[24.860605,42.07741],[24.860279,42.077902],[24.859687,42.078289],[24.859036,42.07863],[24.858501,42.079316],[24.858303,42.079828],[24.858081,42.080301],[24.857505,42.08079],[24.857079,42.081636],[24.857356,42.082451],[24.857339,42.082651],[24.857171,42.082982],[24.856898,42.08329],[24.856944,42.083615],[24.856958,42.084077],[24.857185,42.084291],[24.857164,42.084406],[24.857083,42.084482],[24.856574,42.084506],[24.856495,42.084636],[24.856577,42.085152],[24.856388,42.085611],[24.856462,42.087323],[24.856405,42.087738],[24.856515,42.087972],[24.856472,42.088104],[24.856206,42.088237],[24.856131,42.088332],[24.856259,42.088421],[24.856174,42.088665],[24.856107,42.088993],[24.856137,42.089312],[24.855967,42.089627],[24.856085,42.08979],[24.855995,42.090157],[24.855961,42.09047],[24.855891,42.090683],[24.855947,42.09081],[24.855946,42.090951],[24.855838,42.091116],[24.855887,42.091263],[24.855788,42.09143],[24.855945,42.091712],[24.855966,42.092245],[24.855895,42.092449],[24.855907,42.092541],[24.856266,42.092929],[24.856675,42.093127],[24.856808,42.093269],[24.85677,42.093393],[24.856683,42.09357],[24.856725,42.093605],[24.856946,42.093601],[24.857105,42.093638],[24.857222,42.093736],[24.857349,42.09406],[24.857336,42.094421],[24.857509,42.094732],[24.857627,42.094851],[24.858222,42.095311],[24.85847,42.095459],[24.858541,42.095445],[24.858481,42.095314],[24.858286,42.095162],[24.858168,42.095043],[24.858165,42.094942],[24.858258,42.094915],[24.858434,42.094945],[24.858744,42.095201],[24.858766,42.095509],[24.858668,42.095722],[24.859189,42.096169],[24.859389,42.096219],[24.860398,42.096237],[24.862149,42.097408],[24.861433,42.095256],[24.861574,42.095233],[24.861008,42.093288],[24.862402,42.093041],[24.862724,42.093628],[24.862858,42.093938],[24.863152,42.094891],[24.863291,42.094887],[24.86327,42.094412],[24.863315,42.094045],[24.863418,42.0938],[24.863197,42.09341],[24.863057,42.092794],[24.862905,42.092494],[24.862788,42.092517],[24.861976,42.089834],[24.862045,42.089723],[24.862822,42.089643],[24.862847,42.08727],[24.862349,42.087252],[24.862501,42.085445],[24.862286,42.084872],[24.864041,42.084863],[24.864242,42.084935]]]},"properties":{"cadreg":106}},{"type":"Feature","geometry":{"type":"Polygon","coordinates":[[[24.869102,42.084854],[24.868762,42.088188],[24.870966,42.088273],[24.869564,42.084405],[24.869764,42.084416],[24.869823,42.083977],[24.869218,42.083932],[24.869102,42.084854]]]},"properties":{"cadreg":107}},{"type":"Feature","geometry":{"type":"Polygon","coordinates":[[[24.869823,42.083977],[24.869764,42.084416],[24.869564,42.084405],[24.870966,42.088273],[24.873684,42.088399],[24.874781,42.088408],[24.87477,42.088335],[24.874697,42.088334],[24.874343,42.085902],[24.874566,42.083836],[24.869823,42.083977]]]},"properties":{"cadreg":108}},{"type":"Feature","geometry":{"type":"Polygon","coordinates":[[[24.875065,42.079211],[24.869654,42.079376],[24.869218,42.083932],[24.869823,42.083977],[24.874566,42.083836],[24.875065,42.079211]]]},"properties":{"cadreg":109}},{"type":"Feature","geometry":{"type":"Polygon","coordinates":[[[24.870215,42.073722],[24.869654,42.079376],[24.875065,42.079211],[24.875639,42.073951],[24.870215,42.073722]]]},"properties":{"cadreg":110}},{"type":"Feature","geometry":{"type":"Polygon","coordinates":[[[24.883869,42.08348],[24.874794,42.083775],[24.874562,42.085867],[24.874923,42.088329],[24.87485,42.088333],[24.874856,42.088391],[24.875918,42.088352],[24.87856,42.088223],[24.880989,42.088153],[24.883058,42.08788],[24.884352,42.087724],[24.884907,42.087951],[24.884943,42.087954],[24.885075,42.087918],[24.885035,42.087762],[24.884968,42.087766],[24.884933,42.087436],[24.884879,42.087437],[24.883869,42.08348]]]},"properties":{"cadreg":111}},{"type":"Feature","geometry":{"type":"Polygon","coordinates":[[[24.875301,42.079204],[24.874794,42.083775],[24.883869,42.08348],[24.882742,42.078998],[24.875301,42.079204]]]},"properties":{"cadreg":112}},{"type":"Feature","geometry":{"type":"Polygon","coordinates":[[[24.875861,42.07402],[24.875301,42.079204],[24.882742,42.078998],[24.881621,42.074331],[24.881695,42.074335],[24.8817,42.074281],[24.875795,42.073962],[24.875789,42.074016],[24.875861,42.07402]]]},"properties":{"cadreg":113}},{"type":"Feature","geometry":{"type":"Polygon","coordinates":[[[24.884656,42.085647],[24.885259,42.087976],[24.893662,42.086775],[24.892713,42.083419],[24.892414,42.082287],[24.88412,42.083473],[24.884656,42.085647]]]},"properties":{"cadreg":114}},{"type":"Feature","geometry":{"type":"Polygon","coordinates":[[[24.883019,42.078991],[24.88412,42.083473],[24.892414,42.082287],[24.891234,42.077816],[24.883019,42.078991]]]},"properties":{"cadreg":115}},{"type":"Feature","geometry":{"type":"Polygon","coordinates":[[[24.881875,42.074333],[24.883019,42.078991],[24.891234,42.077816],[24.890363,42.074515],[24.881805,42.074277],[24.881801,42.074331],[24.881875,42.074333]]]},"properties":{"cadreg":116}},{"type":"Feature","geometry":{"type":"Polygon","coordinates":[[[24.889001,42.069919],[24.882247,42.069731],[24.881878,42.074279],[24.890363,42.074515],[24.889072,42.069906],[24.889001,42.069919]]]},"properties":{"cadreg":117}},{"type":"Feature","geometry":{"type":"Polygon","coordinates":[[[24.88158,42.06182],[24.882585,42.0658],[24.882247,42.069731],[24.889001,42.069919],[24.889072,42.069906],[24.888375,42.067351],[24.886951,42.061754],[24.88688,42.061765],[24.88158,42.06182]]]},"properties":{"cadreg":118}},{"type":"Feature","geometry":{"type":"Polygon","coordinates":[[[24.877288,42.060497],[24.875795,42.073962],[24.8817,42.074281],[24.882423,42.065822],[24.881458,42.061955],[24.877288,42.060497]]]},"properties":{"cadreg":119}},{"type":"Feature","geometry":{"type":"Polygon","coordinates":[[[24.871901,42.057221],[24.871184,42.064037],[24.870215,42.073722],[24.875639,42.073951],[24.874343,42.085902],[24.874697,42.088334],[24.87477,42.088335],[24.875205,42.091055],[24.876327,42.094177],[24.876303,42.094243],[24.876447,42.094242],[24.875282,42.09105],[24.874856,42.088391],[24.87485,42.088333],[24.874923,42.088329],[24.874562,42.085867],[24.875861,42.07402],[24.875789,42.074016],[24.877288,42.060497],[24.871901,42.057221]]]},"properties":{"cadreg":120}},{"type":"Feature","geometry":{"type":"Polygon","coordinates":[[[24.866875,42.068011],[24.866721,42.068342],[24.863213,42.07356],[24.863463,42.073679],[24.864358,42.073499],[24.864807,42.07363],[24.869994,42.073687],[24.870999,42.063634],[24.868559,42.063661],[24.866875,42.068011]]]},"properties":{"cadreg":121}},{"type":"Feature","geometry":{"type":"Polygon","coordinates":[[[24.870066,42.05976],[24.868559,42.063661],[24.870999,42.063634],[24.871651,42.057383],[24.87093,42.056608],[24.870441,42.056886],[24.870213,42.059145],[24.870066,42.05976]]]},"properties":{"cadreg":122}},{"type":"Feature","geometry":{"type":"Polygon","coordinates":[[[24.86956,42.05873],[24.869474,42.058687],[24.869434,42.057754],[24.869312,42.057377],[24.868958,42.057278],[24.867933,42.057078],[24.866931,42.056928],[24.86482,42.056564],[24.864787,42.056831],[24.865175,42.058552],[24.864493,42.060064],[24.864435,42.060257],[24.863698,42.066488],[24.864708,42.069282],[24.862177,42.073129],[24.860337,42.073606],[24.859508,42.076494],[24.861962,42.074144],[24.864258,42.070771],[24.865517,42.06896],[24.866119,42.068013],[24.866254,42.067729],[24.868448,42.062065],[24.868444,42.06199],[24.868475,42.061996],[24.869447,42.059473],[24.869507,42.059278],[24.86956,42.05873]]]},"properties":{"cadreg":123}},{"type":"Feature","geometry":{"type":"Polygon","coordinates":[[[24.867772,42.054339],[24.867924,42.05394],[24.867853,42.053563],[24.867551,42.053473],[24.866567,42.054078],[24.865569,42.05416],[24.865413,42.05434],[24.865001,42.055562],[24.865106,42.056088],[24.86482,42.056564],[24.866931,42.056928],[24.867933,42.057078],[24.868958,42.057278],[24.869312,42.057377],[24.869434,42.057754],[24.869474,42.058687],[24.86956,42.05873],[24.869874,42.055619],[24.869815,42.055616],[24.869834,42.05539],[24.869896,42.055395],[24.869985,42.054508],[24.868391,42.054534],[24.867772,42.054339]]]},"properties":{"cadreg":124}},{"type":"Feature","geometry":{"type":"MultiPolygon","coordinates":[[[[24.871937,42.05454],[24.869985,42.054508],[24.869896,42.055395],[24.869834,42.05539],[24.869815,42.055616],[24.869874,42.055619],[24.869507,42.059278],[24.869447,42.059473],[24.868475,42.061996],[24.868444,42.06199],[24.868448,42.062065],[24.866254,42.067729],[24.866119,42.068013],[24.865517,42.06896],[24.864258,42.070771],[24.861962,42.074144],[24.859508,42.076494],[24.859233,42.076408],[24.858812,42.076873],[24.858445,42.077182],[24.857821,42.077603],[24.857289,42.078221],[24.856846,42.079032],[24.856178,42.080432],[24.856111,42.08169],[24.855746,42.082145],[24.855445,42.082677],[24.855036,42.082855],[24.854861,42.083403],[24.854433,42.084061],[24.854202,42.085038],[24.854186,42.085875],[24.854271,42.086785],[24.854286,42.087175],[24.854436,42.087742],[24.854567,42.088016],[24.854597,42.088216],[24.854561,42.088423],[24.853967,42.089037],[24.853785,42.089319],[24.853714,42.089512],[24.853532,42.089548],[24.853267,42.089566],[24.853263,42.089613],[24.853566,42.089782],[24.853657,42.089904],[24.853713,42.09013],[24.853719,42.090326],[24.853883,42.090659],[24.854074,42.091145],[24.854373,42.09224],[24.854248,42.09247],[24.854408,42.092519],[24.854396,42.092665],[24.854727,42.09292],[24.854722,42.09298],[24.854626,42.092922],[24.854521,42.092917],[24.854496,42.092966],[24.854848,42.093547],[24.855263,42.094357],[24.856182,42.095359],[24.857134,42.096166],[24.857604,42.096465],[24.858735,42.097392],[24.859326,42.097785],[24.859974,42.0981],[24.860284,42.098177],[24.860826,42.098248],[24.861631,42.098319],[24.862233,42.098447],[24.862571,42.098607],[24.862852,42.098907],[24.862977,42.099181],[24.863063,42.099544],[24.863139,42.099627],[24.863909,42.100007],[24.864857,42.100708],[24.865322,42.101081],[24.86555,42.101292],[24.865841,42.101654],[24.866165,42.101667],[24.866679,42.101659],[24.866461,42.101199],[24.866135,42.100753],[24.865792,42.100384],[24.865487,42.10012],[24.865683,42.10003],[24.864658,42.098798],[24.864578,42.098667],[24.864495,42.09841],[24.863487,42.09846],[24.862681,42.097792],[24.86234,42.097536],[24.860398,42.096237],[24.859389,42.096219],[24.859189,42.096169],[24.858668,42.095722],[24.858766,42.095509],[24.858744,42.095201],[24.858434,42.094945],[24.858258,42.094915],[24.858165,42.094942],[24.858168,42.095043],[24.858286,42.095162],[24.858481,42.095314],[24.858541,42.095445],[24.85847,42.095459],[24.858222,42.095311],[24.857627,42.094851],[24.857509,42.094732],[24.857336,42.094421],[24.857349,42.09406],[24.857222,42.093736],[24.857105,42.093638],[24.856946,42.093601],[24.856725,42.093605],[24.856683,42.09357],[24.85677,42.093393],[24.856808,42.093269],[24.856675,42.093127],[24.856266,42.092929],[24.855907,42.092541],[24.855895,42.092449],[24.855966,42.092245],[24.855945,42.091712],[24.855788,42.09143],[24.855887,42.091263],[24.855838,42.091116],[24.855946,42.090951],[24.855947,42.09081],[24.855891,42.090683],[24.855961,42.09047],[24.855995,42.090157],[24.856085,42.08979],[24.855967,42.089627],[24.856137,42.089312],[24.856107,42.088993],[24.856174,42.088665],[24.856259,42.088421],[24.856131,42.088332],[24.856206,42.088237],[24.856472,42.088104],[24.856515,42.087972],[24.856405,42.087738],[24.856462,42.087323],[24.856388,42.085611],[24.856577,42.085152],[24.856495,42.084636],[24.856574,42.084506],[24.857083,42.084482],[24.857164,42.084406],[24.857185,42.084291],[24.856958,42.084077],[24.856944,42.083615],[24.856898,42.08329],[24.857171,42.082982],[24.857339,42.082651],[24.857356,42.082451],[24.857079,42.081636],[24.857505,42.08079],[24.858081,42.080301],[24.858303,42.079828],[24.858501,42.079316],[24.859036,42.07863],[24.859687,42.078289],[24.860279,42.077902],[24.860605,42.07741],[24.861132,42.076765],[24.861867,42.076537],[24.862002,42.076116],[24.862016,42.075104],[24.862181,42.074973],[24.863119,42.073579],[24.86318,42.073608],[24.866721,42.068342],[24.866875,42.068011],[24.870066,42.05976],[24.870213,42.059145],[24.870441,42.056886],[24.87093,42.056608],[24.871651,42.057383],[24.871937,42.05454]]],[[[24.866165,42.101757],[24.866044,42.101783],[24.865948,42.101786],[24.866748,42.101805],[24.866732,42.10177],[24.866165,42.101757]]]]},"properties":{"cadreg":125}},{"type":"Feature","geometry":{"type":"Polygon","coordinates":[[[24.872151,42.054544],[24.871884,42.057074],[24.877124,42.060227],[24.876116,42.054756],[24.874355,42.054743],[24.874258,42.054585],[24.872151,42.054544]]]},"properties":{"cadreg":126}}]}