{"type":"FeatureCollection","features":[{"type":"Feature","geometry":{"type":"Polygon","coordinates":[[[24.875626,42.10161],[24.875854,42.10161],[24.875854,42.101515],[24.875623,42.101515],[24.875626,42.10161]]]},"properties":{"num":1}},{"type":"Feature","geometry":{"type":"Polygon","coordinates":[[[24.875625,42.101594],[24.875623,42.101522],[24.875498,42.101524],[24.8755,42.101596],[24.875625,42.101594]]]},"properties":{"num":2}},{"type":"Feature","geometry":{"type":"Polygon","coordinates":[[[24.876127,42.101549],[24.876127,42.10161],[24.876173,42.101609],[24.876173,42.101548],[24.876127,42.101549]]]},"properties":{"num":8}},{"type":"Feature","geometry":{"type":"Polygon","coordinates":[[[24.867843,42.104772],[24.867831,42.104664],[24.867394,42.104681],[24.867407,42.104791],[24.867843,42.104772]]]},"properties":{"num":3}},{"type":"Feature","geometry":{"type":"Polygon","coordinates":[[[24.868075,42.104693],[24.868046,42.104692],[24.868043,42.104738],[24.868073,42.104739],[24.868075,42.104693]]]},"properties":{"num":4}},{"type":"Feature","geometry":{"type":"Polygon","coordinates":[[[24.867442,42.104655],[24.867426,42.104589],[24.867263,42.104611],[24.867277,42.104675],[24.867442,42.104655]]]},"properties":{"num":5}},{"type":"Feature","geometry":{"type":"Polygon","coordinates":[[[24.867336,42.1046],[24.867328,42.104569],[24.867286,42.104576],[24.867295,42.104607],[24.867336,42.1046]]]},"properties":{"num":6}},{"type":"Feature","geometry":{"type":"Polygon","coordinates":[[[24.867824,42.104591],[24.86782,42.10457],[24.867759,42.104574],[24.867762,42.104595],[24.867824,42.104591]]]},"properties":{"num":7}},{"type":"Feature","geometry":{"type":"Polygon","coordinates":[[[24.86782,42.10457],[24.867739,42.103922],[24.867592,42.103932],[24.867672,42.104581],[24.86782,42.10457]]]},"properties":{"num":8}},{"type":"Feature","geometry":{"type":"Polygon","coordinates":[[[24.867651,42.104419],[24.867631,42.104257],[24.867571,42.104261],[24.867591,42.104423],[24.867651,42.104419]]]},"properties":{"num":9}},{"type":"Feature","geometry":{"type":"Polygon","coordinates":[[[24.86796,42.104518],[24.867946,42.104403],[24.867801,42.104413],[24.867815,42.104528],[24.86796,42.104518]]]},"properties":{"num":10}},{"type":"Feature","geometry":{"type":"Polygon","coordinates":[[[24.867801,42.104413],[24.867946,42.104403],[24.867947,42.104411],[24.868013,42.104406],[24.867972,42.104076],[24.86776,42.10409],[24.867801,42.104413]]]},"properties":{"num":11}},{"type":"Feature","geometry":{"type":"Polygon","coordinates":[[[24.86776,42.10409],[24.867972,42.104076],[24.867973,42.104084],[24.868038,42.10408],[24.867984,42.10364],[24.867711,42.103659],[24.86776,42.10409]]]},"properties":{"num":12}},{"type":"Feature","geometry":{"type":"Polygon","coordinates":[[[24.867739,42.103922],[24.867726,42.103816],[24.867578,42.103826],[24.867592,42.103932],[24.867739,42.103922]]]},"properties":{"num":13}},{"type":"Feature","geometry":{"type":"Polygon","coordinates":[[[24.86814,42.103503],[24.868091,42.103502],[24.868089,42.103529],[24.868138,42.10353],[24.86814,42.103503]]]},"properties":{"num":14}},{"type":"Feature","geometry":{"type":"Polygon","coordinates":[[[24.867697,42.103424],[24.867139,42.10342],[24.867138,42.10359],[24.867702,42.103595],[24.867697,42.103424]]]},"properties":{"num":15}},{"type":"Feature","geometry":{"type":"Polygon","coordinates":[[[24.867281,42.104405],[24.867132,42.104402],[24.867128,42.104494],[24.867278,42.104497],[24.867281,42.104405]]]},"properties":{"num":16}},{"type":"Feature","geometry":{"type":"Polygon","coordinates":[[[24.867327,42.104337],[24.867134,42.104332],[24.867132,42.104402],[24.867324,42.104406],[24.867327,42.104337]]]},"properties":{"num":17}},{"type":"Feature","geometry":{"type":"Polygon","coordinates":[[[24.867145,42.104273],[24.867122,42.104272],[24.867119,42.104331],[24.867142,42.104332],[24.867145,42.104273]]]},"properties":{"num":18}},{"type":"Feature","geometry":{"type":"Polygon","coordinates":[[[24.867348,42.103794],[24.867168,42.10379],[24.867142,42.104332],[24.867322,42.104337],[24.867348,42.103794]]]},"properties":{"num":19}},{"type":"Feature","geometry":{"type":"Polygon","coordinates":[[[24.867168,42.10379],[24.867145,42.103789],[24.867142,42.103845],[24.867165,42.103846],[24.867168,42.10379]]]},"properties":{"num":20}},{"type":"Feature","geometry":{"type":"Polygon","coordinates":[[[24.867828,42.104636],[24.867824,42.104591],[24.867762,42.104595],[24.867759,42.104574],[24.867676,42.10458],[24.867687,42.10467],[24.867745,42.104667],[24.867743,42.10464],[24.867828,42.104636]]]},"properties":{"num":21}},{"type":"Feature","geometry":{"type":"Polygon","coordinates":[[[24.877365,42.108218],[24.877214,42.108225],[24.877257,42.108758],[24.877407,42.108752],[24.877365,42.108218]]]},"properties":{"num":1}},{"type":"Feature","geometry":{"type":"Polygon","coordinates":[[[24.881536,42.104843],[24.881558,42.104841],[24.881548,42.10478],[24.881524,42.104781],[24.881536,42.104843]]]},"properties":{"num":10}},{"type":"Feature","geometry":{"type":"Polygon","coordinates":[[[24.878318,42.098549],[24.878436,42.098576],[24.87849,42.098448],[24.878373,42.09842],[24.878318,42.098549]]]},"properties":{"num":1}},{"type":"Feature","geometry":{"type":"Polygon","coordinates":[[[24.878222,42.098023],[24.878214,42.09792],[24.878114,42.097924],[24.87812,42.098027],[24.878222,42.098023]]]},"properties":{"num":1}},{"type":"Feature","geometry":{"type":"Polygon","coordinates":[[[24.878106,42.097576],[24.878105,42.097488],[24.877954,42.097489],[24.877955,42.097577],[24.878106,42.097576]]]},"properties":{"num":1}},{"type":"Feature","geometry":{"type":"Polygon","coordinates":[[[24.876785,42.095188],[24.876833,42.095307],[24.87699,42.095271],[24.876941,42.095151],[24.876785,42.095188]]]},"properties":{"num":1}},{"type":"Feature","geometry":{"type":"Polygon","coordinates":[[[24.879523,42.096395],[24.879704,42.096392],[24.879703,42.096336],[24.879733,42.096335],[24.879731,42.096268],[24.879648,42.096269],[24.879649,42.096294],[24.87952,42.096296],[24.879523,42.096395]]]},"properties":{"num":1}},{"type":"Feature","geometry":{"type":"Polygon","coordinates":[[[24.872201,42.092789],[24.872049,42.092784],[24.872042,42.092883],[24.872195,42.092888],[24.872201,42.092789]]]},"properties":{"num":1}},{"type":"Feature","geometry":{"type":"Polygon","coordinates":[[[24.871251,42.092569],[24.871341,42.092567],[24.87134,42.092536],[24.871353,42.092535],[24.87135,42.092496],[24.871249,42.092499],[24.871251,42.092569]]]},"properties":{"num":1}},{"type":"Feature","geometry":{"type":"Polygon","coordinates":[[[24.871249,42.092568],[24.871245,42.092459],[24.871172,42.092461],[24.871177,42.09257],[24.871249,42.092568]]]},"properties":{"num":2}},{"type":"Feature","geometry":{"type":"Polygon","coordinates":[[[24.863267,42.092921],[24.863282,42.092957],[24.863406,42.092931],[24.863391,42.092895],[24.863267,42.092921]]]},"properties":{"num":1}},{"type":"Feature","geometry":{"type":"Polygon","coordinates":[[[24.863287,42.092917],[24.863327,42.092909],[24.863321,42.092888],[24.863281,42.092897],[24.863287,42.092917]]]},"properties":{"num":2}},{"type":"Feature","geometry":{"type":"Polygon","coordinates":[[[24.863369,42.09295],[24.86338,42.092948],[24.863377,42.092938],[24.863332,42.092948],[24.86334,42.092968],[24.863373,42.092961],[24.863369,42.09295]]]},"properties":{"num":3}},{"type":"Feature","geometry":{"type":"Polygon","coordinates":[[[24.863911,42.093139],[24.86399,42.093095],[24.863938,42.093048],[24.863906,42.093067],[24.863901,42.093063],[24.863857,42.09309],[24.863911,42.093139]]]},"properties":{"num":1}},{"type":"Feature","geometry":{"type":"Polygon","coordinates":[[[24.865616,42.092496],[24.865624,42.092623],[24.865712,42.09262],[24.865703,42.092493],[24.865616,42.092496]]]},"properties":{"num":1}},{"type":"Feature","geometry":{"type":"Polygon","coordinates":[[[24.865533,42.092498],[24.865541,42.092624],[24.865624,42.092622],[24.865615,42.092495],[24.865533,42.092498]]]},"properties":{"num":2}},{"type":"Feature","geometry":{"type":"Polygon","coordinates":[[[24.865885,42.092613],[24.865879,42.092516],[24.865789,42.09252],[24.865795,42.092616],[24.865885,42.092613]]]},"properties":{"num":1}},{"type":"Feature","geometry":{"type":"Polygon","coordinates":[[[24.865921,42.092132],[24.865916,42.092176],[24.866008,42.092181],[24.866012,42.092136],[24.865921,42.092132]]]},"properties":{"num":1}},{"type":"Feature","geometry":{"type":"Polygon","coordinates":[[[24.863981,42.085365],[24.862673,42.085332],[24.862669,42.085431],[24.86397,42.085461],[24.863981,42.085365]]]},"properties":{"num":1}},{"type":"Feature","geometry":{"type":"Polygon","coordinates":[[[24.862673,42.085332],[24.862502,42.085328],[24.8625,42.085365],[24.86259,42.085429],[24.862669,42.085431],[24.862673,42.085332]]]},"properties":{"num":2}},{"type":"Feature","geometry":{"type":"Polygon","coordinates":[[[24.862524,42.084871],[24.862502,42.085328],[24.862606,42.085331],[24.862628,42.08487],[24.862524,42.084871]]]},"properties":{"num":3}},{"type":"Feature","geometry":{"type":"Polygon","coordinates":[[[24.863698,42.086748],[24.863702,42.086639],[24.863384,42.086634],[24.863387,42.086525],[24.863705,42.08653],[24.863707,42.086421],[24.863045,42.086411],[24.863042,42.086519],[24.863309,42.086524],[24.863308,42.086594],[24.863259,42.086594],[24.863258,42.086632],[24.863039,42.086629],[24.863036,42.086737],[24.863698,42.086748]]]},"properties":{"num":1}},{"type":"Feature","geometry":{"type":"Polygon","coordinates":[[[24.863837,42.086611],[24.863844,42.086549],[24.863796,42.086546],[24.863789,42.086608],[24.863837,42.086611]]]},"properties":{"num":2}},{"type":"Feature","geometry":{"type":"Polygon","coordinates":[[[24.851339,42.088243],[24.851391,42.088198],[24.851188,42.088069],[24.851138,42.088115],[24.851339,42.088243]]]},"properties":{"num":1}},{"type":"Feature","geometry":{"type":"Polygon","coordinates":[[[24.850829,42.087344],[24.850777,42.08742],[24.85096,42.087491],[24.851007,42.08742],[24.850993,42.087415],[24.850997,42.087409],[24.850829,42.087344]]]},"properties":{"num":2}},{"type":"Feature","geometry":{"type":"Polygon","coordinates":[[[24.851528,42.085799],[24.851386,42.086108],[24.851565,42.086153],[24.851709,42.085844],[24.851528,42.085799]]]},"properties":{"num":3}},{"type":"Feature","geometry":{"type":"Polygon","coordinates":[[[24.851011,42.086525],[24.850946,42.086506],[24.850936,42.086524],[24.850876,42.086507],[24.850847,42.086562],[24.850972,42.086598],[24.851011,42.086525]]]},"properties":{"num":4}},{"type":"Feature","geometry":{"type":"Polygon","coordinates":[[[24.850573,42.087213],[24.850578,42.087202],[24.850521,42.087185],[24.850417,42.087387],[24.850562,42.087429],[24.850577,42.0874],[24.85057,42.087398],[24.850655,42.087232],[24.850598,42.087215],[24.850595,42.08722],[24.850573,42.087213]]]},"properties":{"num":5}},{"type":"Feature","geometry":{"type":"Polygon","coordinates":[[[24.850505,42.087606],[24.850527,42.08764],[24.850612,42.08761],[24.85059,42.087575],[24.850505,42.087606]]]},"properties":{"num":6}},{"type":"Feature","geometry":{"type":"Polygon","coordinates":[[[24.85059,42.087575],[24.85063,42.087565],[24.850604,42.087523],[24.85048,42.087567],[24.850505,42.087606],[24.85059,42.087575]]]},"properties":{"num":7}},{"type":"Feature","geometry":{"type":"Polygon","coordinates":[[[24.86157,42.095669],[24.861466,42.095686],[24.861483,42.095745],[24.861302,42.095774],[24.861335,42.095881],[24.861548,42.095846],[24.861596,42.096005],[24.861677,42.095992],[24.86157,42.095669]]]},"properties":{"num":1}},{"type":"Feature","geometry":{"type":"Polygon","coordinates":[[[24.861262,42.096305],[24.861207,42.096323],[24.861262,42.096426],[24.861319,42.096409],[24.861262,42.096305]]]},"properties":{"num":2}},{"type":"Feature","geometry":{"type":"Polygon","coordinates":[[[24.86185,42.096511],[24.861817,42.096518],[24.861885,42.096704],[24.861913,42.096698],[24.86185,42.096511]]]},"properties":{"num":3}},{"type":"Feature","geometry":{"type":"Polygon","coordinates":[[[24.861916,42.092866],[24.861905,42.092826],[24.861551,42.092883],[24.861562,42.092922],[24.861916,42.092866]]]},"properties":{"num":1}},{"type":"Feature","geometry":{"type":"Polygon","coordinates":[[[24.861506,42.092376],[24.861501,42.092337],[24.861434,42.092346],[24.861145,42.092363],[24.861147,42.092379],[24.861176,42.092377],[24.861179,42.092402],[24.861439,42.092387],[24.861439,42.092383],[24.861506,42.092376]]]},"properties":{"num":2}},{"type":"Feature","geometry":{"type":"Polygon","coordinates":[[[24.860351,42.093181],[24.860495,42.093157],[24.860432,42.092943],[24.860288,42.092969],[24.860351,42.093181]]]},"properties":{"num":3}},{"type":"Feature","geometry":{"type":"Polygon","coordinates":[[[24.860304,42.093021],[24.860264,42.093025],[24.860314,42.093187],[24.860351,42.093181],[24.860304,42.093021]]]},"properties":{"num":4}},{"type":"Feature","geometry":{"type":"Polygon","coordinates":[[[24.862237,42.092914],[24.862225,42.092877],[24.862139,42.09289],[24.862149,42.09293],[24.862237,42.092914]]]},"properties":{"num":5}},{"type":"Feature","geometry":{"type":"Polygon","coordinates":[[[24.862005,42.092913],[24.862009,42.092932],[24.862043,42.092929],[24.862039,42.09291],[24.862005,42.092913]]]},"properties":{"num":6}},{"type":"Feature","geometry":{"type":"Polygon","coordinates":[[[24.878071,42.088164],[24.878068,42.088081],[24.87795,42.088083],[24.877954,42.088165],[24.878071,42.088164]]]},"properties":{"num":1}},{"type":"Feature","geometry":{"type":"Polygon","coordinates":[[[24.877973,42.087886],[24.87804,42.087886],[24.878042,42.087751],[24.877975,42.087751],[24.877973,42.087886]]]},"properties":{"num":2}},{"type":"Feature","geometry":{"type":"Polygon","coordinates":[[[24.877869,42.088097],[24.877929,42.088096],[24.877928,42.088059],[24.877867,42.08806],[24.877869,42.088097]]]},"properties":{"num":3}},{"type":"Feature","geometry":{"type":"Polygon","coordinates":[[[24.876805,42.086483],[24.876873,42.086484],[24.876876,42.086349],[24.876808,42.086348],[24.876805,42.086483]]]},"properties":{"num":4}},{"type":"Feature","geometry":{"type":"Polygon","coordinates":[[[24.876866,42.086633],[24.876869,42.086553],[24.87682,42.086552],[24.876818,42.086632],[24.876866,42.086633]]]},"properties":{"num":5}},{"type":"Feature","geometry":{"type":"Polygon","coordinates":[[[24.879142,42.086948],[24.87921,42.086949],[24.879214,42.086815],[24.879147,42.086813],[24.879142,42.086948]]]},"properties":{"num":6}},{"type":"Feature","geometry":{"type":"Polygon","coordinates":[[[24.87814,42.088076],[24.878219,42.088073],[24.878215,42.088034],[24.878137,42.088038],[24.87814,42.088076]]]},"properties":{"num":7}},{"type":"Feature","geometry":{"type":"Polygon","coordinates":[[[24.862878,42.100333],[24.86217,42.10021],[24.862136,42.100316],[24.862845,42.100438],[24.862878,42.100333]]]},"properties":{"num":1}},{"type":"Feature","geometry":{"type":"Polygon","coordinates":[[[24.86299,42.100368],[24.862963,42.100458],[24.863321,42.100518],[24.863348,42.100428],[24.86299,42.100368]]]},"properties":{"num":2}},{"type":"Feature","geometry":{"type":"Polygon","coordinates":[[[24.863373,42.100503],[24.863365,42.100527],[24.863411,42.100535],[24.863418,42.100511],[24.863373,42.100503]]]},"properties":{"num":3}},{"type":"Feature","geometry":{"type":"Polygon","coordinates":[[[24.86346,42.100447],[24.863431,42.100538],[24.863509,42.100552],[24.863538,42.100461],[24.86346,42.100447]]]},"properties":{"num":4}},{"type":"Feature","geometry":{"type":"Polygon","coordinates":[[[24.86374,42.100261],[24.86344,42.100104],[24.863369,42.100181],[24.863669,42.100339],[24.86374,42.100261]]]},"properties":{"num":5}},{"type":"Feature","geometry":{"type":"Polygon","coordinates":[[[24.862024,42.099489],[24.862045,42.099496],[24.862055,42.09948],[24.862034,42.099473],[24.862024,42.099489]]]},"properties":{"num":6}},{"type":"Feature","geometry":{"type":"Polygon","coordinates":[[[24.861774,42.099754],[24.861626,42.099758],[24.861633,42.099896],[24.861781,42.099892],[24.861774,42.099754]]]},"properties":{"num":7}},{"type":"Feature","geometry":{"type":"Polygon","coordinates":[[[24.861953,42.100228],[24.861994,42.100226],[24.861992,42.100199],[24.861952,42.100202],[24.861953,42.100228]]]},"properties":{"num":8}},{"type":"Feature","geometry":{"type":"Polygon","coordinates":[[[24.856875,42.097667],[24.856819,42.097718],[24.856916,42.097778],[24.856972,42.097727],[24.856875,42.097667]]]},"properties":{"num":1}},{"type":"Feature","geometry":{"type":"Polygon","coordinates":[[[24.857287,42.097584],[24.857566,42.097759],[24.857627,42.097704],[24.857347,42.097529],[24.857287,42.097584]]]},"properties":{"num":2}},{"type":"Feature","geometry":{"type":"Polygon","coordinates":[[[24.857692,42.097521],[24.857665,42.097546],[24.857788,42.09762],[24.857815,42.097595],[24.857692,42.097521]]]},"properties":{"num":3}},{"type":"Feature","geometry":{"type":"Polygon","coordinates":[[[24.857403,42.097316],[24.857373,42.097346],[24.85746,42.097398],[24.857492,42.097369],[24.857403,42.097316]]]},"properties":{"num":4}},{"type":"Feature","geometry":{"type":"Polygon","coordinates":[[[24.856559,42.096995],[24.856463,42.09708],[24.856633,42.097186],[24.856729,42.097102],[24.856559,42.096995]]]},"properties":{"num":5}},{"type":"Feature","geometry":{"type":"Polygon","coordinates":[[[24.860819,42.100247],[24.860833,42.100264],[24.860897,42.100239],[24.860885,42.100221],[24.860819,42.100247]]]},"properties":{"num":1}},{"type":"Feature","geometry":{"type":"Polygon","coordinates":[[[24.860264,42.100101],[24.860468,42.100184],[24.860497,42.100145],[24.860294,42.100061],[24.860264,42.100101]]]},"properties":{"num":2}},{"type":"Feature","geometry":{"type":"Polygon","coordinates":[[[24.860183,42.100018],[24.860047,42.099963],[24.860017,42.100002],[24.860153,42.100056],[24.860183,42.100018]]]},"properties":{"num":3}},{"type":"Feature","geometry":{"type":"Polygon","coordinates":[[[24.860383,42.099503],[24.860362,42.09952],[24.860133,42.099358],[24.860032,42.099438],[24.860315,42.099638],[24.860439,42.099539],[24.860383,42.099503]]]},"properties":{"num":4}},{"type":"Feature","geometry":{"type":"Polygon","coordinates":[[[24.86043,42.099432],[24.860506,42.09937],[24.860296,42.09923],[24.860219,42.099291],[24.86043,42.099432]]]},"properties":{"num":5}},{"type":"Feature","geometry":{"type":"Polygon","coordinates":[[[24.859721,42.099457],[24.859772,42.099492],[24.859941,42.099365],[24.859872,42.099314],[24.859812,42.099359],[24.859832,42.099374],[24.859721,42.099457]]]},"properties":{"num":6}},{"type":"Feature","geometry":{"type":"Polygon","coordinates":[[[24.859505,42.099525],[24.859578,42.099533],[24.859588,42.099493],[24.859512,42.099485],[24.859505,42.099525]]]},"properties":{"num":7}},{"type":"Feature","geometry":{"type":"Polygon","coordinates":[[[24.859642,42.099749],[24.859811,42.099809],[24.859838,42.099768],[24.859925,42.099799],[24.859959,42.099746],[24.85957,42.099608],[24.859582,42.099588],[24.859532,42.099571],[24.859485,42.099643],[24.859668,42.099708],[24.859642,42.099749]]]},"properties":{"num":8}},{"type":"Feature","geometry":{"type":"Polygon","coordinates":[[[24.859723,42.099856],[24.859707,42.099878],[24.859788,42.099911],[24.859803,42.099888],[24.859723,42.099856]]]},"properties":{"num":9}},{"type":"Feature","geometry":{"type":"Polygon","coordinates":[[[24.858994,42.099507],[24.858974,42.099569],[24.859152,42.0996],[24.859172,42.099539],[24.858994,42.099507]]]},"properties":{"num":10}},{"type":"Feature","geometry":{"type":"Polygon","coordinates":[[[24.857765,42.099307],[24.857732,42.099413],[24.858584,42.099561],[24.858618,42.099453],[24.857765,42.099307]]]},"properties":{"num":11}},{"type":"Feature","geometry":{"type":"Polygon","coordinates":[[[24.85867,42.099254],[24.858689,42.099237],[24.858614,42.099192],[24.858563,42.099237],[24.858636,42.099281],[24.858626,42.09929],[24.858654,42.099307],[24.858696,42.09927],[24.85867,42.099254]]]},"properties":{"num":12}},{"type":"Feature","geometry":{"type":"Polygon","coordinates":[[[24.860227,42.098635],[24.860204,42.098656],[24.860241,42.098679],[24.860264,42.098658],[24.860227,42.098635]]]},"properties":{"num":13}},{"type":"Feature","geometry":{"type":"Polygon","coordinates":[[[24.858807,42.099022],[24.858829,42.099036],[24.858852,42.099015],[24.858831,42.099001],[24.858807,42.099022]]]},"properties":{"num":14}},{"type":"Feature","geometry":{"type":"Polygon","coordinates":[[[24.858866,42.098921],[24.85883,42.098952],[24.858907,42.099002],[24.858943,42.098972],[24.858866,42.098921]]]},"properties":{"num":15}},{"type":"Feature","geometry":{"type":"Polygon","coordinates":[[[24.859136,42.098805],[24.859181,42.098765],[24.859132,42.098736],[24.859085,42.098777],[24.859136,42.098805]]]},"properties":{"num":16}},{"type":"Feature","geometry":{"type":"Polygon","coordinates":[[[24.859242,42.09871],[24.859276,42.09868],[24.859192,42.098632],[24.85916,42.098664],[24.859242,42.09871]]]},"properties":{"num":17}},{"type":"Feature","geometry":{"type":"Polygon","coordinates":[[[24.858313,42.099081],[24.858361,42.099038],[24.858135,42.098898],[24.858087,42.098941],[24.858313,42.099081]]]},"properties":{"num":18}},{"type":"Feature","geometry":{"type":"Polygon","coordinates":[[[24.856837,42.098609],[24.856819,42.098536],[24.856649,42.098551],[24.85666,42.098625],[24.856837,42.098609]]]},"properties":{"num":19}},{"type":"Feature","geometry":{"type":"Polygon","coordinates":[[[24.85678,42.098274],[24.857459,42.098694],[24.8576,42.098568],[24.857027,42.098213],[24.857054,42.098188],[24.857015,42.098164],[24.856988,42.098188],[24.856922,42.098148],[24.85678,42.098274]]]},"properties":{"num":20}},{"type":"Feature","geometry":{"type":"Polygon","coordinates":[[[24.856758,42.099111],[24.856743,42.098842],[24.856626,42.098867],[24.856642,42.099136],[24.856758,42.099111]]]},"properties":{"num":21}},{"type":"Feature","geometry":{"type":"Polygon","coordinates":[[[24.859955,42.099501],[24.860005,42.099533],[24.860059,42.099489],[24.860009,42.099456],[24.859955,42.099501]]]},"properties":{"num":22}},{"type":"Feature","geometry":{"type":"Polygon","coordinates":[[[24.860484,42.099593],[24.860554,42.099642],[24.860596,42.099609],[24.860526,42.09956],[24.860484,42.099593]]]},"properties":{"num":23}},{"type":"Feature","geometry":{"type":"Polygon","coordinates":[[[24.861068,42.098923],[24.861035,42.098956],[24.86108,42.098981],[24.861113,42.098948],[24.861068,42.098923]]]},"properties":{"num":1}},{"type":"Feature","geometry":{"type":"Polygon","coordinates":[[[24.881554,42.147877],[24.881584,42.147861],[24.88155,42.147824],[24.88152,42.14784],[24.881554,42.147877]]]},"properties":{"num":1}},{"type":"Feature","geometry":{"type":"Polygon","coordinates":[[[24.896913,42.155623],[24.897054,42.155615],[24.89705,42.155574],[24.897025,42.155575],[24.897023,42.15555],[24.896906,42.155556],[24.896913,42.155623]]]},"properties":{"num":1}},{"type":"Feature","geometry":{"type":"Polygon","coordinates":[[[24.896849,42.155561],[24.896852,42.155589],[24.896895,42.155587],[24.896893,42.155559],[24.896849,42.155561]]]},"properties":{"num":2}},{"type":"Feature","geometry":{"type":"Polygon","coordinates":[[[24.88063,42.14569],[24.880486,42.145656],[24.880439,42.145763],[24.880582,42.145797],[24.88063,42.14569]]]},"properties":{"num":1}},{"type":"Feature","geometry":{"type":"Polygon","coordinates":[[[24.880582,42.145797],[24.880547,42.145788],[24.880538,42.145808],[24.880573,42.145816],[24.880582,42.145797]]]},"properties":{"num":2}},{"type":"Feature","geometry":{"type":"Polygon","coordinates":[[[24.880227,42.145549],[24.880187,42.145539],[24.880129,42.145674],[24.880299,42.145718],[24.88035,42.145618],[24.880213,42.14558],[24.880227,42.145549]]]},"properties":{"num":3}},{"type":"Feature","geometry":{"type":"Polygon","coordinates":[[[24.880185,42.145542],[24.880082,42.145515],[24.879987,42.145724],[24.880093,42.145752],[24.880185,42.145542]]]},"properties":{"num":4}},{"type":"Feature","geometry":{"type":"Polygon","coordinates":[[[24.88013,42.145734],[24.880105,42.145727],[24.880095,42.145748],[24.88012,42.145754],[24.88013,42.145734]]]},"properties":{"num":5}},{"type":"Feature","geometry":{"type":"Polygon","coordinates":[[[24.880137,42.145715],[24.880114,42.145709],[24.880105,42.145727],[24.88013,42.145734],[24.880137,42.145715]]]},"properties":{"num":6}},{"type":"Feature","geometry":{"type":"Polygon","coordinates":[[[24.880268,42.14571],[24.880129,42.145674],[24.880126,42.145681],[24.880265,42.145717],[24.880268,42.14571]]]},"properties":{"num":7}},{"type":"Feature","geometry":{"type":"Polygon","coordinates":[[[24.880082,42.145515],[24.880047,42.145506],[24.880017,42.145569],[24.880052,42.145579],[24.880082,42.145515]]]},"properties":{"num":8}},{"type":"Feature","geometry":{"type":"Polygon","coordinates":[[[24.87996,42.145364],[24.879907,42.145349],[24.879905,42.145354],[24.879883,42.145347],[24.879848,42.14541],[24.879922,42.145432],[24.87996,42.145364]]]},"properties":{"num":9}},{"type":"Feature","geometry":{"type":"Polygon","coordinates":[[[24.879865,42.14548],[24.879828,42.145469],[24.8798,42.145519],[24.879836,42.145531],[24.879865,42.14548]]]},"properties":{"num":10}},{"type":"Feature","geometry":{"type":"Polygon","coordinates":[[[24.879813,42.145562],[24.879782,42.145552],[24.879768,42.145577],[24.879799,42.145588],[24.879813,42.145562]]]},"properties":{"num":11}},{"type":"Feature","geometry":{"type":"Polygon","coordinates":[[[24.879792,42.145614],[24.87976,42.145604],[24.879746,42.14563],[24.879777,42.145639],[24.879792,42.145614]]]},"properties":{"num":12}},{"type":"Feature","geometry":{"type":"Polygon","coordinates":[[[24.880064,42.146032],[24.880029,42.146025],[24.880019,42.146051],[24.880053,42.146058],[24.880064,42.146032]]]},"properties":{"num":13}},{"type":"Feature","geometry":{"type":"Polygon","coordinates":[[[24.879966,42.145929],[24.879904,42.145906],[24.879876,42.145947],[24.879938,42.14597],[24.879966,42.145929]]]},"properties":{"num":14}},{"type":"Feature","geometry":{"type":"Polygon","coordinates":[[[24.87976,42.145867],[24.879662,42.145826],[24.879635,42.145862],[24.879733,42.145904],[24.87976,42.145867]]]},"properties":{"num":15}},{"type":"Feature","geometry":{"type":"Polygon","coordinates":[[[24.879586,42.14581],[24.879595,42.1458],[24.879602,42.145805],[24.87965,42.145756],[24.879643,42.145751],[24.879651,42.145743],[24.879628,42.14573],[24.879619,42.145738],[24.879612,42.145734],[24.879564,42.145784],[24.87957,42.145788],[24.879562,42.145797],[24.879586,42.14581]]]},"properties":{"num":16}},{"type":"Feature","geometry":{"type":"Polygon","coordinates":[[[24.867715,42.106485],[24.867714,42.106445],[24.86763,42.106446],[24.867631,42.106486],[24.867715,42.106485]]]},"properties":{"num":2}},{"type":"Feature","geometry":{"type":"Polygon","coordinates":[[[24.879462,42.145675],[24.879468,42.145669],[24.879481,42.145675],[24.879496,42.145656],[24.879484,42.14565],[24.879488,42.145645],[24.879419,42.145612],[24.879414,42.145617],[24.879401,42.145612],[24.879386,42.145631],[24.879398,42.145637],[24.879394,42.145642],[24.879462,42.145675]]]},"properties":{"num":18}},{"type":"Feature","geometry":{"type":"Polygon","coordinates":[[[24.879504,42.145803],[24.879508,42.145797],[24.879521,42.145802],[24.879536,42.145783],[24.879523,42.145778],[24.879527,42.145772],[24.879455,42.145742],[24.87945,42.145747],[24.879438,42.145742],[24.879423,42.145762],[24.879436,42.145767],[24.879432,42.145772],[24.879504,42.145803]]]},"properties":{"num":19}},{"type":"Feature","geometry":{"type":"Polygon","coordinates":[[[24.879403,42.145752],[24.879418,42.145734],[24.879405,42.145727],[24.879409,42.145722],[24.879338,42.145691],[24.879334,42.145697],[24.879321,42.145691],[24.879307,42.14571],[24.879319,42.145716],[24.879316,42.145719],[24.879385,42.145751],[24.87939,42.145746],[24.879403,42.145752]]]},"properties":{"num":20}},{"type":"Feature","geometry":{"type":"Polygon","coordinates":[[[24.879179,42.145569],[24.879139,42.145551],[24.879095,42.145609],[24.879135,42.145626],[24.879179,42.145569]]]},"properties":{"num":21}},{"type":"Feature","geometry":{"type":"Polygon","coordinates":[[[24.879064,42.145611],[24.879068,42.145605],[24.879081,42.14561],[24.879095,42.145591],[24.879083,42.145587],[24.879087,42.145581],[24.879013,42.145554],[24.879009,42.14556],[24.878996,42.145554],[24.878982,42.145573],[24.878994,42.145578],[24.87899,42.145584],[24.879064,42.145611]]]},"properties":{"num":22}},{"type":"Feature","geometry":{"type":"Polygon","coordinates":[[[24.879109,42.145505],[24.879125,42.145486],[24.879113,42.14548],[24.879117,42.145475],[24.879047,42.145443],[24.879042,42.145448],[24.87903,42.145443],[24.879015,42.145462],[24.879028,42.145468],[24.879023,42.145473],[24.879092,42.145505],[24.879096,42.145499],[24.879109,42.145505]]]},"properties":{"num":23}},{"type":"Feature","geometry":{"type":"Polygon","coordinates":[[[24.87899,42.145452],[24.879006,42.145433],[24.878995,42.145428],[24.879,42.145422],[24.87893,42.14539],[24.878925,42.145395],[24.878912,42.14539],[24.878898,42.145409],[24.87891,42.145415],[24.878906,42.14542],[24.878973,42.145452],[24.878978,42.145446],[24.87899,42.145452]]]},"properties":{"num":24}},{"type":"Feature","geometry":{"type":"Polygon","coordinates":[[[24.878875,42.145398],[24.878892,42.14538],[24.878879,42.145374],[24.878884,42.145368],[24.878814,42.145336],[24.87881,42.145342],[24.878798,42.145336],[24.878782,42.145355],[24.878795,42.145361],[24.87879,42.145366],[24.878858,42.145398],[24.878863,42.145392],[24.878875,42.145398]]]},"properties":{"num":25}},{"type":"Feature","geometry":{"type":"Polygon","coordinates":[[[24.880795,42.145463],[24.880764,42.145431],[24.880726,42.145451],[24.880757,42.145482],[24.880795,42.145463]]]},"properties":{"num":28}},{"type":"Feature","geometry":{"type":"Polygon","coordinates":[[[24.881084,42.146132],[24.881048,42.146125],[24.881027,42.146189],[24.881064,42.146195],[24.881084,42.146132]]]},"properties":{"num":29}},{"type":"Feature","geometry":{"type":"Polygon","coordinates":[[[24.880901,42.14632],[24.880896,42.146308],[24.880851,42.146316],[24.880848,42.146328],[24.88086,42.14633],[24.880901,42.14632]]]},"properties":{"num":30}},{"type":"Feature","geometry":{"type":"Polygon","coordinates":[[[24.863712,42.09189],[24.863384,42.091943],[24.863379,42.091925],[24.863345,42.09193],[24.863351,42.091948],[24.862989,42.092007],[24.862984,42.09199],[24.86295,42.091995],[24.862955,42.092012],[24.862727,42.092049],[24.862756,42.092128],[24.863142,42.092065],[24.863162,42.092134],[24.863255,42.092119],[24.863235,42.09205],[24.863731,42.091968],[24.863712,42.09189]]]},"properties":{"num":1}},{"type":"Feature","geometry":{"type":"Polygon","coordinates":[[[24.862989,42.092007],[24.863351,42.091948],[24.863338,42.091905],[24.862976,42.091965],[24.862989,42.092007]]]},"properties":{"num":2}},{"type":"Feature","geometry":{"type":"Polygon","coordinates":[[[24.862366,42.090645],[24.862286,42.090658],[24.862317,42.090763],[24.862397,42.09075],[24.862366,42.090645]]]},"properties":{"num":1}},{"type":"Feature","geometry":{"type":"Polygon","coordinates":[[[24.879595,42.145726],[24.879612,42.145708],[24.879599,42.145702],[24.879605,42.145697],[24.879533,42.145664],[24.879528,42.14567],[24.879516,42.145665],[24.879501,42.145684],[24.879513,42.14569],[24.879509,42.145695],[24.879578,42.145726],[24.879583,42.14572],[24.879595,42.145726]]]},"properties":{"num":17}},{"type":"Feature","geometry":{"type":"Polygon","coordinates":[[[24.867348,42.104786],[24.867341,42.104722],[24.86727,42.104726],[24.867278,42.104791],[24.867348,42.104786]]]},"properties":{"num":1}},{"type":"Feature","geometry":{"type":"Polygon","coordinates":[[[24.867309,42.104723],[24.867308,42.104715],[24.867276,42.104716],[24.867277,42.104725],[24.867309,42.104723]]]},"properties":{"num":2}}]}