{"type":"FeatureCollection","features":[{"type":"Feature","geometry":{"type":"Polygon","coordinates":[[[24.601779,42.173881],[24.601697,42.186337],[24.601671,42.193622],[24.602504,42.193731],[24.617583,42.193876],[24.617588,42.192706],[24.617384,42.191934],[24.617305,42.191772],[24.617243,42.191014],[24.617389,42.190433],[24.617476,42.189916],[24.617456,42.189773],[24.617446,42.188782],[24.617505,42.18745],[24.617682,42.187172],[24.618148,42.186655],[24.618655,42.185869],[24.618842,42.185733],[24.61909,42.185605],[24.619263,42.185442],[24.61938,42.185375],[24.619491,42.185282],[24.619496,42.18525],[24.619473,42.185229],[24.619327,42.185187],[24.619309,42.185168],[24.619387,42.18516],[24.61963,42.185193],[24.619726,42.185141],[24.619745,42.185094],[24.619701,42.185002],[24.619714,42.184966],[24.619759,42.184939],[24.619932,42.184901],[24.619989,42.184864],[24.620065,42.184734],[24.620138,42.184512],[24.62033,42.184379],[24.620419,42.184246],[24.620486,42.18419],[24.620692,42.184086],[24.620858,42.184036],[24.620684,42.184015],[24.620449,42.184137],[24.620379,42.184196],[24.620247,42.184377],[24.620091,42.184437],[24.620032,42.184487],[24.620005,42.184563],[24.620006,42.184723],[24.619929,42.184825],[24.619885,42.184856],[24.619739,42.184893],[24.619607,42.184946],[24.619596,42.184989],[24.619632,42.185069],[24.619627,42.1851],[24.61952,42.185133],[24.619321,42.185112],[24.619268,42.185145],[24.619241,42.185188],[24.619256,42.185237],[24.619305,42.185257],[24.619399,42.185259],[24.619369,42.185288],[24.619168,42.185413],[24.619098,42.185521],[24.618723,42.185703],[24.618487,42.185959],[24.618045,42.186327],[24.617794,42.186618],[24.617115,42.187141],[24.617076,42.187199],[24.617062,42.187278],[24.617078,42.187377],[24.617152,42.187585],[24.617268,42.187771],[24.614171,42.187763],[24.613558,42.18778],[24.613024,42.18781],[24.612642,42.187851],[24.611226,42.187913],[24.610488,42.18801],[24.609752,42.188079],[24.609069,42.188176],[24.608207,42.188377],[24.607976,42.188455],[24.607674,42.188584],[24.607393,42.18867],[24.606729,42.188818],[24.605091,42.189252],[24.603524,42.189705],[24.602705,42.18997],[24.601892,42.19017],[24.601957,42.173879],[24.601779,42.173881]]]},"properties":{"cadreg":1}},{"type":"Feature","geometry":{"type":"Polygon","coordinates":[[[24.62662,42.185169],[24.622525,42.185336],[24.622449,42.185168],[24.62199,42.185381],[24.622092,42.185549],[24.621626,42.185711],[24.621667,42.185776],[24.621214,42.185886],[24.620745,42.185259],[24.620211,42.185458],[24.619894,42.185038],[24.61857,42.185982],[24.618148,42.186655],[24.617682,42.187172],[24.617505,42.18745],[24.617446,42.188782],[24.617456,42.189773],[24.617476,42.189916],[24.617389,42.190433],[24.628731,42.190608],[24.629093,42.189061],[24.629206,42.188809],[24.629349,42.188608],[24.630081,42.18782],[24.630389,42.187465],[24.62682,42.18533],[24.626855,42.185295],[24.627082,42.18521],[24.627393,42.185166],[24.627533,42.185106],[24.627547,42.185086],[24.627526,42.185049],[24.626583,42.185085],[24.62662,42.185169]]]},"properties":{"cadreg":2}},{"type":"Feature","geometry":{"type":"Polygon","coordinates":[[[24.601902,42.185877],[24.601892,42.19017],[24.602705,42.18997],[24.603524,42.189705],[24.605091,42.189252],[24.606729,42.188818],[24.607393,42.18867],[24.607674,42.188584],[24.607976,42.188455],[24.608207,42.188377],[24.609069,42.188176],[24.609752,42.188079],[24.610488,42.18801],[24.611226,42.187913],[24.612642,42.187851],[24.613024,42.18781],[24.613558,42.18778],[24.614171,42.187763],[24.617268,42.187771],[24.617152,42.187585],[24.617078,42.187377],[24.617062,42.187278],[24.617076,42.187199],[24.617115,42.187141],[24.617794,42.186618],[24.618045,42.186327],[24.618487,42.185959],[24.618723,42.185703],[24.619098,42.185521],[24.619168,42.185413],[24.619369,42.185288],[24.619399,42.185259],[24.619305,42.185257],[24.619256,42.185237],[24.619241,42.185188],[24.619268,42.185145],[24.619321,42.185112],[24.61952,42.185133],[24.619627,42.1851],[24.619632,42.185069],[24.619596,42.184989],[24.619607,42.184946],[24.619739,42.184893],[24.619885,42.184856],[24.619929,42.184825],[24.620006,42.184723],[24.620005,42.184563],[24.620032,42.184487],[24.620091,42.184437],[24.620247,42.184377],[24.620379,42.184196],[24.620449,42.184137],[24.620684,42.184015],[24.620913,42.184042],[24.621261,42.184025],[24.621806,42.18405],[24.621936,42.184033],[24.621898,42.183947],[24.621586,42.18397],[24.621557,42.183942],[24.621567,42.183885],[24.621538,42.18386],[24.621498,42.18386],[24.621433,42.183931],[24.619913,42.183979],[24.619069,42.183949],[24.618415,42.183971],[24.617419,42.183982],[24.617003,42.183944],[24.616645,42.183956],[24.616222,42.183889],[24.616105,42.183854],[24.615963,42.183773],[24.615734,42.18369],[24.614991,42.183752],[24.614689,42.183746],[24.613711,42.183874],[24.613357,42.183854],[24.612842,42.183753],[24.612656,42.183734],[24.612099,42.183754],[24.61157,42.183959],[24.611248,42.183996],[24.610611,42.183876],[24.610167,42.183725],[24.609666,42.183625],[24.609528,42.183625],[24.609448,42.183641],[24.608285,42.184135],[24.608003,42.184297],[24.607837,42.184369],[24.60731,42.184551],[24.605536,42.184948],[24.604712,42.185035],[24.604405,42.185129],[24.604004,42.185203],[24.603402,42.185338],[24.603185,42.185401],[24.602091,42.185835],[24.601902,42.185877]]]},"properties":{"cadreg":3}},{"type":"Feature","geometry":{"type":"Polygon","coordinates":[[[24.601923,42.180287],[24.601902,42.185877],[24.602091,42.185835],[24.603185,42.185401],[24.603402,42.185338],[24.604004,42.185203],[24.604405,42.185129],[24.604712,42.185035],[24.605536,42.184948],[24.60731,42.184551],[24.607837,42.184369],[24.608003,42.184297],[24.608285,42.184135],[24.609448,42.183641],[24.609528,42.183625],[24.609666,42.183625],[24.610167,42.183725],[24.610611,42.183876],[24.611248,42.183996],[24.61157,42.183959],[24.612099,42.183754],[24.612656,42.183734],[24.612842,42.183753],[24.613357,42.183854],[24.613711,42.183874],[24.614689,42.183746],[24.614991,42.183752],[24.615734,42.18369],[24.615963,42.183773],[24.616105,42.183854],[24.616222,42.183889],[24.616645,42.183956],[24.616646,42.183337],[24.615771,42.183358],[24.615687,42.182558],[24.616095,42.182523],[24.616105,42.182426],[24.615756,42.182093],[24.615706,42.182123],[24.615571,42.182],[24.613949,42.180418],[24.613841,42.180233],[24.613711,42.179543],[24.612254,42.179582],[24.611917,42.179619],[24.609859,42.179705],[24.606709,42.179807],[24.606569,42.17982],[24.606505,42.179842],[24.606311,42.180017],[24.606252,42.180039],[24.606066,42.180062],[24.601923,42.180287]]]},"properties":{"cadreg":4}},{"type":"Feature","geometry":{"type":"Polygon","coordinates":[[[24.613548,42.173659],[24.612094,42.173668],[24.601957,42.173879],[24.601923,42.180287],[24.606066,42.180062],[24.606252,42.180039],[24.606311,42.180017],[24.606505,42.179842],[24.606569,42.17982],[24.606709,42.179807],[24.609859,42.179705],[24.611917,42.179619],[24.612254,42.179582],[24.613711,42.179543],[24.613483,42.17822],[24.613433,42.17776],[24.613446,42.177566],[24.613518,42.177251],[24.613481,42.177117],[24.613462,42.176833],[24.613548,42.173659]]]},"properties":{"cadreg":5}},{"type":"Feature","geometry":{"type":"Polygon","coordinates":[[[24.601813,42.157081],[24.601791,42.164467],[24.601802,42.173768],[24.601779,42.173881],[24.612481,42.173662],[24.613548,42.173659],[24.613558,42.1737],[24.614818,42.173678],[24.614816,42.173576],[24.615387,42.173566],[24.615416,42.173519],[24.615265,42.171876],[24.615304,42.171774],[24.615365,42.171692],[24.61545,42.171634],[24.615586,42.17158],[24.615703,42.171559],[24.624356,42.171336],[24.624435,42.171289],[24.624571,42.171018],[24.625232,42.169457],[24.625282,42.169385],[24.62537,42.169335],[24.626272,42.169344],[24.626351,42.169329],[24.626482,42.169254],[24.627678,42.165994],[24.627596,42.165975],[24.62756,42.165985],[24.627491,42.166054],[24.6263,42.169215],[24.626282,42.169236],[24.626124,42.169246],[24.625282,42.169211],[24.6252,42.169238],[24.625124,42.169292],[24.624411,42.170882],[24.624479,42.170917],[24.624334,42.171269],[24.615792,42.171503],[24.615766,42.171416],[24.615828,42.171413],[24.615709,42.171156],[24.615352,42.17055],[24.614892,42.169896],[24.614463,42.169368],[24.613071,42.167389],[24.612841,42.16701],[24.612671,42.166668],[24.612428,42.165911],[24.612275,42.165348],[24.612204,42.165337],[24.610716,42.165459],[24.60194,42.165996],[24.601958,42.159939],[24.623962,42.15896],[24.630312,42.158711],[24.630326,42.158666],[24.620338,42.159078],[24.601894,42.159919],[24.601888,42.157129],[24.601917,42.157073],[24.601813,42.157081]]]},"properties":{"cadreg":6}},{"type":"Feature","geometry":{"type":"Polygon","coordinates":[[[24.612204,42.165337],[24.610626,42.159557],[24.601958,42.159939],[24.60194,42.165996],[24.610716,42.165459],[24.612204,42.165337]]]},"properties":{"cadreg":7}},{"type":"Feature","geometry":{"type":"Polygon","coordinates":[[[24.61909,42.16725],[24.613071,42.167389],[24.614463,42.169368],[24.614892,42.169896],[24.615352,42.17055],[24.615709,42.171156],[24.615828,42.171413],[24.615766,42.171416],[24.615792,42.171503],[24.624334,42.171269],[24.624479,42.170917],[24.624411,42.170882],[24.625124,42.169292],[24.6252,42.169238],[24.625282,42.169211],[24.626124,42.169246],[24.626282,42.169236],[24.6263,42.169215],[24.626809,42.167859],[24.62672,42.167834],[24.626311,42.168899],[24.626264,42.168892],[24.626437,42.16848],[24.627784,42.164994],[24.627899,42.16465],[24.627792,42.164533],[24.627652,42.164665],[24.627468,42.164801],[24.627202,42.164902],[24.626813,42.164976],[24.626123,42.165016],[24.626052,42.165049],[24.625922,42.165157],[24.625699,42.165506],[24.625432,42.165766],[24.624537,42.166144],[24.624345,42.166199],[24.623654,42.166369],[24.623371,42.166424],[24.622674,42.166481],[24.622174,42.166545],[24.622054,42.166572],[24.621816,42.166692],[24.621814,42.166639],[24.61909,42.16725]]]},"properties":{"cadreg":8}},{"type":"Feature","geometry":{"type":"Polygon","coordinates":[[[24.612428,42.165911],[24.612671,42.166668],[24.612841,42.16701],[24.613071,42.167389],[24.61909,42.16725],[24.621814,42.166639],[24.621816,42.166692],[24.622054,42.166572],[24.622174,42.166545],[24.622674,42.166481],[24.623371,42.166424],[24.623654,42.166369],[24.624537,42.166144],[24.625432,42.165766],[24.625699,42.165506],[24.625922,42.165157],[24.626052,42.165049],[24.626123,42.165016],[24.626813,42.164976],[24.627202,42.164902],[24.627468,42.164801],[24.627652,42.164665],[24.627792,42.164533],[24.627899,42.16465],[24.627898,42.164686],[24.626437,42.16848],[24.626264,42.168892],[24.626311,42.168899],[24.62672,42.167834],[24.626809,42.167859],[24.627491,42.166054],[24.62756,42.165985],[24.627596,42.165975],[24.627678,42.165994],[24.627698,42.165939],[24.627629,42.165938],[24.627598,42.165917],[24.627594,42.165865],[24.62803,42.164696],[24.627783,42.164461],[24.627811,42.164428],[24.612263,42.165311],[24.612428,42.165911]]]},"properties":{"cadreg":9}},{"type":"Feature","geometry":{"type":"Polygon","coordinates":[[[24.612263,42.165311],[24.627811,42.164428],[24.627783,42.164461],[24.62803,42.164696],[24.627594,42.165865],[24.627598,42.165917],[24.627629,42.165938],[24.627698,42.165939],[24.625787,42.171164],[24.625853,42.171041],[24.625973,42.171072],[24.625976,42.171151],[24.626493,42.170171],[24.626415,42.170145],[24.626772,42.169182],[24.626692,42.169167],[24.626708,42.169118],[24.629486,42.16169],[24.63185,42.155477],[24.631912,42.155369],[24.632025,42.155243],[24.632159,42.155159],[24.632294,42.155098],[24.631148,42.155287],[24.631438,42.155303],[24.631527,42.155357],[24.631587,42.155437],[24.631613,42.155524],[24.631587,42.155653],[24.630723,42.15792],[24.630616,42.157913],[24.629373,42.161149],[24.629278,42.161151],[24.629273,42.16113],[24.611364,42.162233],[24.612204,42.165337],[24.612275,42.165348],[24.612263,42.165311]]]},"properties":{"cadreg":10}},{"type":"Feature","geometry":{"type":"Polygon","coordinates":[[[24.623962,42.15896],[24.610626,42.159557],[24.611364,42.162233],[24.629273,42.16113],[24.629278,42.161151],[24.629373,42.161149],[24.630312,42.158711],[24.623962,42.15896]]]},"properties":{"cadreg":11}},{"type":"Feature","geometry":{"type":"Polygon","coordinates":[[[24.601917,42.157073],[24.601888,42.157129],[24.601894,42.159919],[24.620338,42.159078],[24.630326,42.158666],[24.630616,42.157913],[24.630723,42.15792],[24.631587,42.155653],[24.631613,42.155524],[24.631587,42.155437],[24.631527,42.155357],[24.631438,42.155303],[24.631148,42.155287],[24.632642,42.155029],[24.633611,42.154887],[24.634371,42.154838],[24.635184,42.154818],[24.640816,42.155066],[24.640869,42.155297],[24.645926,42.155111],[24.653414,42.154915],[24.666343,42.154543],[24.666304,42.154387],[24.665519,42.154419],[24.646646,42.15493],[24.64356,42.155001],[24.642526,42.154976],[24.640955,42.154914],[24.640426,42.154886],[24.640427,42.154858],[24.636507,42.154675],[24.635684,42.154621],[24.635062,42.154521],[24.635073,42.154688],[24.634392,42.154701],[24.633698,42.154736],[24.633011,42.154833],[24.632583,42.154918],[24.627241,42.155682],[24.6263,42.155805],[24.625669,42.155867],[24.614277,42.156335],[24.614285,42.156443],[24.601823,42.156967],[24.601813,42.157081],[24.601917,42.157073]]]},"properties":{"cadreg":12}},{"type":"Feature","geometry":{"type":"Polygon","coordinates":[[[24.618522,42.152092],[24.618055,42.152106],[24.616298,42.15225],[24.615789,42.152267],[24.615495,42.152307],[24.615345,42.152332],[24.615088,42.152411],[24.614921,42.152491],[24.614418,42.152687],[24.614365,42.152699],[24.614018,42.152708],[24.614277,42.156335],[24.620453,42.156088],[24.620152,42.152886],[24.619902,42.152727],[24.619433,42.152477],[24.619078,42.152245],[24.618793,42.152129],[24.618522,42.152092]]]},"properties":{"cadreg":13}},{"type":"Feature","geometry":{"type":"Polygon","coordinates":[[[24.614014,42.150617],[24.613982,42.150921],[24.613944,42.151053],[24.613836,42.151178],[24.613739,42.151255],[24.613716,42.151341],[24.613908,42.151707],[24.614024,42.152323],[24.614015,42.152614],[24.614198,42.152611],[24.614463,42.152549],[24.614758,42.152422],[24.615003,42.152274],[24.615101,42.152236],[24.615465,42.152172],[24.615967,42.152167],[24.616405,42.152143],[24.616877,42.152093],[24.618064,42.152011],[24.618353,42.152008],[24.618638,42.152032],[24.618961,42.152093],[24.619149,42.152166],[24.620003,42.152664],[24.620463,42.152891],[24.621193,42.153174],[24.621451,42.153242],[24.624327,42.153688],[24.624575,42.153714],[24.624845,42.153768],[24.627641,42.154196],[24.627867,42.153487],[24.62809,42.152542],[24.628535,42.152656],[24.629494,42.1528],[24.629733,42.152865],[24.630418,42.152993],[24.630699,42.152975],[24.631208,42.152982],[24.631532,42.153017],[24.631604,42.153034],[24.631722,42.153088],[24.631796,42.153156],[24.631817,42.153241],[24.631649,42.154333],[24.631647,42.154508],[24.631669,42.154547],[24.631764,42.154617],[24.631921,42.154698],[24.632251,42.154779],[24.632641,42.1549],[24.633011,42.154833],[24.632982,42.15476],[24.632923,42.154683],[24.632829,42.154622],[24.632718,42.154607],[24.632585,42.154677],[24.632395,42.154714],[24.632135,42.154676],[24.631736,42.154523],[24.631705,42.154457],[24.631887,42.153386],[24.631872,42.153344],[24.631909,42.153208],[24.631874,42.153087],[24.631829,42.153044],[24.631653,42.152961],[24.631543,42.152933],[24.631431,42.152925],[24.631125,42.152911],[24.630479,42.152923],[24.630173,42.152891],[24.629634,42.152778],[24.628864,42.152657],[24.628508,42.152587],[24.628111,42.152471],[24.627928,42.152367],[24.627757,42.152292],[24.627663,42.152271],[24.627488,42.15225],[24.627081,42.152237],[24.626632,42.15216],[24.626119,42.152037],[24.625865,42.151951],[24.625107,42.151633],[24.623966,42.151323],[24.622952,42.150913],[24.622794,42.150867],[24.622514,42.150814],[24.622298,42.150737],[24.621782,42.150507],[24.620931,42.150277],[24.620362,42.150172],[24.62005,42.150143],[24.618991,42.150143],[24.618735,42.150123],[24.618629,42.150097],[24.617936,42.149599],[24.617813,42.149525],[24.617395,42.149361],[24.617176,42.149253],[24.61688,42.149144],[24.616084,42.148949],[24.615665,42.148914],[24.615214,42.148849],[24.615034,42.148794],[24.614867,42.14872],[24.614221,42.148844],[24.613916,42.14895],[24.613695,42.149051],[24.613943,42.149857],[24.614014,42.150617]]]},"properties":{"cadreg":14}},{"type":"Feature","geometry":{"type":"Polygon","coordinates":[[[24.638925,42.158253],[24.639013,42.158312],[24.63912,42.158208],[24.634374,42.155632],[24.632765,42.155062],[24.632543,42.155049],[24.632294,42.155098],[24.632159,42.155159],[24.632025,42.155243],[24.631912,42.155369],[24.631775,42.155672],[24.629486,42.16169],[24.627959,42.165777],[24.628057,42.165782],[24.630761,42.158673],[24.638866,42.158304],[24.638925,42.158253]]]},"properties":{"cadreg":15}},{"type":"Feature","geometry":{"type":"Polygon","coordinates":[[[24.630761,42.158673],[24.628057,42.165782],[24.627959,42.165777],[24.627923,42.165869],[24.628288,42.165835],[24.628751,42.16576],[24.629314,42.165697],[24.630177,42.165654],[24.630275,42.165682],[24.630312,42.165737],[24.630326,42.165811],[24.630299,42.165936],[24.630271,42.166289],[24.630183,42.166633],[24.630142,42.166762],[24.629935,42.167209],[24.629857,42.16747],[24.629746,42.167682],[24.629572,42.168098],[24.629671,42.168084],[24.629752,42.167811],[24.62991,42.167519],[24.630007,42.167213],[24.63164,42.167129],[24.63118,42.165774],[24.637367,42.16489],[24.637247,42.161002],[24.63729,42.160557],[24.637499,42.159847],[24.637749,42.159384],[24.638099,42.158948],[24.638808,42.158307],[24.630761,42.158673]]]},"properties":{"cadreg":16}},{"type":"Feature","geometry":{"type":"Polygon","coordinates":[[[24.637628,42.170582],[24.637367,42.16489],[24.63118,42.165774],[24.631935,42.168006],[24.631979,42.16819],[24.632008,42.168461],[24.631993,42.168712],[24.631894,42.168935],[24.63182,42.169028],[24.631578,42.169216],[24.631407,42.169325],[24.630944,42.169569],[24.630592,42.169799],[24.630293,42.170019],[24.628853,42.171328],[24.627862,42.172333],[24.626854,42.172248],[24.62691,42.172297],[24.627899,42.172374],[24.628593,42.172876],[24.628368,42.172098],[24.628461,42.172023],[24.628628,42.17198],[24.628873,42.171938],[24.628915,42.171973],[24.637628,42.170582]]]},"properties":{"cadreg":17}},{"type":"Feature","geometry":{"type":"Polygon","coordinates":[[[24.628915,42.171973],[24.628873,42.171938],[24.628628,42.17198],[24.628461,42.172023],[24.628368,42.172098],[24.628593,42.172876],[24.627899,42.172374],[24.62691,42.172297],[24.62779,42.173069],[24.627888,42.17318],[24.628027,42.173439],[24.62812,42.173678],[24.628185,42.173694],[24.630509,42.173135],[24.631209,42.173021],[24.631282,42.173026],[24.631409,42.17308],[24.631471,42.173168],[24.631902,42.1745],[24.63189,42.174517],[24.632183,42.174455],[24.632949,42.174462],[24.63338,42.174416],[24.63443,42.174236],[24.636408,42.173761],[24.637763,42.173462],[24.637628,42.170582],[24.628915,42.171973]]]},"properties":{"cadreg":18}},{"type":"Feature","geometry":{"type":"Polygon","coordinates":[[[24.629523,42.178521],[24.629887,42.179309],[24.629721,42.17964],[24.629852,42.181729],[24.63065,42.181648],[24.631339,42.18164],[24.632121,42.181672],[24.632755,42.181608],[24.633197,42.181507],[24.63332,42.181493],[24.633596,42.181509],[24.633601,42.18146],[24.633688,42.181406],[24.633804,42.181281],[24.634099,42.181031],[24.634399,42.180846],[24.634877,42.180707],[24.635198,42.180663],[24.635245,42.180639],[24.635521,42.180373],[24.635748,42.180215],[24.635892,42.18014],[24.63596,42.180049],[24.636247,42.179046],[24.636175,42.178916],[24.636103,42.178668],[24.636141,42.178418],[24.635993,42.178243],[24.635938,42.177943],[24.635961,42.177862],[24.636105,42.177669],[24.636154,42.177508],[24.636156,42.177446],[24.636076,42.177212],[24.636059,42.176974],[24.63603,42.176952],[24.635886,42.176915],[24.635638,42.176815],[24.635498,42.176733],[24.635518,42.176967],[24.635484,42.177028],[24.635437,42.177036],[24.635456,42.17708],[24.630009,42.178337],[24.629523,42.178521]]]},"properties":{"cadreg":19}},{"type":"Feature","geometry":{"type":"Polygon","coordinates":[[[24.629991,42.183496],[24.629563,42.183508],[24.62959,42.183521],[24.629526,42.183687],[24.629515,42.183802],[24.629064,42.184006],[24.628386,42.184282],[24.627604,42.184788],[24.627526,42.185049],[24.627547,42.185086],[24.627533,42.185106],[24.627393,42.185166],[24.627082,42.18521],[24.626992,42.185238],[24.626855,42.185295],[24.62682,42.18533],[24.630294,42.187408],[24.636281,42.180299],[24.633642,42.181589],[24.632905,42.181979],[24.632317,42.182254],[24.631432,42.182641],[24.631351,42.182719],[24.631138,42.183021],[24.630959,42.183172],[24.630728,42.183328],[24.630592,42.183342],[24.630345,42.183433],[24.629991,42.183496]]]},"properties":{"cadreg":20}},{"type":"Feature","geometry":{"type":"Polygon","coordinates":[[[24.646378,42.179093],[24.638426,42.174523],[24.638387,42.17351],[24.638297,42.17353],[24.638434,42.177653],[24.638401,42.177956],[24.638348,42.178195],[24.638284,42.178412],[24.63818,42.178665],[24.638029,42.178931],[24.637852,42.179187],[24.637287,42.179886],[24.633263,42.18469],[24.635652,42.18581],[24.641556,42.181606],[24.64646,42.179257],[24.646316,42.179154],[24.646378,42.179093]]]},"properties":{"cadreg":21}},{"type":"Feature","geometry":{"type":"Polygon","coordinates":[[[24.643591,42.170869],[24.638387,42.17351],[24.638426,42.174523],[24.646378,42.179093],[24.646423,42.179096],[24.646525,42.179072],[24.652749,42.176111],[24.651508,42.175404],[24.651541,42.175372],[24.643591,42.170869]]]},"properties":{"cadreg":22}},{"type":"Feature","geometry":{"type":"Polygon","coordinates":[[[24.649927,42.16765],[24.643591,42.170869],[24.651541,42.175372],[24.651508,42.175404],[24.652749,42.176111],[24.646525,42.179072],[24.646423,42.179096],[24.646378,42.179093],[24.646316,42.179154],[24.64646,42.179257],[24.662529,42.171558],[24.652802,42.166022],[24.652593,42.166095],[24.652638,42.16612],[24.651155,42.166885],[24.651175,42.166906],[24.649913,42.167589],[24.649927,42.16765]]]},"properties":{"cadreg":23}},{"type":"Feature","geometry":{"type":"Polygon","coordinates":[[[24.638196,42.167812],[24.638042,42.168113],[24.638297,42.17353],[24.638387,42.17351],[24.638688,42.173364],[24.649771,42.167737],[24.649927,42.16765],[24.649913,42.167589],[24.651175,42.166906],[24.651155,42.166885],[24.652638,42.16612],[24.652593,42.166095],[24.652802,42.166022],[24.647971,42.163357],[24.645458,42.16187],[24.645338,42.161978],[24.638101,42.165684],[24.638196,42.167812]]]},"properties":{"cadreg":24}},{"type":"Feature","geometry":{"type":"Polygon","coordinates":[[[24.639319,42.158397],[24.638534,42.15915],[24.638304,42.159417],[24.638132,42.15967],[24.638049,42.159808],[24.637932,42.160076],[24.637834,42.16038],[24.637769,42.160695],[24.637753,42.16098],[24.637906,42.165272],[24.638101,42.165684],[24.645338,42.161978],[24.645458,42.16187],[24.642845,42.160337],[24.641435,42.15955],[24.639322,42.158336],[24.639287,42.15837],[24.639319,42.158397]]]},"properties":{"cadreg":25}},{"type":"Feature","geometry":{"type":"Polygon","coordinates":[[[24.640816,42.155066],[24.640561,42.155053],[24.640692,42.156203],[24.640669,42.156474],[24.640627,42.15661],[24.640551,42.156753],[24.63993,42.157508],[24.63947,42.157803],[24.639178,42.158011],[24.639257,42.158041],[24.639228,42.158101],[24.639013,42.158312],[24.638925,42.158253],[24.638866,42.158304],[24.638808,42.158307],[24.638099,42.158948],[24.637749,42.159384],[24.637499,42.159847],[24.63729,42.160557],[24.637247,42.161002],[24.637367,42.16489],[24.637763,42.173462],[24.637891,42.177712],[24.637862,42.177938],[24.637762,42.178312],[24.637565,42.178743],[24.637236,42.179233],[24.636419,42.180183],[24.636281,42.180299],[24.630294,42.187408],[24.630389,42.187465],[24.630081,42.18782],[24.629349,42.188608],[24.629206,42.188809],[24.62911,42.189004],[24.628731,42.190608],[24.628979,42.190611],[24.629297,42.189246],[24.62938,42.189037],[24.629522,42.188767],[24.629646,42.188592],[24.633081,42.184605],[24.633263,42.18469],[24.636848,42.180413],[24.637852,42.179187],[24.638029,42.178931],[24.63818,42.178665],[24.638284,42.178412],[24.638401,42.177956],[24.638434,42.177653],[24.638437,42.177421],[24.63827,42.172809],[24.638042,42.168113],[24.638196,42.167812],[24.63811,42.165705],[24.637906,42.165272],[24.637752,42.160852],[24.637796,42.16053],[24.637881,42.160222],[24.638049,42.159808],[24.638132,42.15967],[24.638416,42.15928],[24.639319,42.158397],[24.639287,42.15837],[24.639322,42.158336],[24.641435,42.15955],[24.642845,42.160337],[24.647971,42.163357],[24.652883,42.166066],[24.662529,42.171558],[24.662569,42.171539],[24.663286,42.171938],[24.663461,42.171783],[24.660252,42.169953],[24.653182,42.165883],[24.653115,42.16591],[24.64894,42.163585],[24.656178,42.161099],[24.655907,42.156364],[24.666442,42.156076],[24.666581,42.156028],[24.666475,42.155907],[24.666409,42.155936],[24.666428,42.156026],[24.653702,42.156365],[24.653574,42.156398],[24.653497,42.156357],[24.653464,42.155982],[24.653388,42.155905],[24.652994,42.1559],[24.641094,42.156227],[24.640816,42.155066]]]},"properties":{"cadreg":26}},{"type":"Feature","geometry":{"type":"Polygon","coordinates":[[[24.655907,42.156364],[24.656178,42.161099],[24.64894,42.163585],[24.653115,42.16591],[24.653182,42.165883],[24.653357,42.165988],[24.653394,42.165958],[24.660066,42.163375],[24.666487,42.160867],[24.666575,42.160901],[24.666606,42.16086],[24.666704,42.160837],[24.676288,42.160679],[24.676286,42.160646],[24.67638,42.160644],[24.676377,42.160556],[24.67628,42.16056],[24.676281,42.160524],[24.670531,42.160648],[24.666411,42.1607],[24.666345,42.160719],[24.66641,42.159359],[24.666412,42.158698],[24.666497,42.15605],[24.666442,42.156076],[24.655907,42.156364]]]},"properties":{"cadreg":27}},{"type":"Feature","geometry":{"type":"Polygon","coordinates":[[[24.660066,42.163375],[24.653394,42.165958],[24.653357,42.165988],[24.660168,42.169903],[24.667194,42.167496],[24.670523,42.166339],[24.67051,42.166324],[24.670516,42.166249],[24.663563,42.162003],[24.660066,42.163375]]]},"properties":{"cadreg":28}},{"type":"Feature","geometry":{"type":"Polygon","coordinates":[[[24.633611,42.154887],[24.632543,42.155049],[24.632765,42.155062],[24.634374,42.155632],[24.63912,42.158208],[24.639228,42.158101],[24.639257,42.158041],[24.639178,42.158011],[24.63947,42.157803],[24.63993,42.157508],[24.640551,42.156753],[24.640627,42.15661],[24.640669,42.156474],[24.640692,42.156203],[24.640593,42.155318],[24.638173,42.155354],[24.637899,42.155325],[24.635439,42.154911],[24.634988,42.154814],[24.633611,42.154887]]]},"properties":{"cadreg":29}},{"type":"Feature","geometry":{"type":"Polygon","coordinates":[[[24.63654,42.154041],[24.635629,42.153791],[24.634439,42.153667],[24.633124,42.153505],[24.633142,42.153458],[24.632626,42.153397],[24.632612,42.153424],[24.631898,42.153329],[24.631705,42.154457],[24.631736,42.154523],[24.632135,42.154676],[24.632395,42.154714],[24.632585,42.154677],[24.632718,42.154607],[24.632829,42.154622],[24.632923,42.154683],[24.632982,42.15476],[24.633011,42.154833],[24.633698,42.154736],[24.634392,42.154701],[24.635073,42.154688],[24.635062,42.154521],[24.635684,42.154621],[24.637572,42.154732],[24.640427,42.154858],[24.640426,42.154886],[24.64046,42.154887],[24.640493,42.154589],[24.640481,42.154191],[24.63654,42.154041]]]},"properties":{"cadreg":30}},{"type":"Feature","geometry":{"type":"Polygon","coordinates":[[[24.645926,42.155111],[24.640869,42.155297],[24.641076,42.156199],[24.641094,42.156227],[24.652994,42.1559],[24.653388,42.155905],[24.653464,42.155982],[24.653497,42.156357],[24.653574,42.156398],[24.653492,42.154911],[24.645926,42.155111]]]},"properties":{"cadreg":31}},{"type":"Feature","geometry":{"type":"Polygon","coordinates":[[[24.666343,42.154543],[24.653492,42.154911],[24.653574,42.156398],[24.653702,42.156365],[24.666428,42.156026],[24.666409,42.155936],[24.666475,42.155907],[24.666581,42.156028],[24.666343,42.154543]]]},"properties":{"cadreg":32}},{"type":"Feature","geometry":{"type":"Polygon","coordinates":[[[24.65268,42.150327],[24.652709,42.149932],[24.65278,42.14983],[24.652838,42.149641],[24.653055,42.14916],[24.653145,42.148908],[24.653444,42.148284],[24.65352,42.148059],[24.6536,42.147969],[24.65383,42.14778],[24.654079,42.147628],[24.654374,42.147495],[24.654639,42.14743],[24.654916,42.14745],[24.65527,42.14755],[24.655583,42.147603],[24.655675,42.147608],[24.655825,42.147592],[24.656448,42.147336],[24.656486,42.147153],[24.656622,42.146953],[24.656788,42.146778],[24.65696,42.146656],[24.657369,42.146477],[24.657846,42.146312],[24.658052,42.146225],[24.658551,42.145975],[24.65898,42.145833],[24.659192,42.145784],[24.659299,42.145779],[24.659508,42.145797],[24.659743,42.145852],[24.660202,42.145989],[24.660646,42.14615],[24.660884,42.146213],[24.6612,42.146336],[24.661448,42.146406],[24.66216,42.146736],[24.662489,42.146862],[24.662777,42.146994],[24.663391,42.147201],[24.664094,42.147264],[24.664186,42.147279],[24.664436,42.147362],[24.664521,42.147376],[24.664953,42.14736],[24.665256,42.1474],[24.665487,42.147507],[24.665822,42.147778],[24.666089,42.148037],[24.6662,42.148111],[24.666395,42.147908],[24.661943,42.145336],[24.661216,42.144963],[24.660927,42.144874],[24.65934,42.144641],[24.658627,42.14441],[24.657695,42.144276],[24.655416,42.144227],[24.653136,42.14774],[24.652217,42.148916],[24.650844,42.150296],[24.649073,42.151746],[24.647624,42.152465],[24.645738,42.152687],[24.643525,42.15279],[24.641515,42.153137],[24.64104,42.153302],[24.640618,42.153496],[24.640311,42.153569],[24.639924,42.153697],[24.640059,42.153728],[24.640175,42.153724],[24.640393,42.153808],[24.640481,42.154191],[24.640493,42.154589],[24.64046,42.154887],[24.642526,42.154976],[24.64356,42.155001],[24.652914,42.15476],[24.652675,42.151052],[24.65268,42.150327]]]},"properties":{"cadreg":33}},{"type":"Feature","geometry":{"type":"Polygon","coordinates":[[[24.663137,42.148713],[24.662117,42.148197],[24.661965,42.148138],[24.661198,42.14798],[24.66035,42.147872],[24.659868,42.147786],[24.659629,42.147729],[24.659075,42.147543],[24.658729,42.147474],[24.658202,42.14743],[24.657279,42.147392],[24.65692,42.147357],[24.656332,42.147499],[24.65604,42.147624],[24.655829,42.147783],[24.655627,42.148059],[24.65558,42.14821],[24.655513,42.148901],[24.655469,42.149033],[24.65544,42.149063],[24.655178,42.149136],[24.653724,42.149387],[24.653253,42.149486],[24.653096,42.149561],[24.652946,42.149662],[24.652737,42.149878],[24.652709,42.149932],[24.65268,42.150327],[24.652675,42.151052],[24.652914,42.15476],[24.665433,42.154421],[24.665107,42.149296],[24.664495,42.149241],[24.663518,42.14905],[24.663377,42.148995],[24.663267,42.148912],[24.663137,42.148713]]]},"properties":{"cadreg":34}},{"type":"Feature","geometry":{"type":"Polygon","coordinates":[[[24.666612,42.155703],[24.666649,42.156028],[24.670582,42.155564],[24.676306,42.154862],[24.676326,42.153713],[24.676289,42.153645],[24.676209,42.153612],[24.675522,42.153572],[24.675414,42.153526],[24.6753,42.153381],[24.666423,42.154534],[24.666612,42.155703]]]},"properties":{"cadreg":35}},{"type":"Feature","geometry":{"type":"Polygon","coordinates":[[[24.665107,42.149296],[24.665433,42.154421],[24.666304,42.154387],[24.675544,42.15319],[24.675201,42.152039],[24.675037,42.152079],[24.674891,42.152087],[24.674389,42.152002],[24.674242,42.151964],[24.674087,42.151953],[24.673797,42.151873],[24.673329,42.151775],[24.67115,42.151209],[24.670795,42.151128],[24.670601,42.151062],[24.66977,42.150687],[24.669509,42.15059],[24.668572,42.150338],[24.667685,42.150015],[24.667168,42.149843],[24.666988,42.149768],[24.666222,42.149543],[24.665462,42.149375],[24.665149,42.149256],[24.664406,42.149175],[24.664163,42.149133],[24.66349,42.148975],[24.663406,42.148938],[24.663299,42.14885],[24.663194,42.148697],[24.663137,42.148713],[24.663267,42.148912],[24.663377,42.148995],[24.663518,42.14905],[24.664495,42.149241],[24.665107,42.149296]]]},"properties":{"cadreg":36}},{"type":"Feature","geometry":{"type":"Polygon","coordinates":[[[24.683937,42.150359],[24.683657,42.150222],[24.683423,42.150214],[24.683325,42.150224],[24.682387,42.150504],[24.681966,42.150651],[24.681725,42.150683],[24.680324,42.150956],[24.679617,42.151048],[24.678853,42.151183],[24.678738,42.151219],[24.678375,42.151394],[24.678042,42.151457],[24.677549,42.151494],[24.677161,42.151591],[24.676827,42.151601],[24.676652,42.15159],[24.676352,42.151525],[24.676436,42.152342],[24.676519,42.152888],[24.676641,42.153108],[24.682656,42.152433],[24.682637,42.152242],[24.682648,42.151496],[24.682687,42.15134],[24.682753,42.151262],[24.682958,42.151159],[24.683311,42.151023],[24.68342,42.150954],[24.683937,42.150359]]]},"properties":{"cadreg":37}},{"type":"Feature","geometry":{"type":"Polygon","coordinates":[[[24.689897,42.154422],[24.690074,42.152758],[24.683816,42.152427],[24.682661,42.1525],[24.682656,42.152433],[24.677804,42.152986],[24.676641,42.153108],[24.676401,42.15309],[24.67548,42.153197],[24.666304,42.154387],[24.666343,42.154543],[24.666423,42.154534],[24.675455,42.153364],[24.67552,42.153467],[24.675564,42.153481],[24.676501,42.153523],[24.676497,42.153249],[24.676796,42.153217],[24.676827,42.154663],[24.678484,42.154478],[24.687375,42.1543],[24.689897,42.154422]]]},"properties":{"cadreg":38}},{"type":"Feature","geometry":{"type":"Polygon","coordinates":[[[24.666656,42.155983],[24.666423,42.154534],[24.666343,42.154543],[24.666581,42.156028],[24.666497,42.15605],[24.666412,42.158698],[24.66641,42.159359],[24.666345,42.160719],[24.666411,42.1607],[24.670531,42.160648],[24.676281,42.160524],[24.67628,42.16056],[24.676377,42.160556],[24.676419,42.158163],[24.676306,42.154862],[24.670582,42.155564],[24.666649,42.156028],[24.666656,42.155983]]]},"properties":{"cadreg":39}},{"type":"Feature","geometry":{"type":"Polygon","coordinates":[[[24.666487,42.160867],[24.663563,42.162003],[24.670516,42.166249],[24.67051,42.166324],[24.670523,42.166339],[24.667194,42.167496],[24.660168,42.169903],[24.663461,42.171783],[24.665789,42.169729],[24.667323,42.170603],[24.669387,42.168842],[24.674933,42.172019],[24.675125,42.171484],[24.675099,42.171198],[24.675262,42.171004],[24.675819,42.169419],[24.676247,42.16837],[24.676236,42.16347],[24.676288,42.160679],[24.666704,42.160837],[24.666606,42.16086],[24.666575,42.160901],[24.666487,42.160867]]]},"properties":{"cadreg":40}},{"type":"Feature","geometry":{"type":"Polygon","coordinates":[[[24.676497,42.153249],[24.676501,42.153523],[24.675564,42.153481],[24.67552,42.153467],[24.675455,42.153364],[24.6753,42.153381],[24.675414,42.153526],[24.675522,42.153572],[24.676209,42.153612],[24.676289,42.153645],[24.676326,42.153713],[24.676303,42.154766],[24.676419,42.158163],[24.67638,42.160644],[24.676286,42.160646],[24.676236,42.16347],[24.676247,42.16837],[24.675819,42.169419],[24.675262,42.171004],[24.675099,42.171198],[24.675125,42.171484],[24.674933,42.172019],[24.675039,42.172081],[24.676085,42.169077],[24.676273,42.168835],[24.676432,42.168713],[24.676596,42.168639],[24.676974,42.168625],[24.686332,42.166682],[24.68634,42.166587],[24.686277,42.166607],[24.686445,42.164856],[24.6864,42.164854],[24.683342,42.160559],[24.676825,42.160641],[24.676844,42.155486],[24.676796,42.153217],[24.676497,42.153249]]]},"properties":{"cadreg":41}},{"type":"Feature","geometry":{"type":"Polygon","coordinates":[[[24.676844,42.155486],[24.676825,42.160641],[24.683342,42.160559],[24.6864,42.164854],[24.686445,42.164856],[24.686277,42.166607],[24.68634,42.166587],[24.687464,42.154362],[24.689892,42.154468],[24.689897,42.154422],[24.687375,42.1543],[24.678484,42.154478],[24.676827,42.154663],[24.676844,42.155486]]]},"properties":{"cadreg":42}},{"type":"Feature","geometry":{"type":"Polygon","coordinates":[[[24.637891,42.177712],[24.637792,42.174464],[24.637734,42.174479],[24.637619,42.174543],[24.637501,42.174633],[24.637439,42.174661],[24.637069,42.17473],[24.636918,42.17484],[24.636857,42.174913],[24.636719,42.17503],[24.636578,42.175233],[24.636457,42.175324],[24.636397,42.175327],[24.636215,42.175282],[24.636105,42.175277],[24.635948,42.17533],[24.635849,42.175413],[24.634132,42.175571],[24.634018,42.175598],[24.634186,42.175687],[24.634721,42.175794],[24.634803,42.175848],[24.635013,42.175777],[24.635261,42.175662],[24.63531,42.175662],[24.635515,42.175724],[24.635514,42.175738],[24.63527,42.175915],[24.63514,42.176049],[24.63509,42.176118],[24.635046,42.176296],[24.635067,42.176372],[24.63515,42.17649],[24.63519,42.176499],[24.635213,42.176491],[24.635255,42.176439],[24.63529,42.176454],[24.635376,42.176581],[24.635436,42.176721],[24.635452,42.176971],[24.635437,42.177036],[24.635484,42.177028],[24.635518,42.176967],[24.635498,42.176733],[24.635638,42.176815],[24.635886,42.176915],[24.63603,42.176952],[24.636059,42.176974],[24.636076,42.177212],[24.636156,42.177446],[24.636154,42.177508],[24.636105,42.177669],[24.635961,42.177862],[24.635938,42.177943],[24.635993,42.178243],[24.636141,42.178418],[24.636103,42.178668],[24.636175,42.178916],[24.636247,42.179046],[24.63596,42.180049],[24.635892,42.18014],[24.635748,42.180215],[24.635521,42.180373],[24.635245,42.180639],[24.635198,42.180663],[24.634877,42.180707],[24.634399,42.180846],[24.634099,42.181031],[24.633804,42.181281],[24.633688,42.181406],[24.633601,42.18146],[24.633596,42.181509],[24.633642,42.181589],[24.636281,42.180299],[24.636419,42.180183],[24.637236,42.179233],[24.637565,42.178743],[24.637762,42.178312],[24.637862,42.177938],[24.637891,42.177712]]]},"properties":{"cadreg":43}},{"type":"Feature","geometry":{"type":"Polygon","coordinates":[[[24.640561,42.155053],[24.634988,42.154814],[24.635439,42.154911],[24.637899,42.155325],[24.638173,42.155354],[24.640593,42.155318],[24.640561,42.155053]]]},"properties":{"cadreg":44}},{"type":"Feature","geometry":{"type":"Polygon","coordinates":[[[24.631085,42.152973],[24.630699,42.152975],[24.630497,42.152995],[24.630335,42.15298],[24.629733,42.152865],[24.629494,42.1528],[24.628535,42.152656],[24.62809,42.152542],[24.627867,42.153487],[24.627641,42.154196],[24.628059,42.154267],[24.628651,42.154338],[24.631921,42.154698],[24.631764,42.154617],[24.631669,42.154547],[24.631647,42.154508],[24.631649,42.154333],[24.631786,42.153373],[24.631813,42.153297],[24.631796,42.153156],[24.631722,42.153088],[24.631604,42.153034],[24.631532,42.153017],[24.631085,42.152973]]]},"properties":{"cadreg":45}},{"type":"Feature","geometry":{"type":"Polygon","coordinates":[[[24.626174,42.169343],[24.62537,42.169335],[24.625282,42.169385],[24.625232,42.169457],[24.624571,42.171018],[24.624435,42.171289],[24.624356,42.171336],[24.624655,42.171337],[24.624814,42.171357],[24.624941,42.171379],[24.625509,42.171531],[24.625614,42.171494],[24.625787,42.171164],[24.626482,42.169254],[24.626351,42.169329],[24.626174,42.169343]]]},"properties":{"cadreg":46}},{"type":"Feature","geometry":{"type":"Polygon","coordinates":[[[24.633596,42.181509],[24.63332,42.181493],[24.633197,42.181507],[24.632755,42.181608],[24.632121,42.181672],[24.631339,42.18164],[24.63065,42.181648],[24.629804,42.181731],[24.629813,42.181801],[24.629769,42.181802],[24.629705,42.181865],[24.62966,42.181998],[24.62967,42.182409],[24.629709,42.182849],[24.629769,42.183183],[24.629841,42.183418],[24.628,42.183427],[24.627981,42.183499],[24.62992,42.183504],[24.630345,42.183433],[24.630592,42.183342],[24.630728,42.183328],[24.630959,42.183172],[24.631138,42.183021],[24.631351,42.182719],[24.631432,42.182641],[24.632317,42.182254],[24.632905,42.181979],[24.633585,42.181627],[24.633642,42.181589],[24.633596,42.181509]]]},"properties":{"cadreg":47}},{"type":"Feature","geometry":{"type":"Polygon","coordinates":[[[24.630299,42.165936],[24.630326,42.165811],[24.630312,42.165737],[24.630275,42.165682],[24.630177,42.165654],[24.629314,42.165697],[24.628751,42.16576],[24.628288,42.165835],[24.627923,42.165869],[24.626708,42.169118],[24.626825,42.169142],[24.626937,42.168848],[24.627242,42.168913],[24.627567,42.16841],[24.627932,42.168473],[24.630299,42.165936]]]},"properties":{"cadreg":48}},{"type":"Feature","geometry":{"type":"Polygon","coordinates":[[[24.629746,42.167682],[24.629857,42.16747],[24.629935,42.167209],[24.630142,42.166762],[24.630183,42.166633],[24.630271,42.166289],[24.630299,42.165936],[24.627932,42.168473],[24.627995,42.168487],[24.628193,42.168282],[24.628588,42.168232],[24.628574,42.16817],[24.629315,42.16807],[24.629329,42.168127],[24.629572,42.168098],[24.629746,42.167682]]]},"properties":{"cadreg":49}},{"type":"Feature","geometry":{"type":"Polygon","coordinates":[[[24.613591,42.148526],[24.613695,42.149051],[24.613916,42.14895],[24.614221,42.148844],[24.614867,42.14872],[24.615034,42.148794],[24.615214,42.148849],[24.615665,42.148914],[24.616084,42.148949],[24.61649,42.149042],[24.61688,42.149144],[24.61711,42.149228],[24.617527,42.149417],[24.617813,42.149525],[24.617936,42.149599],[24.618554,42.150048],[24.618665,42.150107],[24.618991,42.150143],[24.62005,42.150143],[24.620362,42.150172],[24.620931,42.150277],[24.621782,42.150507],[24.622298,42.150737],[24.622514,42.150814],[24.622794,42.150867],[24.622952,42.150913],[24.623966,42.151323],[24.625107,42.151633],[24.625865,42.151951],[24.626119,42.152037],[24.626632,42.15216],[24.627081,42.152237],[24.627488,42.15225],[24.627663,42.152271],[24.627757,42.152292],[24.627928,42.152367],[24.628111,42.152471],[24.628508,42.152587],[24.628864,42.152657],[24.629634,42.152778],[24.630173,42.152891],[24.630479,42.152923],[24.631125,42.152911],[24.631586,42.152941],[24.631829,42.153044],[24.631874,42.153087],[24.631909,42.153208],[24.631872,42.153344],[24.631887,42.153386],[24.631898,42.153329],[24.632612,42.153424],[24.632626,42.153397],[24.633142,42.153458],[24.633124,42.153505],[24.634439,42.153667],[24.635629,42.153791],[24.63654,42.154041],[24.640481,42.154191],[24.640393,42.153808],[24.640175,42.153724],[24.640059,42.153728],[24.639837,42.153674],[24.63902,42.153573],[24.63785,42.153376],[24.637648,42.153355],[24.637469,42.153253],[24.637374,42.15318],[24.636877,42.152745],[24.636635,42.152504],[24.636544,42.152377],[24.636151,42.152217],[24.635569,42.152064],[24.635374,42.152041],[24.634354,42.151777],[24.633309,42.151527],[24.63122,42.150933],[24.631062,42.150835],[24.630782,42.150724],[24.630486,42.150633],[24.630347,42.150561],[24.630182,42.150525],[24.630029,42.150437],[24.629844,42.150372],[24.629642,42.150269],[24.629197,42.150138],[24.628761,42.150031],[24.628057,42.149768],[24.627654,42.14959],[24.626943,42.149344],[24.626302,42.149181],[24.625181,42.148942],[24.624904,42.148899],[24.624728,42.14885],[24.624238,42.14915],[24.623335,42.149822],[24.622465,42.149609],[24.620694,42.149262],[24.619885,42.149068],[24.619006,42.148915],[24.616361,42.148504],[24.613599,42.148266],[24.613591,42.148526]]]},"properties":{"cadreg":50}},{"type":"Feature","geometry":{"type":"Polygon","coordinates":[[[24.675201,42.152039],[24.675544,42.15319],[24.676401,42.15309],[24.676641,42.153108],[24.676519,42.152888],[24.676436,42.152342],[24.676352,42.151525],[24.676098,42.151465],[24.675941,42.151453],[24.675699,42.151472],[24.675273,42.151425],[24.674911,42.151287],[24.675132,42.152058],[24.675201,42.152039]]]},"properties":{"cadreg":51}},{"type":"Feature","geometry":{"type":"Polygon","coordinates":[[[24.663137,42.148713],[24.663194,42.148697],[24.66257,42.14793],[24.66204,42.147401],[24.661799,42.147138],[24.661557,42.146959],[24.661281,42.146825],[24.660303,42.146285],[24.659738,42.145953],[24.659743,42.145852],[24.659624,42.145823],[24.659407,42.145787],[24.659192,42.145784],[24.65888,42.145862],[24.658453,42.146013],[24.658052,42.146225],[24.657846,42.146312],[24.657369,42.146477],[24.65696,42.146656],[24.656788,42.146778],[24.656678,42.146887],[24.656486,42.147153],[24.65645,42.147288],[24.656438,42.147473],[24.656848,42.147367],[24.656989,42.147356],[24.657279,42.147392],[24.658202,42.14743],[24.658629,42.147461],[24.658808,42.147488],[24.659075,42.147543],[24.659629,42.147729],[24.659868,42.147786],[24.66035,42.147872],[24.661198,42.14798],[24.661965,42.148138],[24.662117,42.148197],[24.663137,42.148713]]]},"properties":{"cadreg":52}},{"type":"Feature","geometry":{"type":"Polygon","coordinates":[[[24.654639,42.14743],[24.654374,42.147495],[24.653949,42.147701],[24.65369,42.147891],[24.65352,42.148059],[24.653444,42.148284],[24.653145,42.148908],[24.653055,42.14916],[24.652838,42.149641],[24.65278,42.14983],[24.652946,42.149662],[24.653025,42.149606],[24.653166,42.149524],[24.653327,42.149463],[24.655178,42.149136],[24.65544,42.149063],[24.655469,42.149033],[24.655513,42.148901],[24.65558,42.14821],[24.655627,42.148059],[24.655772,42.147847],[24.655878,42.147739],[24.65604,42.147624],[24.656232,42.147536],[24.656438,42.147473],[24.656455,42.147381],[24.656448,42.147336],[24.655825,42.147592],[24.655675,42.147608],[24.655353,42.147568],[24.654849,42.147442],[24.654639,42.14743]]]},"properties":{"cadreg":53}},{"type":"Feature","geometry":{"type":"Polygon","coordinates":[[[24.614921,42.152491],[24.615088,42.152411],[24.615345,42.152332],[24.615789,42.152267],[24.616298,42.15225],[24.618055,42.152106],[24.618582,42.152093],[24.618793,42.152129],[24.619078,42.152245],[24.619433,42.152477],[24.619678,42.152601],[24.620137,42.152874],[24.620159,42.152928],[24.620206,42.153382],[24.620453,42.156088],[24.624859,42.155905],[24.625883,42.155848],[24.627241,42.155682],[24.632583,42.154918],[24.632641,42.1549],[24.632251,42.154779],[24.631921,42.154698],[24.628059,42.154267],[24.624845,42.153768],[24.624575,42.153714],[24.624327,42.153688],[24.621451,42.153242],[24.621193,42.153174],[24.620463,42.152891],[24.620003,42.152664],[24.619149,42.152166],[24.618961,42.152093],[24.618638,42.152032],[24.618353,42.152008],[24.618064,42.152011],[24.616877,42.152093],[24.616405,42.152143],[24.615967,42.152167],[24.615465,42.152172],[24.615226,42.152206],[24.615003,42.152274],[24.614758,42.152422],[24.614463,42.152549],[24.614198,42.152611],[24.614015,42.152614],[24.614018,42.152708],[24.614365,42.152699],[24.614418,42.152687],[24.614921,42.152491]]]},"properties":{"cadreg":54}},{"type":"Feature","geometry":{"type":"Polygon","coordinates":[[[24.683657,42.150222],[24.682852,42.149779],[24.682428,42.150048],[24.68216,42.150189],[24.681306,42.15058],[24.681099,42.150656],[24.680529,42.1508],[24.680209,42.150851],[24.67945,42.150928],[24.678908,42.151037],[24.67859,42.151204],[24.678459,42.151293],[24.678362,42.151393],[24.678592,42.151298],[24.678738,42.151219],[24.678853,42.151183],[24.679617,42.151048],[24.680324,42.150956],[24.681725,42.150683],[24.681966,42.150651],[24.682387,42.150504],[24.683325,42.150224],[24.683423,42.150214],[24.683657,42.150222]]]},"properties":{"cadreg":55}},{"type":"Feature","geometry":{"type":"Polygon","coordinates":[[[24.631938,42.168014],[24.63164,42.167129],[24.630007,42.167213],[24.62991,42.167519],[24.629752,42.167811],[24.629671,42.168084],[24.630329,42.167953],[24.63055,42.168405],[24.631994,42.168331],[24.631938,42.168014]]]},"properties":{"cadreg":56}},{"type":"Feature","geometry":{"type":"Polygon","coordinates":[[[24.629324,42.175184],[24.628806,42.175361],[24.629012,42.17577],[24.628818,42.17584],[24.628795,42.175878],[24.628858,42.176049],[24.628844,42.176321],[24.628754,42.177195],[24.628771,42.177205],[24.628758,42.177338],[24.628738,42.177342],[24.628646,42.17823],[24.628599,42.17842],[24.630009,42.178337],[24.635456,42.17708],[24.635437,42.177036],[24.635452,42.176971],[24.635436,42.176721],[24.635376,42.176581],[24.63529,42.176454],[24.635255,42.176439],[24.635213,42.176491],[24.63519,42.176499],[24.63515,42.17649],[24.635067,42.176372],[24.635046,42.176296],[24.63509,42.176118],[24.63514,42.176049],[24.63527,42.175915],[24.635514,42.175738],[24.635515,42.175724],[24.63531,42.175662],[24.635261,42.175662],[24.635013,42.175777],[24.634803,42.175848],[24.634721,42.175794],[24.634186,42.175687],[24.634018,42.175598],[24.634132,42.175571],[24.635849,42.175413],[24.635948,42.17533],[24.636105,42.175277],[24.636215,42.175282],[24.636397,42.175327],[24.636457,42.175324],[24.636578,42.175233],[24.636719,42.17503],[24.636857,42.174913],[24.636918,42.17484],[24.637069,42.17473],[24.637439,42.174661],[24.637501,42.174633],[24.637619,42.174543],[24.637734,42.174479],[24.637792,42.174464],[24.637763,42.173462],[24.636408,42.173761],[24.63443,42.174236],[24.63338,42.174416],[24.632949,42.174462],[24.632183,42.174455],[24.63189,42.174517],[24.631804,42.174602],[24.631834,42.17474],[24.631858,42.175027],[24.629324,42.175184]]]},"properties":{"cadreg":57}},{"type":"Feature","geometry":{"type":"Polygon","coordinates":[[[24.622449,42.185168],[24.621936,42.184033],[24.621806,42.18405],[24.621261,42.184025],[24.620858,42.184036],[24.620692,42.184086],[24.620486,42.18419],[24.620419,42.184246],[24.62033,42.184379],[24.620138,42.184512],[24.620065,42.184734],[24.619989,42.184864],[24.619932,42.184901],[24.619759,42.184939],[24.619714,42.184966],[24.619701,42.185002],[24.619745,42.185094],[24.619726,42.185141],[24.61963,42.185193],[24.619387,42.18516],[24.619309,42.185168],[24.619327,42.185187],[24.619473,42.185229],[24.619496,42.18525],[24.619491,42.185282],[24.61938,42.185375],[24.619263,42.185442],[24.61909,42.185605],[24.618842,42.185733],[24.618707,42.185828],[24.618655,42.185869],[24.61857,42.185982],[24.619894,42.185038],[24.620211,42.185458],[24.620745,42.185259],[24.621214,42.185886],[24.621667,42.185776],[24.621626,42.185711],[24.622092,42.185549],[24.62199,42.185381],[24.622449,42.185168]]]},"properties":{"cadreg":58}},{"type":"Feature","geometry":{"type":"Polygon","coordinates":[[[24.616095,42.182523],[24.615687,42.182558],[24.615771,42.183358],[24.616646,42.183337],[24.616645,42.183956],[24.617003,42.183944],[24.617419,42.183982],[24.618415,42.183971],[24.619069,42.183949],[24.619913,42.183979],[24.621433,42.183931],[24.621498,42.18386],[24.621538,42.18386],[24.621567,42.183885],[24.621557,42.183942],[24.621586,42.18397],[24.621898,42.183947],[24.621418,42.182893],[24.620613,42.182855],[24.61901,42.182903],[24.618885,42.182881],[24.61876,42.182825],[24.618678,42.182746],[24.618629,42.182628],[24.618439,42.181732],[24.618277,42.181772],[24.618222,42.181774],[24.618128,42.181745],[24.61749,42.182387],[24.617453,42.182399],[24.616105,42.182426],[24.616095,42.182523]]]},"properties":{"cadreg":59}},{"type":"Feature","geometry":{"type":"Polygon","coordinates":[[[24.615455,42.178242],[24.614858,42.177994],[24.615006,42.177589],[24.614739,42.177478],[24.614777,42.177433],[24.614532,42.177392],[24.614244,42.17737],[24.613834,42.177306],[24.613736,42.17728],[24.61369,42.177246],[24.61367,42.177205],[24.613646,42.176966],[24.613612,42.176828],[24.613565,42.176785],[24.6136,42.176618],[24.613721,42.173693],[24.613558,42.1737],[24.613462,42.176833],[24.613481,42.177117],[24.613518,42.177251],[24.613446,42.177566],[24.613433,42.17776],[24.613483,42.17822],[24.613786,42.179959],[24.613864,42.18029],[24.613949,42.180418],[24.615571,42.182],[24.615706,42.182123],[24.615756,42.182093],[24.616105,42.182426],[24.617453,42.182399],[24.61749,42.182387],[24.618128,42.181745],[24.618222,42.181774],[24.618277,42.181772],[24.618439,42.181732],[24.618171,42.180483],[24.618115,42.180408],[24.617994,42.180367],[24.616439,42.180339],[24.616266,42.180231],[24.615719,42.180181],[24.615526,42.180219],[24.615594,42.179172],[24.616324,42.179184],[24.616323,42.179148],[24.61574,42.179118],[24.615746,42.178914],[24.615455,42.178242]]]},"properties":{"cadreg":60}},{"type":"Feature","geometry":{"type":"Polygon","coordinates":[[[24.614818,42.173678],[24.613721,42.173693],[24.6136,42.176618],[24.613565,42.176785],[24.613612,42.176828],[24.613646,42.176966],[24.61367,42.177205],[24.61369,42.177246],[24.613736,42.17728],[24.613834,42.177306],[24.614244,42.17737],[24.614532,42.177392],[24.614777,42.177433],[24.615132,42.177575],[24.615341,42.17725],[24.615081,42.174041],[24.614826,42.174043],[24.614818,42.173678]]]},"properties":{"cadreg":61}},{"type":"Feature","geometry":{"type":"Polygon","coordinates":[[[24.62855,42.178534],[24.62793,42.178574],[24.627993,42.178864],[24.628289,42.179835],[24.628358,42.179818],[24.628462,42.18015],[24.628489,42.180313],[24.629153,42.180162],[24.629363,42.180778],[24.629418,42.181087],[24.628193,42.181244],[24.628347,42.181772],[24.628381,42.182054],[24.628331,42.182288],[24.628,42.183427],[24.629841,42.183418],[24.629769,42.183183],[24.629709,42.182849],[24.62967,42.182409],[24.62966,42.181998],[24.629705,42.181865],[24.629769,42.181802],[24.629813,42.181801],[24.629804,42.181731],[24.629852,42.181729],[24.629721,42.17964],[24.629887,42.179309],[24.629523,42.178521],[24.630009,42.178337],[24.628599,42.17842],[24.62855,42.178534]]]},"properties":{"cadreg":62}},{"type":"Feature","geometry":{"type":"Polygon","coordinates":[[[24.629064,42.184006],[24.629515,42.183802],[24.629526,42.183687],[24.62959,42.183521],[24.629559,42.183499],[24.627981,42.183499],[24.627604,42.184788],[24.628386,42.184282],[24.629064,42.184006]]]},"properties":{"cadreg":63}},{"type":"Feature","geometry":{"type":"Polygon","coordinates":[[[24.627567,42.16841],[24.627242,42.168913],[24.626937,42.168848],[24.626825,42.169142],[24.626708,42.169118],[24.626692,42.169167],[24.626772,42.169182],[24.626415,42.170145],[24.626493,42.170171],[24.625976,42.171151],[24.626006,42.171332],[24.625868,42.171604],[24.62628,42.171733],[24.626389,42.171834],[24.626402,42.171811],[24.626906,42.171973],[24.626786,42.172188],[24.626854,42.172248],[24.627862,42.172333],[24.628853,42.171328],[24.630293,42.170019],[24.630592,42.169799],[24.630944,42.169569],[24.631407,42.169325],[24.631578,42.169216],[24.63182,42.169028],[24.631894,42.168935],[24.631993,42.168712],[24.632008,42.168461],[24.631994,42.168331],[24.63055,42.168405],[24.630329,42.167953],[24.629671,42.168084],[24.629329,42.168127],[24.629315,42.16807],[24.628574,42.16817],[24.628588,42.168232],[24.628193,42.168282],[24.627995,42.168487],[24.627567,42.16841]]]},"properties":{"cadreg":65}},{"type":"Feature","geometry":{"type":"Polygon","coordinates":[[[24.666089,42.148037],[24.665822,42.147778],[24.665487,42.147507],[24.665256,42.1474],[24.664953,42.14736],[24.664521,42.147376],[24.664436,42.147362],[24.664186,42.147279],[24.664094,42.147264],[24.663391,42.147201],[24.662777,42.146994],[24.662489,42.146862],[24.66216,42.146736],[24.661448,42.146406],[24.6612,42.146336],[24.660884,42.146213],[24.660527,42.146112],[24.660202,42.145989],[24.659743,42.145852],[24.659738,42.145953],[24.660303,42.146285],[24.661281,42.146825],[24.661557,42.146959],[24.661799,42.147138],[24.66204,42.147401],[24.66257,42.14793],[24.663194,42.148697],[24.663299,42.14885],[24.663406,42.148938],[24.66349,42.148975],[24.664163,42.149133],[24.664406,42.149175],[24.665149,42.149256],[24.665462,42.149375],[24.666222,42.149543],[24.666988,42.149768],[24.667168,42.149843],[24.667685,42.150015],[24.668572,42.150338],[24.669509,42.15059],[24.66977,42.150687],[24.670601,42.151062],[24.670795,42.151128],[24.67115,42.151209],[24.673329,42.151775],[24.673797,42.151873],[24.674087,42.151953],[24.674242,42.151964],[24.674745,42.152068],[24.674929,42.152087],[24.675132,42.152058],[24.674911,42.151287],[24.675273,42.151425],[24.675699,42.151472],[24.675941,42.151453],[24.676098,42.151465],[24.676512,42.151566],[24.676827,42.151601],[24.677161,42.151591],[24.677549,42.151494],[24.678042,42.151457],[24.678162,42.151435],[24.678362,42.151393],[24.678459,42.151293],[24.67859,42.151204],[24.678908,42.151037],[24.67945,42.150928],[24.680209,42.150851],[24.680529,42.1508],[24.681099,42.150656],[24.681306,42.15058],[24.68216,42.150189],[24.682428,42.150048],[24.682852,42.149779],[24.682721,42.149707],[24.681344,42.150269],[24.68064,42.150483],[24.679674,42.150712],[24.679056,42.15084],[24.678302,42.151032],[24.677812,42.15112],[24.676311,42.151152],[24.672776,42.15051],[24.672192,42.15046],[24.671469,42.150198],[24.670473,42.149958],[24.669328,42.149546],[24.668263,42.149004],[24.666395,42.147908],[24.6662,42.148111],[24.666089,42.148037]]]},"properties":{"cadreg":70}},{"type":"Feature","geometry":{"type":"Polygon","coordinates":[[[24.615387,42.173566],[24.614816,42.173576],[24.614826,42.174043],[24.615081,42.174041],[24.615341,42.17725],[24.615132,42.177575],[24.614777,42.177433],[24.614739,42.177478],[24.615006,42.177589],[24.614858,42.177994],[24.615455,42.178242],[24.615746,42.178914],[24.61574,42.179118],[24.616323,42.179148],[24.616324,42.179184],[24.615594,42.179172],[24.615526,42.180219],[24.615719,42.180181],[24.616266,42.180231],[24.616439,42.180339],[24.617994,42.180367],[24.618115,42.180408],[24.618171,42.180483],[24.618629,42.182628],[24.618678,42.182746],[24.61876,42.182825],[24.618885,42.182881],[24.61901,42.182903],[24.620613,42.182855],[24.621772,42.182903],[24.621724,42.182819],[24.621825,42.182556],[24.62181,42.182552],[24.62233,42.181358],[24.622339,42.181287],[24.622362,42.181287],[24.622452,42.18109],[24.622502,42.18086],[24.622634,42.180588],[24.622708,42.180521],[24.622801,42.180024],[24.622793,42.17988],[24.622846,42.179583],[24.622824,42.179537],[24.622911,42.17952],[24.622807,42.179231],[24.623215,42.179151],[24.623246,42.179127],[24.624107,42.176763],[24.624181,42.176363],[24.6243,42.175482],[24.62435,42.174709],[24.624298,42.174601],[24.624399,42.174427],[24.624434,42.174071],[24.624468,42.173909],[24.624572,42.173609],[24.624688,42.173364],[24.624715,42.173212],[24.624825,42.173],[24.624902,42.172928],[24.625056,42.172614],[24.625513,42.17161],[24.625509,42.171531],[24.624941,42.171379],[24.624814,42.171357],[24.624655,42.171337],[24.624356,42.171336],[24.615703,42.171559],[24.615586,42.17158],[24.61545,42.171634],[24.615365,42.171692],[24.615304,42.171774],[24.615265,42.171876],[24.615416,42.173519],[24.615387,42.173566]]]},"properties":{"cadreg":501}},{"type":"Feature","geometry":{"type":"Polygon","coordinates":[[[24.622807,42.179231],[24.622911,42.17952],[24.622824,42.179537],[24.622846,42.179583],[24.622793,42.17988],[24.622801,42.180024],[24.622708,42.180521],[24.622634,42.180588],[24.622502,42.18086],[24.622452,42.18109],[24.622362,42.181287],[24.622339,42.181287],[24.62233,42.181358],[24.62181,42.182552],[24.621825,42.182556],[24.621724,42.182819],[24.621772,42.182903],[24.621418,42.182893],[24.622525,42.185336],[24.62662,42.185169],[24.626583,42.185085],[24.627526,42.185049],[24.628331,42.182288],[24.628381,42.182054],[24.628347,42.181772],[24.628193,42.181244],[24.629418,42.181087],[24.629363,42.180778],[24.629153,42.180162],[24.628489,42.180313],[24.628462,42.18015],[24.628358,42.179818],[24.628289,42.179835],[24.627993,42.178864],[24.62793,42.178574],[24.62855,42.178534],[24.628623,42.178368],[24.628738,42.177342],[24.628758,42.177338],[24.628771,42.177205],[24.628754,42.177195],[24.628844,42.176321],[24.628858,42.176049],[24.628795,42.175878],[24.628818,42.17584],[24.629012,42.17577],[24.628806,42.175361],[24.629324,42.175184],[24.631858,42.175027],[24.631834,42.17474],[24.631804,42.174602],[24.631902,42.1745],[24.631471,42.173168],[24.631409,42.17308],[24.631282,42.173026],[24.631209,42.173021],[24.630509,42.173135],[24.628185,42.173694],[24.62812,42.173678],[24.627944,42.173263],[24.62779,42.173069],[24.626786,42.172188],[24.626906,42.171973],[24.626402,42.171811],[24.626389,42.171834],[24.62628,42.171733],[24.625868,42.171604],[24.626006,42.171332],[24.625973,42.171072],[24.625853,42.171041],[24.625614,42.171494],[24.625509,42.171531],[24.625513,42.17161],[24.625056,42.172614],[24.624902,42.172928],[24.624825,42.173],[24.624715,42.173212],[24.624688,42.173364],[24.624514,42.173755],[24.624434,42.174071],[24.624399,42.174427],[24.624298,42.174601],[24.62435,42.174709],[24.6243,42.175482],[24.624145,42.176603],[24.624016,42.177022],[24.623246,42.179127],[24.623215,42.179151],[24.622807,42.179231]]]},"properties":{"cadreg":502}}]}