{"type":"FeatureCollection","features":[{"type":"Feature","geometry":{"type":"Polygon","coordinates":[[[24.913389,42.106717],[24.913337,42.106711],[24.913332,42.106734],[24.91337,42.106739],[24.913371,42.10673],[24.913386,42.106731],[24.913389,42.106717]]]},"properties":{"num":1}},{"type":"Feature","geometry":{"type":"Polygon","coordinates":[[[24.914729,42.104506],[24.914873,42.10449],[24.914865,42.10445],[24.914721,42.104465],[24.914729,42.104506]]]},"properties":{"num":1}},{"type":"Feature","geometry":{"type":"Polygon","coordinates":[[[24.914819,42.104522],[24.914875,42.104518],[24.91487,42.104491],[24.914814,42.104497],[24.914819,42.104522]]]},"properties":{"num":2}},{"type":"Feature","geometry":{"type":"Polygon","coordinates":[[[24.908131,42.104319],[24.908125,42.104289],[24.907886,42.104312],[24.907896,42.104377],[24.908022,42.104365],[24.908016,42.10433],[24.908131,42.104319]]]},"properties":{"num":1}},{"type":"Feature","geometry":{"type":"Polygon","coordinates":[[[24.907941,42.104307],[24.907861,42.103817],[24.907806,42.103823],[24.907886,42.104312],[24.907941,42.104307]]]},"properties":{"num":2}},{"type":"Feature","geometry":{"type":"Polygon","coordinates":[[[24.908048,42.104057],[24.908087,42.104054],[24.908105,42.104164],[24.908174,42.104157],[24.908154,42.104048],[24.908196,42.104045],[24.908238,42.10428],[24.908385,42.104265],[24.908297,42.103775],[24.90815,42.103789],[24.908185,42.103986],[24.908039,42.103999],[24.908007,42.103803],[24.907861,42.103817],[24.907941,42.104307],[24.908087,42.104292],[24.908048,42.104057]]]},"properties":{"num":3}},{"type":"Feature","geometry":{"type":"Polygon","coordinates":[[[24.908627,42.104248],[24.908621,42.104213],[24.908562,42.104218],[24.908568,42.104254],[24.908627,42.104248]]]},"properties":{"num":4}},{"type":"Feature","geometry":{"type":"Polygon","coordinates":[[[24.908688,42.10417],[24.908677,42.10411],[24.908536,42.10412],[24.908545,42.10418],[24.908688,42.10417]]]},"properties":{"num":5}},{"type":"Feature","geometry":{"type":"Polygon","coordinates":[[[24.908587,42.103852],[24.908579,42.103803],[24.9085,42.10381],[24.908537,42.104026],[24.908587,42.104022],[24.908557,42.103855],[24.908587,42.103852]]]},"properties":{"num":6}},{"type":"Feature","geometry":{"type":"Polygon","coordinates":[[[24.908572,42.103757],[24.908548,42.103612],[24.908469,42.10362],[24.908494,42.103765],[24.908572,42.103757]]]},"properties":{"num":7}},{"type":"Feature","geometry":{"type":"Polygon","coordinates":[[[24.908479,42.103701],[24.90846,42.103593],[24.908311,42.103608],[24.908329,42.103715],[24.908479,42.103701]]]},"properties":{"num":8}},{"type":"Feature","geometry":{"type":"Polygon","coordinates":[[[24.908202,42.103699],[24.908197,42.103669],[24.907967,42.103688],[24.907973,42.103728],[24.908039,42.103723],[24.908037,42.103712],[24.908202,42.103699]]]},"properties":{"num":9}},{"type":"Feature","geometry":{"type":"Polygon","coordinates":[[[24.907744,42.103781],[24.907735,42.103728],[24.90716,42.103786],[24.90717,42.103838],[24.907744,42.103781]]]},"properties":{"num":10}},{"type":"Feature","geometry":{"type":"Polygon","coordinates":[[[24.913549,42.105223],[24.913405,42.105222],[24.913406,42.105558],[24.913993,42.105556],[24.913991,42.105332],[24.913847,42.105333],[24.913843,42.104681],[24.913542,42.104683],[24.913549,42.105223]]]},"properties":{"num":1}},{"type":"Feature","geometry":{"type":"Polygon","coordinates":[[[24.913472,42.105223],[24.913549,42.105223],[24.913547,42.105082],[24.913471,42.105082],[24.913472,42.105223]]]},"properties":{"num":3}},{"type":"Feature","geometry":{"type":"Polygon","coordinates":[[[24.913846,42.105176],[24.913847,42.105333],[24.913991,42.105332],[24.91399,42.105175],[24.913846,42.105176]]]},"properties":{"num":4}},{"type":"Feature","geometry":{"type":"Polygon","coordinates":[[[24.91399,42.105175],[24.913988,42.104793],[24.913844,42.104793],[24.913846,42.105176],[24.91399,42.105175]]]},"properties":{"num":5}},{"type":"Feature","geometry":{"type":"Polygon","coordinates":[[[24.913988,42.104793],[24.913987,42.104681],[24.913843,42.104681],[24.913844,42.104793],[24.913988,42.104793]]]},"properties":{"num":6}},{"type":"Feature","geometry":{"type":"Polygon","coordinates":[[[24.914025,42.104412],[24.913961,42.104412],[24.913962,42.104474],[24.914025,42.104474],[24.914025,42.104412]]]},"properties":{"num":7}},{"type":"Feature","geometry":{"type":"Polygon","coordinates":[[[24.913881,42.104414],[24.913881,42.104383],[24.913835,42.104383],[24.913835,42.104414],[24.913881,42.104414]]]},"properties":{"num":8}},{"type":"Feature","geometry":{"type":"Polygon","coordinates":[[[24.91387,42.104357],[24.913869,42.10431],[24.913805,42.104311],[24.913805,42.104357],[24.91387,42.104357]]]},"properties":{"num":9}},{"type":"Feature","geometry":{"type":"Polygon","coordinates":[[[24.912913,42.104689],[24.912963,42.104679],[24.912952,42.104647],[24.912902,42.104657],[24.912913,42.104689]]]},"properties":{"num":10}},{"type":"Feature","geometry":{"type":"Polygon","coordinates":[[[24.913299,42.104826],[24.913049,42.104826],[24.91305,42.105046],[24.9133,42.105046],[24.913299,42.104826]]]},"properties":{"num":11}},{"type":"Feature","geometry":{"type":"Polygon","coordinates":[[[24.912662,42.105537],[24.912808,42.105532],[24.912819,42.105693],[24.912968,42.105688],[24.912905,42.104767],[24.912756,42.104773],[24.912767,42.104934],[24.912622,42.10494],[24.912662,42.105537]]]},"properties":{"num":12}},{"type":"Feature","geometry":{"type":"Polygon","coordinates":[[[24.91312,42.106299],[24.913114,42.106202],[24.913021,42.106205],[24.913027,42.106302],[24.91312,42.106299]]]},"properties":{"num":13}},{"type":"Feature","geometry":{"type":"Polygon","coordinates":[[[24.913208,42.106138],[24.913401,42.10613],[24.913396,42.106057],[24.913202,42.106065],[24.913208,42.106138]]]},"properties":{"num":14}},{"type":"Feature","geometry":{"type":"Polygon","coordinates":[[[24.910984,42.104055],[24.91074,42.103738],[24.910634,42.103785],[24.91088,42.104101],[24.910984,42.104055]]]},"properties":{"num":1}},{"type":"Feature","geometry":{"type":"Polygon","coordinates":[[[24.911631,42.104501],[24.911359,42.104131],[24.911255,42.104174],[24.911527,42.104545],[24.911631,42.104501]]]},"properties":{"num":1}},{"type":"Feature","geometry":{"type":"Polygon","coordinates":[[[24.913124,42.104337],[24.913092,42.104231],[24.912855,42.10427],[24.912887,42.104377],[24.913124,42.104337]]]},"properties":{"num":1}},{"type":"Feature","geometry":{"type":"Polygon","coordinates":[[[24.912887,42.104377],[24.912855,42.10427],[24.912807,42.104278],[24.912839,42.104384],[24.912887,42.104377]]]},"properties":{"num":2}},{"type":"Feature","geometry":{"type":"Polygon","coordinates":[[[24.912991,42.103749],[24.912979,42.103706],[24.912858,42.103722],[24.912871,42.103768],[24.912991,42.103749]]]},"properties":{"num":1}},{"type":"Feature","geometry":{"type":"Polygon","coordinates":[[[24.912979,42.103706],[24.912967,42.103661],[24.912859,42.103678],[24.912871,42.103723],[24.912979,42.103706]]]},"properties":{"num":2}},{"type":"Feature","geometry":{"type":"Polygon","coordinates":[[[24.913126,42.103683],[24.913113,42.103637],[24.912967,42.103661],[24.912979,42.103706],[24.913126,42.103683]]]},"properties":{"num":3}},{"type":"Feature","geometry":{"type":"Polygon","coordinates":[[[24.912435,42.104111],[24.912405,42.104004],[24.912062,42.104056],[24.912137,42.104157],[24.912435,42.104111]]]},"properties":{"num":1}},{"type":"Feature","geometry":{"type":"Polygon","coordinates":[[[24.912197,42.104011],[24.912051,42.103813],[24.911922,42.103865],[24.912062,42.104056],[24.912227,42.104031],[24.912197,42.104011]]]},"properties":{"num":2}},{"type":"Feature","geometry":{"type":"Polygon","coordinates":[[[24.91149,42.105058],[24.911474,42.105007],[24.911425,42.105016],[24.91142,42.105003],[24.911364,42.105012],[24.911385,42.105079],[24.911361,42.105083],[24.911373,42.10512],[24.911486,42.105101],[24.911473,42.105061],[24.91149,42.105058]]]},"properties":{"num":1}},{"type":"Feature","geometry":{"type":"Polygon","coordinates":[[[24.911863,42.103697],[24.911807,42.10362],[24.911599,42.103709],[24.911655,42.103783],[24.911863,42.103697]]]},"properties":{"num":1}},{"type":"Feature","geometry":{"type":"Polygon","coordinates":[[[24.91207,42.103611],[24.91201,42.103534],[24.911807,42.10362],[24.911863,42.103697],[24.91207,42.103611]]]},"properties":{"num":1}},{"type":"Feature","geometry":{"type":"Polygon","coordinates":[[[24.912054,42.104327],[24.911747,42.103911],[24.911642,42.103955],[24.911949,42.10437],[24.912054,42.104327]]]},"properties":{"num":1}},{"type":"Feature","geometry":{"type":"Polygon","coordinates":[[[24.9123,42.103493],[24.912252,42.10343],[24.912206,42.103448],[24.912255,42.103512],[24.9123,42.103493]]]},"properties":{"num":1}}]}