{"type":"FeatureCollection","features":[{"type":"Feature","geometry":{"type":"Polygon","coordinates":[[[24.915023,42.10434],[24.91508,42.105681],[24.915205,42.10662],[24.915249,42.106809],[24.91539,42.106967],[24.915626,42.107071],[24.915869,42.107093],[24.920883,42.106769],[24.925784,42.105523],[24.925832,42.105503],[24.925779,42.105459],[24.925513,42.105134],[24.925,42.104441],[24.925605,42.104268],[24.925619,42.103323],[24.9259,42.103333],[24.925705,42.100193],[24.924814,42.100236],[24.924733,42.100192],[24.924677,42.099966],[24.919928,42.101284],[24.919206,42.101427],[24.918517,42.101542],[24.916902,42.101774],[24.915952,42.10176],[24.915659,42.101868],[24.915673,42.101894],[24.914927,42.102111],[24.914918,42.103107],[24.915023,42.10434]]]},"properties":{"cadreg":501}},{"type":"Feature","geometry":{"type":"Polygon","coordinates":[[[24.894903,42.121243],[24.894908,42.124239],[24.894844,42.124206],[24.894844,42.124262],[24.898596,42.126224],[24.900221,42.126647],[24.900431,42.126686],[24.900746,42.126714],[24.901271,42.126628],[24.901466,42.126561],[24.901723,42.1264],[24.901656,42.126376],[24.902354,42.126184],[24.902711,42.126056],[24.903099,42.125895],[24.903849,42.125534],[24.895445,42.12124],[24.894903,42.121243]]]},"properties":{"cadreg":1}},{"type":"Feature","geometry":{"type":"Polygon","coordinates":[[[24.896604,42.118531],[24.896279,42.119013],[24.896162,42.119307],[24.896072,42.119797],[24.895942,42.120265],[24.895743,42.120821],[24.895547,42.12118],[24.895445,42.12124],[24.903849,42.125534],[24.904039,42.125445],[24.904949,42.124804],[24.906057,42.124062],[24.906626,42.123985],[24.907266,42.123955],[24.908139,42.122916],[24.906347,42.121933],[24.904807,42.12105],[24.901972,42.119566],[24.900974,42.119077],[24.899106,42.118108],[24.897215,42.117158],[24.897075,42.117474],[24.897016,42.117813],[24.896815,42.118113],[24.896604,42.118531]]]},"properties":{"cadreg":2}},{"type":"Feature","geometry":{"type":"MultiPolygon","coordinates":[[[[24.8973,42.108833],[24.895936,42.108012],[24.895576,42.107763],[24.895512,42.107808],[24.8955,42.107825],[24.896016,42.10818],[24.896251,42.108419],[24.89761,42.10911],[24.897515,42.109171],[24.897446,42.109294],[24.897274,42.109794],[24.896583,42.111602],[24.895638,42.113978],[24.895165,42.115286],[24.894704,42.116468],[24.894745,42.121043],[24.894748,42.125965],[24.894691,42.126208],[24.894398,42.12708],[24.894295,42.12751],[24.894307,42.127631],[24.894398,42.12743],[24.894786,42.126218],[24.894845,42.12597],[24.894844,42.124206],[24.894908,42.124239],[24.894903,42.121243],[24.895409,42.121247],[24.895491,42.121219],[24.895547,42.12118],[24.895743,42.120821],[24.895942,42.120265],[24.896072,42.119797],[24.896162,42.119307],[24.896279,42.119013],[24.896604,42.118531],[24.896815,42.118113],[24.897016,42.117813],[24.897075,42.117474],[24.897215,42.117158],[24.899163,42.118139],[24.903209,42.113576],[24.902032,42.112915],[24.902682,42.112243],[24.903055,42.112569],[24.904262,42.113316],[24.905489,42.114031],[24.9063,42.114528],[24.906547,42.114699],[24.907948,42.115536],[24.907975,42.1155],[24.906456,42.114483],[24.903114,42.112427],[24.90242,42.111937],[24.901557,42.111526],[24.900891,42.111094],[24.899942,42.110519],[24.899478,42.110195],[24.898717,42.10976],[24.898412,42.109552],[24.897698,42.109114],[24.8973,42.108833]]],[[[24.903235,42.113546],[24.903704,42.113016],[24.903024,42.112597],[24.902668,42.112314],[24.90209,42.112903],[24.903235,42.113546]]]]},"properties":{"cadreg":3}},{"type":"Feature","geometry":{"type":"Polygon","coordinates":[[[24.899163,42.118139],[24.900974,42.119077],[24.901972,42.119566],[24.903059,42.120131],[24.907457,42.115281],[24.907919,42.115569],[24.907948,42.115536],[24.906547,42.114699],[24.9063,42.114528],[24.905489,42.114031],[24.904262,42.113316],[24.903055,42.112569],[24.902682,42.112243],[24.902032,42.112915],[24.903209,42.113576],[24.899163,42.118139]],[[24.903235,42.113546],[24.90209,42.112903],[24.902668,42.112314],[24.903024,42.112597],[24.903704,42.113016],[24.903235,42.113546]]]},"properties":{"cadreg":4}},{"type":"Feature","geometry":{"type":"Polygon","coordinates":[[[24.907457,42.115281],[24.903059,42.120131],[24.904807,42.12105],[24.906347,42.121933],[24.908139,42.122916],[24.909694,42.121005],[24.909765,42.121036],[24.909766,42.120958],[24.907777,42.119392],[24.906342,42.117613],[24.907919,42.115569],[24.907457,42.115281]]]},"properties":{"cadreg":5}},{"type":"Feature","geometry":{"type":"MultiPolygon","coordinates":[[[[24.901446,42.107191],[24.901207,42.107314],[24.899925,42.107896],[24.897925,42.108921],[24.897902,42.109021],[24.898943,42.109681],[24.900034,42.110334],[24.903527,42.108607],[24.902783,42.108063],[24.901446,42.107191]]],[[[24.905022,42.105366],[24.901892,42.10696],[24.902112,42.10713],[24.902661,42.107496],[24.903079,42.107833],[24.903911,42.108449],[24.909392,42.105729],[24.908306,42.104588],[24.907133,42.104681],[24.90706,42.104393],[24.90703,42.104364],[24.905562,42.105075],[24.905022,42.105366]]]]},"properties":{"cadreg":6}},{"type":"Feature","geometry":{"type":"MultiPolygon","coordinates":[[[[24.903527,42.108607],[24.900034,42.110334],[24.898943,42.109681],[24.897902,42.109021],[24.897925,42.108921],[24.897876,42.108946],[24.897815,42.109049],[24.899339,42.10998],[24.900115,42.110431],[24.901513,42.111353],[24.901952,42.111617],[24.902101,42.111436],[24.902253,42.11131],[24.90259,42.111619],[24.90278,42.111824],[24.903279,42.112194],[24.903254,42.112216],[24.903321,42.112265],[24.905649,42.110396],[24.904712,42.109557],[24.903527,42.108607]]],[[[24.903911,42.108449],[24.904947,42.109285],[24.905932,42.110165],[24.907949,42.108541],[24.908821,42.107864],[24.910343,42.107483],[24.911658,42.107179],[24.912831,42.106973],[24.913397,42.107031],[24.914812,42.107131],[24.91468,42.107056],[24.913392,42.106955],[24.912827,42.106882],[24.911326,42.107179],[24.9109,42.107276],[24.909417,42.105716],[24.903911,42.108449]]]]},"properties":{"cadreg":7}},{"type":"Feature","geometry":{"type":"MultiPolygon","coordinates":[[[[24.905932,42.110165],[24.912649,42.116614],[24.913475,42.117417],[24.915208,42.115711],[24.907016,42.109353],[24.907979,42.108583],[24.908865,42.107909],[24.908821,42.107864],[24.907949,42.108541],[24.905932,42.110165]]],[[[24.913245,42.117645],[24.905649,42.110396],[24.903321,42.112265],[24.903254,42.112216],[24.903279,42.112194],[24.90278,42.111824],[24.90259,42.111619],[24.902253,42.11131],[24.902101,42.111436],[24.901952,42.111617],[24.901513,42.111353],[24.900115,42.110431],[24.899339,42.10998],[24.897752,42.109015],[24.8974,42.108765],[24.896871,42.108473],[24.896425,42.108187],[24.895693,42.107757],[24.895666,42.107707],[24.895576,42.107763],[24.895936,42.108012],[24.8973,42.108833],[24.897698,42.109114],[24.898412,42.109552],[24.898717,42.10976],[24.899478,42.110195],[24.899942,42.110519],[24.900891,42.111094],[24.901557,42.111526],[24.90242,42.111937],[24.903114,42.112427],[24.906456,42.114483],[24.907975,42.1155],[24.908046,42.11541],[24.91269,42.118252],[24.912861,42.118083],[24.912752,42.118094],[24.913245,42.117645]]]]},"properties":{"cadreg":8}},{"type":"Feature","geometry":{"type":"Polygon","coordinates":[[[24.908034,42.108542],[24.907016,42.109353],[24.915208,42.115711],[24.916912,42.114054],[24.908952,42.107886],[24.908865,42.107909],[24.908034,42.108542]]]},"properties":{"cadreg":9}},{"type":"Feature","geometry":{"type":"Polygon","coordinates":[[[24.910444,42.107507],[24.908952,42.107886],[24.916912,42.114054],[24.918614,42.112395],[24.915894,42.110378],[24.91277,42.108028],[24.911732,42.107219],[24.910444,42.107507]]]},"properties":{"cadreg":10}},{"type":"Feature","geometry":{"type":"Polygon","coordinates":[[[24.916705,42.107119],[24.916445,42.107117],[24.915152,42.107247],[24.914795,42.107183],[24.914812,42.107131],[24.913397,42.107031],[24.912831,42.106973],[24.911658,42.107179],[24.910343,42.107483],[24.908821,42.107864],[24.908865,42.107909],[24.910397,42.107516],[24.911732,42.107219],[24.91277,42.108028],[24.915894,42.110378],[24.918614,42.112395],[24.921028,42.110044],[24.916919,42.107102],[24.916705,42.107119]]]},"properties":{"cadreg":11}},{"type":"Feature","geometry":{"type":"Polygon","coordinates":[[[24.910047,42.104107],[24.910579,42.103632],[24.91055,42.10335],[24.909247,42.103498],[24.908996,42.102495],[24.904559,42.104218],[24.905513,42.105064],[24.907011,42.104347],[24.90706,42.104393],[24.907133,42.104681],[24.908306,42.104588],[24.909392,42.105729],[24.909417,42.105716],[24.909442,42.10574],[24.9109,42.107276],[24.911326,42.107179],[24.912827,42.106882],[24.913392,42.106955],[24.91468,42.107056],[24.914812,42.107131],[24.915159,42.10718],[24.916255,42.107075],[24.916514,42.107057],[24.916703,42.107067],[24.917787,42.106971],[24.915869,42.107093],[24.915626,42.107071],[24.91539,42.106967],[24.915249,42.106809],[24.915205,42.10662],[24.91508,42.105681],[24.915023,42.10434],[24.914932,42.103197],[24.914338,42.10322],[24.91335,42.103233],[24.913298,42.103263],[24.913703,42.103291],[24.913672,42.103824],[24.913644,42.103848],[24.913171,42.103859],[24.913174,42.104013],[24.913095,42.104016],[24.913202,42.104551],[24.911568,42.104825],[24.911719,42.105477],[24.911364,42.105545],[24.9114,42.105848],[24.910739,42.105979],[24.910413,42.105065],[24.910173,42.104223],[24.910015,42.10426],[24.909955,42.104117],[24.910047,42.104107]]]},"properties":{"cadreg":12}},{"type":"Feature","geometry":{"type":"Polygon","coordinates":[[[24.923667,42.096854],[24.91002,42.10175],[24.90979,42.101814],[24.912904,42.103168],[24.913143,42.103212],[24.91335,42.103233],[24.914338,42.10322],[24.914932,42.103197],[24.914918,42.103107],[24.914927,42.102111],[24.915673,42.101894],[24.915659,42.101868],[24.915952,42.10176],[24.916902,42.101774],[24.918517,42.101542],[24.919206,42.101427],[24.919928,42.101284],[24.924677,42.099966],[24.924733,42.100192],[24.924814,42.100236],[24.924638,42.09981],[24.924453,42.099178],[24.924057,42.097627],[24.923828,42.096855],[24.923831,42.096772],[24.923667,42.096854]]]},"properties":{"cadreg":13}},{"type":"Feature","geometry":{"type":"Polygon","coordinates":[[[24.926284,42.095843],[24.923831,42.096772],[24.923828,42.096855],[24.924057,42.097627],[24.924453,42.099178],[24.924638,42.09981],[24.924814,42.100236],[24.92504,42.100225],[24.92573,42.100115],[24.925876,42.102169],[24.925936,42.10374],[24.926155,42.104071],[24.92627,42.104039],[24.92601,42.103631],[24.925962,42.102792],[24.92596,42.102169],[24.92583,42.100111],[24.926123,42.099712],[24.926166,42.099315],[24.926165,42.098781],[24.92614,42.098043],[24.926116,42.098028],[24.926119,42.097758],[24.926203,42.09712],[24.926284,42.095843]]]},"properties":{"cadreg":14}},{"type":"Feature","geometry":{"type":"MultiPolygon","coordinates":[[[[24.921028,42.110044],[24.91444,42.116461],[24.913475,42.117417],[24.913509,42.117449],[24.921366,42.109765],[24.921426,42.109752],[24.923871,42.107352],[24.925357,42.105926],[24.925669,42.105767],[24.925665,42.105656],[24.925759,42.105635],[24.925711,42.105584],[24.92428,42.106],[24.921085,42.10689],[24.919563,42.106854],[24.917787,42.106971],[24.916703,42.107067],[24.916514,42.107057],[24.916255,42.107075],[24.915159,42.10718],[24.914812,42.107131],[24.914795,42.107183],[24.915152,42.107247],[24.916445,42.107117],[24.916705,42.107119],[24.916919,42.107102],[24.921028,42.110044]]],[[[24.912752,42.118094],[24.912861,42.118083],[24.913278,42.117676],[24.913245,42.117645],[24.912752,42.118094]]]]},"properties":{"cadreg":15}},{"type":"Feature","geometry":{"type":"Polygon","coordinates":[[[24.925357,42.105926],[24.923871,42.107352],[24.921426,42.109752],[24.926958,42.108442],[24.927739,42.110829],[24.927892,42.110837],[24.927494,42.109563],[24.92727,42.109042],[24.926755,42.107506],[24.926396,42.10635],[24.926313,42.106309],[24.926147,42.106003],[24.925904,42.105637],[24.925784,42.105523],[24.925689,42.10554],[24.925759,42.105635],[24.925665,42.105656],[24.925669,42.105767],[24.925357,42.105926]]]},"properties":{"cadreg":16}},{"type":"Feature","geometry":{"type":"Polygon","coordinates":[[[24.92573,42.100115],[24.92504,42.100225],[24.925705,42.100193],[24.9259,42.103333],[24.925619,42.103323],[24.925605,42.104268],[24.925,42.104441],[24.925513,42.105134],[24.925779,42.105459],[24.925832,42.105503],[24.925784,42.105523],[24.925904,42.105637],[24.926147,42.106003],[24.926313,42.106309],[24.926396,42.10635],[24.926755,42.107506],[24.92727,42.109042],[24.927494,42.109563],[24.927892,42.110837],[24.928529,42.110868],[24.928635,42.110655],[24.928856,42.110022],[24.929616,42.108898],[24.929628,42.108592],[24.929709,42.10848],[24.930079,42.108223],[24.930144,42.108057],[24.930191,42.107512],[24.930548,42.106961],[24.930638,42.106729],[24.930688,42.106534],[24.930625,42.106387],[24.930485,42.106268],[24.929975,42.10614],[24.929782,42.106063],[24.929596,42.106009],[24.929407,42.105908],[24.929104,42.105806],[24.928015,42.105522],[24.927684,42.105415],[24.92737,42.105283],[24.927049,42.104972],[24.926608,42.10466],[24.926461,42.104352],[24.926354,42.104042],[24.926634,42.103885],[24.926124,42.103211],[24.925977,42.103158],[24.92601,42.103631],[24.92627,42.104039],[24.926155,42.104071],[24.925936,42.10374],[24.925876,42.102169],[24.92573,42.100115]]]},"properties":{"cadreg":17}},{"type":"Feature","geometry":{"type":"Polygon","coordinates":[[[24.935077,42.103851],[24.934348,42.104237],[24.933904,42.104423],[24.933762,42.104502],[24.93356,42.10468],[24.933217,42.104894],[24.930966,42.105151],[24.929626,42.105229],[24.929337,42.105206],[24.929109,42.105149],[24.928214,42.104869],[24.927543,42.104462],[24.927077,42.104223],[24.926813,42.104058],[24.926634,42.103885],[24.926354,42.104042],[24.926461,42.104352],[24.926608,42.10466],[24.927049,42.104972],[24.92737,42.105283],[24.927684,42.105415],[24.928015,42.105522],[24.929104,42.105806],[24.929407,42.105908],[24.929596,42.106009],[24.929782,42.106063],[24.929975,42.10614],[24.930485,42.106268],[24.930625,42.106387],[24.930688,42.106534],[24.930638,42.106729],[24.930548,42.106961],[24.930191,42.107512],[24.93048,42.107259],[24.930783,42.107112],[24.931302,42.106991],[24.931495,42.10691],[24.93188,42.106585],[24.932491,42.106263],[24.933052,42.105912],[24.933475,42.105824],[24.934082,42.105822],[24.934414,42.105856],[24.935237,42.105804],[24.935779,42.105665],[24.936376,42.105484],[24.936707,42.105352],[24.937084,42.10523],[24.93877,42.104773],[24.940195,42.104359],[24.943624,42.103426],[24.944272,42.103162],[24.946475,42.102998],[24.945885,42.101858],[24.945714,42.101899],[24.945036,42.101945],[24.944672,42.101989],[24.944334,42.102052],[24.94328,42.102059],[24.943085,42.102083],[24.942384,42.102289],[24.941764,42.102495],[24.941214,42.1026],[24.939688,42.103009],[24.939314,42.103044],[24.938991,42.103055],[24.937873,42.103256],[24.937558,42.103361],[24.937488,42.103342],[24.937384,42.103232],[24.937308,42.103222],[24.937224,42.103266],[24.937038,42.103268],[24.936468,42.103216],[24.93606,42.103229],[24.935784,42.103255],[24.935565,42.103349],[24.935392,42.103494],[24.935301,42.103648],[24.935363,42.103665],[24.935077,42.103851]]]},"properties":{"cadreg":18}},{"type":"Feature","geometry":{"type":"Polygon","coordinates":[[[24.926084,42.103106],[24.925974,42.103115],[24.925977,42.103158],[24.926124,42.103211],[24.926599,42.103847],[24.926813,42.104058],[24.927077,42.104223],[24.927543,42.104462],[24.928214,42.104869],[24.929109,42.105149],[24.929337,42.105206],[24.929626,42.105229],[24.930966,42.105151],[24.933217,42.104894],[24.93356,42.10468],[24.933762,42.104502],[24.933904,42.104423],[24.934348,42.104237],[24.935077,42.103851],[24.935363,42.103665],[24.935301,42.103648],[24.935392,42.103494],[24.935565,42.103349],[24.935784,42.103255],[24.93606,42.103229],[24.936468,42.103216],[24.937038,42.103268],[24.937224,42.103266],[24.937308,42.103222],[24.937384,42.103232],[24.937488,42.103342],[24.937558,42.103361],[24.937873,42.103256],[24.938991,42.103055],[24.939314,42.103044],[24.939688,42.103009],[24.941214,42.1026],[24.941764,42.102495],[24.942384,42.102289],[24.943085,42.102083],[24.94328,42.102059],[24.944334,42.102052],[24.944672,42.101989],[24.945036,42.101945],[24.945714,42.101899],[24.945885,42.101858],[24.945897,42.101704],[24.945644,42.101195],[24.945483,42.10061],[24.945187,42.099916],[24.944369,42.097828],[24.943876,42.096692],[24.943586,42.095193],[24.943538,42.095199],[24.943822,42.096681],[24.944148,42.097428],[24.938713,42.099099],[24.934512,42.100421],[24.930118,42.101846],[24.926084,42.103106]]]},"properties":{"cadreg":19}},{"type":"Feature","geometry":{"type":"Polygon","coordinates":[[[24.92614,42.098043],[24.926166,42.099315],[24.926123,42.099712],[24.92583,42.100111],[24.92596,42.102169],[24.925974,42.103115],[24.926119,42.103104],[24.926499,42.102968],[24.930118,42.101846],[24.934512,42.100421],[24.938713,42.099099],[24.944148,42.097428],[24.943822,42.096681],[24.943538,42.095199],[24.943586,42.095193],[24.943583,42.095176],[24.943081,42.09524],[24.930046,42.0974],[24.926116,42.098028],[24.92614,42.098043]]]},"properties":{"cadreg":20}},{"type":"Feature","geometry":{"type":"Polygon","coordinates":[[[24.894844,42.124262],[24.894845,42.12597],[24.894786,42.126218],[24.894398,42.12743],[24.894887,42.12743],[24.894904,42.12797],[24.895061,42.127959],[24.895899,42.12765],[24.896422,42.127413],[24.896706,42.127265],[24.897641,42.126708],[24.898083,42.126327],[24.898319,42.126207],[24.89849,42.126172],[24.894844,42.124262]]]},"properties":{"cadreg":21}},{"type":"Feature","geometry":{"type":"Polygon","coordinates":[[[24.894748,42.125965],[24.894745,42.121043],[24.894704,42.116468],[24.895165,42.115286],[24.895638,42.113978],[24.896583,42.111602],[24.897274,42.109794],[24.897446,42.109294],[24.897515,42.109171],[24.89761,42.10911],[24.896251,42.108419],[24.896016,42.10818],[24.8955,42.107825],[24.894888,42.10831],[24.894232,42.108868],[24.892433,42.110454],[24.892403,42.110452],[24.89226,42.111329],[24.892138,42.111859],[24.892054,42.112081],[24.891977,42.112196],[24.892011,42.112552],[24.892001,42.112739],[24.891841,42.113444],[24.891898,42.113799],[24.892061,42.114157],[24.892156,42.114886],[24.892168,42.115377],[24.89225,42.11573],[24.892427,42.116018],[24.892606,42.117281],[24.893068,42.120824],[24.893004,42.120874],[24.892894,42.1211],[24.892872,42.121287],[24.892929,42.12159],[24.89303,42.121886],[24.89339,42.122445],[24.893425,42.122552],[24.893597,42.12332],[24.894232,42.126528],[24.894283,42.12768],[24.894099,42.128318],[24.894178,42.128401],[24.894219,42.128537],[24.894609,42.12836],[24.896469,42.127602],[24.897075,42.127274],[24.897948,42.126669],[24.898278,42.126481],[24.898431,42.126452],[24.898755,42.126468],[24.898973,42.126507],[24.90037,42.126893],[24.900712,42.126908],[24.901372,42.12684],[24.901618,42.126768],[24.902041,42.126602],[24.903892,42.125778],[24.904368,42.125538],[24.905975,42.124564],[24.906168,42.124471],[24.907086,42.124318],[24.907963,42.124106],[24.908451,42.124082],[24.908804,42.124087],[24.909139,42.124122],[24.90976,42.124255],[24.909765,42.121036],[24.909694,42.121005],[24.908139,42.122916],[24.907266,42.123955],[24.906626,42.123985],[24.906057,42.124062],[24.904949,42.124804],[24.904039,42.125445],[24.903099,42.125895],[24.902711,42.126056],[24.902354,42.126184],[24.901656,42.126376],[24.901723,42.1264],[24.901626,42.126473],[24.901466,42.126561],[24.901271,42.126628],[24.900746,42.126714],[24.900431,42.126686],[24.8999,42.126571],[24.898796,42.126284],[24.898596,42.126224],[24.89849,42.126172],[24.898319,42.126207],[24.898083,42.126327],[24.897641,42.126708],[24.896706,42.127265],[24.896422,42.127413],[24.895899,42.12765],[24.895061,42.127959],[24.894904,42.12797],[24.894887,42.12743],[24.894398,42.12743],[24.894307,42.127631],[24.894295,42.12751],[24.894398,42.12708],[24.894691,42.126208],[24.894748,42.125965]]]},"properties":{"cadreg":22}},{"type":"Feature","geometry":{"type":"MultiPolygon","coordinates":[[[[24.901446,42.107191],[24.900008,42.106322],[24.899444,42.106007],[24.898569,42.106382],[24.896262,42.107474],[24.895968,42.107558],[24.895666,42.107707],[24.895693,42.107757],[24.896425,42.108187],[24.896871,42.108473],[24.8974,42.108765],[24.897815,42.109049],[24.897876,42.108946],[24.89871,42.108517],[24.899925,42.107896],[24.901207,42.107314],[24.901446,42.107191]]],[[[24.899836,42.105838],[24.900886,42.106365],[24.901002,42.106404],[24.901766,42.106867],[24.901892,42.10696],[24.905022,42.105366],[24.905562,42.105075],[24.90703,42.104364],[24.907011,42.104347],[24.905513,42.105064],[24.904559,42.104218],[24.908996,42.102495],[24.909247,42.103498],[24.91055,42.10335],[24.910579,42.103632],[24.910913,42.103349],[24.911047,42.103305],[24.913143,42.103212],[24.912904,42.103168],[24.90979,42.101814],[24.907747,42.102507],[24.906071,42.103137],[24.905087,42.103478],[24.903631,42.104102],[24.90111,42.105291],[24.899836,42.105838]]]]},"properties":{"cadreg":23}},{"type":"Feature","geometry":{"type":"Polygon","coordinates":[[[24.91335,42.103233],[24.913143,42.103212],[24.912861,42.103219],[24.911047,42.103305],[24.910913,42.103349],[24.910047,42.104107],[24.909955,42.104117],[24.910015,42.10426],[24.910173,42.104223],[24.910413,42.105065],[24.910739,42.105979],[24.9114,42.105848],[24.911364,42.105545],[24.911719,42.105477],[24.911568,42.104825],[24.913202,42.104551],[24.913095,42.104016],[24.913174,42.104013],[24.913171,42.103859],[24.913644,42.103848],[24.913672,42.103824],[24.913703,42.103291],[24.913298,42.103263],[24.91335,42.103233]]]},"properties":{"cadreg":24}},{"type":"Feature","geometry":{"type":"Polygon","coordinates":[[[24.925689,42.10554],[24.920883,42.106769],[24.919563,42.106854],[24.921085,42.10689],[24.92428,42.106],[24.925711,42.105584],[24.925689,42.10554]]]},"properties":{"cadreg":25}},{"type":"Feature","geometry":{"type":"Polygon","coordinates":[[[24.906038,42.110758],[24.913278,42.117676],[24.913509,42.117449],[24.9063,42.11051],[24.905538,42.109807],[24.904866,42.109216],[24.904034,42.108544],[24.903079,42.107833],[24.902661,42.107496],[24.902112,42.10713],[24.901766,42.106867],[24.901099,42.106461],[24.901002,42.106404],[24.900886,42.106365],[24.900267,42.106065],[24.899836,42.105838],[24.899444,42.106007],[24.900008,42.106322],[24.90114,42.106999],[24.902783,42.108063],[24.903644,42.108696],[24.904469,42.109356],[24.90535,42.110116],[24.906038,42.110758]]]},"properties":{"cadreg":200}}]}