{"type":"FeatureCollection","features":[{"type":"Feature","geometry":{"type":"Polygon","coordinates":[[[24.777255,42.25421],[24.78742,42.260867],[24.789116,42.258525],[24.790152,42.255529],[24.789193,42.251997],[24.788841,42.250828],[24.789515,42.248658],[24.789416,42.248654],[24.789354,42.248596],[24.78895,42.248496],[24.784715,42.250624],[24.777255,42.25421]]]},"properties":{"cadreg":1}},{"type":"Feature","geometry":{"type":"Polygon","coordinates":[[[24.789644,42.257911],[24.799051,42.255397],[24.797069,42.249533],[24.797486,42.249422],[24.798026,42.249238],[24.79827,42.249124],[24.798362,42.249065],[24.800754,42.248066],[24.801472,42.24775],[24.801937,42.247528],[24.802315,42.247264],[24.802824,42.246961],[24.804041,42.246124],[24.804178,42.246018],[24.80416,42.245945],[24.804773,42.245525],[24.805166,42.245196],[24.805321,42.244992],[24.805809,42.244136],[24.805871,42.243927],[24.806546,42.240255],[24.806389,42.240258],[24.806359,42.240356],[24.806214,42.241295],[24.806104,42.241759],[24.806075,42.242026],[24.805928,42.242792],[24.805853,42.243645],[24.805765,42.244036],[24.805601,42.244341],[24.805414,42.244611],[24.805246,42.244973],[24.805067,42.245184],[24.804886,42.245365],[24.804599,42.245579],[24.804312,42.245763],[24.803793,42.246134],[24.803504,42.246313],[24.802961,42.246697],[24.80239,42.247043],[24.801728,42.247486],[24.80105,42.247791],[24.800249,42.248118],[24.799704,42.24838],[24.798638,42.248811],[24.79753,42.249224],[24.797162,42.249303],[24.796503,42.249494],[24.796313,42.249563],[24.796047,42.249709],[24.795687,42.250029],[24.794894,42.250594],[24.794471,42.250954],[24.793982,42.251249],[24.793799,42.251459],[24.793519,42.251695],[24.793091,42.252019],[24.792752,42.252239],[24.792595,42.25232],[24.792362,42.252503],[24.792146,42.252615],[24.791631,42.252923],[24.79123,42.253105],[24.791107,42.253181],[24.790973,42.253334],[24.790152,42.255529],[24.789116,42.258525],[24.78742,42.260867],[24.787586,42.260982],[24.789644,42.257911]]]},"properties":{"cadreg":2}},{"type":"Feature","geometry":{"type":"Polygon","coordinates":[[[24.796123,42.247272],[24.792914,42.247867],[24.792916,42.247885],[24.79284,42.24791],[24.789744,42.248508],[24.789513,42.248411],[24.789501,42.248391],[24.789517,42.248287],[24.789485,42.248236],[24.789438,42.248226],[24.789372,42.248237],[24.789267,42.248321],[24.789224,42.248393],[24.78895,42.248496],[24.789354,42.248596],[24.789416,42.248654],[24.789515,42.248658],[24.788841,42.250828],[24.789193,42.251997],[24.790152,42.255529],[24.790973,42.253334],[24.791107,42.253181],[24.79123,42.253105],[24.791631,42.252923],[24.792146,42.252615],[24.792362,42.252503],[24.792595,42.25232],[24.792752,42.252239],[24.793091,42.252019],[24.793519,42.251695],[24.793799,42.251459],[24.793982,42.251249],[24.794471,42.250954],[24.794894,42.250594],[24.795687,42.250029],[24.796047,42.249709],[24.796313,42.249563],[24.797037,42.249338],[24.796405,42.247333],[24.804032,42.245966],[24.804312,42.245763],[24.804127,42.24578],[24.800497,42.246343],[24.796137,42.2473],[24.796123,42.247272]]]},"properties":{"cadreg":3}},{"type":"Feature","geometry":{"type":"Polygon","coordinates":[[[24.804178,42.246018],[24.802824,42.246961],[24.802315,42.247264],[24.801937,42.247528],[24.801472,42.24775],[24.800111,42.248338],[24.79952,42.248573],[24.798892,42.248853],[24.798362,42.249065],[24.79827,42.249124],[24.798026,42.249238],[24.797486,42.249422],[24.797069,42.249533],[24.799051,42.255397],[24.806434,42.253331],[24.805938,42.251581],[24.804178,42.246018]]]},"properties":{"cadreg":4}},{"type":"Feature","geometry":{"type":"Polygon","coordinates":[[[24.796405,42.247333],[24.797037,42.249338],[24.79753,42.249224],[24.798638,42.248811],[24.799704,42.24838],[24.800249,42.248118],[24.801554,42.24757],[24.801728,42.247486],[24.80239,42.247043],[24.802961,42.246697],[24.803504,42.246313],[24.804032,42.245966],[24.796405,42.247333]]]},"properties":{"cadreg":5}},{"type":"Feature","geometry":{"type":"Polygon","coordinates":[[[24.798024,42.240447],[24.798201,42.241978],[24.798244,42.241999],[24.799789,42.24188],[24.800463,42.243944],[24.800497,42.246343],[24.804127,42.24578],[24.804312,42.245763],[24.804599,42.245579],[24.804886,42.245365],[24.805067,42.245184],[24.805246,42.244973],[24.805414,42.244611],[24.805601,42.244341],[24.805765,42.244036],[24.805853,42.243645],[24.805928,42.242792],[24.806075,42.242026],[24.806104,42.241759],[24.806214,42.241295],[24.806359,42.240356],[24.806389,42.240258],[24.806546,42.240255],[24.80657,42.24012],[24.798099,42.240405],[24.79807,42.240443],[24.798024,42.240447]]]},"properties":{"cadreg":6}},{"type":"Feature","geometry":{"type":"Polygon","coordinates":[[[24.805879,42.23433],[24.805544,42.233307],[24.797806,42.235983],[24.798026,42.236924],[24.798248,42.236946],[24.798024,42.240447],[24.79807,42.240443],[24.798099,42.240405],[24.80657,42.24012],[24.807022,42.23762],[24.806484,42.237296],[24.805879,42.23433]]]},"properties":{"cadreg":7}},{"type":"Feature","geometry":{"type":"Polygon","coordinates":[[[24.80456,42.230186],[24.796978,42.232703],[24.797806,42.235983],[24.805544,42.233307],[24.80456,42.230186]]]},"properties":{"cadreg":8}},{"type":"Feature","geometry":{"type":"Polygon","coordinates":[[[24.796212,42.229791],[24.786369,42.233224],[24.786166,42.233249],[24.786936,42.234872],[24.787195,42.235099],[24.789267,42.237551],[24.788921,42.237071],[24.789137,42.237105],[24.789417,42.237492],[24.791137,42.236819],[24.791205,42.236809],[24.791303,42.236831],[24.792326,42.237449],[24.792421,42.237355],[24.792532,42.237421],[24.794149,42.235938],[24.795989,42.237037],[24.796357,42.237242],[24.796794,42.236857],[24.796959,42.236941],[24.797037,42.23691],[24.798026,42.236924],[24.797806,42.235983],[24.796978,42.232703],[24.796212,42.229791]]]},"properties":{"cadreg":9}},{"type":"Feature","geometry":{"type":"Polygon","coordinates":[[[24.793867,42.241827],[24.792284,42.243336],[24.792279,42.243357],[24.792419,42.245007],[24.792392,42.245019],[24.789529,42.248228],[24.789501,42.248391],[24.789513,42.248411],[24.789699,42.248496],[24.789744,42.248508],[24.79284,42.24791],[24.792916,42.247885],[24.792914,42.247867],[24.796123,42.247272],[24.794961,42.243966],[24.79495,42.243857],[24.794965,42.243722],[24.795318,42.242461],[24.795324,42.242387],[24.795271,42.242208],[24.794958,42.241719],[24.793867,42.241827]]]},"properties":{"cadreg":10}},{"type":"Feature","geometry":{"type":"Polygon","coordinates":[[[24.775897,42.241342],[24.781174,42.24018],[24.781702,42.240122],[24.782324,42.240103],[24.783389,42.240143],[24.786503,42.240063],[24.786713,42.238736],[24.786966,42.237341],[24.787198,42.235803],[24.787072,42.2354],[24.786041,42.233366],[24.786198,42.233325],[24.786166,42.233249],[24.776095,42.235813],[24.775742,42.237989],[24.775112,42.241564],[24.775897,42.241342]]]},"properties":{"cadreg":11}},{"type":"Feature","geometry":{"type":"Polygon","coordinates":[[[24.775112,42.241564],[24.774761,42.243835],[24.774831,42.243818],[24.774818,42.2439],[24.786793,42.240897],[24.786503,42.240063],[24.783389,42.240143],[24.782324,42.240103],[24.781702,42.240122],[24.781174,42.24018],[24.775897,42.241342],[24.775112,42.241564]]]},"properties":{"cadreg":12}},{"type":"Feature","geometry":{"type":"Polygon","coordinates":[[[24.774818,42.2439],[24.774831,42.243818],[24.774761,42.243835],[24.775051,42.241922],[24.775742,42.237989],[24.776095,42.235813],[24.779071,42.235051],[24.778894,42.234993],[24.775991,42.235748],[24.775927,42.235783],[24.775874,42.235893],[24.773978,42.248237],[24.774011,42.248237],[24.773971,42.248544],[24.773718,42.250167],[24.773611,42.250282],[24.773221,42.251393],[24.773272,42.251501],[24.773362,42.251594],[24.777255,42.25421],[24.777327,42.254175],[24.777243,42.254131],[24.776062,42.253325],[24.776101,42.253292],[24.773745,42.251732],[24.773393,42.251464],[24.773372,42.251404],[24.773728,42.250338],[24.773839,42.250256],[24.773846,42.250223],[24.785857,42.248112],[24.786048,42.248091],[24.786748,42.244054],[24.787281,42.241913],[24.787271,42.241728],[24.787221,42.241505],[24.786618,42.240042],[24.786723,42.240023],[24.787035,42.238082],[24.787211,42.237346],[24.787393,42.23586],[24.787391,42.235781],[24.786936,42.234872],[24.786198,42.233325],[24.786041,42.233366],[24.787072,42.2354],[24.787198,42.235803],[24.786966,42.237341],[24.786713,42.238736],[24.786503,42.240063],[24.786793,42.240897],[24.774818,42.2439]]]},"properties":{"cadreg":13}},{"type":"Feature","geometry":{"type":"Polygon","coordinates":[[[24.791222,42.240992],[24.787375,42.241876],[24.787221,42.241505],[24.787271,42.241728],[24.787281,42.241913],[24.786748,42.244054],[24.786048,42.248091],[24.78919,42.248407],[24.789224,42.248393],[24.789267,42.248321],[24.789372,42.248237],[24.789438,42.248226],[24.789485,42.248236],[24.789517,42.248287],[24.789529,42.248228],[24.792392,42.245019],[24.792419,42.245007],[24.79233,42.244061],[24.792284,42.243336],[24.793867,42.241827],[24.791451,42.242067],[24.791222,42.240992]]]},"properties":{"cadreg":14}},{"type":"Feature","geometry":{"type":"Polygon","coordinates":[[[24.773846,42.250223],[24.773839,42.250256],[24.773728,42.250338],[24.773372,42.251404],[24.773393,42.251464],[24.773745,42.251732],[24.776101,42.253292],[24.776062,42.253325],[24.777243,42.254131],[24.777327,42.254175],[24.784715,42.250624],[24.78895,42.248496],[24.78919,42.248407],[24.786127,42.248097],[24.786048,42.248091],[24.785857,42.248112],[24.773846,42.250223]]]},"properties":{"cadreg":15}},{"type":"Feature","geometry":{"type":"Polygon","coordinates":[[[24.786936,42.234872],[24.787391,42.235781],[24.787393,42.23586],[24.787211,42.237346],[24.787035,42.238082],[24.786723,42.240023],[24.788361,42.239735],[24.78806,42.23879],[24.788422,42.238731],[24.788283,42.238305],[24.789342,42.237697],[24.789336,42.237673],[24.789354,42.237663],[24.787195,42.235099],[24.786936,42.234872]]]},"properties":{"cadreg":16}},{"type":"Feature","geometry":{"type":"Polygon","coordinates":[[[24.789342,42.237697],[24.788283,42.238305],[24.788422,42.238731],[24.78806,42.23879],[24.788361,42.239735],[24.786618,42.240042],[24.787375,42.241876],[24.791222,42.240992],[24.791451,42.242067],[24.794958,42.241719],[24.795271,42.242208],[24.795324,42.242387],[24.795318,42.242461],[24.794965,42.243722],[24.79495,42.243857],[24.794961,42.243966],[24.796134,42.247301],[24.800497,42.246343],[24.800463,42.243944],[24.799789,42.24188],[24.798244,42.241999],[24.798201,42.241978],[24.798019,42.240392],[24.798248,42.236946],[24.798125,42.236925],[24.797037,42.23691],[24.796959,42.236941],[24.796794,42.236857],[24.796357,42.237242],[24.795989,42.237037],[24.794149,42.235938],[24.792532,42.237421],[24.792421,42.237355],[24.792326,42.237449],[24.791303,42.236831],[24.791239,42.236812],[24.791171,42.236812],[24.789417,42.237492],[24.789137,42.237105],[24.788921,42.237071],[24.789354,42.237663],[24.789336,42.237673],[24.789342,42.237697]]]},"properties":{"cadreg":501}}]}