{"type":"FeatureCollection","features":[{"type":"Feature","geometry":{"type":"Polygon","coordinates":[[[24.822808,42.088277],[24.821549,42.090023],[24.821652,42.090068],[24.821596,42.090141],[24.821595,42.091584],[24.82163,42.092079],[24.821662,42.093119],[24.821747,42.093116],[24.821749,42.093207],[24.822395,42.093254],[24.822575,42.093181],[24.822699,42.093162],[24.823099,42.093166],[24.823148,42.093214],[24.822698,42.093211],[24.822539,42.093282],[24.822543,42.093334],[24.822817,42.093323],[24.823203,42.093269],[24.823291,42.093337],[24.824257,42.093006],[24.824793,42.092714],[24.825245,42.092305],[24.825144,42.092246],[24.825532,42.091912],[24.825805,42.091482],[24.827475,42.088293],[24.827387,42.088274],[24.828233,42.086564],[24.828304,42.086457],[24.82586,42.086385],[24.82504,42.08745],[24.825503,42.087394],[24.825592,42.0878],[24.824736,42.08784],[24.82421,42.088548],[24.823151,42.088392],[24.822808,42.088277]],[[24.824581,42.090526],[24.824669,42.09037],[24.824595,42.090501],[24.824581,42.090526]]]},"properties":{"cadreg":100}},{"type":"Feature","geometry":{"type":"MultiPolygon","coordinates":[[[[24.807341,42.106805],[24.803075,42.108132],[24.807567,42.116143],[24.809011,42.118977],[24.809217,42.119147],[24.810292,42.122128],[24.812701,42.12159],[24.813287,42.121475],[24.812809,42.120292],[24.810247,42.113665],[24.81008,42.113081],[24.809931,42.112978],[24.807948,42.107724],[24.807847,42.106824],[24.807341,42.106805]]],[[[24.815485,42.094767],[24.815458,42.09417],[24.815227,42.093733],[24.814323,42.09371],[24.813568,42.093811],[24.813112,42.093814],[24.813124,42.094299],[24.813278,42.095294],[24.813194,42.095478],[24.812839,42.095985],[24.813008,42.09618],[24.813283,42.096103],[24.813962,42.096117],[24.814021,42.096279],[24.813886,42.096323],[24.813918,42.096432],[24.813466,42.096588],[24.81324,42.096461],[24.814353,42.097811],[24.814395,42.097765],[24.814447,42.09779],[24.814133,42.098152],[24.814174,42.098171],[24.814107,42.098251],[24.814423,42.098403],[24.813687,42.099263],[24.813504,42.099365],[24.813441,42.099441],[24.813978,42.099347],[24.814952,42.099425],[24.816222,42.099074],[24.817443,42.098886],[24.81717,42.098549],[24.816182,42.098908],[24.815402,42.097771],[24.815311,42.097511],[24.81553,42.096396],[24.815514,42.094818],[24.814532,42.094917],[24.814523,42.094863],[24.815485,42.094767]]]]},"properties":{"cadreg":10}},{"type":"Feature","geometry":{"type":"Polygon","coordinates":[[[24.833549,42.076265],[24.831808,42.080026],[24.830723,42.082064],[24.829651,42.082472],[24.829635,42.082509],[24.830222,42.08281],[24.828304,42.086457],[24.828233,42.086564],[24.827387,42.088274],[24.827475,42.088293],[24.825755,42.091571],[24.825532,42.091912],[24.825144,42.092246],[24.825245,42.092305],[24.824793,42.092714],[24.824257,42.093006],[24.823529,42.093262],[24.823635,42.093459],[24.82431,42.093567],[24.826011,42.093977],[24.827544,42.094322],[24.827807,42.094412],[24.828176,42.094474],[24.828422,42.09456],[24.829537,42.094839],[24.832957,42.095842],[24.834313,42.093102],[24.836688,42.088036],[24.838745,42.083715],[24.838931,42.083235],[24.840017,42.080946],[24.839235,42.08042],[24.839437,42.080302],[24.833549,42.076265]]]},"properties":{"cadreg":11}},{"type":"Feature","geometry":{"type":"Polygon","coordinates":[[[24.826773,42.079233],[24.826702,42.080967],[24.826731,42.082472],[24.826966,42.084679],[24.82586,42.086385],[24.828304,42.086457],[24.830222,42.08281],[24.829635,42.082509],[24.829651,42.082472],[24.830723,42.082064],[24.831808,42.080026],[24.83329,42.076847],[24.833,42.076511],[24.826737,42.079049],[24.826773,42.079233]]]},"properties":{"cadreg":12}},{"type":"Feature","geometry":{"type":"Polygon","coordinates":[[[24.826737,42.079049],[24.833,42.076511],[24.831164,42.075276],[24.823124,42.075044],[24.823176,42.075395],[24.823545,42.079549],[24.82505,42.079356],[24.826739,42.079078],[24.826737,42.079049]]]},"properties":{"cadreg":13}},{"type":"Feature","geometry":{"type":"Polygon","coordinates":[[[24.82157,42.075326],[24.814809,42.075118],[24.8167,42.082831],[24.81676,42.082822],[24.81692,42.083481],[24.817005,42.083752],[24.81696,42.083811],[24.817098,42.083838],[24.81709,42.083851],[24.817525,42.083945],[24.817589,42.083672],[24.817494,42.08324],[24.817438,42.082817],[24.817346,42.082521],[24.817362,42.082518],[24.817246,42.082184],[24.817926,42.082085],[24.81763,42.081182],[24.821868,42.080659],[24.821663,42.079775],[24.823545,42.079549],[24.823176,42.075395],[24.82157,42.075326]]]},"properties":{"cadreg":14}},{"type":"Feature","geometry":{"type":"Polygon","coordinates":[[[24.808761,42.086818],[24.808703,42.087232],[24.807953,42.087351],[24.808535,42.088284],[24.808946,42.089014],[24.809095,42.089499],[24.810035,42.089381],[24.811309,42.089176],[24.813223,42.088778],[24.813262,42.088581],[24.815599,42.087873],[24.815721,42.087821],[24.815796,42.087767],[24.817526,42.086078],[24.817712,42.08527],[24.817035,42.083952],[24.815347,42.083614],[24.812064,42.083052],[24.811978,42.083002],[24.811114,42.082837],[24.810669,42.082723],[24.810389,42.08292],[24.80986,42.083973],[24.809404,42.084067],[24.809307,42.084119],[24.809168,42.084337],[24.809143,42.084391],[24.809095,42.084984],[24.808761,42.086818]]]},"properties":{"cadreg":15}},{"type":"Feature","geometry":{"type":"Polygon","coordinates":[[[24.801608,42.084994],[24.801513,42.084966],[24.801243,42.089226],[24.801099,42.090139],[24.801115,42.090536],[24.801174,42.090675],[24.802579,42.092442],[24.80267,42.092611],[24.803193,42.094607],[24.803396,42.094976],[24.804096,42.095608],[24.803916,42.095795],[24.801507,42.097514],[24.801973,42.098043],[24.804589,42.096246],[24.804679,42.096211],[24.805707,42.095495],[24.806473,42.095013],[24.807307,42.094575],[24.808101,42.094229],[24.809272,42.093861],[24.810078,42.09369],[24.810284,42.093679],[24.811103,42.093566],[24.811836,42.093511],[24.811851,42.093423],[24.811643,42.09299],[24.811289,42.092498],[24.810914,42.092073],[24.810727,42.092103],[24.810405,42.091876],[24.810317,42.091711],[24.810059,42.091017],[24.809609,42.09075],[24.809086,42.090574],[24.808347,42.090162],[24.808136,42.089794],[24.808442,42.089653],[24.809958,42.089448],[24.809928,42.089395],[24.809095,42.089499],[24.808946,42.089014],[24.808535,42.088284],[24.807953,42.087351],[24.808703,42.087232],[24.808975,42.08558],[24.809095,42.084984],[24.809143,42.084391],[24.809307,42.084119],[24.809404,42.084067],[24.80986,42.083973],[24.810389,42.08292],[24.810669,42.082723],[24.81015,42.08259],[24.809555,42.083136],[24.809419,42.083212],[24.809344,42.083363],[24.809293,42.083521],[24.80928,42.083727],[24.809247,42.083882],[24.809165,42.084091],[24.808838,42.084285],[24.808092,42.085123],[24.807874,42.085572],[24.80752,42.085524],[24.806966,42.085367],[24.805328,42.085268],[24.804859,42.08526],[24.804757,42.085269],[24.804572,42.085313],[24.803487,42.084912],[24.803361,42.084886],[24.802125,42.085162],[24.801813,42.085177],[24.801608,42.084994]]]},"properties":{"cadreg":16}},{"type":"Feature","geometry":{"type":"Polygon","coordinates":[[[24.794593,42.089531],[24.801507,42.097514],[24.803916,42.095795],[24.804096,42.095608],[24.803396,42.094976],[24.803193,42.094607],[24.80267,42.092611],[24.802579,42.092442],[24.801174,42.090675],[24.801115,42.090536],[24.801099,42.090139],[24.801243,42.089226],[24.801527,42.084739],[24.801586,42.084357],[24.802316,42.081116],[24.802517,42.080969],[24.80269,42.080811],[24.803267,42.080696],[24.80512,42.080776],[24.80628,42.081179],[24.806825,42.081326],[24.806863,42.081269],[24.807231,42.081409],[24.807269,42.081343],[24.80347,42.079975],[24.802456,42.079796],[24.802409,42.079383],[24.803639,42.078123],[24.805586,42.076269],[24.8057,42.076335],[24.805973,42.076073],[24.805859,42.076007],[24.80707,42.074848],[24.806634,42.07482],[24.802678,42.078622],[24.800924,42.080524],[24.798694,42.083072],[24.794593,42.089531]]]},"properties":{"cadreg":17}},{"type":"Feature","geometry":{"type":"Polygon","coordinates":[[[24.803267,42.080696],[24.80269,42.080811],[24.802517,42.080969],[24.802316,42.081116],[24.801586,42.084357],[24.801527,42.084739],[24.801513,42.084966],[24.801608,42.084994],[24.801813,42.085177],[24.802125,42.085162],[24.803361,42.084886],[24.803487,42.084912],[24.804572,42.085313],[24.804757,42.085269],[24.804859,42.08526],[24.805328,42.085268],[24.806966,42.085367],[24.80752,42.085524],[24.807874,42.085572],[24.808092,42.085123],[24.808838,42.084285],[24.809165,42.084091],[24.809247,42.083882],[24.80928,42.083727],[24.809293,42.083521],[24.809344,42.083363],[24.809419,42.083212],[24.809555,42.083136],[24.81015,42.08259],[24.808756,42.082126],[24.807247,42.081514],[24.80512,42.080776],[24.803267,42.080696]]]},"properties":{"cadreg":18}},{"type":"Feature","geometry":{"type":"Polygon","coordinates":[[[24.805973,42.076073],[24.8057,42.076335],[24.805586,42.076269],[24.803639,42.078123],[24.8025,42.079286],[24.802409,42.079383],[24.802456,42.079796],[24.80347,42.079975],[24.807269,42.081343],[24.807231,42.081409],[24.806863,42.081269],[24.806825,42.081326],[24.80628,42.081179],[24.805659,42.080955],[24.805852,42.081033],[24.807247,42.081514],[24.808756,42.082126],[24.81015,42.08259],[24.811114,42.082837],[24.811978,42.083002],[24.812064,42.083052],[24.815347,42.083614],[24.817035,42.083952],[24.817098,42.083838],[24.81696,42.083811],[24.817005,42.083752],[24.81692,42.083481],[24.81676,42.082822],[24.8167,42.082831],[24.814809,42.075118],[24.808427,42.074936],[24.80707,42.074848],[24.805859,42.076007],[24.805973,42.076073]]]},"properties":{"cadreg":19}},{"type":"Feature","geometry":{"type":"Polygon","coordinates":[[[24.82247,42.069332],[24.823124,42.075044],[24.831272,42.07528],[24.82247,42.069332]]]},"properties":{"cadreg":20}},{"type":"Feature","geometry":{"type":"Polygon","coordinates":[[[24.817273,42.065287],[24.816976,42.065548],[24.818713,42.066775],[24.81931,42.067163],[24.820786,42.068194],[24.831272,42.07528],[24.831164,42.075276],[24.833,42.076511],[24.83329,42.076847],[24.8336,42.076149],[24.834029,42.075359],[24.834042,42.07536],[24.834949,42.073644],[24.824784,42.066513],[24.824171,42.066156],[24.824295,42.066061],[24.824708,42.066338],[24.82476,42.066291],[24.824582,42.066129],[24.824379,42.065986],[24.824245,42.065983],[24.824106,42.06609],[24.823074,42.066494],[24.822623,42.066693],[24.821764,42.066898],[24.821702,42.066897],[24.821192,42.066738],[24.821085,42.066733],[24.820257,42.067068],[24.820246,42.067025],[24.820293,42.06684],[24.820951,42.066427],[24.820794,42.06629],[24.820679,42.066295],[24.819899,42.06662],[24.819467,42.066614],[24.818188,42.065783],[24.817425,42.065336],[24.817273,42.065287]]]},"properties":{"cadreg":21}},{"type":"Feature","geometry":{"type":"Polygon","coordinates":[[[24.828467,42.063226],[24.827906,42.063693],[24.827867,42.063655],[24.824708,42.066338],[24.824295,42.066061],[24.824171,42.066156],[24.824784,42.066513],[24.834949,42.073644],[24.8356,42.072403],[24.835671,42.072422],[24.833938,42.070081],[24.834139,42.069359],[24.83292,42.068013],[24.830883,42.06581],[24.828467,42.063226]]]},"properties":{"cadreg":22}},{"type":"Feature","geometry":{"type":"Polygon","coordinates":[[[24.820761,42.061752],[24.817863,42.064623],[24.817809,42.064857],[24.817949,42.065057],[24.818228,42.065376],[24.818188,42.065783],[24.819467,42.066614],[24.819899,42.06662],[24.820679,42.066295],[24.820794,42.06629],[24.820951,42.066427],[24.820293,42.06684],[24.820246,42.067025],[24.820257,42.067068],[24.821085,42.066733],[24.821192,42.066738],[24.821702,42.066897],[24.821764,42.066898],[24.822623,42.066693],[24.823074,42.066494],[24.824106,42.06609],[24.824245,42.065983],[24.824379,42.065986],[24.824582,42.066129],[24.82476,42.066291],[24.827867,42.063655],[24.823775,42.059158],[24.823736,42.059196],[24.823574,42.059542],[24.82355,42.059977],[24.823584,42.060464],[24.823497,42.060661],[24.823301,42.060801],[24.822994,42.060872],[24.822535,42.060825],[24.822207,42.06107],[24.821977,42.061176],[24.821709,42.061256],[24.821407,42.061307],[24.821177,42.061389],[24.821034,42.061477],[24.821144,42.061541],[24.820864,42.061809],[24.820761,42.061752]]]},"properties":{"cadreg":23}},{"type":"Feature","geometry":{"type":"Polygon","coordinates":[[[24.813278,42.068858],[24.814809,42.075118],[24.82157,42.075326],[24.823176,42.075395],[24.82247,42.069332],[24.820786,42.068194],[24.81931,42.067163],[24.818713,42.066775],[24.816976,42.065548],[24.817273,42.065287],[24.817425,42.065336],[24.818188,42.065783],[24.818228,42.065376],[24.817949,42.065057],[24.817809,42.064857],[24.817863,42.064623],[24.820761,42.061752],[24.820864,42.061809],[24.821144,42.061541],[24.821034,42.061477],[24.821049,42.061463],[24.821177,42.061389],[24.821407,42.061307],[24.821709,42.061256],[24.821977,42.061176],[24.822207,42.06107],[24.822535,42.060825],[24.822994,42.060872],[24.823301,42.060801],[24.823497,42.060661],[24.823584,42.060464],[24.82355,42.059977],[24.823574,42.059542],[24.823736,42.059196],[24.823775,42.059158],[24.823441,42.058791],[24.820359,42.061679],[24.813282,42.068441],[24.813278,42.068858]]]},"properties":{"cadreg":24}},{"type":"Feature","geometry":{"type":"Polygon","coordinates":[[[24.813278,42.068858],[24.813282,42.068441],[24.812263,42.06935],[24.810044,42.071549],[24.806634,42.07482],[24.808427,42.074936],[24.814809,42.075118],[24.813278,42.068858]]]},"properties":{"cadreg":25}},{"type":"Feature","geometry":{"type":"Polygon","coordinates":[[[24.812809,42.120292],[24.813287,42.121475],[24.825002,42.118999],[24.825084,42.118969],[24.828468,42.112704],[24.828933,42.111181],[24.828435,42.107347],[24.828457,42.10718],[24.828739,42.106891],[24.829299,42.106492],[24.830093,42.105872],[24.830075,42.105819],[24.829515,42.106223],[24.829206,42.106406],[24.828411,42.106994],[24.828342,42.107168],[24.828317,42.107391],[24.828821,42.111055],[24.827823,42.11112],[24.827741,42.111135],[24.822075,42.111468],[24.817675,42.111687],[24.817216,42.11177],[24.813332,42.112314],[24.809931,42.112978],[24.81008,42.113081],[24.810247,42.113665],[24.812809,42.120292]]]},"properties":{"cadreg":30}},{"type":"Feature","geometry":{"type":"MultiPolygon","coordinates":[[[[24.828856,42.097481],[24.823275,42.098229],[24.827741,42.111135],[24.827823,42.11112],[24.828821,42.111055],[24.828317,42.107391],[24.828342,42.107168],[24.828411,42.106994],[24.829206,42.106406],[24.829515,42.106223],[24.830075,42.105819],[24.828927,42.102482],[24.830455,42.102195],[24.828856,42.097481]]],[[[24.811023,42.108512],[24.811191,42.108482],[24.810943,42.108397],[24.810983,42.108054],[24.810883,42.107658],[24.810718,42.107304],[24.810644,42.107307],[24.810621,42.107368],[24.810557,42.107187],[24.808087,42.107668],[24.808572,42.108976],[24.810832,42.108503],[24.811023,42.108512]]]]},"properties":{"cadreg":40}},{"type":"Feature","geometry":{"type":"Polygon","coordinates":[[[24.823275,42.098229],[24.816253,42.099157],[24.814981,42.099508],[24.813985,42.099433],[24.813544,42.099505],[24.81348,42.099522],[24.813405,42.099596],[24.813112,42.099929],[24.813026,42.100079],[24.813028,42.100215],[24.813181,42.100632],[24.811376,42.100992],[24.813237,42.100648],[24.817675,42.111687],[24.822075,42.111468],[24.827741,42.111135],[24.823275,42.098229]]]},"properties":{"cadreg":50}},{"type":"Feature","geometry":{"type":"Polygon","coordinates":[[[24.812839,42.095985],[24.812038,42.097106],[24.811667,42.097583],[24.810416,42.099296],[24.809986,42.099586],[24.807962,42.100379],[24.807994,42.100472],[24.807493,42.100673],[24.807312,42.100813],[24.807208,42.101061],[24.807272,42.101633],[24.807308,42.101644],[24.807271,42.101718],[24.807948,42.107724],[24.809931,42.112978],[24.813332,42.112314],[24.817216,42.11177],[24.817675,42.111687],[24.813237,42.100648],[24.811376,42.100992],[24.813181,42.100632],[24.813028,42.100215],[24.813026,42.100079],[24.813112,42.099929],[24.81348,42.099522],[24.813985,42.099433],[24.814981,42.099508],[24.816253,42.099157],[24.817512,42.098991],[24.817513,42.098936],[24.817468,42.098882],[24.816222,42.099074],[24.814952,42.099425],[24.813978,42.099347],[24.813441,42.099441],[24.813504,42.099365],[24.813687,42.099263],[24.814423,42.098403],[24.814107,42.098251],[24.814174,42.098171],[24.814133,42.098152],[24.814447,42.09779],[24.814395,42.097765],[24.814353,42.097811],[24.81324,42.096461],[24.813466,42.096588],[24.813918,42.096432],[24.813886,42.096323],[24.814021,42.096279],[24.813962,42.096117],[24.813283,42.096103],[24.813008,42.09618],[24.812839,42.095985]],[[24.810557,42.107187],[24.810621,42.107368],[24.810644,42.107307],[24.810718,42.107304],[24.810883,42.107658],[24.810983,42.108054],[24.810943,42.108397],[24.811191,42.108482],[24.811023,42.108512],[24.810832,42.108503],[24.808572,42.108976],[24.808087,42.107668],[24.810557,42.107187]]]},"properties":{"cadreg":60}},{"type":"Feature","geometry":{"type":"Polygon","coordinates":[[[24.802762,42.098123],[24.800344,42.099926],[24.799003,42.10087],[24.803075,42.108132],[24.807341,42.106805],[24.807847,42.106824],[24.807271,42.101718],[24.807308,42.101644],[24.807272,42.101633],[24.807208,42.101061],[24.807312,42.100813],[24.807493,42.100673],[24.807994,42.100472],[24.807962,42.100379],[24.809986,42.099586],[24.810416,42.099296],[24.811667,42.097583],[24.812038,42.097106],[24.813194,42.095478],[24.813278,42.095294],[24.813124,42.094299],[24.813112,42.093814],[24.813568,42.093811],[24.813689,42.093795],[24.813697,42.093627],[24.812926,42.093641],[24.812011,42.093709],[24.810151,42.093882],[24.809336,42.094101],[24.808063,42.094541],[24.80751,42.094766],[24.806868,42.095079],[24.805889,42.095717],[24.803854,42.097187],[24.802762,42.098123]]]},"properties":{"cadreg":70}},{"type":"Feature","geometry":{"type":"Polygon","coordinates":[[[24.814003,42.093204],[24.813978,42.092414],[24.813397,42.092426],[24.813184,42.092328],[24.812613,42.091971],[24.812446,42.091933],[24.811867,42.091748],[24.811524,42.091677],[24.81131,42.091572],[24.811037,42.091079],[24.810954,42.091074],[24.810396,42.090117],[24.809961,42.089559],[24.809958,42.089448],[24.808442,42.089653],[24.808136,42.089794],[24.808347,42.090162],[24.809086,42.090574],[24.809609,42.09075],[24.810059,42.091017],[24.810317,42.091711],[24.810405,42.091876],[24.810727,42.092103],[24.810914,42.092073],[24.811289,42.092498],[24.811643,42.09299],[24.811851,42.093423],[24.811836,42.093511],[24.812487,42.093476],[24.81285,42.093472],[24.812861,42.093496],[24.812916,42.093495],[24.812905,42.093471],[24.813936,42.093461],[24.8142,42.093297],[24.81442,42.093201],[24.814003,42.093204]]]},"properties":{"cadreg":77}},{"type":"Feature","geometry":{"type":"Polygon","coordinates":[[[24.813223,42.088778],[24.811465,42.089148],[24.809928,42.089395],[24.809958,42.089448],[24.809961,42.089559],[24.810396,42.090117],[24.810954,42.091074],[24.811037,42.091079],[24.81131,42.091572],[24.811524,42.091677],[24.811867,42.091748],[24.812446,42.091933],[24.812613,42.091971],[24.813184,42.092328],[24.813397,42.092426],[24.813978,42.092414],[24.813952,42.091405],[24.813647,42.091453],[24.813538,42.091085],[24.813492,42.09057],[24.81398,42.090543],[24.813935,42.08954],[24.814138,42.089287],[24.813223,42.088778]]]},"properties":{"cadreg":78}},{"type":"Feature","geometry":{"type":"Polygon","coordinates":[[[24.815458,42.09417],[24.815485,42.094767],[24.814523,42.094863],[24.814532,42.094917],[24.815514,42.094818],[24.81553,42.096396],[24.815313,42.097532],[24.815407,42.09778],[24.816182,42.098908],[24.81717,42.098549],[24.817443,42.098886],[24.817468,42.098882],[24.817233,42.098601],[24.816896,42.098107],[24.816441,42.097352],[24.81716,42.097102],[24.818299,42.09689],[24.820158,42.096125],[24.823064,42.095347],[24.82283,42.094984],[24.823767,42.094648],[24.824833,42.094312],[24.824705,42.094246],[24.824314,42.094156],[24.82367,42.09405],[24.82299,42.094011],[24.821487,42.093955],[24.821242,42.093928],[24.821242,42.093808],[24.820836,42.093793],[24.815767,42.093853],[24.815628,42.093871],[24.815524,42.093912],[24.81556,42.094168],[24.815458,42.09417]]]},"properties":{"cadreg":80}},{"type":"Feature","geometry":{"type":"Polygon","coordinates":[[[24.83233,42.096186],[24.831652,42.095908],[24.828856,42.095152],[24.827549,42.094882],[24.826366,42.094662],[24.824833,42.094312],[24.823767,42.094648],[24.82283,42.094984],[24.823064,42.095347],[24.820158,42.096125],[24.818299,42.09689],[24.81716,42.097102],[24.816441,42.097352],[24.816896,42.098107],[24.817233,42.098601],[24.817513,42.098936],[24.817512,42.098991],[24.828856,42.097481],[24.831286,42.097121],[24.832667,42.097035],[24.832667,42.096991],[24.832402,42.09625],[24.83233,42.096186]]]},"properties":{"cadreg":90}},{"type":"Feature","geometry":{"type":"Polygon","coordinates":[[[24.849807,42.060281],[24.843463,42.058473],[24.843337,42.058421],[24.835796,42.072595],[24.835591,42.07264],[24.835671,42.072422],[24.8356,42.072403],[24.833549,42.076265],[24.839437,42.080302],[24.841328,42.079171],[24.850654,42.078975],[24.85089,42.078619],[24.851747,42.078621],[24.852284,42.078302],[24.851871,42.077885],[24.852762,42.077049],[24.855647,42.074268],[24.858245,42.073644],[24.858119,42.073609],[24.860279,42.069242],[24.86096,42.066585],[24.859769,42.066229],[24.859344,42.065932],[24.863064,42.064138],[24.864005,42.062764],[24.860721,42.060851],[24.860625,42.060943],[24.859096,42.059992],[24.856435,42.058513],[24.855896,42.058528],[24.855141,42.058939],[24.853877,42.059923],[24.853617,42.060018],[24.853149,42.059907],[24.852819,42.060633],[24.852168,42.060982],[24.850845,42.060808],[24.849807,42.060281]]]},"properties":{"cadreg":250}},{"type":"Feature","geometry":{"type":"Polygon","coordinates":[[[24.86096,42.066585],[24.860279,42.069242],[24.858119,42.073609],[24.858245,42.073644],[24.855647,42.074268],[24.852762,42.077049],[24.851871,42.077885],[24.852284,42.078302],[24.851747,42.078621],[24.85089,42.078619],[24.850654,42.078975],[24.852808,42.078929],[24.855385,42.075939],[24.858081,42.076134],[24.859233,42.076408],[24.859508,42.076494],[24.860337,42.073606],[24.862177,42.073129],[24.864708,42.069282],[24.863698,42.066488],[24.86413,42.062836],[24.864005,42.062764],[24.863064,42.064138],[24.859344,42.065932],[24.859769,42.066229],[24.86096,42.066585]]]},"properties":{"cadreg":111}},{"type":"Feature","geometry":{"type":"Polygon","coordinates":[[[24.825819,42.086448],[24.824734,42.0876],[24.824227,42.088521],[24.824736,42.08784],[24.825592,42.0878],[24.825503,42.087394],[24.82504,42.08745],[24.825819,42.086448]]]},"properties":{"cadreg":120}},{"type":"Feature","geometry":{"type":"Polygon","coordinates":[[[24.818263,42.092919],[24.816541,42.093184],[24.81442,42.093201],[24.8142,42.093297],[24.813936,42.093461],[24.81327,42.093468],[24.813272,42.093487],[24.813692,42.093477],[24.813674,42.093531],[24.812957,42.093559],[24.813699,42.093553],[24.813689,42.093795],[24.814323,42.09371],[24.815227,42.093733],[24.815458,42.09417],[24.81556,42.094168],[24.815524,42.093912],[24.815628,42.093871],[24.815767,42.093853],[24.820836,42.093793],[24.821242,42.093808],[24.821242,42.093928],[24.821487,42.093955],[24.82299,42.094011],[24.82367,42.09405],[24.824314,42.094156],[24.824705,42.094246],[24.824833,42.094312],[24.826366,42.094662],[24.827549,42.094882],[24.828856,42.095152],[24.831652,42.095908],[24.832158,42.096108],[24.83233,42.096186],[24.832402,42.09625],[24.832667,42.096991],[24.832667,42.097035],[24.832791,42.097036],[24.832446,42.095916],[24.832866,42.096032],[24.832957,42.095842],[24.829537,42.094839],[24.828422,42.09456],[24.828176,42.094474],[24.827807,42.094412],[24.827544,42.094322],[24.826011,42.093977],[24.82431,42.093567],[24.823635,42.093459],[24.823529,42.093262],[24.823291,42.093337],[24.823203,42.093269],[24.822817,42.093323],[24.822543,42.093334],[24.822539,42.093282],[24.822698,42.093211],[24.823148,42.093214],[24.823099,42.093166],[24.822699,42.093162],[24.822575,42.093181],[24.822395,42.093254],[24.821749,42.093207],[24.821747,42.093116],[24.819362,42.093132],[24.819367,42.093321],[24.818277,42.093316],[24.818263,42.092919]]]},"properties":{"cadreg":200}},{"type":"Feature","geometry":{"type":"Polygon","coordinates":[[[24.812988,42.093639],[24.812916,42.093495],[24.812861,42.093496],[24.81285,42.093472],[24.812487,42.093476],[24.81139,42.09354],[24.810843,42.093595],[24.810284,42.093679],[24.810078,42.09369],[24.809272,42.093861],[24.808101,42.094229],[24.807307,42.094575],[24.806473,42.095013],[24.805707,42.095495],[24.804679,42.096211],[24.804589,42.096246],[24.801973,42.098043],[24.802145,42.098251],[24.798879,42.100653],[24.799003,42.10087],[24.800344,42.099926],[24.802297,42.098478],[24.802762,42.098123],[24.803854,42.097187],[24.805889,42.095717],[24.806868,42.095079],[24.80751,42.094766],[24.808063,42.094541],[24.809336,42.094101],[24.810151,42.093882],[24.812011,42.093709],[24.812988,42.093639]]]},"properties":{"cadreg":201}},{"type":"Feature","geometry":{"type":"Polygon","coordinates":[[[24.815675,42.087847],[24.813262,42.088581],[24.813223,42.088778],[24.814138,42.089287],[24.813935,42.08954],[24.81398,42.090543],[24.813492,42.09057],[24.813538,42.091085],[24.813647,42.091453],[24.813952,42.091405],[24.814003,42.093204],[24.816541,42.093184],[24.818263,42.092919],[24.818277,42.093316],[24.819367,42.093321],[24.819362,42.093132],[24.821662,42.093119],[24.82163,42.092079],[24.821595,42.091584],[24.821596,42.090141],[24.821652,42.090068],[24.821549,42.090023],[24.822808,42.088277],[24.823151,42.088392],[24.82421,42.088548],[24.824734,42.0876],[24.825819,42.086448],[24.826966,42.084679],[24.826731,42.082472],[24.826702,42.080967],[24.826773,42.079233],[24.826739,42.079078],[24.82505,42.079356],[24.821663,42.079775],[24.821868,42.080659],[24.81763,42.081182],[24.817926,42.082085],[24.817246,42.082184],[24.817362,42.082518],[24.817346,42.082521],[24.817438,42.082817],[24.817494,42.08324],[24.817589,42.083672],[24.817538,42.083917],[24.817525,42.083945],[24.81709,42.083851],[24.817035,42.083952],[24.817712,42.08527],[24.817526,42.086078],[24.815796,42.087767],[24.815675,42.087847]]]},"properties":{"cadreg":501}},{"type":"Feature","geometry":{"type":"Polygon","coordinates":[[[24.813697,42.093627],[24.813699,42.093553],[24.812957,42.093559],[24.813674,42.093531],[24.813692,42.093477],[24.813272,42.093487],[24.81327,42.093468],[24.812905,42.093471],[24.812988,42.093639],[24.813697,42.093627]]]},"properties":{"cadreg":202}}]}