{"type":"FeatureCollection","features":[{"type":"Feature","geometry":{"type":"Polygon","coordinates":[[[24.782962,42.040544],[24.783937,42.041915],[24.784818,42.041944],[24.784834,42.041768],[24.784876,42.041699],[24.785049,42.039358],[24.784982,42.039198],[24.784869,42.039143],[24.785296,42.038475],[24.78588,42.03874],[24.786081,42.038918],[24.78781,42.038712],[24.787859,42.038874],[24.78828,42.03902],[24.788482,42.03903],[24.788556,42.03906],[24.788993,42.039128],[24.789096,42.039025],[24.789333,42.039183],[24.789737,42.038847],[24.790353,42.038588],[24.791297,42.039911],[24.791453,42.039851],[24.79148,42.039892],[24.791469,42.039901],[24.791579,42.040058],[24.7916,42.040056],[24.791678,42.040163],[24.792335,42.040117],[24.792551,42.040057],[24.792925,42.03999],[24.793144,42.039878],[24.79591,42.038013],[24.795127,42.037326],[24.794097,42.038002],[24.793521,42.037466],[24.793228,42.037152],[24.792844,42.036698],[24.792371,42.036233],[24.792693,42.036028],[24.793028,42.035724],[24.793204,42.035452],[24.793663,42.034378],[24.793723,42.033657],[24.793916,42.033529],[24.793957,42.033567],[24.794223,42.033608],[24.794889,42.033055],[24.794761,42.032925],[24.795038,42.032865],[24.795365,42.032842],[24.795364,42.032582],[24.795662,42.032417],[24.795466,42.032201],[24.796896,42.031447],[24.796525,42.031034],[24.796367,42.031117],[24.796004,42.030794],[24.795958,42.030697],[24.795894,42.030651],[24.795692,42.03025],[24.796234,42.030093],[24.796236,42.029901],[24.796302,42.029724],[24.796403,42.029218],[24.796882,42.029654],[24.797042,42.02987],[24.797257,42.029845],[24.797254,42.029871],[24.797476,42.029837],[24.797618,42.029791],[24.797743,42.0297],[24.797643,42.029603],[24.797586,42.029635],[24.796849,42.028988],[24.797703,42.028809],[24.797778,42.028779],[24.798691,42.028824],[24.798783,42.028339],[24.798201,42.028268],[24.798226,42.02816],[24.797837,42.028027],[24.797763,42.028055],[24.797787,42.028079],[24.797575,42.028155],[24.797735,42.028349],[24.797693,42.028366],[24.797531,42.02818],[24.797444,42.028206],[24.797284,42.028043],[24.796968,42.02812],[24.79702,42.028492],[24.796691,42.028556],[24.796657,42.028578],[24.796605,42.028243],[24.796449,42.028308],[24.796092,42.028414],[24.795785,42.028569],[24.795254,42.028668],[24.795205,42.028579],[24.793286,42.029],[24.793378,42.029374],[24.793267,42.029403],[24.793177,42.029143],[24.79107,42.028454],[24.791224,42.028194],[24.790719,42.028069],[24.79069,42.028127],[24.790134,42.027994],[24.789482,42.028122],[24.789507,42.02818],[24.789092,42.028255],[24.789129,42.028417],[24.789028,42.028436],[24.788423,42.028384],[24.787916,42.028282],[24.787801,42.028369],[24.787394,42.028066],[24.78588,42.029207],[24.786049,42.029395],[24.785274,42.02949],[24.78532,42.029166],[24.784979,42.029203],[24.784633,42.028877],[24.784831,42.028756],[24.784831,42.028621],[24.784524,42.028316],[24.784448,42.028146],[24.783618,42.028342],[24.783754,42.028732],[24.783744,42.02893],[24.783934,42.029103],[24.783951,42.029648],[24.783654,42.029685],[24.783316,42.029766],[24.783103,42.029957],[24.783012,42.030011],[24.782475,42.029572],[24.782073,42.029811],[24.782113,42.029847],[24.781415,42.03018],[24.781433,42.030211],[24.781093,42.030368],[24.781199,42.03061],[24.781203,42.030844],[24.779476,42.031957],[24.779506,42.031978],[24.779316,42.032145],[24.780317,42.032891],[24.7804,42.033039],[24.780662,42.032973],[24.781281,42.034068],[24.781276,42.034385],[24.780688,42.034582],[24.780613,42.034234],[24.780458,42.033983],[24.779869,42.034157],[24.779648,42.033776],[24.779435,42.033467],[24.77927,42.033552],[24.779017,42.033305],[24.778627,42.033415],[24.778554,42.033451],[24.778495,42.033492],[24.778489,42.033529],[24.778138,42.03388],[24.77899,42.034255],[24.778858,42.034417],[24.77904,42.034515],[24.779205,42.034658],[24.779383,42.034918],[24.779588,42.03533],[24.77978,42.035456],[24.779329,42.035766],[24.779386,42.035809],[24.778548,42.036296],[24.778245,42.036704],[24.778067,42.037107],[24.777711,42.036999],[24.777548,42.036874],[24.777428,42.036908],[24.777467,42.036954],[24.776991,42.03711],[24.776721,42.037008],[24.776552,42.037163],[24.776507,42.037405],[24.775901,42.037338],[24.77584,42.037663],[24.775608,42.037602],[24.775232,42.037974],[24.775567,42.038161],[24.77583,42.038028],[24.775924,42.03813],[24.776088,42.03811],[24.776564,42.037969],[24.776841,42.038016],[24.777353,42.038191],[24.778052,42.038288],[24.77792,42.038849],[24.778,42.038863],[24.777933,42.039159],[24.776923,42.040528],[24.777717,42.04084],[24.77849,42.041237],[24.778551,42.041282],[24.779969,42.04182],[24.779843,42.042144],[24.77984,42.042328],[24.779886,42.042911],[24.780041,42.042908],[24.780036,42.042619],[24.780121,42.042614],[24.780134,42.041807],[24.780711,42.042044],[24.781181,42.041259],[24.781621,42.041049],[24.781678,42.041175],[24.781917,42.041129],[24.782962,42.040544]]]},"properties":{"cadreg":888}},{"type":"Feature","geometry":{"type":"Polygon","coordinates":[[[24.792089,42.078822],[24.794783,42.079779],[24.795057,42.079604],[24.795091,42.079495],[24.795208,42.079349],[24.79546,42.07926],[24.795823,42.079247],[24.796151,42.07929],[24.796674,42.079494],[24.797292,42.078555],[24.798957,42.079199],[24.799504,42.07926],[24.800058,42.07947],[24.800302,42.079679],[24.800751,42.079856],[24.801047,42.079926],[24.801269,42.079825],[24.801325,42.079762],[24.801349,42.079774],[24.801328,42.079797],[24.801438,42.079738],[24.801633,42.079569],[24.801908,42.079372],[24.802149,42.079104],[24.803434,42.077788],[24.804201,42.077055],[24.80395,42.076917],[24.804223,42.076655],[24.80447,42.076797],[24.808639,42.072809],[24.808417,42.072673],[24.808704,42.072398],[24.808935,42.072526],[24.812043,42.069534],[24.811954,42.069481],[24.812247,42.069198],[24.812337,42.069252],[24.81276,42.068871],[24.812745,42.068846],[24.820586,42.061373],[24.820602,42.061324],[24.821224,42.060734],[24.821225,42.060677],[24.821183,42.060623],[24.820321,42.060227],[24.81532,42.057316],[24.815294,42.057324],[24.815161,42.057247],[24.815185,42.057229],[24.815048,42.057166],[24.813891,42.0565],[24.810668,42.056826],[24.805919,42.061338],[24.805881,42.061316],[24.805424,42.061736],[24.805331,42.061797],[24.804826,42.062291],[24.80489,42.062392],[24.80429,42.062917],[24.803015,42.064108],[24.801461,42.06561],[24.801405,42.065602],[24.798438,42.068566],[24.797313,42.069647],[24.797303,42.06964],[24.797245,42.069693],[24.797177,42.069777],[24.794716,42.072136],[24.793894,42.07306],[24.793324,42.073896],[24.792918,42.074559],[24.792658,42.075146],[24.792513,42.075617],[24.791981,42.077582],[24.791805,42.0781],[24.79165,42.078703],[24.791883,42.078833],[24.792089,42.078822]]]},"properties":{"cadreg":1}},{"type":"Feature","geometry":{"type":"Polygon","coordinates":[[[24.784869,42.039143],[24.784982,42.039198],[24.785049,42.039358],[24.784876,42.041699],[24.784834,42.041768],[24.784818,42.041944],[24.783937,42.041915],[24.782962,42.040544],[24.781917,42.041129],[24.781678,42.041175],[24.781621,42.041049],[24.781181,42.041259],[24.780711,42.042044],[24.782249,42.042734],[24.782541,42.042273],[24.784465,42.043689],[24.78457,42.043741],[24.784784,42.043633],[24.784809,42.043651],[24.78561,42.04336],[24.785734,42.043343],[24.789638,42.041618],[24.79024,42.042346],[24.790174,42.042151],[24.790835,42.041934],[24.790868,42.041967],[24.792793,42.041119],[24.792086,42.040545],[24.791676,42.040304],[24.791678,42.040163],[24.7916,42.040056],[24.791579,42.040058],[24.791469,42.039901],[24.79148,42.039892],[24.791453,42.039851],[24.791297,42.039911],[24.790353,42.038588],[24.789737,42.038847],[24.789333,42.039183],[24.789096,42.039025],[24.788993,42.039128],[24.788556,42.03906],[24.788482,42.03903],[24.78828,42.03902],[24.787859,42.038874],[24.78781,42.038712],[24.786081,42.038918],[24.78588,42.03874],[24.785296,42.038475],[24.784869,42.039143]],[[24.791095,42.040512],[24.791024,42.040563],[24.790668,42.040819],[24.791095,42.040512]]]},"properties":{"cadreg":2}},{"type":"Feature","geometry":{"type":"Polygon","coordinates":[[[24.794333,42.072443],[24.786642,42.061898],[24.785099,42.063119],[24.784691,42.063469],[24.784448,42.063749],[24.787046,42.067308],[24.784989,42.06815],[24.789152,42.07378],[24.791986,42.077563],[24.792513,42.075617],[24.792658,42.075146],[24.792918,42.074559],[24.793324,42.073896],[24.793894,42.07306],[24.794201,42.072715],[24.79429,42.072496],[24.794333,42.072443]]]},"properties":{"cadreg":3}},{"type":"Feature","geometry":{"type":"Polygon","coordinates":[[[24.789091,42.060269],[24.788644,42.060437],[24.788404,42.060574],[24.786718,42.061886],[24.786701,42.061988],[24.794333,42.072443],[24.79429,42.072496],[24.794201,42.072715],[24.794716,42.072136],[24.797177,42.069777],[24.797245,42.069693],[24.797303,42.06964],[24.797313,42.069647],[24.798347,42.068653],[24.798302,42.068652],[24.791636,42.059675],[24.789091,42.060269]]]},"properties":{"cadreg":4}},{"type":"Feature","geometry":{"type":"Polygon","coordinates":[[[24.796811,42.05847],[24.791636,42.059675],[24.798302,42.068652],[24.798347,42.068653],[24.800766,42.066238],[24.801099,42.065922],[24.801405,42.065602],[24.801351,42.065576],[24.796811,42.05847]]]},"properties":{"cadreg":5}},{"type":"Feature","geometry":{"type":"Polygon","coordinates":[[[24.806285,42.055969],[24.796808,42.058438],[24.796824,42.0585],[24.801351,42.065576],[24.801461,42.06561],[24.803015,42.064108],[24.80429,42.062917],[24.80489,42.062392],[24.804826,42.062291],[24.805331,42.061797],[24.805424,42.061736],[24.805881,42.061316],[24.805919,42.061338],[24.810668,42.056826],[24.813875,42.056502],[24.812652,42.054397],[24.806285,42.055969]]]},"properties":{"cadreg":6}},{"type":"Feature","geometry":{"type":"Polygon","coordinates":[[[24.785549,42.053862],[24.784691,42.054386],[24.784709,42.054402],[24.784031,42.054822],[24.783236,42.055423],[24.782524,42.056317],[24.781816,42.055853],[24.780057,42.054881],[24.778927,42.054457],[24.778821,42.055154],[24.778751,42.055097],[24.778406,42.05693],[24.77812,42.057671],[24.780087,42.058568],[24.783061,42.060485],[24.784683,42.059151],[24.786618,42.061916],[24.786642,42.061898],[24.786701,42.061988],[24.786718,42.061886],[24.788404,42.060574],[24.788644,42.060437],[24.789091,42.060269],[24.796811,42.05847],[24.796784,42.058382],[24.796055,42.05721],[24.79447,42.05471],[24.792495,42.051691],[24.792258,42.051738],[24.791149,42.052066],[24.791019,42.052118],[24.78985,42.052396],[24.78736,42.053152],[24.786305,42.053671],[24.785549,42.053862]]]},"properties":{"cadreg":7}},{"type":"Feature","geometry":{"type":"Polygon","coordinates":[[[24.796105,42.050678],[24.79402,42.051183],[24.793565,42.051311],[24.792854,42.051582],[24.792754,42.051602],[24.792495,42.051691],[24.79447,42.05471],[24.796055,42.05721],[24.796808,42.058438],[24.806285,42.055969],[24.812652,42.054397],[24.812116,42.053631],[24.809399,42.050673],[24.807389,42.048613],[24.805665,42.046981],[24.805397,42.046784],[24.803598,42.047704],[24.799565,42.049294],[24.799356,42.049323],[24.796478,42.050563],[24.796105,42.050678]]]},"properties":{"cadreg":8}},{"type":"Feature","geometry":{"type":"Polygon","coordinates":[[[24.777669,42.045772],[24.775399,42.046456],[24.774999,42.046613],[24.774476,42.04687],[24.774127,42.047108],[24.773478,42.047693],[24.773055,42.048287],[24.772836,42.048911],[24.778751,42.055097],[24.778821,42.055154],[24.778927,42.054457],[24.780057,42.054881],[24.781816,42.055853],[24.782524,42.056317],[24.783236,42.055423],[24.784031,42.054822],[24.784709,42.054402],[24.784691,42.054386],[24.785549,42.053862],[24.786305,42.053671],[24.78736,42.053152],[24.78985,42.052396],[24.791019,42.052118],[24.791149,42.052066],[24.792258,42.051738],[24.792495,42.051691],[24.792608,42.051652],[24.792328,42.051321],[24.792312,42.051328],[24.787978,42.046126],[24.787885,42.046079],[24.787826,42.046022],[24.78561,42.04336],[24.784809,42.043651],[24.784784,42.043633],[24.78457,42.043741],[24.784465,42.043689],[24.782541,42.042273],[24.782249,42.042734],[24.780712,42.042045],[24.780134,42.041807],[24.780121,42.042614],[24.780036,42.042619],[24.780041,42.042954],[24.779963,42.043289],[24.779743,42.04418],[24.779604,42.044651],[24.779509,42.044827],[24.7794,42.04497],[24.779239,42.045137],[24.779014,42.04529],[24.778287,42.045566],[24.777669,42.045772]]]},"properties":{"cadreg":9}},{"type":"Feature","geometry":{"type":"Polygon","coordinates":[[[24.789638,42.041618],[24.785734,42.043343],[24.78561,42.04336],[24.787826,42.046022],[24.787885,42.046079],[24.787978,42.046126],[24.792312,42.051328],[24.792328,42.051321],[24.792608,42.051652],[24.792854,42.051582],[24.793565,42.051311],[24.79402,42.051183],[24.796105,42.050678],[24.796478,42.050563],[24.799356,42.049323],[24.799565,42.049294],[24.803598,42.047704],[24.805348,42.04681],[24.803791,42.04533],[24.802609,42.044359],[24.800572,42.042542],[24.799761,42.042263],[24.797629,42.041353],[24.795073,42.040384],[24.793834,42.040313],[24.791873,42.040372],[24.792793,42.041119],[24.790868,42.041967],[24.790835,42.041934],[24.790174,42.042151],[24.79024,42.042346],[24.789638,42.041618]]]},"properties":{"cadreg":10}},{"type":"Feature","geometry":{"type":"Polygon","coordinates":[[[24.82372,42.049692],[24.816839,42.053547],[24.816141,42.053448],[24.815948,42.053439],[24.815768,42.053451],[24.812758,42.05426],[24.812843,42.05441],[24.812684,42.054449],[24.813875,42.056502],[24.815048,42.057166],[24.815185,42.057229],[24.815161,42.057247],[24.815294,42.057324],[24.81532,42.057316],[24.820321,42.060227],[24.821183,42.060623],[24.821225,42.060677],[24.821224,42.060734],[24.820602,42.061324],[24.820586,42.061373],[24.812745,42.068846],[24.81276,42.068871],[24.812337,42.069252],[24.812247,42.069198],[24.811954,42.069481],[24.812043,42.069534],[24.808935,42.072526],[24.808704,42.072398],[24.808417,42.072673],[24.808639,42.072809],[24.80447,42.076797],[24.804223,42.076655],[24.80395,42.076917],[24.804201,42.077055],[24.803434,42.077788],[24.802149,42.079104],[24.801908,42.079372],[24.801633,42.079569],[24.801438,42.079738],[24.801328,42.079797],[24.801349,42.079774],[24.801325,42.079762],[24.801269,42.079825],[24.801047,42.079926],[24.801388,42.080009],[24.802678,42.078622],[24.810044,42.071549],[24.812263,42.06935],[24.813282,42.068441],[24.820359,42.061679],[24.823441,42.058791],[24.827906,42.063693],[24.828467,42.063226],[24.830883,42.06581],[24.83292,42.068013],[24.834139,42.069359],[24.833938,42.070081],[24.835671,42.072422],[24.835591,42.07264],[24.835796,42.072595],[24.843337,42.058421],[24.842989,42.058552],[24.842967,42.058543],[24.842528,42.05887],[24.840811,42.058453],[24.840156,42.058327],[24.839629,42.057942],[24.838858,42.058485],[24.831272,42.051225],[24.831147,42.051344],[24.82913,42.049714],[24.829099,42.049645],[24.828869,42.047756],[24.82876,42.047321],[24.827397,42.048627],[24.827366,42.048608],[24.824909,42.048412],[24.823768,42.049006],[24.824229,42.049465],[24.8238,42.049724],[24.823788,42.049711],[24.823767,42.049723],[24.82372,42.049692]]]},"properties":{"cadreg":11}},{"type":"Feature","geometry":{"type":"Polygon","coordinates":[[[24.789191,42.024524],[24.789342,42.024633],[24.789498,42.024844],[24.7897,42.025047],[24.789833,42.025136],[24.789966,42.025165],[24.79013,42.025288],[24.790202,42.025372],[24.790319,42.025454],[24.790399,42.02559],[24.790527,42.025675],[24.79077,42.025789],[24.791083,42.026115],[24.791126,42.026183],[24.791204,42.026228],[24.791312,42.026264],[24.791543,42.026394],[24.791868,42.026646],[24.792175,42.026755],[24.792453,42.026808],[24.79266,42.026866],[24.792806,42.02701],[24.792894,42.027156],[24.792924,42.02734],[24.792904,42.027501],[24.793041,42.027736],[24.793059,42.027807],[24.793035,42.028158],[24.793006,42.028299],[24.793138,42.028584],[24.79315,42.028683],[24.793091,42.02879],[24.793031,42.02883],[24.793033,42.028909],[24.793057,42.028977],[24.793149,42.029047],[24.793172,42.029127],[24.793341,42.029384],[24.793378,42.029374],[24.793286,42.029],[24.795205,42.028579],[24.795254,42.028668],[24.795785,42.028569],[24.796092,42.028414],[24.796449,42.028308],[24.796605,42.028243],[24.796657,42.028578],[24.796691,42.028556],[24.79702,42.028492],[24.796968,42.02812],[24.797284,42.028043],[24.797444,42.028206],[24.797531,42.02818],[24.797693,42.028366],[24.797735,42.028349],[24.797575,42.028155],[24.797787,42.028079],[24.797763,42.028055],[24.797837,42.028027],[24.798226,42.02816],[24.798201,42.028268],[24.798783,42.028339],[24.798788,42.028311],[24.799524,42.028394],[24.79986,42.028503],[24.800671,42.028894],[24.800864,42.02896],[24.800948,42.028947],[24.801012,42.02891],[24.801046,42.028857],[24.801061,42.028769],[24.801104,42.02832],[24.801291,42.027883],[24.801432,42.027726],[24.801651,42.027626],[24.801819,42.027582],[24.801698,42.027043],[24.801681,42.026871],[24.801702,42.026497],[24.801473,42.026554],[24.801259,42.026466],[24.800968,42.026212],[24.800897,42.026032],[24.8009,42.025823],[24.801009,42.025267],[24.80133,42.024791],[24.801816,42.02424],[24.801228,42.022268],[24.801139,42.017144],[24.797491,42.015376],[24.794093,42.016386],[24.793996,42.016481],[24.793894,42.016771],[24.793803,42.016877],[24.793709,42.016951],[24.793629,42.016986],[24.793098,42.01706],[24.793043,42.017052],[24.793002,42.01686],[24.792927,42.0168],[24.792428,42.01664],[24.791864,42.016505],[24.791496,42.016436],[24.79116,42.016295],[24.790998,42.016656],[24.790808,42.017187],[24.790728,42.017495],[24.790407,42.018162],[24.790212,42.018445],[24.789992,42.018545],[24.789852,42.018637],[24.789809,42.018813],[24.789664,42.018953],[24.788907,42.01925],[24.788472,42.019384],[24.788257,42.019514],[24.787888,42.019838],[24.787731,42.020139],[24.787624,42.020507],[24.787342,42.021067],[24.787237,42.021368],[24.787276,42.021749],[24.787337,42.021849],[24.787507,42.021914],[24.787749,42.021965],[24.787994,42.022042],[24.788231,42.022225],[24.789067,42.022672],[24.789323,42.022747],[24.790049,42.022893],[24.789946,42.023015],[24.789699,42.023399],[24.789492,42.023777],[24.789436,42.023981],[24.789184,42.024464],[24.789191,42.024524]],[[24.798413,42.028033],[24.79875,42.028055],[24.798719,42.028273],[24.798376,42.028241],[24.798413,42.028033]]]},"properties":{"cadreg":23}},{"type":"Feature","geometry":{"type":"Polygon","coordinates":[[[24.78402,42.024204],[24.784027,42.024261],[24.783802,42.02448],[24.783651,42.024694],[24.783689,42.02477],[24.783795,42.024887],[24.783698,42.025039],[24.783681,42.025101],[24.783698,42.025229],[24.783785,42.025366],[24.783686,42.02558],[24.783679,42.02575],[24.783703,42.025936],[24.784058,42.026335],[24.784096,42.026434],[24.784075,42.026547],[24.784086,42.026696],[24.784143,42.026794],[24.784208,42.026837],[24.784328,42.02688],[24.784525,42.026923],[24.784558,42.027121],[24.784514,42.027241],[24.784447,42.027619],[24.784194,42.027728],[24.784115,42.027791],[24.784051,42.02787],[24.784069,42.027959],[24.784582,42.028098],[24.784801,42.02833],[24.78493,42.028441],[24.785082,42.028543],[24.785124,42.028632],[24.785123,42.028737],[24.785063,42.028832],[24.78504,42.029123],[24.784891,42.029121],[24.784979,42.029203],[24.78532,42.029166],[24.785274,42.02949],[24.786049,42.029395],[24.78588,42.029207],[24.787394,42.028066],[24.787801,42.028369],[24.787916,42.028282],[24.788423,42.028384],[24.789028,42.028436],[24.789129,42.028417],[24.789092,42.028255],[24.789507,42.02818],[24.789482,42.028122],[24.790134,42.027994],[24.79069,42.028127],[24.790719,42.028069],[24.791224,42.028194],[24.79107,42.028454],[24.793177,42.029143],[24.793267,42.029403],[24.793341,42.029384],[24.793172,42.029127],[24.793149,42.029047],[24.793057,42.028977],[24.793033,42.028909],[24.793031,42.02883],[24.793091,42.02879],[24.79315,42.028683],[24.793138,42.028584],[24.793006,42.028299],[24.793035,42.028158],[24.793059,42.027807],[24.793041,42.027736],[24.792904,42.027501],[24.792924,42.02734],[24.792894,42.027156],[24.792806,42.02701],[24.79266,42.026866],[24.792453,42.026808],[24.792175,42.026755],[24.791868,42.026646],[24.791543,42.026394],[24.791312,42.026264],[24.791204,42.026228],[24.791126,42.026183],[24.791083,42.026115],[24.79077,42.025789],[24.790527,42.025675],[24.790399,42.02559],[24.790319,42.025454],[24.790202,42.025372],[24.79013,42.025288],[24.789966,42.025165],[24.789833,42.025136],[24.7897,42.025047],[24.789498,42.024844],[24.789342,42.024633],[24.789191,42.024524],[24.789184,42.024464],[24.788592,42.024251],[24.788264,42.024219],[24.787563,42.024196],[24.787329,42.024229],[24.787077,42.02424],[24.786643,42.024317],[24.786465,42.024322],[24.786203,42.024234],[24.785978,42.024196],[24.785506,42.02424],[24.784622,42.024166],[24.784476,42.024123],[24.78402,42.023924],[24.784004,42.023864],[24.783949,42.023866],[24.783912,42.023908],[24.783907,42.023975],[24.78402,42.024204]]]},"properties":{"cadreg":24}},{"type":"Feature","geometry":{"type":"Polygon","coordinates":[[[24.776263,42.025177],[24.77518,42.025169],[24.775193,42.025203],[24.77537,42.025324],[24.775394,42.025569],[24.775298,42.025654],[24.775013,42.025717],[24.774789,42.025814],[24.774748,42.025943],[24.774867,42.026439],[24.774832,42.026506],[24.774563,42.026831],[24.774541,42.026926],[24.774543,42.027031],[24.774614,42.027173],[24.774602,42.027232],[24.774501,42.027415],[24.774432,42.027469],[24.774336,42.027627],[24.774307,42.027733],[24.774321,42.02782],[24.774607,42.028167],[24.77475,42.028418],[24.774777,42.028556],[24.774771,42.028703],[24.77474,42.028869],[24.77468,42.028976],[24.774493,42.029176],[24.774497,42.029247],[24.774604,42.029359],[24.774642,42.029448],[24.774635,42.029573],[24.774543,42.029726],[24.774334,42.029855],[24.774312,42.029724],[24.774291,42.029708],[24.774445,42.0296],[24.774504,42.029609],[24.774439,42.029455],[24.774364,42.02935],[24.774245,42.029241],[24.774209,42.029161],[24.774285,42.029091],[24.774422,42.029007],[24.77454,42.028897],[24.774588,42.028795],[24.774638,42.028535],[24.77417,42.027845],[24.774166,42.027603],[24.774207,42.027485],[24.77448,42.027275],[24.774476,42.027188],[24.774385,42.027079],[24.774349,42.027011],[24.77436,42.026944],[24.774398,42.026883],[24.774114,42.026902],[24.774114,42.026687],[24.774248,42.026419],[24.774467,42.026183],[24.77465,42.026158],[24.774663,42.025836],[24.774704,42.025769],[24.774916,42.025649],[24.775169,42.025568],[24.775222,42.025586],[24.775289,42.025573],[24.775276,42.025378],[24.77524,42.025321],[24.775076,42.025256],[24.775038,42.025208],[24.775055,42.024997],[24.775043,42.024879],[24.775014,42.024836],[24.774933,42.024822],[24.77484,42.024782],[24.774671,42.024636],[24.774468,42.024572],[24.774414,42.024517],[24.774436,42.024388],[24.774374,42.0244],[24.774386,42.024501],[24.774441,42.024634],[24.774482,42.024712],[24.774648,42.024853],[24.774658,42.024901],[24.77462,42.024933],[24.774408,42.024986],[24.774175,42.024991],[24.774268,42.025094],[24.773686,42.025322],[24.773577,42.025238],[24.773492,42.025131],[24.773455,42.025161],[24.773502,42.025181],[24.773548,42.025258],[24.77356,42.025392],[24.77343,42.025434],[24.7737,42.025632],[24.773646,42.025676],[24.77346,42.025754],[24.773372,42.025778],[24.773292,42.025772],[24.773235,42.025801],[24.773732,42.026697],[24.773786,42.02667],[24.773849,42.026605],[24.77392,42.026761],[24.774018,42.026909],[24.773977,42.026958],[24.773828,42.027033],[24.773782,42.027035],[24.77364,42.027525],[24.773662,42.027515],[24.773923,42.027772],[24.773936,42.027848],[24.774258,42.028249],[24.774281,42.028348],[24.774206,42.028464],[24.774063,42.02853],[24.773915,42.028568],[24.773625,42.028678],[24.77353,42.028734],[24.773411,42.028763],[24.77326,42.028744],[24.773154,42.028702],[24.772971,42.028577],[24.772899,42.028638],[24.772674,42.028509],[24.772475,42.028427],[24.77199,42.028359],[24.771613,42.028234],[24.771413,42.028069],[24.771151,42.027906],[24.769591,42.02711],[24.76793,42.02688],[24.768437,42.0275],[24.768628,42.02777],[24.768775,42.028034],[24.76907,42.028336],[24.769662,42.028677],[24.769734,42.028786],[24.769785,42.02905],[24.769742,42.029331],[24.769683,42.029537],[24.769634,42.029524],[24.769564,42.029471],[24.769505,42.029721],[24.769485,42.029937],[24.769572,42.030035],[24.769447,42.030125],[24.768838,42.030115],[24.768959,42.029106],[24.768712,42.029083],[24.768469,42.028962],[24.768013,42.02908],[24.767416,42.029106],[24.767158,42.029169],[24.766848,42.029361],[24.766768,42.029378],[24.766503,42.029393],[24.766231,42.029467],[24.765986,42.029571],[24.765826,42.029734],[24.765566,42.030368],[24.765517,42.030562],[24.765452,42.03071],[24.765291,42.030867],[24.765458,42.030916],[24.766505,42.031651],[24.767998,42.032564],[24.768426,42.032557],[24.769308,42.032498],[24.76982,42.032549],[24.770039,42.032607],[24.770498,42.03296],[24.770678,42.03305],[24.770775,42.033147],[24.770845,42.033271],[24.770946,42.033548],[24.771037,42.033673],[24.771086,42.033843],[24.771068,42.034008],[24.771043,42.03417],[24.770978,42.034327],[24.77089,42.034415],[24.770861,42.034494],[24.770908,42.034562],[24.770983,42.034612],[24.771079,42.034647],[24.771191,42.034726],[24.771251,42.034829],[24.771256,42.0349],[24.771327,42.034934],[24.771558,42.034959],[24.771665,42.035063],[24.771768,42.035131],[24.771994,42.035234],[24.772075,42.035293],[24.772198,42.035432],[24.772412,42.035489],[24.772591,42.035572],[24.772706,42.035653],[24.772892,42.035702],[24.773333,42.035738],[24.774283,42.035685],[24.775018,42.035667],[24.775713,42.035631],[24.776208,42.03557],[24.776595,42.03554],[24.776838,42.035539],[24.777323,42.035455],[24.777795,42.035339],[24.779335,42.03484],[24.779205,42.034658],[24.77904,42.034515],[24.778858,42.034417],[24.77899,42.034255],[24.778138,42.03388],[24.778489,42.033529],[24.778495,42.033492],[24.778554,42.033451],[24.778627,42.033415],[24.779017,42.033305],[24.77927,42.033552],[24.779435,42.033467],[24.779648,42.033776],[24.779869,42.034157],[24.780458,42.033983],[24.780613,42.034234],[24.780688,42.034582],[24.781276,42.034385],[24.781281,42.034068],[24.780662,42.032973],[24.7804,42.033039],[24.780317,42.032891],[24.779316,42.032145],[24.779506,42.031978],[24.779476,42.031957],[24.781203,42.030844],[24.781199,42.03061],[24.781093,42.030368],[24.781433,42.030211],[24.781415,42.03018],[24.781584,42.030099],[24.781632,42.029793],[24.781546,42.02959],[24.781316,42.029344],[24.78112,42.029184],[24.780654,42.028906],[24.780408,42.02882],[24.780321,42.028805],[24.779971,42.02909],[24.780158,42.029603],[24.780172,42.02978],[24.779838,42.030683],[24.779749,42.030964],[24.779762,42.030976],[24.77974,42.030991],[24.779724,42.031041],[24.779583,42.031172],[24.779335,42.031233],[24.77893,42.031286],[24.777744,42.031235],[24.777684,42.031341],[24.777569,42.031314],[24.777665,42.031146],[24.778923,42.031195],[24.779305,42.031145],[24.779511,42.031095],[24.779613,42.031],[24.78005,42.029771],[24.780046,42.029673],[24.77985,42.029099],[24.779307,42.028622],[24.7794,42.028563],[24.779912,42.029005],[24.780186,42.028781],[24.779906,42.028737],[24.779696,42.028555],[24.779545,42.028329],[24.779482,42.028268],[24.779265,42.028218],[24.779065,42.028136],[24.778968,42.02807],[24.778849,42.027946],[24.778678,42.027881],[24.778648,42.027562],[24.778485,42.027417],[24.778398,42.027389],[24.778445,42.027039],[24.778503,42.026823],[24.778594,42.026701],[24.778415,42.026652],[24.778307,42.026588],[24.778231,42.026497],[24.778144,42.026101],[24.778055,42.025938],[24.777961,42.025815],[24.777446,42.025549],[24.777234,42.025514],[24.776966,42.025494],[24.776628,42.025311],[24.776263,42.025177]]]},"properties":{"cadreg":25}},{"type":"Feature","geometry":{"type":"Polygon","coordinates":[[[24.76841,42.01798],[24.76808,42.018219],[24.767956,42.018344],[24.767897,42.018501],[24.767939,42.018762],[24.767544,42.019467],[24.767458,42.019665],[24.767446,42.01984],[24.767506,42.019954],[24.767769,42.020198],[24.767891,42.020335],[24.768128,42.02053],[24.768347,42.020753],[24.768758,42.020889],[24.768977,42.020979],[24.769161,42.021136],[24.769403,42.021441],[24.769452,42.02156],[24.769291,42.021672],[24.768913,42.021818],[24.76877,42.021928],[24.768589,42.022106],[24.76856,42.022172],[24.768296,42.022192],[24.768007,42.022176],[24.767687,42.022138],[24.767413,42.022083],[24.767246,42.02199],[24.767096,42.021849],[24.766937,42.021757],[24.766762,42.021731],[24.766725,42.021708],[24.766308,42.021774],[24.766035,42.021786],[24.765746,42.02174],[24.76544,42.021789],[24.765104,42.021765],[24.764829,42.021671],[24.764587,42.021517],[24.764408,42.021445],[24.764024,42.021444],[24.763439,42.021369],[24.76305,42.021386],[24.762512,42.021387],[24.761189,42.021193],[24.760408,42.021131],[24.76048,42.021252],[24.760602,42.021331],[24.760818,42.021435],[24.761021,42.021601],[24.761157,42.021829],[24.76125,42.022067],[24.761308,42.022524],[24.761468,42.023051],[24.761479,42.023308],[24.761449,42.023525],[24.761466,42.023834],[24.761562,42.023854],[24.761763,42.023937],[24.762064,42.024098],[24.762387,42.024213],[24.762469,42.024261],[24.762422,42.024404],[24.762127,42.024692],[24.762091,42.024757],[24.7621,42.024879],[24.762179,42.025168],[24.762299,42.025344],[24.762392,42.025414],[24.762463,42.025445],[24.762693,42.025411],[24.763225,42.025461],[24.76357,42.025559],[24.763694,42.025613],[24.763813,42.025743],[24.763917,42.025889],[24.764098,42.026188],[24.764118,42.026289],[24.76407,42.026572],[24.76427,42.026515],[24.764429,42.026504],[24.764528,42.026517],[24.764639,42.026553],[24.764714,42.026615],[24.76483,42.026566],[24.765195,42.026312],[24.765348,42.026252],[24.765799,42.026168],[24.766188,42.02606],[24.7664,42.02604],[24.766516,42.026048],[24.767071,42.026253],[24.76731,42.02637],[24.767398,42.026396],[24.767809,42.02675],[24.76793,42.02688],[24.769591,42.02711],[24.771151,42.027906],[24.771413,42.028069],[24.771613,42.028234],[24.77199,42.028359],[24.772475,42.028427],[24.772674,42.028509],[24.772899,42.028638],[24.772971,42.028577],[24.773154,42.028702],[24.77326,42.028744],[24.773411,42.028763],[24.77353,42.028734],[24.773625,42.028678],[24.773915,42.028568],[24.774063,42.02853],[24.774206,42.028464],[24.774281,42.028348],[24.774258,42.028249],[24.773936,42.027848],[24.773923,42.027772],[24.773662,42.027515],[24.77364,42.027525],[24.773782,42.027035],[24.773828,42.027033],[24.773977,42.026958],[24.774018,42.026909],[24.77392,42.026761],[24.773849,42.026605],[24.773786,42.02667],[24.773732,42.026697],[24.773235,42.025801],[24.773292,42.025772],[24.773372,42.025778],[24.77346,42.025754],[24.773646,42.025676],[24.7737,42.025632],[24.77343,42.025434],[24.77356,42.025392],[24.773548,42.025258],[24.773502,42.025181],[24.773455,42.025161],[24.773492,42.025131],[24.773577,42.025238],[24.773686,42.025322],[24.774268,42.025094],[24.774175,42.024991],[24.774408,42.024986],[24.77462,42.024933],[24.774658,42.024901],[24.774648,42.024853],[24.774482,42.024712],[24.774441,42.024634],[24.774386,42.024501],[24.774374,42.0244],[24.774436,42.024388],[24.774414,42.024517],[24.774468,42.024572],[24.774671,42.024636],[24.77484,42.024782],[24.774933,42.024822],[24.775014,42.024836],[24.775043,42.024879],[24.775055,42.024997],[24.775038,42.025208],[24.775076,42.025256],[24.77524,42.025321],[24.775276,42.025378],[24.775289,42.025573],[24.775222,42.025586],[24.775169,42.025568],[24.774916,42.025649],[24.774704,42.025769],[24.774663,42.025836],[24.77465,42.026158],[24.774467,42.026183],[24.774248,42.026419],[24.774114,42.026687],[24.774114,42.026902],[24.774398,42.026883],[24.77436,42.026944],[24.774349,42.027011],[24.774385,42.027079],[24.774476,42.027188],[24.77448,42.027275],[24.774207,42.027485],[24.774166,42.027603],[24.77417,42.027845],[24.774638,42.028535],[24.774588,42.028795],[24.77454,42.028897],[24.774422,42.029007],[24.774285,42.029091],[24.774209,42.029161],[24.774245,42.029241],[24.774364,42.02935],[24.774439,42.029455],[24.774504,42.029609],[24.774445,42.0296],[24.774291,42.029708],[24.774312,42.029724],[24.774334,42.029855],[24.774543,42.029726],[24.774635,42.029573],[24.774642,42.029448],[24.774604,42.029359],[24.774497,42.029247],[24.774493,42.029176],[24.77468,42.028976],[24.77474,42.028869],[24.774777,42.028556],[24.77475,42.028418],[24.774607,42.028167],[24.774447,42.027966],[24.774372,42.027898],[24.774321,42.02782],[24.774307,42.027733],[24.774336,42.027627],[24.774432,42.027469],[24.774501,42.027415],[24.774602,42.027232],[24.774614,42.027173],[24.774543,42.027031],[24.774541,42.026926],[24.774563,42.026831],[24.774832,42.026506],[24.774867,42.026439],[24.774748,42.025943],[24.774789,42.025814],[24.775013,42.025717],[24.775298,42.025654],[24.775394,42.025569],[24.77537,42.025324],[24.775193,42.025203],[24.77518,42.025169],[24.776263,42.025177],[24.776628,42.025311],[24.776966,42.025494],[24.777234,42.025514],[24.777446,42.025549],[24.777961,42.025815],[24.778055,42.025938],[24.778144,42.026101],[24.778231,42.026497],[24.778307,42.026588],[24.778415,42.026652],[24.778594,42.026701],[24.778503,42.026823],[24.778445,42.027039],[24.778398,42.027389],[24.778485,42.027417],[24.778648,42.027562],[24.778678,42.027881],[24.778849,42.027946],[24.778968,42.02807],[24.779065,42.028136],[24.779265,42.028218],[24.779482,42.028268],[24.779545,42.028329],[24.779696,42.028555],[24.779906,42.028737],[24.780186,42.028781],[24.779912,42.029005],[24.7794,42.028563],[24.779307,42.028622],[24.77985,42.029099],[24.780046,42.029673],[24.78005,42.029771],[24.779613,42.031],[24.779511,42.031095],[24.779305,42.031145],[24.778923,42.031195],[24.777665,42.031146],[24.777569,42.031314],[24.777684,42.031341],[24.777744,42.031235],[24.77893,42.031286],[24.779335,42.031233],[24.779583,42.031172],[24.779724,42.031041],[24.77974,42.030991],[24.779762,42.030976],[24.779749,42.030964],[24.779838,42.030683],[24.780172,42.02978],[24.780158,42.029603],[24.779971,42.02909],[24.780321,42.028805],[24.780408,42.02882],[24.780654,42.028906],[24.78112,42.029184],[24.781316,42.029344],[24.781546,42.02959],[24.781632,42.029793],[24.781584,42.030099],[24.782113,42.029847],[24.782073,42.029811],[24.782475,42.029572],[24.783012,42.030011],[24.783103,42.029957],[24.783316,42.029766],[24.783654,42.029685],[24.783951,42.029648],[24.783934,42.029103],[24.783744,42.02893],[24.783754,42.028732],[24.783618,42.028342],[24.784448,42.028146],[24.784524,42.028316],[24.784831,42.028621],[24.784831,42.028756],[24.784633,42.028877],[24.784891,42.029121],[24.78504,42.029123],[24.785063,42.028832],[24.785123,42.028737],[24.785124,42.028632],[24.785082,42.028543],[24.78493,42.028441],[24.784801,42.02833],[24.784582,42.028098],[24.784069,42.027959],[24.784051,42.02787],[24.784115,42.027791],[24.784194,42.027728],[24.784447,42.027619],[24.784514,42.027241],[24.784558,42.027121],[24.784551,42.027006],[24.784525,42.026923],[24.784328,42.02688],[24.784208,42.026837],[24.784143,42.026794],[24.784086,42.026696],[24.784075,42.026547],[24.784096,42.026434],[24.784058,42.026335],[24.783703,42.025936],[24.783679,42.02575],[24.783686,42.02558],[24.783785,42.025366],[24.783698,42.025229],[24.783681,42.025101],[24.783698,42.025039],[24.783795,42.024887],[24.783689,42.02477],[24.783651,42.024694],[24.783802,42.02448],[24.784027,42.024261],[24.78402,42.024204],[24.783907,42.023975],[24.783912,42.023908],[24.783949,42.023866],[24.784004,42.023864],[24.784223,42.0237],[24.784507,42.023562],[24.784949,42.023313],[24.785265,42.023053],[24.785425,42.022847],[24.785536,42.02264],[24.785693,42.022114],[24.785797,42.021834],[24.785853,42.021553],[24.785839,42.021283],[24.785726,42.021044],[24.785627,42.020934],[24.785505,42.020752],[24.785495,42.02064],[24.785416,42.020493],[24.785122,42.020297],[24.784814,42.019966],[24.784627,42.019698],[24.784536,42.019292],[24.78453,42.01904],[24.784565,42.018909],[24.7847,42.018737],[24.784867,42.018435],[24.784898,42.018261],[24.784801,42.018112],[24.784482,42.017907],[24.784344,42.017792],[24.784291,42.017726],[24.784267,42.017625],[24.784493,42.017056],[24.784272,42.017211],[24.784255,42.017257],[24.784139,42.017298],[24.783881,42.01749],[24.783674,42.017578],[24.78357,42.017584],[24.783471,42.017564],[24.783392,42.017467],[24.783315,42.017442],[24.783279,42.017464],[24.783079,42.017687],[24.782506,42.017979],[24.782369,42.018033],[24.782252,42.018051],[24.782149,42.018116],[24.78206,42.018133],[24.781976,42.01828],[24.781918,42.018303],[24.781814,42.018382],[24.781744,42.018451],[24.781684,42.018564],[24.781623,42.018537],[24.781588,42.018443],[24.781489,42.018381],[24.781327,42.018435],[24.781024,42.018505],[24.78092,42.018568],[24.780903,42.01868],[24.780938,42.018781],[24.781041,42.018927],[24.781106,42.019062],[24.78095,42.019031],[24.780767,42.018876],[24.780595,42.018879],[24.780469,42.018813],[24.78033,42.018779],[24.780273,42.018642],[24.780276,42.018585],[24.779998,42.01818],[24.779859,42.01793],[24.779723,42.017792],[24.779692,42.017643],[24.779537,42.01748],[24.779484,42.017451],[24.779431,42.017394],[24.779419,42.017314],[24.779026,42.017163],[24.778948,42.017112],[24.778864,42.017189],[24.778849,42.017331],[24.778895,42.017445],[24.778993,42.017563],[24.779014,42.017646],[24.778926,42.017917],[24.778909,42.018034],[24.778973,42.018249],[24.778944,42.01841],[24.779013,42.018511],[24.779128,42.018586],[24.779159,42.018657],[24.779142,42.018874],[24.779151,42.01901],[24.77925,42.019065],[24.779263,42.01914],[24.779322,42.019198],[24.779396,42.019216],[24.779443,42.01927],[24.779575,42.019334],[24.779693,42.019421],[24.779694,42.0195],[24.779519,42.019536],[24.77912,42.019534],[24.778941,42.019434],[24.778908,42.019448],[24.778729,42.019398],[24.778554,42.019413],[24.778461,42.019351],[24.778344,42.019304],[24.778288,42.019249],[24.778201,42.019289],[24.778144,42.019193],[24.778123,42.019094],[24.778244,42.01901],[24.778367,42.018884],[24.778302,42.018632],[24.778172,42.018572],[24.77817,42.018484],[24.778214,42.018376],[24.778188,42.018321],[24.778073,42.018285],[24.777905,42.018186],[24.777605,42.018105],[24.777601,42.018045],[24.777703,42.017949],[24.777681,42.017904],[24.777434,42.017879],[24.777294,42.017766],[24.777249,42.017688],[24.777232,42.017582],[24.777312,42.017426],[24.77741,42.017293],[24.777431,42.017153],[24.777392,42.016952],[24.77741,42.016807],[24.777495,42.01667],[24.777578,42.01642],[24.777465,42.01657],[24.777326,42.016826],[24.777235,42.016871],[24.777128,42.016882],[24.776801,42.017044],[24.776697,42.017066],[24.776642,42.01697],[24.776592,42.016921],[24.77653,42.016889],[24.776401,42.016866],[24.776072,42.016994],[24.775669,42.017201],[24.775603,42.017254],[24.775595,42.017307],[24.775618,42.017374],[24.775793,42.017626],[24.775789,42.017649],[24.775702,42.017677],[24.775464,42.017682],[24.775367,42.017787],[24.775289,42.017965],[24.775117,42.017926],[24.775063,42.017883],[24.77489,42.017817],[24.774729,42.017777],[24.7746,42.017763],[24.77455,42.017736],[24.774459,42.017632],[24.774353,42.017571],[24.774221,42.017546],[24.774145,42.017471],[24.773968,42.017402],[24.77358,42.017325],[24.773343,42.017312],[24.773163,42.017349],[24.773022,42.017353],[24.772908,42.017318],[24.772654,42.017326],[24.772126,42.017205],[24.771058,42.01707],[24.770555,42.017049],[24.770353,42.017059],[24.770182,42.017006],[24.769957,42.016961],[24.769742,42.016938],[24.769205,42.016927],[24.769046,42.016957],[24.768935,42.017043],[24.768822,42.01718],[24.768674,42.017511],[24.76863,42.017702],[24.768538,42.017838],[24.76841,42.01798]]]},"properties":{"cadreg":26}},{"type":"Feature","geometry":{"type":"Polygon","coordinates":[[[24.751767,42.013423],[24.751924,42.014027],[24.752201,42.014045],[24.752404,42.014121],[24.752574,42.014223],[24.753003,42.01436],[24.753189,42.014471],[24.753509,42.014487],[24.753822,42.014542],[24.753865,42.014525],[24.753895,42.01446],[24.753858,42.014344],[24.753876,42.014284],[24.753934,42.014232],[24.753952,42.014179],[24.75392,42.014118],[24.753746,42.013984],[24.753733,42.013952],[24.753745,42.013929],[24.753814,42.013929],[24.753974,42.014027],[24.754073,42.014153],[24.754064,42.014383],[24.754109,42.01443],[24.754237,42.01445],[24.754292,42.014426],[24.754377,42.014259],[24.754357,42.014174],[24.754393,42.014114],[24.754315,42.013928],[24.754155,42.013858],[24.753992,42.013818],[24.753643,42.013777],[24.753515,42.01373],[24.753274,42.013689],[24.753128,42.013685],[24.753043,42.013621],[24.753386,42.013675],[24.753773,42.013703],[24.754138,42.013785],[24.754369,42.0138],[24.754435,42.013847],[24.754469,42.01403],[24.754573,42.014254],[24.754478,42.014541],[24.754442,42.01459],[24.754711,42.014715],[24.754856,42.014803],[24.755192,42.015149],[24.755154,42.015221],[24.755556,42.015168],[24.755728,42.015162],[24.756025,42.015254],[24.756697,42.015607],[24.756785,42.015632],[24.757053,42.01567],[24.757344,42.015755],[24.757827,42.015813],[24.758031,42.015873],[24.758178,42.015962],[24.758569,42.0164],[24.758902,42.016606],[24.758919,42.016652],[24.759047,42.016701],[24.759334,42.016757],[24.759641,42.016851],[24.759733,42.016955],[24.760023,42.017118],[24.760165,42.017234],[24.760643,42.017477],[24.761151,42.017596],[24.761705,42.017873],[24.762426,42.018053],[24.7631,42.01859],[24.76311,42.018818],[24.763095,42.018965],[24.763068,42.019013],[24.763268,42.019074],[24.763578,42.019234],[24.763709,42.019357],[24.763851,42.019555],[24.763988,42.019646],[24.764158,42.019695],[24.764339,42.019698],[24.764601,42.019599],[24.764902,42.019582],[24.765713,42.019795],[24.765782,42.019723],[24.765855,42.019688],[24.765963,42.019707],[24.766134,42.019855],[24.766339,42.020124],[24.766422,42.020149],[24.766726,42.020157],[24.766874,42.020181],[24.767007,42.020224],[24.767149,42.020291],[24.767333,42.020443],[24.767454,42.020334],[24.767477,42.020258],[24.767587,42.0202],[24.767688,42.020185],[24.767769,42.020198],[24.767506,42.019954],[24.767446,42.01984],[24.767458,42.019665],[24.767544,42.019467],[24.767939,42.018762],[24.767897,42.018501],[24.767956,42.018344],[24.76808,42.018219],[24.76841,42.01798],[24.768538,42.017838],[24.76863,42.017702],[24.768674,42.017511],[24.768822,42.01718],[24.768935,42.017043],[24.769046,42.016957],[24.769205,42.016927],[24.769742,42.016938],[24.769957,42.016961],[24.770182,42.017006],[24.770353,42.017059],[24.770555,42.017049],[24.771058,42.01707],[24.772126,42.017205],[24.772654,42.017326],[24.772908,42.017318],[24.773022,42.017353],[24.773163,42.017349],[24.773343,42.017312],[24.77358,42.017325],[24.773968,42.017402],[24.774145,42.017471],[24.774221,42.017546],[24.774353,42.017571],[24.774459,42.017632],[24.77455,42.017736],[24.7746,42.017763],[24.774729,42.017777],[24.77489,42.017817],[24.775063,42.017883],[24.775117,42.017926],[24.775289,42.017965],[24.775367,42.017787],[24.775464,42.017682],[24.775702,42.017677],[24.775789,42.017649],[24.775793,42.017626],[24.775618,42.017374],[24.775595,42.017307],[24.775603,42.017254],[24.775669,42.017201],[24.776072,42.016994],[24.776401,42.016866],[24.77653,42.016889],[24.776592,42.016921],[24.776642,42.01697],[24.776697,42.017066],[24.776801,42.017044],[24.777128,42.016882],[24.777235,42.016871],[24.777326,42.016826],[24.777465,42.01657],[24.777578,42.01642],[24.777495,42.01667],[24.77741,42.016807],[24.777392,42.016952],[24.777431,42.017153],[24.77741,42.017293],[24.777312,42.017426],[24.777232,42.017582],[24.777249,42.017688],[24.777294,42.017766],[24.777434,42.017879],[24.777681,42.017904],[24.777703,42.017949],[24.777601,42.018045],[24.777605,42.018105],[24.777905,42.018186],[24.778073,42.018285],[24.778188,42.018321],[24.778214,42.018376],[24.77817,42.018484],[24.778172,42.018572],[24.778302,42.018632],[24.778367,42.018884],[24.778244,42.01901],[24.778123,42.019094],[24.778144,42.019193],[24.778201,42.019289],[24.778288,42.019249],[24.778344,42.019304],[24.778461,42.019351],[24.778554,42.019413],[24.778729,42.019398],[24.778908,42.019448],[24.778941,42.019434],[24.77912,42.019534],[24.779366,42.019542],[24.779656,42.019517],[24.779694,42.0195],[24.779693,42.019421],[24.779575,42.019334],[24.779443,42.01927],[24.779396,42.019216],[24.779322,42.019198],[24.779263,42.01914],[24.77925,42.019065],[24.779151,42.01901],[24.779142,42.018874],[24.779159,42.018657],[24.779128,42.018586],[24.779013,42.018511],[24.778944,42.01841],[24.778973,42.018249],[24.778909,42.018034],[24.778926,42.017917],[24.779014,42.017646],[24.778993,42.017563],[24.778895,42.017445],[24.778849,42.017331],[24.778864,42.017189],[24.778948,42.017112],[24.779026,42.017163],[24.779419,42.017314],[24.779431,42.017394],[24.779484,42.017451],[24.779537,42.01748],[24.779692,42.017643],[24.779723,42.017792],[24.779859,42.01793],[24.779998,42.01818],[24.780276,42.018585],[24.780273,42.018642],[24.78033,42.018779],[24.780469,42.018813],[24.780595,42.018879],[24.780767,42.018876],[24.78095,42.019031],[24.781106,42.019062],[24.781041,42.018927],[24.780938,42.018781],[24.780903,42.01868],[24.78092,42.018568],[24.781024,42.018505],[24.781327,42.018435],[24.781489,42.018381],[24.781588,42.018443],[24.781623,42.018537],[24.781684,42.018564],[24.781744,42.018451],[24.781814,42.018382],[24.781918,42.018303],[24.781976,42.01828],[24.78206,42.018133],[24.782149,42.018116],[24.782252,42.018051],[24.782369,42.018033],[24.782506,42.017979],[24.783079,42.017687],[24.783279,42.017464],[24.783315,42.017442],[24.783392,42.017467],[24.783471,42.017564],[24.78357,42.017584],[24.783674,42.017578],[24.783881,42.01749],[24.784139,42.017298],[24.784255,42.017257],[24.784272,42.017211],[24.784493,42.017056],[24.784548,42.016854],[24.78455,42.016803],[24.784399,42.016287],[24.784268,42.015983],[24.784285,42.015861],[24.784252,42.015677],[24.784204,42.015649],[24.783963,42.015573],[24.78378,42.015476],[24.783521,42.015372],[24.783321,42.015382],[24.783007,42.01545],[24.782484,42.015527],[24.782284,42.015602],[24.781939,42.015453],[24.781781,42.015341],[24.781677,42.01517],[24.781633,42.015019],[24.781646,42.014893],[24.781683,42.014856],[24.781644,42.014802],[24.781372,42.014823],[24.781264,42.014755],[24.781221,42.014633],[24.781115,42.014142],[24.780899,42.013995],[24.78083,42.013642],[24.780784,42.013619],[24.780442,42.013645],[24.780469,42.013572],[24.780307,42.013146],[24.780062,42.012707],[24.780001,42.012481],[24.780134,42.012436],[24.779164,42.011413],[24.779097,42.011237],[24.778842,42.011253],[24.77879,42.011027],[24.778653,42.010598],[24.778237,42.010099],[24.777867,42.009788],[24.777779,42.01009],[24.77763,42.010038],[24.777448,42.010062],[24.777072,42.010066],[24.777009,42.009966],[24.777069,42.009779],[24.7767,42.00927],[24.776323,42.008941],[24.776085,42.008857],[24.775393,42.008035],[24.775176,42.007692],[24.775093,42.00705],[24.774871,42.006522],[24.774792,42.006047],[24.774753,42.005515],[24.774808,42.005138],[24.775084,42.004365],[24.774341,42.00393],[24.773692,42.00358],[24.773309,42.003562],[24.772245,42.003582],[24.770592,42.003771],[24.769428,42.003974],[24.768558,42.004057],[24.767514,42.004124],[24.766417,42.00426],[24.764391,42.004468],[24.763813,42.004494],[24.760764,42.004382],[24.759794,42.004373],[24.758523,42.004322],[24.757169,42.004296],[24.756408,42.004239],[24.755383,42.004216],[24.754389,42.004158],[24.753758,42.004139],[24.752305,42.00416],[24.751632,42.004326],[24.750754,42.004807],[24.750768,42.006443],[24.75074,42.007916],[24.750757,42.008464],[24.750789,42.008512],[24.750853,42.009122],[24.751046,42.00998],[24.751246,42.010702],[24.751254,42.011218],[24.751414,42.011983],[24.751582,42.012575],[24.751767,42.013423]]]},"properties":{"cadreg":27}},{"type":"Feature","geometry":{"type":"Polygon","coordinates":[[[24.752365,42.028005],[24.752425,42.02799],[24.752517,42.028032],[24.752634,42.02819],[24.752922,42.02852],[24.75394,42.02855],[24.754487,42.028656],[24.75482,42.029136],[24.754964,42.02959],[24.755188,42.029912],[24.75571,42.031035],[24.755974,42.031256],[24.757105,42.031689],[24.757081,42.031445],[24.756908,42.030907],[24.756891,42.030742],[24.757148,42.030295],[24.757308,42.030146],[24.757518,42.030074],[24.757682,42.030081],[24.758062,42.030174],[24.75841,42.030286],[24.75908,42.030794],[24.759479,42.03099],[24.759854,42.031083],[24.760097,42.031107],[24.760309,42.03109],[24.761092,42.03086],[24.761458,42.030791],[24.761691,42.030788],[24.762064,42.030821],[24.763153,42.030962],[24.764112,42.031029],[24.764557,42.030994],[24.765263,42.030859],[24.765291,42.030867],[24.765452,42.03071],[24.765517,42.030562],[24.765566,42.030368],[24.765826,42.029734],[24.765986,42.029571],[24.766231,42.029467],[24.766503,42.029393],[24.766768,42.029378],[24.766848,42.029361],[24.767158,42.029169],[24.767416,42.029106],[24.768013,42.02908],[24.768469,42.028962],[24.768712,42.029083],[24.769372,42.029165],[24.769435,42.029215],[24.769565,42.029474],[24.769634,42.029524],[24.769683,42.029537],[24.769774,42.029181],[24.769785,42.02905],[24.769769,42.028933],[24.769734,42.028786],[24.769662,42.028677],[24.76907,42.028336],[24.768775,42.028034],[24.768628,42.02777],[24.768437,42.0275],[24.76796,42.026911],[24.767809,42.02675],[24.767398,42.026396],[24.76731,42.02637],[24.767071,42.026253],[24.766516,42.026048],[24.7664,42.02604],[24.766188,42.02606],[24.765799,42.026168],[24.765348,42.026252],[24.765195,42.026312],[24.76483,42.026566],[24.764714,42.026615],[24.764639,42.026553],[24.764528,42.026517],[24.764429,42.026504],[24.76427,42.026515],[24.76407,42.026572],[24.764118,42.026289],[24.764098,42.026188],[24.763917,42.025889],[24.763813,42.025743],[24.763694,42.025613],[24.76357,42.025559],[24.763225,42.025461],[24.762693,42.025411],[24.762463,42.025445],[24.762392,42.025414],[24.762299,42.025344],[24.762179,42.025168],[24.7621,42.024879],[24.762091,42.024757],[24.762127,42.024692],[24.762422,42.024404],[24.762469,42.024261],[24.762387,42.024213],[24.762064,42.024098],[24.761763,42.023937],[24.761562,42.023854],[24.761466,42.023834],[24.761449,42.023525],[24.761479,42.023308],[24.761468,42.023051],[24.761308,42.022524],[24.76125,42.022067],[24.761157,42.021829],[24.761021,42.021601],[24.760818,42.021435],[24.760602,42.021331],[24.76048,42.021252],[24.760408,42.021131],[24.761189,42.021193],[24.762512,42.021387],[24.76305,42.021386],[24.763439,42.021369],[24.764024,42.021444],[24.764408,42.021445],[24.764587,42.021517],[24.764829,42.021671],[24.765104,42.021765],[24.76544,42.021789],[24.765746,42.02174],[24.766035,42.021786],[24.766308,42.021774],[24.766725,42.021708],[24.766762,42.021731],[24.766937,42.021757],[24.767096,42.021849],[24.767246,42.02199],[24.767413,42.022083],[24.767687,42.022138],[24.768007,42.022176],[24.768296,42.022192],[24.76856,42.022172],[24.768589,42.022106],[24.76877,42.021928],[24.768913,42.021818],[24.769291,42.021672],[24.769452,42.02156],[24.769403,42.021441],[24.769161,42.021136],[24.768977,42.020979],[24.768758,42.020889],[24.768347,42.020753],[24.768128,42.02053],[24.767891,42.020335],[24.767769,42.020198],[24.767688,42.020185],[24.767587,42.0202],[24.767477,42.020258],[24.767454,42.020334],[24.767333,42.020443],[24.767149,42.020291],[24.767007,42.020224],[24.766874,42.020181],[24.766726,42.020157],[24.766422,42.020149],[24.766339,42.020124],[24.766134,42.019855],[24.765963,42.019707],[24.765855,42.019688],[24.765782,42.019723],[24.765713,42.019795],[24.764902,42.019582],[24.764601,42.019599],[24.764339,42.019698],[24.764158,42.019695],[24.763988,42.019646],[24.763851,42.019555],[24.763709,42.019357],[24.763578,42.019234],[24.763268,42.019074],[24.763068,42.019013],[24.763095,42.018965],[24.76311,42.018818],[24.7631,42.01859],[24.762426,42.018053],[24.761705,42.017873],[24.761151,42.017596],[24.760643,42.017477],[24.760165,42.017234],[24.760023,42.017118],[24.759733,42.016955],[24.759641,42.016851],[24.759334,42.016757],[24.759047,42.016701],[24.758919,42.016652],[24.758902,42.016606],[24.758569,42.0164],[24.758178,42.015962],[24.758031,42.015873],[24.757827,42.015813],[24.757344,42.015755],[24.757053,42.01567],[24.756785,42.015632],[24.756697,42.015607],[24.756025,42.015254],[24.755728,42.015162],[24.755556,42.015168],[24.755154,42.015221],[24.755192,42.015149],[24.754856,42.014803],[24.754711,42.014715],[24.754442,42.01459],[24.754478,42.014541],[24.754573,42.014254],[24.754469,42.01403],[24.754435,42.013847],[24.754369,42.0138],[24.754138,42.013785],[24.753773,42.013703],[24.753386,42.013675],[24.753043,42.013621],[24.753128,42.013685],[24.753274,42.013689],[24.753515,42.01373],[24.753643,42.013777],[24.753992,42.013818],[24.754155,42.013858],[24.754315,42.013928],[24.754393,42.014114],[24.754357,42.014174],[24.754377,42.014259],[24.754292,42.014426],[24.754237,42.01445],[24.754109,42.01443],[24.754064,42.014383],[24.754073,42.014153],[24.754047,42.014108],[24.753974,42.014027],[24.753877,42.013958],[24.753814,42.013929],[24.753745,42.013929],[24.753733,42.013952],[24.753746,42.013984],[24.75392,42.014118],[24.753952,42.014179],[24.753934,42.014232],[24.753876,42.014284],[24.753858,42.014344],[24.753895,42.01446],[24.753865,42.014525],[24.753822,42.014542],[24.753509,42.014487],[24.753189,42.014471],[24.753003,42.01436],[24.752574,42.014223],[24.752404,42.014121],[24.752201,42.014045],[24.751924,42.014027],[24.751943,42.014101],[24.752514,42.014743],[24.752858,42.015275],[24.753004,42.016013],[24.752941,42.017732],[24.752716,42.018565],[24.752637,42.019331],[24.752343,42.019929],[24.752264,42.020449],[24.752117,42.020885],[24.75204,42.021837],[24.752013,42.022676],[24.751821,42.022901],[24.751528,42.023326],[24.751534,42.023723],[24.750495,42.025048],[24.750664,42.025334],[24.750803,42.025516],[24.750996,42.02586],[24.75115,42.026342],[24.751148,42.026576],[24.751047,42.02675],[24.751083,42.026936],[24.751268,42.027298],[24.751555,42.027632],[24.751887,42.028199],[24.751883,42.028409],[24.752365,42.028005]]]},"properties":{"cadreg":28}},{"type":"Feature","geometry":{"type":"Polygon","coordinates":[[[24.761092,42.03086],[24.760309,42.03109],[24.760097,42.031107],[24.759854,42.031083],[24.759479,42.03099],[24.75908,42.030794],[24.75841,42.030286],[24.758062,42.030174],[24.757682,42.030081],[24.757518,42.030074],[24.757308,42.030146],[24.757148,42.030295],[24.756891,42.030742],[24.756908,42.030907],[24.757081,42.031445],[24.757105,42.031689],[24.757719,42.033693],[24.757663,42.034054],[24.757662,42.034189],[24.758189,42.035146],[24.758431,42.035506],[24.758513,42.035962],[24.758884,42.035687],[24.759122,42.035571],[24.759397,42.035501],[24.759835,42.035311],[24.760257,42.035194],[24.760457,42.035198],[24.760856,42.03532],[24.76116,42.035436],[24.761466,42.035497],[24.761706,42.035494],[24.76193,42.035445],[24.762113,42.035353],[24.762285,42.035289],[24.76249,42.035247],[24.762678,42.035254],[24.762884,42.035231],[24.763115,42.035229],[24.763376,42.035168],[24.763868,42.034999],[24.764021,42.034927],[24.764153,42.035414],[24.764236,42.035604],[24.764395,42.035881],[24.764333,42.036008],[24.764212,42.036125],[24.764103,42.036264],[24.764045,42.036421],[24.76415,42.036616],[24.764468,42.037017],[24.764857,42.037386],[24.764871,42.037425],[24.76484,42.037704],[24.764777,42.037908],[24.764645,42.038126],[24.764364,42.038505],[24.764175,42.038614],[24.763674,42.038819],[24.763412,42.038899],[24.763029,42.039093],[24.762927,42.039229],[24.762896,42.039381],[24.763017,42.039839],[24.762992,42.040143],[24.763023,42.040281],[24.763094,42.040436],[24.763349,42.040724],[24.763762,42.041092],[24.764069,42.041434],[24.764271,42.041093],[24.764443,42.040854],[24.764596,42.040816],[24.764848,42.040681],[24.765043,42.040763],[24.765331,42.040941],[24.765925,42.041406],[24.766299,42.042369],[24.766447,42.042616],[24.766756,42.042795],[24.767044,42.042904],[24.767247,42.043106],[24.767325,42.043127],[24.767386,42.043116],[24.767425,42.043053],[24.767503,42.043035],[24.767876,42.043462],[24.768941,42.044496],[24.769501,42.044989],[24.771221,42.046235],[24.771738,42.046414],[24.772293,42.046548],[24.77282,42.046775],[24.77296,42.046714],[24.773125,42.046599],[24.773174,42.046545],[24.77365,42.046301],[24.77378,42.046376],[24.773866,42.046324],[24.773918,42.046322],[24.773892,42.04642],[24.774256,42.046759],[24.77429,42.046857],[24.774366,42.046945],[24.774674,42.046763],[24.774999,42.046613],[24.775399,42.046456],[24.777669,42.045772],[24.778287,42.045566],[24.779014,42.04529],[24.779239,42.045137],[24.7794,42.04497],[24.779509,42.044827],[24.779604,42.044651],[24.779743,42.04418],[24.780041,42.042954],[24.780041,42.042908],[24.779886,42.042911],[24.779846,42.042404],[24.779776,42.042504],[24.779805,42.042819],[24.779747,42.042993],[24.779669,42.043458],[24.779678,42.043667],[24.779552,42.043953],[24.77954,42.044232],[24.779504,42.04442],[24.77944,42.044486],[24.779313,42.044552],[24.77912,42.044506],[24.778879,42.044425],[24.778635,42.044412],[24.778545,42.044389],[24.778174,42.044225],[24.777914,42.04413],[24.777515,42.04411],[24.777094,42.043915],[24.776908,42.043878],[24.776705,42.043902],[24.77622,42.043886],[24.77595,42.043902],[24.77569,42.043894],[24.775411,42.043859],[24.775224,42.043799],[24.77491,42.043807],[24.774677,42.043767],[24.774384,42.043693],[24.774196,42.043624],[24.774104,42.043562],[24.773975,42.043266],[24.773351,42.042768],[24.773551,42.042716],[24.773757,42.042619],[24.773916,42.042608],[24.774222,42.042682],[24.774407,42.042641],[24.77473,42.042533],[24.774928,42.042384],[24.775228,42.042109],[24.775446,42.041938],[24.775594,42.041699],[24.77569,42.041593],[24.776022,42.041335],[24.776457,42.041048],[24.776974,42.040548],[24.776923,42.040528],[24.777933,42.039159],[24.778,42.038863],[24.77792,42.038849],[24.778052,42.038288],[24.777353,42.038191],[24.776841,42.038016],[24.776564,42.037969],[24.776088,42.03811],[24.775924,42.03813],[24.77583,42.038028],[24.775567,42.038161],[24.775232,42.037974],[24.775608,42.037602],[24.77584,42.037663],[24.775901,42.037338],[24.776507,42.037405],[24.776552,42.037163],[24.776721,42.037008],[24.776991,42.03711],[24.777467,42.036954],[24.777428,42.036908],[24.777548,42.036874],[24.777711,42.036999],[24.778067,42.037107],[24.778245,42.036704],[24.778548,42.036296],[24.779386,42.035809],[24.779329,42.035766],[24.77978,42.035456],[24.779588,42.03533],[24.779335,42.03484],[24.777795,42.035339],[24.777323,42.035455],[24.776838,42.035539],[24.776595,42.03554],[24.776208,42.03557],[24.775713,42.035631],[24.775018,42.035667],[24.774283,42.035685],[24.773333,42.035738],[24.772892,42.035702],[24.772706,42.035653],[24.772591,42.035572],[24.772412,42.035489],[24.772198,42.035432],[24.772075,42.035293],[24.771994,42.035234],[24.771768,42.035131],[24.771665,42.035063],[24.771558,42.034959],[24.771327,42.034934],[24.771256,42.0349],[24.771251,42.034829],[24.771191,42.034726],[24.771079,42.034647],[24.770983,42.034612],[24.770908,42.034562],[24.770861,42.034494],[24.77089,42.034415],[24.770978,42.034327],[24.771043,42.03417],[24.771068,42.034008],[24.771086,42.033843],[24.771037,42.033673],[24.770946,42.033548],[24.770845,42.033271],[24.770775,42.033147],[24.770678,42.03305],[24.770498,42.03296],[24.770039,42.032607],[24.76982,42.032549],[24.769308,42.032498],[24.768426,42.032557],[24.767998,42.032564],[24.766505,42.031651],[24.765458,42.030916],[24.765263,42.030859],[24.764557,42.030994],[24.764112,42.031029],[24.763153,42.030962],[24.762064,42.030821],[24.761691,42.030788],[24.761458,42.030791],[24.761092,42.03086]]]},"properties":{"cadreg":29}},{"type":"Feature","geometry":{"type":"Polygon","coordinates":[[[24.769564,42.029471],[24.769435,42.029215],[24.769372,42.029165],[24.768959,42.029106],[24.768838,42.030115],[24.769447,42.030125],[24.769572,42.030035],[24.769485,42.029937],[24.769505,42.029721],[24.769564,42.029471]]]},"properties":{"cadreg":30}},{"type":"Feature","geometry":{"type":"Polygon","coordinates":[[[24.798376,42.028241],[24.798719,42.028273],[24.79875,42.028055],[24.798413,42.028033],[24.798376,42.028241]]]},"properties":{"cadreg":101}},{"type":"Feature","geometry":{"type":"Polygon","coordinates":[[[24.808089,42.042369],[24.807656,42.043365],[24.806345,42.044543],[24.805473,42.04655],[24.805397,42.046784],[24.805665,42.046981],[24.807389,42.048613],[24.809399,42.050673],[24.812116,42.053631],[24.812684,42.054449],[24.812843,42.05441],[24.812758,42.05426],[24.815768,42.053451],[24.815948,42.053439],[24.816141,42.053448],[24.816839,42.053547],[24.82372,42.049692],[24.821771,42.0481],[24.819621,42.046382],[24.818988,42.045805],[24.816893,42.044141],[24.816306,42.043759],[24.815599,42.043375],[24.814676,42.042909],[24.814185,42.042732],[24.813747,42.042603],[24.812631,42.042318],[24.81175,42.041808],[24.810671,42.041088],[24.810123,42.040672],[24.809851,42.040603],[24.808803,42.041338],[24.808089,42.042369]]]},"properties":{"cadreg":12}},{"type":"Feature","geometry":{"type":"Polygon","coordinates":[[[24.802152,42.035224],[24.8021,42.03515],[24.802091,42.035078],[24.802045,42.035018],[24.801303,42.034559],[24.801162,42.034517],[24.800982,42.03462],[24.799925,42.0351],[24.799467,42.03547],[24.798914,42.03599],[24.798418,42.036508],[24.797831,42.037009],[24.797131,42.037548],[24.796056,42.038323],[24.795054,42.038946],[24.793602,42.039907],[24.793144,42.040193],[24.79308,42.040206],[24.791849,42.040269],[24.791873,42.040372],[24.793834,42.040313],[24.795073,42.040384],[24.797629,42.041353],[24.799761,42.042263],[24.800572,42.042542],[24.802609,42.044359],[24.803791,42.04533],[24.805348,42.04681],[24.805397,42.046784],[24.805473,42.04655],[24.806345,42.044543],[24.807656,42.043365],[24.808089,42.042369],[24.808803,42.041338],[24.809851,42.040603],[24.808889,42.039743],[24.80764,42.038772],[24.806906,42.038284],[24.805725,42.037383],[24.805167,42.036977],[24.80432,42.036685],[24.803723,42.036402],[24.802152,42.035224]]]},"properties":{"cadreg":13}},{"type":"Feature","geometry":{"type":"Polygon","coordinates":[[[24.817265,42.036915],[24.817269,42.036877],[24.81761,42.036573],[24.817708,42.036546],[24.818629,42.036589],[24.819322,42.036586],[24.820099,42.036464],[24.821403,42.03629],[24.822781,42.036229],[24.823675,42.036258],[24.823958,42.036282],[24.824875,42.036763],[24.825391,42.036865],[24.82535,42.03665],[24.825065,42.036618],[24.824844,42.036542],[24.824408,42.036288],[24.824183,42.036188],[24.823795,42.036121],[24.823234,42.036072],[24.822642,42.036039],[24.821298,42.03604],[24.820808,42.036081],[24.820674,42.036114],[24.819375,42.036291],[24.819392,42.036212],[24.819244,42.036248],[24.818441,42.03628],[24.817938,42.036282],[24.81689,42.036236],[24.816026,42.036225],[24.815626,42.036203],[24.814642,42.036236],[24.814598,42.036177],[24.814305,42.036244],[24.813077,42.036358],[24.81166,42.036566],[24.81102,42.036638],[24.810544,42.036674],[24.809328,42.036731],[24.808693,42.036725],[24.808107,42.036668],[24.807443,42.036632],[24.806803,42.036503],[24.805847,42.03635],[24.805464,42.036274],[24.803596,42.035691],[24.802853,42.035294],[24.802584,42.035003],[24.80238,42.034717],[24.802058,42.034488],[24.801932,42.034435],[24.801398,42.034129],[24.801003,42.034285],[24.800581,42.034415],[24.800251,42.034608],[24.799571,42.034918],[24.799396,42.035051],[24.798108,42.036346],[24.79764,42.036748],[24.796652,42.037495],[24.796486,42.037429],[24.796113,42.03785],[24.795897,42.037775],[24.795793,42.037899],[24.79591,42.038013],[24.793144,42.039878],[24.792925,42.03999],[24.792551,42.040057],[24.792335,42.040117],[24.791678,42.040163],[24.791676,42.040304],[24.792086,42.040545],[24.791873,42.040372],[24.791849,42.040269],[24.79308,42.040206],[24.793144,42.040193],[24.793602,42.039907],[24.795054,42.038946],[24.796056,42.038323],[24.797131,42.037548],[24.797831,42.037009],[24.798418,42.036508],[24.798914,42.03599],[24.799467,42.03547],[24.799925,42.0351],[24.800982,42.03462],[24.801162,42.034517],[24.801303,42.034559],[24.802045,42.035018],[24.802091,42.035078],[24.8021,42.03515],[24.802152,42.035224],[24.803723,42.036402],[24.80432,42.036685],[24.805167,42.036977],[24.805725,42.037383],[24.806906,42.038284],[24.80764,42.038772],[24.808889,42.039743],[24.809851,42.040603],[24.810123,42.040672],[24.810671,42.041088],[24.81191,42.041909],[24.812631,42.042318],[24.813747,42.042603],[24.814185,42.042732],[24.814676,42.042909],[24.815599,42.043375],[24.816306,42.043759],[24.816893,42.044141],[24.818988,42.045805],[24.819621,42.046382],[24.821771,42.0481],[24.823748,42.049715],[24.823767,42.049723],[24.823788,42.049711],[24.8238,42.049724],[24.824229,42.049465],[24.823768,42.049006],[24.824909,42.048412],[24.827366,42.048608],[24.827397,42.048627],[24.828803,42.047285],[24.824254,42.041615],[24.822881,42.040268],[24.820222,42.03994],[24.819196,42.037124],[24.817927,42.036925],[24.817265,42.036915]]]},"properties":{"cadreg":14}},{"type":"Feature","geometry":{"type":"Polygon","coordinates":[[[24.822995,42.036228],[24.821403,42.03629],[24.820099,42.036464],[24.819322,42.036586],[24.818629,42.036589],[24.817708,42.036546],[24.81761,42.036573],[24.817269,42.036877],[24.817262,42.03691],[24.817268,42.03692],[24.817342,42.036911],[24.817927,42.036925],[24.819196,42.037124],[24.820222,42.03994],[24.822881,42.040268],[24.824254,42.041615],[24.826085,42.039991],[24.825391,42.036865],[24.824875,42.036763],[24.823958,42.036282],[24.822995,42.036228]]]},"properties":{"cadreg":15}},{"type":"Feature","geometry":{"type":"Polygon","coordinates":[[[24.775839,42.04147],[24.77569,42.041593],[24.775594,42.041699],[24.775446,42.041938],[24.775228,42.042109],[24.774928,42.042384],[24.77473,42.042533],[24.774407,42.042641],[24.774222,42.042682],[24.773916,42.042608],[24.773757,42.042619],[24.773551,42.042716],[24.773351,42.042768],[24.773975,42.043266],[24.774104,42.043562],[24.774196,42.043624],[24.774384,42.043693],[24.774677,42.043767],[24.77491,42.043807],[24.775224,42.043799],[24.775411,42.043859],[24.77569,42.043894],[24.77595,42.043902],[24.77622,42.043886],[24.776705,42.043902],[24.776908,42.043878],[24.777094,42.043915],[24.777515,42.04411],[24.777914,42.04413],[24.778174,42.044225],[24.778545,42.044389],[24.778635,42.044412],[24.778879,42.044425],[24.77912,42.044506],[24.779313,42.044552],[24.77944,42.044486],[24.779504,42.04442],[24.77954,42.044232],[24.779552,42.043953],[24.779678,42.043667],[24.779669,42.043458],[24.779747,42.042993],[24.779805,42.042819],[24.779776,42.042504],[24.779846,42.042404],[24.779843,42.042144],[24.779969,42.04182],[24.778551,42.041282],[24.77849,42.041237],[24.777717,42.04084],[24.776974,42.040548],[24.776457,42.041048],[24.775839,42.04147]]]},"properties":{"cadreg":16}},{"type":"Feature","geometry":{"type":"Polygon","coordinates":[[[24.793916,42.033529],[24.793723,42.033657],[24.793663,42.034378],[24.793204,42.035452],[24.793028,42.035724],[24.792693,42.036028],[24.792371,42.036233],[24.792844,42.036698],[24.793228,42.037152],[24.793521,42.037466],[24.794097,42.038002],[24.795127,42.037326],[24.795793,42.037899],[24.795897,42.037775],[24.796113,42.03785],[24.796486,42.037429],[24.796652,42.037495],[24.79764,42.036748],[24.798108,42.036346],[24.799396,42.035051],[24.799571,42.034918],[24.800251,42.034608],[24.800581,42.034415],[24.801003,42.034285],[24.801398,42.034129],[24.801932,42.034435],[24.802058,42.034488],[24.80284,42.034056],[24.80267,42.033953],[24.802424,42.033867],[24.801673,42.033717],[24.801261,42.033584],[24.800954,42.03338],[24.800634,42.03306],[24.800474,42.032785],[24.800366,42.032493],[24.800351,42.032165],[24.800305,42.031935],[24.8002,42.031712],[24.800037,42.031498],[24.799883,42.031356],[24.799726,42.031263],[24.799512,42.031223],[24.799244,42.031213],[24.798816,42.031222],[24.798145,42.031257],[24.797328,42.031359],[24.797008,42.031438],[24.796981,42.031393],[24.795466,42.032201],[24.795662,42.032417],[24.795364,42.032582],[24.795365,42.032842],[24.795038,42.032865],[24.794761,42.032925],[24.794889,42.033055],[24.794223,42.033608],[24.793957,42.033567],[24.793916,42.033529]]]},"properties":{"cadreg":17}},{"type":"Feature","geometry":{"type":"Polygon","coordinates":[[[24.802833,42.03406],[24.802058,42.034488],[24.80238,42.034717],[24.802584,42.035003],[24.802853,42.035294],[24.803596,42.035691],[24.805464,42.036274],[24.805847,42.03635],[24.806803,42.036503],[24.807443,42.036632],[24.808107,42.036668],[24.808693,42.036725],[24.809328,42.036731],[24.810544,42.036674],[24.81102,42.036638],[24.81166,42.036566],[24.813077,42.036358],[24.814305,42.036244],[24.814598,42.036177],[24.814545,42.035912],[24.814271,42.035514],[24.81412,42.03504],[24.814057,42.034725],[24.813986,42.034613],[24.813671,42.034307],[24.813614,42.034206],[24.813469,42.033826],[24.813271,42.033591],[24.813218,42.03336],[24.812816,42.032625],[24.8126,42.032684],[24.812441,42.032783],[24.812211,42.032892],[24.812031,42.033008],[24.811415,42.03322],[24.811391,42.033368],[24.811114,42.033661],[24.810923,42.033756],[24.810684,42.033838],[24.810279,42.033878],[24.808972,42.034148],[24.808115,42.034429],[24.807856,42.034535],[24.807765,42.034533],[24.807616,42.034506],[24.807143,42.034378],[24.806895,42.03434],[24.806669,42.034434],[24.806481,42.034568],[24.80619,42.03467],[24.805859,42.03474],[24.805465,42.03477],[24.804636,42.034792],[24.80431,42.034763],[24.803342,42.034573],[24.803088,42.034304],[24.802994,42.034166],[24.802925,42.034206],[24.802833,42.03406]]]},"properties":{"cadreg":18}},{"type":"Feature","geometry":{"type":"Polygon","coordinates":[[[24.817414,42.031001],[24.81731,42.030909],[24.816905,42.031095],[24.815578,42.031474],[24.814929,42.031597],[24.81496,42.031622],[24.814776,42.031672],[24.814652,42.031757],[24.814445,42.031836],[24.81422,42.031975],[24.81385,42.032292],[24.813401,42.032459],[24.813117,42.032523],[24.812816,42.032625],[24.813218,42.03336],[24.813271,42.033591],[24.813469,42.033826],[24.813614,42.034206],[24.813671,42.034307],[24.813986,42.034613],[24.814057,42.034725],[24.81412,42.03504],[24.814271,42.035514],[24.814545,42.035912],[24.814598,42.036177],[24.814642,42.036236],[24.815626,42.036203],[24.816026,42.036225],[24.81689,42.036236],[24.817938,42.036282],[24.818441,42.03628],[24.819244,42.036248],[24.819392,42.036212],[24.819434,42.036154],[24.819475,42.035985],[24.8195,42.035663],[24.819519,42.034986],[24.819429,42.034709],[24.819333,42.034489],[24.819198,42.034262],[24.819108,42.03401],[24.81886,42.033578],[24.819069,42.033514],[24.819164,42.033466],[24.818916,42.03322],[24.81833,42.032219],[24.818119,42.031904],[24.817414,42.031001]]]},"properties":{"cadreg":19}},{"type":"Feature","geometry":{"type":"Polygon","coordinates":[[[24.817489,42.030859],[24.817334,42.03093],[24.817414,42.031001],[24.818119,42.031904],[24.81833,42.032219],[24.818916,42.03322],[24.819164,42.033466],[24.819069,42.033514],[24.81886,42.033578],[24.819108,42.03401],[24.819198,42.034262],[24.819333,42.034489],[24.819429,42.034709],[24.819519,42.034986],[24.819475,42.035985],[24.819434,42.036154],[24.819392,42.036212],[24.819375,42.036291],[24.820674,42.036114],[24.820808,42.036081],[24.821298,42.03604],[24.822642,42.036039],[24.823234,42.036072],[24.823795,42.036121],[24.824183,42.036188],[24.824408,42.036288],[24.824844,42.036542],[24.825065,42.036618],[24.82535,42.03665],[24.825294,42.036353],[24.825056,42.036269],[24.824688,42.036098],[24.824379,42.035932],[24.824126,42.033098],[24.82415,42.033051],[24.823907,42.032914],[24.823146,42.032735],[24.822715,42.032711],[24.822341,42.032147],[24.822199,42.031538],[24.821674,42.031083],[24.821786,42.030918],[24.821777,42.030812],[24.8215,42.030539],[24.82141,42.030516],[24.821191,42.030624],[24.820683,42.030838],[24.820487,42.030873],[24.820061,42.030879],[24.819808,42.030855],[24.819503,42.030784],[24.818927,42.030584],[24.818653,42.030543],[24.818403,42.030563],[24.817892,42.030622],[24.817489,42.030859]]]},"properties":{"cadreg":20}},{"type":"Feature","geometry":{"type":"Polygon","coordinates":[[[24.802862,42.026622],[24.80266,42.02655],[24.80263,42.026496],[24.802398,42.026382],[24.802282,42.02634],[24.802211,42.026341],[24.802048,42.026384],[24.801702,42.026497],[24.801681,42.026871],[24.801698,42.027043],[24.801818,42.027591],[24.801651,42.027626],[24.801537,42.027669],[24.801432,42.027726],[24.80135,42.027803],[24.801291,42.027883],[24.801104,42.02832],[24.801046,42.028857],[24.801012,42.02891],[24.800948,42.028947],[24.800864,42.02896],[24.800754,42.029031],[24.801099,42.029142],[24.801597,42.029411],[24.801709,42.029491],[24.801768,42.029544],[24.801785,42.029885],[24.80184,42.030034],[24.801976,42.030145],[24.802207,42.030225],[24.802341,42.030258],[24.802514,42.030243],[24.802742,42.030201],[24.803001,42.030117],[24.803161,42.030092],[24.803778,42.030103],[24.804057,42.030151],[24.804275,42.030206],[24.804611,42.030428],[24.804876,42.030631],[24.805313,42.031028],[24.80637,42.032004],[24.806529,42.032274],[24.806696,42.032326],[24.807203,42.032396],[24.807411,42.032444],[24.807646,42.03254],[24.808048,42.032669],[24.808271,42.032676],[24.808472,42.032659],[24.809147,42.032506],[24.809641,42.032448],[24.809899,42.032477],[24.810356,42.032566],[24.810806,42.032579],[24.811026,42.032616],[24.811389,42.032639],[24.812021,42.032638],[24.812157,42.032623],[24.812463,42.03254],[24.812551,42.032715],[24.8126,42.032684],[24.812867,42.032611],[24.813117,42.032523],[24.813401,42.032459],[24.81385,42.032292],[24.81422,42.031975],[24.814445,42.031836],[24.814652,42.031757],[24.814776,42.031672],[24.81496,42.031622],[24.814929,42.031597],[24.815578,42.031474],[24.816905,42.031095],[24.81731,42.030909],[24.817334,42.03093],[24.817489,42.030859],[24.817892,42.030622],[24.818616,42.030546],[24.818676,42.030364],[24.818722,42.029994],[24.818647,42.029686],[24.818314,42.028993],[24.818235,42.028763],[24.818155,42.028631],[24.818064,42.028561],[24.817987,42.028553],[24.817923,42.028582],[24.817293,42.029015],[24.817219,42.029027],[24.817066,42.029025],[24.816903,42.028995],[24.816635,42.028841],[24.816407,42.028684],[24.81621,42.028517],[24.816057,42.028424],[24.815865,42.028369],[24.815712,42.028378],[24.815514,42.028445],[24.815242,42.028836],[24.815167,42.029023],[24.815055,42.029228],[24.814928,42.029413],[24.814799,42.029534],[24.81461,42.029597],[24.814253,42.029371],[24.813677,42.029046],[24.813555,42.028927],[24.813503,42.02881],[24.813506,42.028243],[24.813493,42.028204],[24.813048,42.027708],[24.812577,42.027357],[24.812395,42.027174],[24.812384,42.027078],[24.812402,42.026847],[24.812378,42.026727],[24.812299,42.026612],[24.812338,42.026066],[24.812387,42.02571],[24.812345,42.025445],[24.812217,42.025226],[24.812004,42.025015],[24.811773,42.024705],[24.811567,42.024284],[24.811078,42.024006],[24.809686,42.024376],[24.809511,42.024532],[24.80919,42.024743],[24.809163,42.024796],[24.809149,42.024955],[24.809076,42.025003],[24.80876,42.025064],[24.808581,42.025086],[24.808498,42.025078],[24.807391,42.025869],[24.803902,42.026617],[24.802862,42.026622]]]},"properties":{"cadreg":21}},{"type":"Feature","geometry":{"type":"Polygon","coordinates":[[[24.798788,42.028311],[24.798691,42.028824],[24.797778,42.028779],[24.797703,42.028809],[24.796849,42.028988],[24.797586,42.029635],[24.797643,42.029603],[24.797743,42.0297],[24.797618,42.029791],[24.797476,42.029837],[24.797254,42.029871],[24.797257,42.029845],[24.797042,42.02987],[24.796882,42.029654],[24.796403,42.029218],[24.796302,42.029724],[24.796236,42.029901],[24.796234,42.030093],[24.795692,42.03025],[24.795894,42.030651],[24.795958,42.030697],[24.796004,42.030794],[24.796367,42.031117],[24.796525,42.031034],[24.796896,42.031447],[24.796981,42.031393],[24.797008,42.031438],[24.797328,42.031359],[24.798145,42.031257],[24.799244,42.031213],[24.799512,42.031223],[24.799726,42.031263],[24.799883,42.031356],[24.800037,42.031498],[24.8002,42.031712],[24.800305,42.031935],[24.800351,42.032165],[24.800366,42.032493],[24.800474,42.032785],[24.800634,42.03306],[24.800954,42.03338],[24.801261,42.033584],[24.801673,42.033717],[24.802424,42.033867],[24.80267,42.033953],[24.802826,42.034037],[24.802925,42.034206],[24.802994,42.034166],[24.803088,42.034304],[24.803342,42.034573],[24.80431,42.034763],[24.804636,42.034792],[24.805465,42.03477],[24.805859,42.03474],[24.80619,42.03467],[24.806481,42.034568],[24.806669,42.034434],[24.806895,42.03434],[24.807143,42.034378],[24.807616,42.034506],[24.807765,42.034533],[24.807856,42.034535],[24.808115,42.034429],[24.808972,42.034148],[24.810279,42.033878],[24.810684,42.033838],[24.810923,42.033756],[24.811114,42.033661],[24.811391,42.033368],[24.811415,42.03322],[24.812031,42.033008],[24.812211,42.032892],[24.812441,42.032783],[24.812551,42.032715],[24.812463,42.03254],[24.812157,42.032623],[24.812021,42.032638],[24.811389,42.032639],[24.811026,42.032616],[24.810806,42.032579],[24.810356,42.032566],[24.809899,42.032477],[24.809641,42.032448],[24.809147,42.032506],[24.808472,42.032659],[24.808271,42.032676],[24.808048,42.032669],[24.807646,42.03254],[24.807411,42.032444],[24.807203,42.032396],[24.806696,42.032326],[24.806529,42.032274],[24.80637,42.032004],[24.804876,42.030631],[24.804611,42.030428],[24.804275,42.030206],[24.804057,42.030151],[24.803778,42.030103],[24.803161,42.030092],[24.803001,42.030117],[24.802742,42.030201],[24.802514,42.030243],[24.802341,42.030258],[24.802207,42.030225],[24.801976,42.030145],[24.80184,42.030034],[24.801785,42.029885],[24.801768,42.029544],[24.801597,42.029411],[24.801099,42.029142],[24.800754,42.029031],[24.800864,42.02896],[24.800567,42.028848],[24.79986,42.028503],[24.799524,42.028394],[24.798788,42.028311]]]},"properties":{"cadreg":22}}]}