{"type":"FeatureCollection","features":[{"type":"Feature","geometry":{"type":"Polygon","coordinates":[[[24.855981,41.723056],[24.855918,41.723018],[24.855873,41.72306],[24.855936,41.723098],[24.855981,41.723056]]]},"properties":{"num":1}},{"type":"Feature","geometry":{"type":"Polygon","coordinates":[[[24.855478,41.722276],[24.855347,41.722267],[24.855338,41.722344],[24.855234,41.722337],[24.855218,41.722463],[24.855508,41.722482],[24.855523,41.72236],[24.855468,41.722357],[24.855478,41.722276]]]},"properties":{"num":1}},{"type":"Feature","geometry":{"type":"Polygon","coordinates":[[[24.856585,41.723406],[24.85661,41.723339],[24.856529,41.723321],[24.856504,41.72339],[24.856585,41.723406]]]},"properties":{"num":1}},{"type":"Feature","geometry":{"type":"Polygon","coordinates":[[[24.85659,41.723394],[24.856733,41.723389],[24.856737,41.723367],[24.8566,41.723365],[24.85659,41.723394]]]},"properties":{"num":2}},{"type":"Feature","geometry":{"type":"Polygon","coordinates":[[[24.868092,41.773124],[24.867972,41.773143],[24.867985,41.773186],[24.868104,41.773167],[24.868092,41.773124]]]},"properties":{"num":1}},{"type":"Feature","geometry":{"type":"Polygon","coordinates":[[[24.868059,41.773199],[24.868053,41.773175],[24.867985,41.773186],[24.867996,41.773208],[24.868059,41.773199]]]},"properties":{"num":2}},{"type":"Feature","geometry":{"type":"Polygon","coordinates":[[[24.868018,41.773342],[24.868067,41.773274],[24.868016,41.773256],[24.867966,41.773326],[24.868018,41.773342]]]},"properties":{"num":3}},{"type":"Feature","geometry":{"type":"Polygon","coordinates":[[[24.868625,41.772732],[24.868661,41.772769],[24.868769,41.772711],[24.868732,41.772674],[24.868625,41.772732]]]},"properties":{"num":1}},{"type":"Feature","geometry":{"type":"Polygon","coordinates":[[[24.869005,41.772711],[24.869037,41.772743],[24.869105,41.772705],[24.869073,41.772673],[24.869005,41.772711]]]},"properties":{"num":2}},{"type":"Feature","geometry":{"type":"Polygon","coordinates":[[[24.867939,41.772799],[24.867938,41.772871],[24.86802,41.772876],[24.868022,41.772803],[24.867939,41.772799]]]},"properties":{"num":1}},{"type":"Feature","geometry":{"type":"Polygon","coordinates":[[[24.86774,41.772371],[24.86773,41.7723],[24.867608,41.772308],[24.867615,41.77236],[24.867683,41.772356],[24.867685,41.772376],[24.86774,41.772371]]]},"properties":{"num":1}},{"type":"Feature","geometry":{"type":"Polygon","coordinates":[[[24.867144,41.772922],[24.867055,41.772897],[24.867021,41.772965],[24.867115,41.772988],[24.867144,41.772922]]]},"properties":{"num":1}},{"type":"Feature","geometry":{"type":"Polygon","coordinates":[[[24.867131,41.772847],[24.867091,41.772839],[24.86707,41.772901],[24.867109,41.772912],[24.867131,41.772847]]]},"properties":{"num":2}},{"type":"Feature","geometry":{"type":"Polygon","coordinates":[[[24.867451,41.772678],[24.867446,41.772632],[24.867323,41.772638],[24.867328,41.772684],[24.867451,41.772678]]]},"properties":{"num":1}},{"type":"Feature","geometry":{"type":"Polygon","coordinates":[[[24.867008,41.772306],[24.866943,41.772271],[24.866863,41.772355],[24.866928,41.772389],[24.867008,41.772306]]]},"properties":{"num":1}},{"type":"Feature","geometry":{"type":"Polygon","coordinates":[[[24.867123,41.772328],[24.867077,41.77229],[24.867008,41.772337],[24.867057,41.772377],[24.867123,41.772328]]]},"properties":{"num":2}},{"type":"Feature","geometry":{"type":"Polygon","coordinates":[[[24.857054,41.749054],[24.856954,41.749074],[24.856979,41.74914],[24.857076,41.749117],[24.857054,41.749054]]]},"properties":{"num":1}},{"type":"Feature","geometry":{"type":"Polygon","coordinates":[[[24.856991,41.748969],[24.856942,41.748948],[24.856902,41.749004],[24.856953,41.749022],[24.856991,41.748969]]]},"properties":{"num":2}},{"type":"Feature","geometry":{"type":"Polygon","coordinates":[[[24.858153,41.746243],[24.858178,41.746173],[24.858097,41.746158],[24.858071,41.746229],[24.858153,41.746243]]]},"properties":{"num":1}},{"type":"Feature","geometry":{"type":"Polygon","coordinates":[[[24.858131,41.74624],[24.858126,41.746254],[24.858148,41.746258],[24.858153,41.746243],[24.858131,41.74624]]]},"properties":{"num":2}},{"type":"Feature","geometry":{"type":"Polygon","coordinates":[[[24.858071,41.746229],[24.858057,41.746268],[24.858105,41.746277],[24.85812,41.746237],[24.858071,41.746229]]]},"properties":{"num":3}},{"type":"Feature","geometry":{"type":"Polygon","coordinates":[[[24.854797,41.747625],[24.854773,41.747643],[24.854816,41.747674],[24.854839,41.747656],[24.854797,41.747625]]]},"properties":{"num":2}},{"type":"Feature","geometry":{"type":"Polygon","coordinates":[[[24.854386,41.747602],[24.854333,41.747543],[24.854191,41.747614],[24.854246,41.747675],[24.854386,41.747602]]]},"properties":{"num":1}},{"type":"Feature","geometry":{"type":"Polygon","coordinates":[[[24.854246,41.747675],[24.854265,41.747697],[24.854324,41.747667],[24.854319,41.74766],[24.854397,41.747615],[24.854386,41.747602],[24.854246,41.747675]]]},"properties":{"num":2}},{"type":"Feature","geometry":{"type":"Polygon","coordinates":[[[24.854089,41.747731],[24.85413,41.747774],[24.854214,41.747729],[24.854174,41.747688],[24.854089,41.747731]]]},"properties":{"num":3}},{"type":"Feature","geometry":{"type":"Polygon","coordinates":[[[24.854125,41.747712],[24.854094,41.747678],[24.854058,41.747696],[24.854089,41.747731],[24.854125,41.747712]]]},"properties":{"num":4}},{"type":"Feature","geometry":{"type":"Polygon","coordinates":[[[24.854817,41.747503],[24.85481,41.747446],[24.854713,41.747453],[24.85472,41.74751],[24.854817,41.747503]]]},"properties":{"num":1}},{"type":"Feature","geometry":{"type":"Polygon","coordinates":[[[24.854713,41.747453],[24.85477,41.747449],[24.854767,41.747422],[24.85471,41.747426],[24.854713,41.747453]]]},"properties":{"num":2}},{"type":"Feature","geometry":{"type":"Polygon","coordinates":[[[24.854707,41.747402],[24.85471,41.747426],[24.854767,41.747422],[24.854764,41.747398],[24.854707,41.747402]]]},"properties":{"num":3}},{"type":"Feature","geometry":{"type":"Polygon","coordinates":[[[24.851082,41.72898],[24.851193,41.728953],[24.851175,41.728909],[24.851063,41.728938],[24.851082,41.72898]]]},"properties":{"num":1}},{"type":"Feature","geometry":{"type":"Polygon","coordinates":[[[24.851435,41.728512],[24.851518,41.728538],[24.851529,41.728519],[24.851542,41.728523],[24.851592,41.728434],[24.851498,41.728401],[24.851435,41.728512]]]},"properties":{"num":1}},{"type":"Feature","geometry":{"type":"Polygon","coordinates":[[[24.860126,41.725777],[24.860101,41.725735],[24.86001,41.725765],[24.860036,41.725808],[24.860126,41.725777]]]},"properties":{"num":1}},{"type":"Feature","geometry":{"type":"Polygon","coordinates":[[[24.852005,41.727564],[24.851638,41.727795],[24.8517,41.727848],[24.851836,41.727762],[24.851846,41.727771],[24.851944,41.727709],[24.851934,41.727701],[24.852066,41.727617],[24.852005,41.727564]]]},"properties":{"num":1}},{"type":"Feature","geometry":{"type":"Polygon","coordinates":[[[24.851446,41.72783],[24.851481,41.727853],[24.851643,41.727732],[24.851613,41.727709],[24.851446,41.72783]]]},"properties":{"num":2}},{"type":"Feature","geometry":{"type":"Polygon","coordinates":[[[24.852314,41.727402],[24.852363,41.727447],[24.852517,41.727359],[24.852471,41.727313],[24.852314,41.727402]]]},"properties":{"num":1}},{"type":"Feature","geometry":{"type":"Polygon","coordinates":[[[24.852706,41.726474],[24.852765,41.726553],[24.852818,41.726531],[24.85276,41.726452],[24.852706,41.726474]]]},"properties":{"num":1}},{"type":"Feature","geometry":{"type":"Polygon","coordinates":[[[24.853236,41.725487],[24.853205,41.725465],[24.853121,41.725531],[24.853153,41.725552],[24.853236,41.725487]]]},"properties":{"num":1}},{"type":"Feature","geometry":{"type":"Polygon","coordinates":[[[24.852839,41.724979],[24.852943,41.724959],[24.852922,41.724899],[24.852816,41.724919],[24.852839,41.724979]]]},"properties":{"num":1}},{"type":"Feature","geometry":{"type":"Polygon","coordinates":[[[24.852982,41.724842],[24.852923,41.72486],[24.852939,41.724891],[24.853003,41.724875],[24.852982,41.724842]]]},"properties":{"num":2}},{"type":"Feature","geometry":{"type":"Polygon","coordinates":[[[24.853031,41.724928],[24.852978,41.72494],[24.852991,41.724973],[24.853048,41.724959],[24.853031,41.724928]]]},"properties":{"num":3}},{"type":"Feature","geometry":{"type":"Polygon","coordinates":[[[24.852501,41.724975],[24.852493,41.724977],[24.852507,41.725015],[24.852562,41.725003],[24.852541,41.724949],[24.852495,41.724959],[24.852501,41.724975]]]},"properties":{"num":1}},{"type":"Feature","geometry":{"type":"Polygon","coordinates":[[[24.852666,41.724941],[24.852662,41.724903],[24.852559,41.724909],[24.852563,41.724947],[24.852584,41.724946],[24.852585,41.724957],[24.852652,41.724953],[24.85265,41.724942],[24.852666,41.724941]]]},"properties":{"num":2}},{"type":"Feature","geometry":{"type":"Polygon","coordinates":[[[24.852495,41.724959],[24.852407,41.724978],[24.852428,41.725032],[24.852468,41.725023],[24.852472,41.725034],[24.8525,41.725027],[24.852497,41.725017],[24.852507,41.725015],[24.852493,41.724977],[24.852501,41.724975],[24.852495,41.724959]]]},"properties":{"num":1}},{"type":"Feature","geometry":{"type":"Polygon","coordinates":[[[24.852339,41.724978],[24.852307,41.725009],[24.852337,41.725027],[24.852369,41.724996],[24.852339,41.724978]]]},"properties":{"num":2}},{"type":"Feature","geometry":{"type":"Polygon","coordinates":[[[24.854604,41.723371],[24.85452,41.72338],[24.854532,41.723427],[24.854616,41.723415],[24.854604,41.723371]]]},"properties":{"num":1}},{"type":"Feature","geometry":{"type":"Polygon","coordinates":[[[24.854528,41.723414],[24.85452,41.72338],[24.854476,41.723384],[24.854483,41.723404],[24.854499,41.723402],[24.854503,41.723418],[24.854528,41.723414]]]},"properties":{"num":2}},{"type":"Feature","geometry":{"type":"Polygon","coordinates":[[[24.854704,41.723405],[24.854689,41.723358],[24.854604,41.723371],[24.854616,41.723415],[24.854704,41.723405]]]},"properties":{"num":3}},{"type":"Feature","geometry":{"type":"Polygon","coordinates":[[[24.854769,41.723407],[24.85475,41.723345],[24.854689,41.723358],[24.854708,41.723418],[24.854769,41.723407]]]},"properties":{"num":4}},{"type":"Feature","geometry":{"type":"Polygon","coordinates":[[[24.854603,41.72337],[24.854596,41.723341],[24.854514,41.723352],[24.85452,41.72338],[24.854603,41.72337]]]},"properties":{"num":5}},{"type":"Feature","geometry":{"type":"Polygon","coordinates":[[[24.854265,41.723382],[24.854271,41.723365],[24.854353,41.723376],[24.854357,41.723359],[24.854165,41.723338],[24.854162,41.723368],[24.854265,41.723382]]]},"properties":{"num":6}},{"type":"Feature","geometry":{"type":"Polygon","coordinates":[[[24.854511,41.723432],[24.85447,41.723423],[24.854465,41.723442],[24.854503,41.723451],[24.854511,41.723432]]]},"properties":{"num":7}},{"type":"Feature","geometry":{"type":"Polygon","coordinates":[[[24.853588,41.724026],[24.853624,41.723968],[24.853545,41.723948],[24.853515,41.724007],[24.853588,41.724026]]]},"properties":{"num":1}},{"type":"Feature","geometry":{"type":"Polygon","coordinates":[[[24.853503,41.724032],[24.85358,41.724039],[24.853588,41.724026],[24.853515,41.724007],[24.853503,41.724032]]]},"properties":{"num":2}},{"type":"Feature","geometry":{"type":"Polygon","coordinates":[[[24.853509,41.72391],[24.853551,41.723932],[24.853584,41.723893],[24.853544,41.723874],[24.853509,41.72391]]]},"properties":{"num":3}},{"type":"Feature","geometry":{"type":"Polygon","coordinates":[[[24.854854,41.723375],[24.854839,41.723329],[24.85475,41.723345],[24.854764,41.723391],[24.854854,41.723375]]]},"properties":{"num":1}},{"type":"Feature","geometry":{"type":"Polygon","coordinates":[[[24.854839,41.723329],[24.854829,41.723296],[24.854743,41.723313],[24.85475,41.723345],[24.854839,41.723329]]]},"properties":{"num":2}},{"type":"Feature","geometry":{"type":"Polygon","coordinates":[[[24.853465,41.723271],[24.8535,41.72326],[24.853489,41.72324],[24.853518,41.723231],[24.853497,41.723194],[24.853476,41.723201],[24.853468,41.723184],[24.853397,41.723203],[24.853425,41.72326],[24.853456,41.723251],[24.853465,41.723271]]]},"properties":{"num":1}},{"type":"Feature","geometry":{"type":"Polygon","coordinates":[[[24.853386,41.723259],[24.853378,41.723229],[24.853329,41.723236],[24.853339,41.723265],[24.853386,41.723259]]]},"properties":{"num":2}},{"type":"Feature","geometry":{"type":"Polygon","coordinates":[[[24.853239,41.723158],[24.853204,41.723116],[24.853172,41.723131],[24.853211,41.723178],[24.853239,41.723158]]]},"properties":{"num":3}},{"type":"Feature","geometry":{"type":"Polygon","coordinates":[[[24.853526,41.723175],[24.853538,41.723201],[24.853563,41.723197],[24.85356,41.72319],[24.853582,41.723186],[24.853576,41.723166],[24.853526,41.723175]]]},"properties":{"num":4}},{"type":"Feature","geometry":{"type":"Polygon","coordinates":[[[24.853663,41.723075],[24.853685,41.723062],[24.853676,41.723052],[24.85365,41.723063],[24.853663,41.723075]]]},"properties":{"num":5}},{"type":"Feature","geometry":{"type":"Polygon","coordinates":[[[24.853695,41.723087],[24.853707,41.723071],[24.853687,41.723063],[24.853676,41.723079],[24.853695,41.723087]]]},"properties":{"num":6}},{"type":"Feature","geometry":{"type":"Polygon","coordinates":[[[24.853141,41.723501],[24.853136,41.723462],[24.853042,41.723468],[24.853046,41.723507],[24.853141,41.723501]]]},"properties":{"num":1}},{"type":"Feature","geometry":{"type":"Polygon","coordinates":[[[24.862981,41.771113],[24.863067,41.77122],[24.863141,41.771184],[24.863114,41.771142],[24.863058,41.771076],[24.862981,41.771113]]]},"properties":{"num":1}},{"type":"Feature","geometry":{"type":"Polygon","coordinates":[[[24.863004,41.771029],[24.862947,41.770997],[24.86291,41.771033],[24.862967,41.771066],[24.863004,41.771029]]]},"properties":{"num":1}},{"type":"Feature","geometry":{"type":"Polygon","coordinates":[[[24.860075,41.724104],[24.860111,41.724066],[24.860128,41.724066],[24.860135,41.724054],[24.860124,41.724044],[24.860108,41.724048],[24.860061,41.724022],[24.860014,41.724069],[24.860075,41.724104]]]},"properties":{"num":1}},{"type":"Feature","geometry":{"type":"Polygon","coordinates":[[[24.860061,41.724022],[24.860043,41.724012],[24.859995,41.724058],[24.860014,41.724069],[24.860061,41.724022]]]},"properties":{"num":2}},{"type":"Feature","geometry":{"type":"Polygon","coordinates":[[[24.859416,41.724171],[24.859427,41.724181],[24.859474,41.724198],[24.859527,41.72421],[24.859549,41.724156],[24.859437,41.72413],[24.859431,41.724154],[24.859416,41.724171]]]},"properties":{"num":1}},{"type":"Feature","geometry":{"type":"Polygon","coordinates":[[[24.841103,41.720168],[24.841045,41.720155],[24.841034,41.720197],[24.84109,41.720207],[24.841094,41.720196],[24.841099,41.720197],[24.841103,41.720168]]]},"properties":{"num":1}},{"type":"Feature","geometry":{"type":"Polygon","coordinates":[[[24.86037,41.723787],[24.860289,41.723766],[24.860267,41.723813],[24.860348,41.723835],[24.86037,41.723787]]]},"properties":{"num":1}},{"type":"Feature","geometry":{"type":"Polygon","coordinates":[[[24.829577,41.729958],[24.829471,41.729976],[24.829489,41.730043],[24.829543,41.730034],[24.829551,41.730063],[24.829606,41.730055],[24.829577,41.729958]]]},"properties":{"num":1}},{"type":"Feature","geometry":{"type":"Polygon","coordinates":[[[24.871319,41.766531],[24.87133,41.766536],[24.871306,41.76657],[24.871363,41.766592],[24.871392,41.76655],[24.871403,41.766554],[24.871433,41.766513],[24.871351,41.766481],[24.871319,41.766531]]]},"properties":{"num":1}},{"type":"Feature","geometry":{"type":"Polygon","coordinates":[[[24.870961,41.766897],[24.870914,41.766884],[24.870825,41.767065],[24.870872,41.767078],[24.870961,41.766897]]]},"properties":{"num":1}},{"type":"Feature","geometry":{"type":"Polygon","coordinates":[[[24.898013,41.757304],[24.898091,41.757157],[24.898035,41.75714],[24.897957,41.757287],[24.898013,41.757304]]]},"properties":{"num":1}},{"type":"Feature","geometry":{"type":"Polygon","coordinates":[[[24.837017,41.692841],[24.837013,41.692813],[24.836969,41.692816],[24.836972,41.692844],[24.837017,41.692841]]]},"properties":{"num":1}}]}