{"type":"FeatureCollection","features":[{"type":"Feature","geometry":{"type":"Polygon","coordinates":[[[24.625248,42.134893],[24.625237,42.137178],[24.625138,42.137385],[24.625115,42.138058],[24.625118,42.138193],[24.625164,42.138437],[24.625273,42.138583],[24.625354,42.138663],[24.625752,42.138806],[24.625897,42.138907],[24.626047,42.139051],[24.626157,42.139214],[24.626321,42.13934],[24.626797,42.139876],[24.62707,42.140274],[24.627228,42.140467],[24.627442,42.140841],[24.627581,42.140968],[24.62783,42.14133],[24.627877,42.14143],[24.628065,42.141708],[24.628201,42.142013],[24.628617,42.142522],[24.629034,42.143086],[24.629113,42.143242],[24.629291,42.143407],[24.629814,42.143625],[24.630025,42.143897],[24.630442,42.144531],[24.63058,42.144838],[24.630842,42.14526],[24.631108,42.145618],[24.631245,42.145734],[24.631333,42.145902],[24.631926,42.146571],[24.631982,42.146612],[24.632086,42.14665],[24.632335,42.146829],[24.633013,42.147155],[24.633135,42.147231],[24.633345,42.147404],[24.633518,42.147642],[24.633583,42.14779],[24.633613,42.147883],[24.633643,42.148251],[24.63377,42.148692],[24.633827,42.148791],[24.633883,42.148975],[24.633887,42.148465],[24.633829,42.148183],[24.633798,42.147802],[24.633906,42.147478],[24.633881,42.14743],[24.632505,42.146728],[24.632669,42.146382],[24.632679,42.146327],[24.634373,42.14642],[24.635433,42.146424],[24.635259,42.144848],[24.636947,42.144507],[24.635176,42.139524],[24.634987,42.139035],[24.634943,42.138673],[24.634997,42.136711],[24.635038,42.135587],[24.635101,42.135495],[24.635107,42.135441],[24.625248,42.134893]]]},"properties":{"cadreg":8}},{"type":"Feature","geometry":{"type":"Polygon","coordinates":[[[24.636946,42.144503],[24.638112,42.14427],[24.639158,42.144289],[24.639274,42.144636],[24.639206,42.144616],[24.639397,42.145478],[24.639814,42.146687],[24.639858,42.146707],[24.640032,42.146653],[24.64002,42.146634],[24.64048,42.146531],[24.640814,42.146411],[24.641007,42.146238],[24.642731,42.145113],[24.643056,42.145333],[24.643258,42.145493],[24.641838,42.146436],[24.6415,42.146719],[24.642161,42.147265],[24.642384,42.147183],[24.642712,42.147023],[24.643072,42.146885],[24.643769,42.146662],[24.644437,42.146505],[24.645015,42.146277],[24.645714,42.146078],[24.64593,42.146469],[24.646005,42.146446],[24.646421,42.147158],[24.646327,42.147188],[24.646491,42.147485],[24.645487,42.147812],[24.645275,42.147529],[24.645226,42.14755],[24.64507,42.14734],[24.644696,42.147485],[24.642744,42.148032],[24.641511,42.148772],[24.642057,42.14936],[24.641397,42.149703],[24.640869,42.149959],[24.640581,42.150076],[24.640397,42.150119],[24.639295,42.150311],[24.639536,42.150929],[24.638698,42.151109],[24.638677,42.15114],[24.637895,42.151264],[24.637872,42.151021],[24.637919,42.151013],[24.637779,42.150603],[24.637189,42.150687],[24.636503,42.150722],[24.636488,42.151235],[24.63511,42.151264],[24.635242,42.151517],[24.635828,42.151597],[24.635225,42.151604],[24.635056,42.151622],[24.634838,42.151624],[24.634644,42.151612],[24.634489,42.151584],[24.634325,42.151543],[24.634233,42.151505],[24.63397,42.151344],[24.633703,42.151082],[24.633581,42.151011],[24.633231,42.150903],[24.632927,42.150837],[24.63272,42.150815],[24.632604,42.150824],[24.63239,42.150758],[24.632238,42.150661],[24.632216,42.151215],[24.633309,42.151527],[24.634354,42.151777],[24.635374,42.152041],[24.635569,42.152064],[24.636151,42.152217],[24.636298,42.152275],[24.636544,42.152377],[24.636635,42.152504],[24.636877,42.152745],[24.637374,42.15318],[24.637469,42.153253],[24.637648,42.153355],[24.63785,42.153376],[24.63902,42.153573],[24.639566,42.153633],[24.639924,42.153697],[24.640311,42.153569],[24.640618,42.153496],[24.64104,42.153302],[24.641515,42.153137],[24.643525,42.15279],[24.645738,42.152687],[24.647624,42.152465],[24.649073,42.151746],[24.650844,42.150296],[24.652217,42.148916],[24.653136,42.14774],[24.655416,42.144227],[24.657695,42.144276],[24.658627,42.14441],[24.65934,42.144641],[24.660927,42.144874],[24.661216,42.144963],[24.661943,42.145336],[24.665527,42.147398],[24.668263,42.149004],[24.669328,42.149546],[24.670473,42.149958],[24.671469,42.150198],[24.672192,42.15046],[24.672776,42.15051],[24.676311,42.151152],[24.677812,42.15112],[24.678302,42.151032],[24.678932,42.149725],[24.678648,42.149758],[24.678436,42.149823],[24.678249,42.149845],[24.678095,42.149888],[24.677924,42.149937],[24.677668,42.150095],[24.677559,42.150145],[24.677427,42.150156],[24.677197,42.150143],[24.677117,42.150105],[24.677002,42.150021],[24.676877,42.149972],[24.676497,42.149868],[24.676394,42.14987],[24.676324,42.149899],[24.676342,42.149947],[24.676273,42.15001],[24.676014,42.149962],[24.675748,42.149935],[24.675477,42.150004],[24.675126,42.150049],[24.674854,42.150172],[24.674317,42.15036],[24.67383,42.150578],[24.673703,42.150579],[24.673402,42.150525],[24.673115,42.150425],[24.67276,42.150266],[24.672566,42.150203],[24.671798,42.150045],[24.671617,42.149989],[24.671532,42.149837],[24.671628,42.149722],[24.671767,42.149597],[24.671993,42.149425],[24.672014,42.149363],[24.671949,42.149327],[24.671858,42.149232],[24.671544,42.148857],[24.671313,42.148654],[24.671142,42.148583],[24.670978,42.148494],[24.670266,42.148243],[24.669549,42.148019],[24.668949,42.147865],[24.668645,42.147814],[24.668286,42.147778],[24.667989,42.147681],[24.667759,42.147579],[24.667659,42.147458],[24.667226,42.147148],[24.666763,42.146911],[24.66649,42.146809],[24.665891,42.146665],[24.665535,42.146365],[24.665276,42.14622],[24.665011,42.146042],[24.664701,42.14589],[24.66452,42.145818],[24.664318,42.1457],[24.664098,42.145625],[24.663822,42.145553],[24.662911,42.145355],[24.662207,42.145105],[24.66205,42.145026],[24.661965,42.144933],[24.662008,42.144866],[24.662112,42.144896],[24.662114,42.144854],[24.661898,42.144625],[24.66172,42.144589],[24.66157,42.144606],[24.661205,42.144679],[24.660809,42.144718],[24.660362,42.144692],[24.659706,42.144586],[24.659317,42.14449],[24.659168,42.144414],[24.658814,42.144321],[24.658456,42.144257],[24.657918,42.144196],[24.657491,42.144083],[24.656638,42.143751],[24.656462,42.143947],[24.656346,42.143889],[24.655694,42.143678],[24.655253,42.143478],[24.655101,42.1433],[24.655019,42.14299],[24.654863,42.142593],[24.654791,42.142458],[24.653197,42.142568],[24.650887,42.142699],[24.649065,42.14293],[24.648336,42.143046],[24.647773,42.14311],[24.647581,42.143176],[24.647334,42.143201],[24.647087,42.143257],[24.646122,42.143414],[24.645666,42.143539],[24.643786,42.143956],[24.643551,42.143977],[24.64333,42.143975],[24.642627,42.14393],[24.640906,42.143723],[24.639644,42.144101],[24.639179,42.144185],[24.638183,42.144214],[24.638112,42.144165],[24.638022,42.143977],[24.637871,42.143783],[24.637679,42.143575],[24.637091,42.143095],[24.636816,42.142916],[24.636316,42.142496],[24.63622,42.142466],[24.636946,42.144503]]]},"properties":{"cadreg":1}},{"type":"Feature","geometry":{"type":"Polygon","coordinates":[[[24.658287,42.136921],[24.652058,42.137776],[24.651972,42.137807],[24.651848,42.137609],[24.651349,42.136991],[24.65108,42.136802],[24.650441,42.13644],[24.650314,42.136333],[24.650111,42.136144],[24.649574,42.135397],[24.649439,42.135398],[24.649358,42.135294],[24.649044,42.135352],[24.649088,42.135411],[24.64911,42.135558],[24.649334,42.135873],[24.649934,42.136341],[24.65076,42.13691],[24.651613,42.137824],[24.654139,42.141002],[24.654863,42.142593],[24.655019,42.14299],[24.655101,42.1433],[24.655253,42.143478],[24.655694,42.143678],[24.656346,42.143889],[24.656462,42.143947],[24.656638,42.143751],[24.657491,42.144083],[24.657722,42.144146],[24.657918,42.144196],[24.658456,42.144257],[24.658814,42.144321],[24.659168,42.144414],[24.659217,42.144439],[24.659143,42.142484],[24.659204,42.141126],[24.659095,42.139753],[24.658379,42.136885],[24.658287,42.136921]]]},"properties":{"cadreg":2}},{"type":"Feature","geometry":{"type":"Polygon","coordinates":[[[24.670966,42.142017],[24.659206,42.142492],[24.659293,42.144478],[24.659706,42.144586],[24.660441,42.144701],[24.660809,42.144718],[24.661001,42.144703],[24.66172,42.144589],[24.661898,42.144625],[24.662114,42.144854],[24.662112,42.144896],[24.662008,42.144866],[24.661965,42.144933],[24.66205,42.145026],[24.662207,42.145105],[24.662911,42.145355],[24.663822,42.145553],[24.664098,42.145625],[24.664318,42.1457],[24.66452,42.145818],[24.664701,42.14589],[24.665011,42.146042],[24.665276,42.14622],[24.665535,42.146365],[24.665891,42.146665],[24.66649,42.146809],[24.666763,42.146911],[24.667226,42.147148],[24.667659,42.147458],[24.667759,42.147579],[24.667989,42.147681],[24.668286,42.147778],[24.668645,42.147814],[24.668949,42.147865],[24.669549,42.148019],[24.670266,42.148243],[24.670978,42.148494],[24.671142,42.148583],[24.671313,42.148654],[24.671544,42.148857],[24.671858,42.149232],[24.671949,42.149327],[24.672014,42.149363],[24.671993,42.149425],[24.671767,42.149597],[24.671628,42.149722],[24.671532,42.149837],[24.671617,42.149989],[24.671798,42.150045],[24.672566,42.150203],[24.67276,42.150266],[24.673115,42.150425],[24.673402,42.150525],[24.673703,42.150579],[24.67383,42.150578],[24.674317,42.15036],[24.674854,42.150172],[24.675126,42.150049],[24.675477,42.150004],[24.675748,42.149935],[24.676014,42.149962],[24.676273,42.15001],[24.676342,42.149947],[24.676324,42.149899],[24.676394,42.14987],[24.676497,42.149868],[24.676877,42.149972],[24.677002,42.150021],[24.677117,42.150105],[24.677197,42.150143],[24.677427,42.150156],[24.677559,42.150145],[24.677668,42.150095],[24.677924,42.149937],[24.678095,42.149888],[24.678249,42.149845],[24.678436,42.149823],[24.678648,42.149758],[24.678932,42.149725],[24.679286,42.149009],[24.676373,42.148447],[24.676361,42.147924],[24.676078,42.147874],[24.675364,42.141798],[24.675197,42.141773],[24.675098,42.140573],[24.67493,42.139085],[24.674875,42.139087],[24.674965,42.140654],[24.675124,42.141985],[24.674992,42.142054],[24.674882,42.14206],[24.674681,42.142107],[24.674081,42.142198],[24.673698,42.142242],[24.673346,42.142257],[24.673143,42.14225],[24.672614,42.142175],[24.672483,42.142175],[24.671674,42.14224],[24.671554,42.142238],[24.671257,42.142172],[24.671051,42.142086],[24.670966,42.142017]]]},"properties":{"cadreg":3}},{"type":"Feature","geometry":{"type":"Polygon","coordinates":[[[24.678857,42.141263],[24.675364,42.141798],[24.676063,42.147772],[24.676078,42.147874],[24.676361,42.147924],[24.676373,42.148447],[24.679286,42.149009],[24.679702,42.148177],[24.679667,42.148004],[24.678959,42.147028],[24.678779,42.146689],[24.678754,42.146595],[24.678709,42.145313],[24.678552,42.145213],[24.678502,42.145123],[24.678439,42.143594],[24.678582,42.143441],[24.678819,42.143056],[24.678912,42.143026],[24.679519,42.142652],[24.679711,42.142526],[24.67999,42.142296],[24.680134,42.142126],[24.680313,42.141616],[24.679345,42.141063],[24.679263,42.141137],[24.678857,42.141263]]]},"properties":{"cadreg":4}},{"type":"Feature","geometry":{"type":"Polygon","coordinates":[[[24.659095,42.139753],[24.659204,42.141126],[24.659143,42.142484],[24.659217,42.144439],[24.659293,42.144478],[24.659206,42.142492],[24.670966,42.142017],[24.671051,42.142086],[24.671257,42.142172],[24.671554,42.142238],[24.671674,42.14224],[24.672483,42.142175],[24.672614,42.142175],[24.673143,42.14225],[24.673346,42.142257],[24.673698,42.142242],[24.674304,42.14217],[24.674882,42.14206],[24.674992,42.142054],[24.675124,42.141985],[24.674965,42.140654],[24.674875,42.139087],[24.659095,42.139753]]]},"properties":{"cadreg":5}},{"type":"Feature","geometry":{"type":"Polygon","coordinates":[[[24.635038,42.135587],[24.634943,42.138673],[24.634959,42.13888],[24.634987,42.139035],[24.635176,42.139524],[24.63622,42.142466],[24.636316,42.142496],[24.636816,42.142916],[24.637091,42.143095],[24.637679,42.143575],[24.637871,42.143783],[24.638022,42.143977],[24.638112,42.144165],[24.638183,42.144214],[24.639179,42.144185],[24.639644,42.144101],[24.640906,42.143723],[24.642627,42.14393],[24.64333,42.143975],[24.643551,42.143977],[24.643786,42.143956],[24.645666,42.143539],[24.646122,42.143414],[24.647087,42.143257],[24.647334,42.143201],[24.647581,42.143176],[24.647773,42.14311],[24.648336,42.143046],[24.649065,42.14293],[24.650887,42.142699],[24.653197,42.142568],[24.654791,42.142458],[24.654139,42.141002],[24.651613,42.137824],[24.65076,42.13691],[24.649934,42.136341],[24.649334,42.135873],[24.649156,42.135632],[24.649103,42.135513],[24.649014,42.135541],[24.648247,42.135687],[24.647109,42.135882],[24.646803,42.135907],[24.645665,42.135934],[24.644496,42.135924],[24.643515,42.13589],[24.642135,42.1358],[24.641156,42.135766],[24.635107,42.135441],[24.635101,42.135495],[24.635038,42.135587]]]},"properties":{"cadreg":6}},{"type":"Feature","geometry":{"type":"Polygon","coordinates":[[[24.649139,42.133391],[24.634366,42.132609],[24.634939,42.135318],[24.629868,42.135035],[24.625257,42.134813],[24.625248,42.134893],[24.6347,42.135422],[24.641156,42.135766],[24.642135,42.1358],[24.643515,42.13589],[24.644496,42.135924],[24.645665,42.135934],[24.646803,42.135907],[24.647109,42.135882],[24.648247,42.135687],[24.649014,42.135541],[24.649103,42.135513],[24.649088,42.135411],[24.648997,42.135266],[24.648974,42.134994],[24.649139,42.133391]]]},"properties":{"cadreg":7}},{"type":"Feature","geometry":{"type":"Polygon","coordinates":[[[24.625133,42.138467],[24.624996,42.138399],[24.624898,42.13839],[24.624814,42.138428],[24.624731,42.138524],[24.624667,42.139762],[24.6262,42.145672],[24.626355,42.14597],[24.626708,42.146233],[24.626939,42.146306],[24.627666,42.146491],[24.627996,42.146615],[24.629029,42.146853],[24.630108,42.146986],[24.630707,42.147086],[24.63088,42.147428],[24.630933,42.14759],[24.631153,42.147842],[24.631229,42.147976],[24.631555,42.148312],[24.631674,42.148457],[24.632156,42.149132],[24.632236,42.149366],[24.63228,42.149681],[24.632283,42.149921],[24.632239,42.150232],[24.632238,42.150661],[24.63239,42.150758],[24.632604,42.150824],[24.63272,42.150815],[24.632927,42.150837],[24.633231,42.150903],[24.633581,42.151011],[24.633703,42.151082],[24.63397,42.151344],[24.634233,42.151505],[24.634325,42.151543],[24.634644,42.151612],[24.634838,42.151624],[24.635056,42.151622],[24.635225,42.151604],[24.635828,42.151597],[24.635242,42.151517],[24.63511,42.151264],[24.634902,42.151268],[24.634329,42.150075],[24.634102,42.149481],[24.633926,42.149165],[24.633827,42.148791],[24.63377,42.148692],[24.633643,42.148251],[24.633613,42.147883],[24.633583,42.14779],[24.633518,42.147642],[24.633345,42.147404],[24.633135,42.147231],[24.633013,42.147155],[24.632335,42.146829],[24.632086,42.14665],[24.631982,42.146612],[24.631926,42.146571],[24.631333,42.145902],[24.631245,42.145734],[24.631108,42.145618],[24.630842,42.14526],[24.63058,42.144838],[24.630442,42.144531],[24.630025,42.143897],[24.629814,42.143625],[24.629291,42.143407],[24.629113,42.143242],[24.629034,42.143086],[24.628617,42.142522],[24.628201,42.142013],[24.628065,42.141708],[24.627877,42.14143],[24.62783,42.14133],[24.627581,42.140968],[24.627442,42.140841],[24.627228,42.140467],[24.62707,42.140274],[24.626797,42.139876],[24.626321,42.13934],[24.626157,42.139214],[24.626047,42.139051],[24.625897,42.138907],[24.625752,42.138806],[24.625354,42.138663],[24.625273,42.138583],[24.625164,42.138437],[24.625118,42.138193],[24.625129,42.137502],[24.625148,42.137367],[24.625088,42.137398],[24.625055,42.138179],[24.625133,42.138467]]]},"properties":{"cadreg":9}},{"type":"Feature","geometry":{"type":"Polygon","coordinates":[[[24.635259,42.144848],[24.635433,42.146424],[24.634373,42.14642],[24.632679,42.146327],[24.632669,42.146382],[24.632505,42.146728],[24.633881,42.14743],[24.633906,42.147478],[24.633798,42.147802],[24.633829,42.148183],[24.633887,42.148465],[24.633889,42.149042],[24.633926,42.149165],[24.634102,42.149481],[24.634329,42.150075],[24.634902,42.151268],[24.636488,42.151235],[24.636503,42.150722],[24.637189,42.150687],[24.637779,42.150603],[24.637919,42.151013],[24.637872,42.151021],[24.637895,42.151264],[24.638677,42.15114],[24.638698,42.151109],[24.639536,42.150929],[24.639295,42.150311],[24.640397,42.150119],[24.640581,42.150076],[24.640869,42.149959],[24.641397,42.149703],[24.642057,42.14936],[24.641511,42.148772],[24.642744,42.148032],[24.644696,42.147485],[24.64507,42.14734],[24.645226,42.14755],[24.645275,42.147529],[24.645487,42.147812],[24.646491,42.147485],[24.646327,42.147188],[24.646421,42.147158],[24.646005,42.146446],[24.64593,42.146469],[24.645714,42.146078],[24.645015,42.146277],[24.644437,42.146505],[24.643769,42.146662],[24.643072,42.146885],[24.642712,42.147023],[24.642384,42.147183],[24.642161,42.147265],[24.6415,42.146719],[24.641838,42.146436],[24.643258,42.145493],[24.643056,42.145333],[24.642731,42.145113],[24.641007,42.146238],[24.640808,42.146416],[24.64048,42.146531],[24.64002,42.146634],[24.640032,42.146653],[24.639858,42.146707],[24.639814,42.146687],[24.639397,42.145478],[24.639206,42.144616],[24.639274,42.144636],[24.639158,42.144289],[24.638112,42.14427],[24.635259,42.144848]]]},"properties":{"cadreg":501}}]}