{"type":"FeatureCollection","features":[{"type":"Feature","geometry":{"type":"Polygon","coordinates":[[[25.468973,41.532834],[25.468998,41.532784],[25.468964,41.532775],[25.468939,41.532825],[25.468973,41.532834]]]},"properties":{"num":2}},{"type":"Feature","geometry":{"type":"Polygon","coordinates":[[[25.468939,41.532825],[25.468964,41.532775],[25.468682,41.532698],[25.468659,41.532749],[25.468939,41.532825]]]},"properties":{"num":3}},{"type":"Feature","geometry":{"type":"Polygon","coordinates":[[[25.473846,41.535136],[25.473781,41.535103],[25.473757,41.53513],[25.473822,41.535163],[25.473846,41.535136]]]},"properties":{"num":1}},{"type":"Feature","geometry":{"type":"Polygon","coordinates":[[[25.469797,41.533123],[25.46977,41.533141],[25.469794,41.533162],[25.469822,41.533144],[25.469797,41.533123]]]},"properties":{"num":1}},{"type":"Feature","geometry":{"type":"Polygon","coordinates":[[[25.474025,41.529534],[25.474373,41.529023],[25.474151,41.528939],[25.474102,41.529011],[25.474235,41.52906],[25.473985,41.529427],[25.473852,41.529377],[25.473807,41.529451],[25.474025,41.529534]]]},"properties":{"num":1}},{"type":"Feature","geometry":{"type":"Polygon","coordinates":[[[25.474007,41.528946],[25.473977,41.528925],[25.473971,41.52893],[25.4739,41.528876],[25.473832,41.52893],[25.473932,41.529007],[25.474007,41.528946]]]},"properties":{"num":2}},{"type":"Feature","geometry":{"type":"Polygon","coordinates":[[[25.473839,41.528543],[25.473573,41.528234],[25.47349,41.528276],[25.473753,41.528589],[25.473839,41.528543]]]},"properties":{"num":3}}]}