{"type":"FeatureCollection","features":[{"type":"Feature","geometry":{"type":"Polygon","coordinates":[[[25.469954,41.535977],[25.47038,41.535855],[25.470065,41.535509],[25.470166,41.535316],[25.469963,41.535212],[25.469997,41.535096],[25.469837,41.53504],[25.469696,41.535034],[25.469496,41.535178],[25.469196,41.534934],[25.469112,41.53494],[25.469009,41.535035],[25.468873,41.535223],[25.468778,41.53528],[25.468731,41.53538],[25.468705,41.535522],[25.468567,41.535724],[25.468514,41.535982],[25.468524,41.536077],[25.468569,41.536168],[25.468616,41.536219],[25.468695,41.536266],[25.468655,41.536295],[25.468524,41.536276],[25.468234,41.536414],[25.468164,41.536491],[25.468129,41.53657],[25.468182,41.536668],[25.468241,41.536682],[25.468242,41.536789],[25.468322,41.537062],[25.468416,41.537545],[25.468669,41.538253],[25.468898,41.538748],[25.468988,41.538303],[25.469017,41.537862],[25.469101,41.537646],[25.469612,41.537434],[25.469727,41.537358],[25.469787,41.537202],[25.470659,41.537136],[25.472152,41.537519],[25.472464,41.537625],[25.472861,41.53768],[25.473136,41.537747],[25.473629,41.537821],[25.473892,41.537928],[25.474454,41.538263],[25.474563,41.538375],[25.474712,41.538365],[25.474747,41.538305],[25.474648,41.537674],[25.474631,41.537197],[25.474521,41.537044],[25.474349,41.536943],[25.474118,41.536979],[25.474106,41.537064],[25.473868,41.537048],[25.473264,41.537214],[25.473114,41.537234],[25.472837,41.53723],[25.47212,41.537173],[25.471732,41.53707],[25.471017,41.536839],[25.470877,41.536729],[25.470797,41.536594],[25.470756,41.53661],[25.470658,41.536602],[25.470538,41.536566],[25.47008,41.536358],[25.469995,41.536295],[25.469941,41.536323],[25.469767,41.536187],[25.469812,41.536101],[25.469896,41.536023],[25.469954,41.535977]]]},"properties":{"cadreg":888}},{"type":"Feature","geometry":{"type":"Polygon","coordinates":[[[25.454813,41.52755],[25.453712,41.527373],[25.453145,41.527265],[25.450053,41.526817],[25.449697,41.526742],[25.449257,41.526671],[25.448952,41.526593],[25.44863,41.526555],[25.447928,41.526536],[25.44767,41.526497],[25.447313,41.526405],[25.447022,41.526565],[25.446579,41.5267],[25.446432,41.526689],[25.446313,41.5265],[25.446046,41.52686],[25.445933,41.526926],[25.445857,41.527023],[25.445865,41.527109],[25.445913,41.527195],[25.445804,41.527375],[25.445787,41.527486],[25.445815,41.527584],[25.445891,41.527717],[25.445909,41.527972],[25.445978,41.528081],[25.446028,41.528239],[25.44605,41.528382],[25.446101,41.528496],[25.446245,41.528625],[25.446423,41.528688],[25.446549,41.528838],[25.446575,41.528909],[25.446853,41.529273],[25.446877,41.52943],[25.44684,41.529631],[25.446768,41.529741],[25.44676,41.529799],[25.446867,41.529903],[25.446981,41.529939],[25.447085,41.52995],[25.447146,41.53002],[25.447147,41.530135],[25.447117,41.530319],[25.447128,41.530374],[25.447302,41.530303],[25.447514,41.530275],[25.447712,41.530329],[25.447972,41.530318],[25.448116,41.530408],[25.448196,41.530502],[25.448346,41.53058],[25.448513,41.530603],[25.448722,41.530703],[25.448847,41.530793],[25.449007,41.530874],[25.449131,41.530959],[25.44927,41.531134],[25.449418,41.531235],[25.449508,41.531265],[25.4496,41.531326],[25.449804,41.531507],[25.449859,41.531614],[25.449857,41.531701],[25.449984,41.531791],[25.450145,41.531802],[25.450505,41.531992],[25.4507,41.53206],[25.451004,41.532319],[25.451206,41.532332],[25.451379,41.532321],[25.451831,41.532237],[25.451957,41.532308],[25.452118,41.532513],[25.452462,41.532806],[25.45254,41.5329],[25.452692,41.533363],[25.452761,41.533406],[25.452924,41.533407],[25.453305,41.533367],[25.453353,41.533428],[25.45333,41.533567],[25.45429,41.533701],[25.454676,41.533823],[25.454787,41.533805],[25.454893,41.533744],[25.455112,41.533661],[25.455331,41.533536],[25.455479,41.533478],[25.455614,41.533298],[25.455727,41.533186],[25.455785,41.53309],[25.455938,41.532966],[25.456233,41.532768],[25.456364,41.532626],[25.456396,41.532526],[25.456368,41.532431],[25.456368,41.532321],[25.456417,41.532246],[25.456531,41.532173],[25.456721,41.5321],[25.456987,41.531922],[25.45709,41.531766],[25.457099,41.531351],[25.457373,41.531172],[25.457453,41.530931],[25.457463,41.530805],[25.457533,41.530712],[25.457661,41.530643],[25.457927,41.530592],[25.458059,41.530771],[25.458269,41.530946],[25.458585,41.531292],[25.458691,41.531438],[25.458775,41.531513],[25.458917,41.531629],[25.459089,41.531733],[25.459459,41.531907],[25.459568,41.531937],[25.459635,41.531938],[25.460194,41.531883],[25.460561,41.531886],[25.460742,41.531865],[25.460938,41.531867],[25.461158,41.531962],[25.461305,41.531988],[25.461663,41.531998],[25.461865,41.53194],[25.462058,41.531843],[25.462277,41.531805],[25.462479,41.531792],[25.462664,41.531827],[25.463054,41.532006],[25.463336,41.532194],[25.463657,41.532344],[25.463803,41.532499],[25.464009,41.532655],[25.464062,41.532806],[25.464068,41.533281],[25.464041,41.53351],[25.464066,41.533696],[25.464169,41.533898],[25.464352,41.534097],[25.464631,41.534332],[25.464862,41.534593],[25.464896,41.53468],[25.464931,41.534932],[25.46498,41.535116],[25.465009,41.535734],[25.464992,41.535914],[25.4649,41.536112],[25.4649,41.536298],[25.464833,41.536428],[25.464872,41.53673],[25.465082,41.536986],[25.465092,41.537045],[25.46509,41.537146],[25.465018,41.537419],[25.465007,41.538011],[25.464996,41.538081],[25.464909,41.538263],[25.464899,41.538609],[25.464881,41.538678],[25.464715,41.53891],[25.464641,41.538982],[25.464514,41.539178],[25.464057,41.539618],[25.46365,41.539934],[25.463433,41.540149],[25.463227,41.54045],[25.462905,41.540851],[25.462806,41.540904],[25.462709,41.540908],[25.46258,41.540939],[25.462448,41.541012],[25.462342,41.541149],[25.462339,41.541331],[25.46239,41.541606],[25.4624,41.541797],[25.462529,41.542267],[25.462541,41.54239],[25.462516,41.542454],[25.462272,41.542602],[25.462209,41.542691],[25.462208,41.54277],[25.46228,41.543006],[25.462644,41.543531],[25.46275,41.543804],[25.462805,41.54401],[25.462804,41.544079],[25.462391,41.54504],[25.462183,41.545234],[25.462133,41.545313],[25.462126,41.545367],[25.462178,41.545571],[25.46216,41.54568],[25.461854,41.546078],[25.461724,41.546287],[25.461648,41.546504],[25.461657,41.546712],[25.461631,41.54684],[25.461534,41.54702],[25.46129,41.547285],[25.461172,41.547767],[25.461103,41.547952],[25.46097,41.548086],[25.460895,41.54819],[25.460869,41.548309],[25.460868,41.548417],[25.460926,41.548585],[25.461068,41.548827],[25.461135,41.549016],[25.461034,41.549321],[25.461112,41.549763],[25.461051,41.550251],[25.461126,41.550377],[25.461121,41.551154],[25.461156,41.55143],[25.461122,41.551797],[25.461095,41.551903],[25.461058,41.552629],[25.461441,41.552692],[25.46192,41.552695],[25.462487,41.552421],[25.463162,41.552156],[25.463549,41.551935],[25.464328,41.551113],[25.464721,41.550477],[25.465176,41.549643],[25.465455,41.54942],[25.467132,41.547858],[25.469645,41.544446],[25.470391,41.544651],[25.470659,41.544437],[25.470665,41.544419],[25.470638,41.544378],[25.47053,41.544276],[25.47051,41.544191],[25.470515,41.543885],[25.470621,41.543731],[25.470893,41.543469],[25.470816,41.543263],[25.471248,41.543254],[25.471423,41.543313],[25.47159,41.543404],[25.47181,41.543394],[25.472088,41.543235],[25.472212,41.543104],[25.47226,41.54301],[25.472404,41.542579],[25.472407,41.542465],[25.472343,41.542204],[25.472357,41.541971],[25.47256,41.541694],[25.472704,41.541372],[25.472968,41.541157],[25.473111,41.541066],[25.473206,41.540966],[25.473267,41.54086],[25.473238,41.540593],[25.47325,41.540488],[25.473388,41.540244],[25.473756,41.539977],[25.473815,41.539905],[25.473934,41.539695],[25.473994,41.53954],[25.474185,41.539211],[25.474275,41.538999],[25.474395,41.538865],[25.474712,41.538365],[25.474563,41.538375],[25.474454,41.538263],[25.473892,41.537928],[25.473629,41.537821],[25.473136,41.537747],[25.472861,41.53768],[25.472464,41.537625],[25.472152,41.537519],[25.470659,41.537136],[25.469787,41.537202],[25.469727,41.537358],[25.469612,41.537434],[25.469101,41.537646],[25.469017,41.537862],[25.468988,41.538303],[25.468898,41.538748],[25.468669,41.538253],[25.468416,41.537545],[25.468322,41.537062],[25.468242,41.536789],[25.468241,41.536682],[25.468182,41.536668],[25.468129,41.53657],[25.468164,41.536491],[25.468234,41.536414],[25.468524,41.536276],[25.468655,41.536295],[25.468695,41.536266],[25.468616,41.536219],[25.468569,41.536168],[25.468524,41.536077],[25.468514,41.535982],[25.468567,41.535724],[25.468705,41.535522],[25.468731,41.53538],[25.468778,41.53528],[25.468873,41.535223],[25.469009,41.535035],[25.469112,41.53494],[25.469196,41.534934],[25.469496,41.535178],[25.469696,41.535034],[25.469837,41.53504],[25.469997,41.535096],[25.469963,41.535212],[25.470166,41.535316],[25.470065,41.535509],[25.47038,41.535855],[25.469954,41.535977],[25.469812,41.536101],[25.469767,41.536187],[25.469941,41.536323],[25.469995,41.536295],[25.47008,41.536358],[25.470538,41.536566],[25.470658,41.536602],[25.470756,41.53661],[25.470797,41.536594],[25.470877,41.536729],[25.471017,41.536839],[25.471188,41.536901],[25.471596,41.537018],[25.471732,41.53707],[25.47212,41.537173],[25.472351,41.5372],[25.472969,41.537234],[25.473114,41.537234],[25.473264,41.537214],[25.473868,41.537048],[25.474106,41.537064],[25.474118,41.536979],[25.474349,41.536943],[25.474521,41.537044],[25.474631,41.537197],[25.475969,41.537523],[25.476578,41.537653],[25.476852,41.537737],[25.477094,41.537586],[25.477181,41.537352],[25.477547,41.536923],[25.477924,41.536548],[25.478715,41.535699],[25.47896,41.535287],[25.479064,41.534857],[25.478951,41.534823],[25.478783,41.534721],[25.478736,41.534636],[25.478704,41.534135],[25.478633,41.533968],[25.478548,41.533825],[25.478136,41.533298],[25.477832,41.532986],[25.477593,41.532771],[25.477488,41.532753],[25.477217,41.532752],[25.477087,41.532782],[25.476969,41.532886],[25.476681,41.532977],[25.47605,41.533105],[25.475941,41.533106],[25.47564,41.533188],[25.475423,41.533195],[25.475372,41.53317],[25.475339,41.53312],[25.475318,41.533025],[25.475252,41.533008],[25.475247,41.532921],[25.475277,41.532787],[25.475358,41.532575],[25.47555,41.532224],[25.475636,41.532146],[25.476164,41.531902],[25.476371,41.531751],[25.47646,41.531591],[25.476455,41.53151],[25.476395,41.531443],[25.476271,41.531425],[25.476102,41.53145],[25.475812,41.531574],[25.475652,41.531611],[25.475472,41.531623],[25.474226,41.531523],[25.473835,41.531511],[25.472421,41.530973],[25.471931,41.530981],[25.471933,41.531073],[25.471824,41.531001],[25.47168,41.530971],[25.471447,41.530977],[25.471417,41.530883],[25.47122,41.53062],[25.471139,41.53061],[25.470961,41.530635],[25.470838,41.53053],[25.470547,41.530343],[25.470347,41.53026],[25.470098,41.530182],[25.469783,41.530119],[25.469557,41.530038],[25.469473,41.53003],[25.469241,41.529896],[25.468977,41.529589],[25.468867,41.52955],[25.468519,41.529553],[25.468358,41.52953],[25.467962,41.529409],[25.467669,41.529343],[25.467369,41.529298],[25.467304,41.529229],[25.467315,41.529156],[25.467161,41.529034],[25.467114,41.529018],[25.466945,41.52903],[25.466778,41.52913],[25.466693,41.529166],[25.466608,41.529179],[25.466568,41.529161],[25.466557,41.529083],[25.466582,41.529046],[25.466582,41.528974],[25.466488,41.528985],[25.466354,41.52904],[25.466201,41.529059],[25.466008,41.529064],[25.465979,41.529003],[25.46574,41.529084],[25.465497,41.529143],[25.465234,41.52905],[25.464516,41.528992],[25.464463,41.528945],[25.464222,41.528884],[25.464105,41.528883],[25.463829,41.5288],[25.463771,41.528745],[25.463661,41.528729],[25.46353,41.528754],[25.463249,41.528857],[25.463026,41.528865],[25.462774,41.528733],[25.462561,41.52871],[25.462239,41.528724],[25.461943,41.52877],[25.461789,41.528744],[25.461768,41.528565],[25.461716,41.528479],[25.461696,41.528335],[25.461517,41.528271],[25.46132,41.528257],[25.461031,41.528202],[25.460939,41.528209],[25.460887,41.528032],[25.460684,41.528011],[25.460648,41.528106],[25.460409,41.528104],[25.460253,41.528076],[25.460293,41.527931],[25.459351,41.5279],[25.459107,41.527913],[25.458522,41.528055],[25.458228,41.528096],[25.458127,41.528054],[25.458003,41.527914],[25.45783,41.527857],[25.457586,41.527989],[25.457196,41.52798],[25.456739,41.527917],[25.456701,41.527843],[25.456565,41.527837],[25.456405,41.527885],[25.455642,41.527706],[25.454813,41.52755]],[[25.45565,41.530919],[25.455747,41.531125],[25.455988,41.531087],[25.456063,41.531215],[25.456109,41.531362],[25.45603,41.531419],[25.456191,41.53164],[25.456329,41.531639],[25.45631,41.531706],[25.456058,41.531751],[25.45602,41.531842],[25.456063,41.531903],[25.456066,41.532094],[25.456045,41.532183],[25.455934,41.532144],[25.45584,41.532015],[25.455718,41.532021],[25.45564,41.532042],[25.455572,41.532251],[25.455467,41.532261],[25.455345,41.532238],[25.455359,41.531996],[25.455427,41.531785],[25.455435,41.531639],[25.455473,41.531601],[25.455365,41.531442],[25.45536,41.531172],[25.45544,41.531112],[25.455584,41.53111],[25.455529,41.530979],[25.455445,41.530984],[25.455357,41.530881],[25.455293,41.530759],[25.455173,41.530659],[25.455277,41.530582],[25.455546,41.530692],[25.455653,41.530772],[25.45572,41.530865],[25.45565,41.530919]]]},"properties":{"cadreg":1}},{"type":"Feature","geometry":{"type":"Polygon","coordinates":[[[25.45858,41.522843],[25.458662,41.523541],[25.458818,41.52378],[25.458717,41.523977],[25.458689,41.524165],[25.458719,41.524689],[25.4588,41.525007],[25.458971,41.525487],[25.459032,41.526309],[25.459301,41.52636],[25.459323,41.526499],[25.459175,41.526617],[25.459098,41.526775],[25.4589,41.526991],[25.458505,41.527214],[25.458091,41.527385],[25.457673,41.52749],[25.457598,41.527598],[25.457546,41.527775],[25.457496,41.527874],[25.457325,41.527843],[25.456701,41.527843],[25.456739,41.527917],[25.457196,41.52798],[25.457586,41.527989],[25.45783,41.527857],[25.458003,41.527914],[25.458127,41.528054],[25.458228,41.528096],[25.458522,41.528055],[25.459107,41.527913],[25.459351,41.5279],[25.460262,41.527926],[25.460293,41.527931],[25.460253,41.528076],[25.460409,41.528104],[25.460648,41.528106],[25.460684,41.528011],[25.460887,41.528032],[25.460939,41.528209],[25.461031,41.528202],[25.46132,41.528257],[25.461517,41.528271],[25.461696,41.528335],[25.461716,41.528479],[25.461768,41.528565],[25.461789,41.528744],[25.461943,41.52877],[25.462239,41.528724],[25.462561,41.52871],[25.462774,41.528733],[25.463026,41.528865],[25.463249,41.528857],[25.46353,41.528754],[25.463661,41.528729],[25.463771,41.528745],[25.463829,41.5288],[25.464105,41.528883],[25.464222,41.528884],[25.464463,41.528945],[25.464516,41.528992],[25.465234,41.52905],[25.465497,41.529143],[25.46574,41.529084],[25.465979,41.529003],[25.466008,41.529064],[25.466201,41.529059],[25.466354,41.52904],[25.466488,41.528985],[25.466582,41.528974],[25.466582,41.529046],[25.466557,41.529083],[25.466568,41.529161],[25.466608,41.529179],[25.466693,41.529166],[25.466778,41.52913],[25.466945,41.52903],[25.467114,41.529018],[25.467161,41.529034],[25.467315,41.529156],[25.467304,41.529229],[25.467369,41.529298],[25.467669,41.529343],[25.467962,41.529409],[25.468358,41.52953],[25.468519,41.529553],[25.468867,41.52955],[25.468977,41.529589],[25.469241,41.529896],[25.469473,41.53003],[25.469557,41.530038],[25.469783,41.530119],[25.470098,41.530182],[25.470347,41.53026],[25.470547,41.530343],[25.470838,41.53053],[25.470961,41.530635],[25.471139,41.53061],[25.47122,41.53062],[25.471417,41.530883],[25.471447,41.530977],[25.47168,41.530971],[25.471824,41.531001],[25.471933,41.531073],[25.471931,41.530981],[25.472421,41.530973],[25.473835,41.531511],[25.473749,41.531315],[25.473738,41.531218],[25.473768,41.531129],[25.473989,41.530883],[25.474037,41.530776],[25.474125,41.530455],[25.474382,41.530122],[25.474435,41.530016],[25.474478,41.52985],[25.474514,41.529176],[25.474468,41.528962],[25.474025,41.528568],[25.473751,41.528238],[25.473604,41.528029],[25.473546,41.527857],[25.473549,41.527608],[25.473482,41.527369],[25.473077,41.526634],[25.472912,41.526122],[25.472807,41.525992],[25.472587,41.525818],[25.472397,41.52572],[25.472283,41.52568],[25.472103,41.525642],[25.471899,41.525626],[25.47153,41.525569],[25.471228,41.525465],[25.47111,41.52539],[25.471045,41.525308],[25.471008,41.525231],[25.470999,41.525027],[25.471015,41.524885],[25.471066,41.524729],[25.471236,41.524538],[25.4714,41.524423],[25.470784,41.52394],[25.470395,41.523504],[25.470279,41.523224],[25.470393,41.52282],[25.470421,41.522532],[25.470318,41.522207],[25.469952,41.521817],[25.469612,41.521283],[25.469359,41.520615],[25.469147,41.520316],[25.468869,41.519684],[25.468493,41.519185],[25.468165,41.518678],[25.467963,41.518238],[25.467972,41.517921],[25.468183,41.517504],[25.468437,41.517231],[25.469124,41.51694],[25.469426,41.516744],[25.469742,41.516459],[25.470134,41.51585],[25.470402,41.515549],[25.470459,41.515461],[25.470529,41.515305],[25.470544,41.514924],[25.470584,41.514739],[25.470709,41.514411],[25.470821,41.514212],[25.47097,41.514],[25.471411,41.513678],[25.471766,41.51331],[25.471857,41.513158],[25.471987,41.513029],[25.472052,41.512911],[25.471955,41.512871],[25.471774,41.512691],[25.471107,41.512221],[25.470958,41.512377],[25.470716,41.512559],[25.470557,41.512578],[25.470447,41.512616],[25.4701,41.512821],[25.46973,41.512936],[25.469362,41.513092],[25.46919,41.51313],[25.468921,41.513098],[25.468541,41.513085],[25.467701,41.513142],[25.467234,41.513228],[25.46652,41.513459],[25.466225,41.513576],[25.466051,41.513723],[25.4658,41.514096],[25.465665,41.514174],[25.465512,41.514189],[25.465243,41.514157],[25.464985,41.514145],[25.464361,41.514169],[25.46409,41.514256],[25.46382,41.514303],[25.463722,41.514303],[25.463589,41.514212],[25.463384,41.513973],[25.463093,41.513703],[25.46296,41.513643],[25.462195,41.513612],[25.461844,41.513263],[25.461734,41.513252],[25.461345,41.5131],[25.461029,41.512909],[25.460615,41.512729],[25.460481,41.512688],[25.46016,41.512462],[25.459614,41.512152],[25.459411,41.512656],[25.45951,41.512998],[25.459494,41.513295],[25.45965,41.513493],[25.45962,41.513849],[25.459789,41.513989],[25.460056,41.51417],[25.460162,41.514417],[25.460522,41.514544],[25.460717,41.514684],[25.460935,41.514805],[25.461328,41.514738],[25.461719,41.514781],[25.461888,41.514911],[25.461996,41.515101],[25.462324,41.5153],[25.462666,41.515373],[25.462952,41.515479],[25.462975,41.515628],[25.463096,41.515758],[25.463154,41.515927],[25.463334,41.516224],[25.463478,41.516414],[25.463522,41.516711],[25.463447,41.51715],[25.463103,41.517256],[25.462907,41.517195],[25.462636,41.517312],[25.462536,41.517529],[25.462164,41.517783],[25.46222,41.518149],[25.462399,41.518438],[25.462124,41.518791],[25.461393,41.519007],[25.460746,41.518854],[25.460148,41.518681],[25.458803,41.518492],[25.458192,41.518457],[25.458598,41.519074],[25.458786,41.52005],[25.458206,41.520342],[25.458252,41.52057],[25.458382,41.520927],[25.458598,41.521656],[25.458414,41.522485],[25.45858,41.522843]],[[25.466756,41.526643],[25.466863,41.526655],[25.466945,41.526786],[25.467039,41.526756],[25.467013,41.526559],[25.467031,41.526498],[25.46714,41.52647],[25.467282,41.526469],[25.46728,41.526439],[25.467159,41.526349],[25.46707,41.526257],[25.467063,41.526177],[25.467106,41.526125],[25.46726,41.526118],[25.467363,41.525935],[25.467424,41.525927],[25.467538,41.526004],[25.467551,41.526055],[25.467465,41.526221],[25.467445,41.526305],[25.467493,41.526388],[25.467633,41.526512],[25.46752,41.526592],[25.468025,41.527048],[25.467777,41.527185],[25.467844,41.527592],[25.467823,41.527797],[25.46775,41.528088],[25.467656,41.528324],[25.46725,41.528318],[25.467083,41.528285],[25.466928,41.528229],[25.466811,41.528009],[25.466732,41.527935],[25.466714,41.527622],[25.466663,41.527507],[25.466604,41.527443],[25.46672,41.527363],[25.466654,41.527206],[25.466699,41.527003],[25.466649,41.526839],[25.466681,41.526701],[25.466756,41.526643]],[[25.460901,41.525786],[25.460442,41.525241],[25.460443,41.52518],[25.460629,41.525043],[25.460898,41.524909],[25.461011,41.524904],[25.461116,41.525084],[25.461125,41.525172],[25.461079,41.525258],[25.461247,41.525293],[25.461452,41.525397],[25.461586,41.525499],[25.461606,41.525603],[25.461504,41.525766],[25.461263,41.525955],[25.461026,41.525795],[25.460919,41.525852],[25.461166,41.526051],[25.461016,41.526152],[25.460798,41.525981],[25.460714,41.525864],[25.460901,41.525786]]]},"properties":{"cadreg":2}}]}