{"type":"FeatureCollection","features":[{"type":"Feature","geometry":{"type":"Polygon","coordinates":[[[24.649499,42.071909],[24.649281,42.071892],[24.648908,42.071964],[24.648755,42.071967],[24.6487,42.071928],[24.648636,42.071802],[24.648519,42.071711],[24.648299,42.071599],[24.648103,42.071552],[24.647935,42.071494],[24.6476,42.071234],[24.64756,42.071186],[24.647276,42.070988],[24.646892,42.070794],[24.646744,42.070734],[24.646513,42.070708],[24.64583,42.070703],[24.645573,42.070682],[24.645418,42.070638],[24.645221,42.070543],[24.645165,42.070532],[24.645174,42.07051],[24.645063,42.070483],[24.644851,42.070369],[24.64466,42.070397],[24.644473,42.070647],[24.646301,42.072716],[24.646163,42.072721],[24.646239,42.072772],[24.646616,42.073212],[24.65149,42.073906],[24.65169,42.074732],[24.651601,42.074773],[24.651597,42.074818],[24.65374,42.075899],[24.653743,42.075931],[24.653084,42.077111],[24.653307,42.077343],[24.653379,42.07733],[24.653562,42.077344],[24.653785,42.077154],[24.653828,42.077133],[24.654142,42.076854],[24.654444,42.076551],[24.654582,42.076369],[24.654659,42.076233],[24.655219,42.074981],[24.655411,42.074607],[24.654806,42.074515],[24.654831,42.074427],[24.656544,42.074687],[24.656855,42.074684],[24.657561,42.075235],[24.657674,42.075387],[24.657762,42.075389],[24.657757,42.075264],[24.658283,42.075467],[24.658372,42.07551],[24.65841,42.075559],[24.65869,42.075752],[24.658835,42.075781],[24.658949,42.075764],[24.659063,42.075683],[24.659137,42.075651],[24.658751,42.075308],[24.657702,42.074299],[24.657552,42.074365],[24.656664,42.073238],[24.65593,42.073527],[24.655898,42.073448],[24.655892,42.0732],[24.655951,42.072975],[24.655939,42.072872],[24.655891,42.072751],[24.655745,42.072603],[24.655575,42.072499],[24.6554,42.072349],[24.655318,42.072245],[24.65488,42.07202],[24.65465,42.071924],[24.6543,42.0718],[24.653793,42.07169],[24.653751,42.071691],[24.653536,42.07163],[24.653445,42.071626],[24.653052,42.071681],[24.652785,42.071747],[24.652568,42.071872],[24.652543,42.071896],[24.652518,42.071987],[24.652476,42.072034],[24.652393,42.072057],[24.652019,42.071986],[24.651677,42.07196],[24.651103,42.071962],[24.651067,42.071984],[24.650455,42.071919],[24.649969,42.07195],[24.64962,42.071899],[24.649499,42.071909]]]},"properties":{"cadreg":30}},{"type":"Feature","geometry":{"type":"Polygon","coordinates":[[[24.657153,42.078261],[24.655984,42.07949],[24.657019,42.080026],[24.658147,42.078839],[24.658023,42.078682],[24.657712,42.078444],[24.657658,42.078516],[24.657153,42.078261]]]},"properties":{"cadreg":1}},{"type":"Feature","geometry":{"type":"Polygon","coordinates":[[[24.640915,42.093405],[24.641164,42.093529],[24.641333,42.09354],[24.641565,42.093539],[24.642338,42.093451],[24.642778,42.093419],[24.643021,42.093479],[24.647524,42.096012],[24.650263,42.09759],[24.650231,42.09764],[24.65057,42.097835],[24.650689,42.097956],[24.650719,42.098065],[24.650656,42.099717],[24.650669,42.099801],[24.650706,42.099881],[24.652464,42.101996],[24.652518,42.102109],[24.652694,42.103298],[24.652724,42.103335],[24.653485,42.103904],[24.654581,42.104479],[24.654655,42.104504],[24.658378,42.105054],[24.659496,42.10555],[24.658049,42.099198],[24.658155,42.099218],[24.658216,42.099164],[24.658236,42.099118],[24.658029,42.097187],[24.658073,42.096926],[24.658217,42.096638],[24.657509,42.096492],[24.654007,42.096027],[24.653324,42.095921],[24.652924,42.095842],[24.652074,42.095731],[24.651523,42.095582],[24.649868,42.095051],[24.648209,42.09445],[24.646911,42.09404],[24.646672,42.093912],[24.646112,42.09372],[24.644873,42.093263],[24.644258,42.093074],[24.643181,42.092877],[24.642481,42.092766],[24.642193,42.092774],[24.641994,42.092825],[24.640688,42.093343],[24.640915,42.093405]]]},"properties":{"cadreg":11}},{"type":"Feature","geometry":{"type":"Polygon","coordinates":[[[24.657457,42.077359],[24.657367,42.077291],[24.657277,42.077306],[24.65728,42.077409],[24.65724,42.077566],[24.657063,42.077996],[24.656961,42.078168],[24.653486,42.081863],[24.652621,42.082737],[24.652134,42.083187],[24.65208,42.083259],[24.650319,42.086895],[24.650085,42.087102],[24.648805,42.087837],[24.645741,42.090753],[24.641415,42.092707],[24.640511,42.093137],[24.640373,42.093177],[24.639142,42.093384],[24.639196,42.093545],[24.64045,42.093278],[24.640688,42.093343],[24.641994,42.092825],[24.642193,42.092774],[24.642481,42.092766],[24.643181,42.092877],[24.644258,42.093074],[24.644873,42.093263],[24.646112,42.09372],[24.646672,42.093912],[24.646911,42.09404],[24.648209,42.09445],[24.649868,42.095051],[24.651523,42.095582],[24.652074,42.095731],[24.652924,42.095842],[24.653324,42.095921],[24.654007,42.096027],[24.657587,42.096506],[24.657685,42.095922],[24.657708,42.095679],[24.658166,42.095489],[24.659163,42.088305],[24.659207,42.08756],[24.659189,42.087092],[24.659172,42.086751],[24.659064,42.086116],[24.659064,42.085987],[24.659119,42.085789],[24.659168,42.085724],[24.659465,42.085512],[24.659672,42.085318],[24.659742,42.085194],[24.659743,42.085146],[24.659798,42.085036],[24.659815,42.084903],[24.659799,42.08479],[24.659826,42.084744],[24.659818,42.084624],[24.659747,42.084343],[24.659613,42.084131],[24.659554,42.084093],[24.659417,42.083943],[24.659281,42.083831],[24.659066,42.083545],[24.658853,42.083356],[24.658511,42.082947],[24.658398,42.082771],[24.658349,42.082619],[24.6583,42.082293],[24.658309,42.082205],[24.6576,42.082304],[24.657169,42.082341],[24.656842,42.082395],[24.655333,42.08256],[24.654576,42.082709],[24.653908,42.082906],[24.653518,42.082998],[24.653262,42.082981],[24.652682,42.082855],[24.657003,42.07831],[24.657024,42.078267],[24.65713,42.078153],[24.657266,42.077913],[24.657457,42.077359]]]},"properties":{"cadreg":12}},{"type":"Feature","geometry":{"type":"Polygon","coordinates":[[[24.655984,42.07949],[24.657153,42.078261],[24.657114,42.078242],[24.657206,42.078139],[24.657215,42.078006],[24.65713,42.078153],[24.657024,42.078267],[24.657003,42.07831],[24.652682,42.082855],[24.653262,42.082981],[24.653518,42.082998],[24.653908,42.082906],[24.654576,42.082709],[24.655333,42.08256],[24.656842,42.082395],[24.657169,42.082341],[24.6576,42.082304],[24.658309,42.082205],[24.658217,42.081803],[24.658216,42.081626],[24.658385,42.079099],[24.658369,42.079071],[24.658454,42.07855],[24.658066,42.078516],[24.657756,42.078386],[24.657712,42.078444],[24.658023,42.078682],[24.658147,42.078839],[24.657019,42.080026],[24.655984,42.07949]]]},"properties":{"cadreg":13}},{"type":"Feature","geometry":{"type":"Polygon","coordinates":[[[24.660161,42.076443],[24.65995,42.076048],[24.65948,42.075569],[24.659096,42.075735],[24.659005,42.075788],[24.659274,42.076097],[24.659232,42.076136],[24.659378,42.076303],[24.659542,42.076661],[24.659619,42.077237],[24.659817,42.077724],[24.658627,42.077928],[24.658593,42.078568],[24.658454,42.07855],[24.658369,42.079071],[24.658385,42.079099],[24.658216,42.081626],[24.658217,42.081803],[24.658296,42.082116],[24.6583,42.082293],[24.658349,42.082619],[24.658398,42.082771],[24.65861,42.083077],[24.65876,42.083232],[24.658853,42.083356],[24.659066,42.083545],[24.659281,42.083831],[24.659417,42.083943],[24.659654,42.084184],[24.659709,42.084301],[24.65974,42.084324],[24.659778,42.084436],[24.659826,42.084744],[24.659799,42.08479],[24.659815,42.084903],[24.659798,42.085036],[24.659743,42.085146],[24.659718,42.085248],[24.659672,42.085318],[24.659465,42.085512],[24.659168,42.085724],[24.659119,42.085789],[24.659074,42.085923],[24.659064,42.086116],[24.659172,42.086751],[24.659189,42.087092],[24.659207,42.08756],[24.659163,42.088305],[24.658166,42.095489],[24.657708,42.095679],[24.657685,42.095922],[24.657587,42.096506],[24.658211,42.096636],[24.660133,42.097186],[24.660989,42.097417],[24.661316,42.097465],[24.661651,42.097467],[24.662092,42.097414],[24.664375,42.097034],[24.664889,42.096973],[24.665184,42.096964],[24.665291,42.097003],[24.665485,42.097254],[24.667554,42.103518],[24.668799,42.106118],[24.669333,42.106128],[24.666822,42.098621],[24.66742,42.098492],[24.667367,42.098427],[24.667073,42.097292],[24.666956,42.097109],[24.666986,42.097042],[24.666544,42.095708],[24.666665,42.095689],[24.666453,42.094989],[24.663819,42.086596],[24.662228,42.081707],[24.661427,42.079906],[24.661036,42.079072],[24.660716,42.078292],[24.660161,42.076443]]]},"properties":{"cadreg":14}},{"type":"Feature","geometry":{"type":"Polygon","coordinates":[[[24.658073,42.096927],[24.658029,42.097187],[24.658236,42.099118],[24.658216,42.099164],[24.658155,42.099218],[24.658049,42.099198],[24.659496,42.10555],[24.660506,42.106011],[24.660627,42.106042],[24.663676,42.106065],[24.66364,42.106021],[24.668799,42.106118],[24.667554,42.103518],[24.665485,42.097254],[24.665291,42.097003],[24.665184,42.096964],[24.665086,42.096964],[24.664889,42.096973],[24.664375,42.097034],[24.662092,42.097414],[24.66156,42.097472],[24.661203,42.097456],[24.660989,42.097417],[24.660133,42.097186],[24.658217,42.096638],[24.658073,42.096927]]]},"properties":{"cadreg":15}},{"type":"Feature","geometry":{"type":"Polygon","coordinates":[[[24.676669,42.093874],[24.671011,42.094908],[24.667894,42.095451],[24.666544,42.095708],[24.666986,42.097042],[24.666956,42.097109],[24.667073,42.097292],[24.667367,42.098427],[24.66742,42.098492],[24.667463,42.098481],[24.667518,42.09853],[24.667629,42.098554],[24.667916,42.098537],[24.667903,42.09843],[24.67658,42.096815],[24.677046,42.096592],[24.677348,42.096386],[24.677361,42.096299],[24.677156,42.095696],[24.676669,42.093874]]]},"properties":{"cadreg":16}},{"type":"Feature","geometry":{"type":"Polygon","coordinates":[[[24.679216,42.095959],[24.678035,42.096163],[24.677718,42.096245],[24.677531,42.09632],[24.677439,42.096393],[24.67736,42.096427],[24.677787,42.097901],[24.677918,42.098164],[24.68194,42.097455],[24.681346,42.095569],[24.680559,42.095703],[24.679216,42.095959]]]},"properties":{"cadreg":17}},{"type":"Feature","geometry":{"type":"Polygon","coordinates":[[[24.672403,42.085066],[24.67519,42.094142],[24.676669,42.093874],[24.677156,42.095696],[24.677361,42.096299],[24.677348,42.096386],[24.67736,42.096427],[24.677439,42.096393],[24.677531,42.09632],[24.677718,42.096245],[24.678035,42.096163],[24.681346,42.095569],[24.681343,42.095541],[24.681851,42.095453],[24.681929,42.095425],[24.682132,42.095276],[24.683153,42.094347],[24.683346,42.09421],[24.683631,42.094081],[24.684867,42.093624],[24.685134,42.093478],[24.685023,42.093366],[24.681463,42.090769],[24.68021,42.089795],[24.680894,42.088986],[24.671283,42.083837],[24.671259,42.083857],[24.672187,42.084353],[24.672212,42.084435],[24.67318,42.084949],[24.672403,42.085066]]]},"properties":{"cadreg":18}},{"type":"Feature","geometry":{"type":"Polygon","coordinates":[[[24.663828,42.086625],[24.666665,42.095689],[24.667894,42.095451],[24.671011,42.094908],[24.67519,42.094142],[24.672403,42.085066],[24.67318,42.084949],[24.672212,42.084435],[24.672187,42.084353],[24.671215,42.083833],[24.670497,42.084077],[24.670527,42.084207],[24.669933,42.085302],[24.669969,42.085483],[24.668699,42.08572],[24.668628,42.085548],[24.668668,42.085539],[24.66844,42.085077],[24.668365,42.084971],[24.668306,42.084929],[24.668285,42.084893],[24.66824,42.084907],[24.668395,42.085092],[24.668633,42.085573],[24.668638,42.085639],[24.667164,42.086028],[24.664216,42.086545],[24.663958,42.086569],[24.663899,42.086615],[24.663828,42.086625]],[[24.673092,42.090523],[24.673048,42.090382],[24.673061,42.090423],[24.673092,42.090523]]]},"properties":{"cadreg":19}},{"type":"Feature","geometry":{"type":"Polygon","coordinates":[[[24.675342,42.081679],[24.671018,42.079434],[24.668924,42.080541],[24.668681,42.080654],[24.668456,42.080721],[24.668219,42.08076],[24.667981,42.080765],[24.667743,42.080739],[24.667516,42.080682],[24.667367,42.080626],[24.667972,42.081096],[24.668003,42.08108],[24.668173,42.081329],[24.668564,42.081797],[24.669487,42.082573],[24.669912,42.082981],[24.67014,42.083088],[24.67051,42.083189],[24.671795,42.083635],[24.671492,42.083727],[24.671381,42.083729],[24.670799,42.083902],[24.67056,42.083961],[24.670497,42.083958],[24.670497,42.084077],[24.671215,42.083833],[24.671259,42.083857],[24.671283,42.083837],[24.673073,42.083297],[24.67346,42.083154],[24.674668,42.082287],[24.675519,42.08177],[24.675578,42.081801],[24.675667,42.081712],[24.675461,42.081606],[24.675338,42.081442],[24.675272,42.081512],[24.675424,42.081592],[24.675342,42.081679]]]},"properties":{"cadreg":20}},{"type":"Feature","geometry":{"type":"Polygon","coordinates":[[[24.667844,42.081092],[24.666491,42.081854],[24.664442,42.082443],[24.663355,42.082499],[24.663166,42.08249],[24.662683,42.083115],[24.663828,42.086625],[24.663899,42.086615],[24.663958,42.086569],[24.664216,42.086545],[24.667164,42.086028],[24.668638,42.085639],[24.668633,42.085573],[24.668395,42.085092],[24.66824,42.084907],[24.668285,42.084893],[24.668306,42.084929],[24.668365,42.084971],[24.66844,42.085077],[24.668668,42.085539],[24.668628,42.085548],[24.668699,42.08572],[24.669969,42.085483],[24.669933,42.085302],[24.670527,42.084207],[24.670497,42.084077],[24.670497,42.083958],[24.67056,42.083961],[24.670799,42.083902],[24.671381,42.083729],[24.671492,42.083727],[24.671795,42.083635],[24.67051,42.083189],[24.67014,42.083088],[24.669912,42.082981],[24.669487,42.082573],[24.668564,42.081797],[24.668173,42.081329],[24.668003,42.08108],[24.667972,42.081096],[24.667367,42.080626],[24.667093,42.080493],[24.667735,42.080992],[24.667844,42.081092]]]},"properties":{"cadreg":21}},{"type":"Feature","geometry":{"type":"Polygon","coordinates":[[[24.660161,42.076443],[24.660716,42.078292],[24.661036,42.079072],[24.661427,42.079906],[24.662228,42.081707],[24.662683,42.083115],[24.663166,42.08249],[24.663355,42.082499],[24.664442,42.082443],[24.666491,42.081854],[24.667844,42.081092],[24.667093,42.080493],[24.666604,42.080183],[24.66656,42.080196],[24.66599,42.079883],[24.663445,42.079037],[24.662944,42.078788],[24.662701,42.078604],[24.66237,42.078292],[24.661848,42.077686],[24.661382,42.077231],[24.661063,42.07742],[24.66043,42.076947],[24.660161,42.076443]]]},"properties":{"cadreg":22}},{"type":"Feature","geometry":{"type":"Polygon","coordinates":[[[24.669111,42.073934],[24.668838,42.073933],[24.668473,42.074414],[24.670032,42.074939],[24.669102,42.076499],[24.671676,42.078033],[24.6707,42.07922],[24.671734,42.07976],[24.672521,42.079484],[24.672489,42.079463],[24.672566,42.079433],[24.671399,42.078637],[24.67304,42.076578],[24.672923,42.076507],[24.672029,42.075784],[24.671919,42.075312],[24.671731,42.074671],[24.671678,42.074317],[24.671692,42.074126],[24.671772,42.073928],[24.671848,42.07345],[24.671813,42.073433],[24.671531,42.07344],[24.671556,42.073659],[24.671537,42.073749],[24.669111,42.073934]]]},"properties":{"cadreg":23}},{"type":"Feature","geometry":{"type":"Polygon","coordinates":[[[24.668556,42.066577],[24.668507,42.066556],[24.66843,42.066547],[24.668311,42.066553],[24.668103,42.066604],[24.667972,42.066699],[24.667828,42.066851],[24.667861,42.066889],[24.667901,42.067025],[24.66804,42.067921],[24.6681,42.069029],[24.668309,42.069347],[24.669081,42.070234],[24.669232,42.070447],[24.669599,42.07085],[24.669535,42.070876],[24.669728,42.07109],[24.671279,42.072592],[24.671391,42.072746],[24.671469,42.072914],[24.671642,42.073433],[24.671813,42.073433],[24.671848,42.07345],[24.671855,42.073258],[24.671819,42.073257],[24.671719,42.072904],[24.671523,42.072376],[24.67139,42.071911],[24.67279,42.071658],[24.673045,42.071583],[24.673193,42.071562],[24.674019,42.071348],[24.674028,42.071299],[24.673966,42.071],[24.673962,42.070871],[24.674005,42.070692],[24.674136,42.070342],[24.674157,42.070114],[24.674268,42.069697],[24.674301,42.069049],[24.674241,42.068383],[24.674121,42.067997],[24.673981,42.06766],[24.673562,42.068287],[24.673433,42.068379],[24.67335,42.068472],[24.673302,42.068502],[24.673187,42.068532],[24.673119,42.068533],[24.672881,42.068471],[24.672665,42.068394],[24.672529,42.06837],[24.672393,42.068381],[24.672326,42.068404],[24.672297,42.06846],[24.672293,42.068549],[24.672268,42.068604],[24.672289,42.068721],[24.672274,42.068955],[24.671826,42.069096],[24.671005,42.06921],[24.669935,42.069276],[24.669899,42.069618],[24.669879,42.069635],[24.669687,42.069483],[24.66965,42.069382],[24.669568,42.069243],[24.669522,42.069081],[24.669421,42.068879],[24.66925,42.068686],[24.669208,42.068616],[24.669167,42.068485],[24.669144,42.068257],[24.669088,42.06809],[24.669091,42.068005],[24.669144,42.067934],[24.669144,42.067758],[24.66911,42.067645],[24.669024,42.067447],[24.66887,42.067361],[24.668816,42.067184],[24.668636,42.066819],[24.668556,42.066577]]]},"properties":{"cadreg":25}},{"type":"Feature","geometry":{"type":"Polygon","coordinates":[[[24.652173,42.055831],[24.651936,42.055824],[24.651896,42.055852],[24.651918,42.055918],[24.652176,42.056218],[24.652339,42.056525],[24.652423,42.056743],[24.652595,42.057032],[24.65268,42.057113],[24.652796,42.057159],[24.652865,42.057209],[24.653101,42.057443],[24.653157,42.057538],[24.653308,42.05766],[24.653676,42.057851],[24.653767,42.057961],[24.6538,42.058161],[24.65391,42.058309],[24.654243,42.058443],[24.654979,42.058615],[24.655327,42.058771],[24.655735,42.059022],[24.65582,42.059188],[24.655793,42.05927],[24.655808,42.05936],[24.655873,42.05945],[24.656387,42.059587],[24.656828,42.059728],[24.657122,42.059845],[24.65723,42.059904],[24.657368,42.059998],[24.657511,42.060123],[24.657597,42.060246],[24.657791,42.060459],[24.657834,42.060541],[24.658006,42.060542],[24.658765,42.06043],[24.659078,42.060459],[24.659254,42.060525],[24.659367,42.060626],[24.659625,42.060772],[24.65846,42.061078],[24.660561,42.062563],[24.661977,42.062191],[24.661947,42.062106],[24.661851,42.062025],[24.661933,42.06203],[24.661965,42.061977],[24.662823,42.063328],[24.662608,42.06334],[24.662509,42.06331],[24.662453,42.063281],[24.662326,42.063116],[24.662233,42.063066],[24.662178,42.063088],[24.662007,42.063221],[24.661837,42.063238],[24.661718,42.063287],[24.661624,42.063285],[24.661488,42.063346],[24.661353,42.063435],[24.661308,42.063486],[24.661215,42.063665],[24.661158,42.063823],[24.661025,42.063996],[24.660916,42.064071],[24.660728,42.064117],[24.660291,42.064179],[24.659955,42.064198],[24.659576,42.064269],[24.659451,42.064279],[24.660424,42.065138],[24.659909,42.065462],[24.660589,42.066028],[24.661512,42.065447],[24.661305,42.065275],[24.663497,42.063895],[24.663049,42.063557],[24.661992,42.061894],[24.661891,42.061537],[24.661916,42.061215],[24.661903,42.061094],[24.661803,42.060795],[24.661676,42.060575],[24.661649,42.060483],[24.661854,42.059898],[24.661775,42.059903],[24.661731,42.060066],[24.661575,42.060483],[24.661607,42.060591],[24.661734,42.060811],[24.661832,42.061105],[24.661844,42.061211],[24.661818,42.061537],[24.66192,42.061886],[24.661885,42.061978],[24.661788,42.061993],[24.661622,42.061995],[24.661281,42.061928],[24.661178,42.061893],[24.661001,42.061802],[24.660951,42.061754],[24.66079,42.061444],[24.66052,42.06125],[24.660328,42.061178],[24.660069,42.061113],[24.659956,42.061062],[24.659955,42.061],[24.659895,42.060931],[24.659897,42.060876],[24.659823,42.060807],[24.659737,42.060772],[24.659415,42.060585],[24.659305,42.060485],[24.659095,42.060406],[24.658763,42.060375],[24.657994,42.060488],[24.657885,42.06049],[24.657855,42.060433],[24.65766,42.060219],[24.657571,42.060093],[24.657421,42.059961],[24.657276,42.059862],[24.65716,42.059798],[24.656858,42.059678],[24.656413,42.059537],[24.655924,42.059406],[24.655878,42.059343],[24.655867,42.059273],[24.655895,42.059186],[24.655794,42.058989],[24.65537,42.058727],[24.655012,42.058566],[24.654269,42.058393],[24.653963,42.05827],[24.653871,42.058146],[24.653837,42.057944],[24.653727,42.057812],[24.653355,42.057619],[24.653219,42.057508],[24.653165,42.057417],[24.652919,42.057173],[24.652839,42.057115],[24.652728,42.057071],[24.652633,42.056981],[24.652493,42.056755],[24.652444,42.056603],[24.652252,42.056206],[24.652009,42.055925],[24.652152,42.055891],[24.652173,42.055831]]]},"properties":{"cadreg":26}},{"type":"Feature","geometry":{"type":"Polygon","coordinates":[[[24.652411,42.059273],[24.650747,42.059621],[24.650714,42.059465],[24.648707,42.060497],[24.64883,42.060565],[24.648939,42.060713],[24.649078,42.060842],[24.649245,42.060945],[24.649506,42.061046],[24.649564,42.061082],[24.649951,42.061406],[24.650198,42.061541],[24.650341,42.061521],[24.650394,42.061474],[24.651004,42.06166],[24.651325,42.061777],[24.651421,42.061754],[24.651486,42.061715],[24.65161,42.061793],[24.651821,42.061888],[24.651992,42.061944],[24.652046,42.061947],[24.652105,42.061976],[24.652384,42.062003],[24.652476,42.062054],[24.652635,42.062214],[24.652881,42.062755],[24.653056,42.06302],[24.653304,42.063347],[24.653536,42.063541],[24.653544,42.063572],[24.65372,42.063703],[24.654097,42.064141],[24.654461,42.064741],[24.654517,42.064919],[24.654618,42.065128],[24.654721,42.065287],[24.654809,42.065386],[24.654874,42.065516],[24.654928,42.065562],[24.654873,42.065576],[24.654714,42.065567],[24.655308,42.067149],[24.655499,42.067458],[24.655388,42.067525],[24.655338,42.067591],[24.655432,42.069284],[24.655401,42.069737],[24.655496,42.070028],[24.655567,42.070075],[24.655797,42.070386],[24.656048,42.070538],[24.65575,42.071391],[24.655744,42.071599],[24.655809,42.071918],[24.655988,42.072326],[24.656049,42.072307],[24.656174,42.072514],[24.656195,42.072578],[24.656363,42.072769],[24.656497,42.072983],[24.65679,42.073265],[24.656889,42.07343],[24.657201,42.073744],[24.657677,42.074275],[24.658025,42.074624],[24.659137,42.075651],[24.659372,42.075548],[24.659226,42.075367],[24.658945,42.075099],[24.658731,42.074821],[24.657656,42.073678],[24.657774,42.073599],[24.657693,42.073539],[24.657873,42.073346],[24.656848,42.072453],[24.65669,42.072189],[24.656861,42.071984],[24.656701,42.071774],[24.656644,42.071646],[24.656623,42.071511],[24.656656,42.071235],[24.656715,42.071111],[24.657133,42.070416],[24.65784,42.069763],[24.657582,42.0697],[24.658,42.067993],[24.658229,42.067944],[24.658408,42.068111],[24.658949,42.068691],[24.659451,42.069281],[24.659776,42.069857],[24.659886,42.069851],[24.659574,42.069303],[24.658786,42.068393],[24.658425,42.068016],[24.657849,42.067555],[24.657525,42.067203],[24.65741,42.067051],[24.657287,42.066843],[24.657015,42.066285],[24.656744,42.065828],[24.656304,42.065213],[24.656508,42.065115],[24.65633,42.064906],[24.656443,42.064798],[24.656479,42.064783],[24.656595,42.064887],[24.656641,42.0649],[24.656703,42.064894],[24.656837,42.064854],[24.657046,42.064705],[24.657254,42.064696],[24.657252,42.064778],[24.657333,42.064922],[24.657366,42.064954],[24.657512,42.064957],[24.657725,42.064786],[24.657773,42.064694],[24.657763,42.064585],[24.657731,42.064559],[24.657688,42.064555],[24.657366,42.064655],[24.657256,42.064641],[24.65702,42.064652],[24.656799,42.064807],[24.656687,42.064841],[24.656636,42.064841],[24.656515,42.064734],[24.656523,42.06469],[24.656556,42.064675],[24.656563,42.064583],[24.656523,42.064469],[24.6564,42.064325],[24.656373,42.064318],[24.656182,42.064386],[24.655119,42.062625],[24.654687,42.062761],[24.654605,42.062651],[24.654425,42.06267],[24.654398,42.062432],[24.654342,42.062273],[24.654262,42.062133],[24.65417,42.062068],[24.654136,42.062006],[24.654047,42.061923],[24.653692,42.061636],[24.653246,42.061188],[24.653176,42.061016],[24.653154,42.060884],[24.65314,42.060403],[24.65316,42.060311],[24.65316,42.060147],[24.653116,42.059932],[24.652945,42.059636],[24.652823,42.059557],[24.652595,42.05923],[24.652285,42.058715],[24.652069,42.058701],[24.652411,42.059273]]]},"properties":{"cadreg":27}},{"type":"Feature","geometry":{"type":"Polygon","coordinates":[[[24.641922,42.064355],[24.642173,42.064344],[24.64237,42.064308],[24.64248,42.064227],[24.642578,42.064007],[24.642555,42.063988],[24.64225,42.063928],[24.642107,42.063878],[24.641701,42.063709],[24.641487,42.063603],[24.641292,42.063541],[24.641241,42.063536],[24.641177,42.063552],[24.641032,42.063646],[24.640918,42.063777],[24.640858,42.063878],[24.640857,42.063947],[24.640871,42.063991],[24.640977,42.064025],[24.641281,42.064036],[24.641327,42.064086],[24.64132,42.064129],[24.641276,42.06418],[24.641081,42.06421],[24.6405,42.064734],[24.640418,42.064923],[24.640361,42.064957],[24.64038,42.064974],[24.640034,42.065239],[24.640872,42.065846],[24.641081,42.065959],[24.641316,42.066157],[24.641567,42.066533],[24.641754,42.066774],[24.641999,42.066915],[24.642448,42.067026],[24.643007,42.067199],[24.643636,42.06737],[24.643372,42.067451],[24.64345,42.067533],[24.643438,42.067602],[24.643456,42.067661],[24.643593,42.067981],[24.643764,42.068195],[24.643798,42.068374],[24.64388,42.068565],[24.643917,42.068587],[24.644067,42.0686],[24.644289,42.068561],[24.644502,42.068494],[24.644576,42.068499],[24.644649,42.068481],[24.644692,42.068484],[24.644814,42.068532],[24.644861,42.068581],[24.644452,42.068655],[24.644402,42.068671],[24.644322,42.068752],[24.64406,42.069163],[24.644092,42.069309],[24.644152,42.06938],[24.644422,42.069501],[24.644529,42.069521],[24.644543,42.069426],[24.644476,42.069209],[24.644537,42.069154],[24.644651,42.069209],[24.644768,42.069335],[24.645064,42.069279],[24.644827,42.068642],[24.644915,42.068628],[24.645166,42.068842],[24.64523,42.068922],[24.645323,42.068996],[24.645535,42.069217],[24.645649,42.069271],[24.645768,42.069309],[24.645934,42.069333],[24.646537,42.069382],[24.64678,42.06946],[24.646978,42.069562],[24.647315,42.069574],[24.647451,42.069592],[24.647565,42.069612],[24.647827,42.069701],[24.647979,42.069801],[24.648061,42.069889],[24.648309,42.07004],[24.648386,42.070106],[24.648615,42.070397],[24.649029,42.070771],[24.649227,42.070901],[24.649426,42.071001],[24.649907,42.071173],[24.650156,42.071282],[24.650318,42.071298],[24.65086,42.071282],[24.6511,42.07132],[24.651212,42.071353],[24.650225,42.07135],[24.64958,42.07124],[24.648912,42.071096],[24.648757,42.07087],[24.64831,42.071041],[24.648216,42.070876],[24.648064,42.070698],[24.648005,42.070659],[24.647769,42.070573],[24.647345,42.070488],[24.64707,42.070337],[24.646986,42.070334],[24.646955,42.070352],[24.646107,42.070373],[24.646005,42.070364],[24.64588,42.070326],[24.64583,42.070308],[24.645811,42.07028],[24.645839,42.070212],[24.646023,42.070144],[24.645987,42.070072],[24.645874,42.069989],[24.645977,42.069963],[24.646152,42.069822],[24.646265,42.069605],[24.646265,42.069562],[24.646228,42.069518],[24.646113,42.069485],[24.645812,42.069513],[24.64566,42.069486],[24.645371,42.069482],[24.645074,42.069514],[24.644867,42.069598],[24.644737,42.069735],[24.644695,42.069756],[24.644601,42.06976],[24.644776,42.069912],[24.644926,42.06991],[24.645073,42.069883],[24.645187,42.069901],[24.645252,42.069926],[24.64539,42.070023],[24.645409,42.069999],[24.645524,42.070032],[24.645232,42.070522],[24.645174,42.07051],[24.645165,42.070532],[24.645221,42.070543],[24.645418,42.070638],[24.645573,42.070682],[24.64583,42.070703],[24.646513,42.070708],[24.646744,42.070734],[24.646892,42.070794],[24.647276,42.070988],[24.64756,42.071186],[24.6476,42.071234],[24.647935,42.071494],[24.648103,42.071552],[24.648299,42.071599],[24.648519,42.071711],[24.648636,42.071802],[24.6487,42.071928],[24.648755,42.071967],[24.648908,42.071964],[24.649281,42.071892],[24.649499,42.071909],[24.64962,42.071899],[24.649969,42.07195],[24.650455,42.071919],[24.651067,42.071984],[24.651103,42.071962],[24.651677,42.07196],[24.652019,42.071986],[24.652393,42.072057],[24.652476,42.072034],[24.652518,42.071987],[24.652543,42.071896],[24.652716,42.071781],[24.652839,42.071731],[24.653209,42.071656],[24.653445,42.071626],[24.653536,42.07163],[24.653751,42.071691],[24.653793,42.07169],[24.6543,42.0718],[24.65488,42.07202],[24.655201,42.072176],[24.655318,42.072245],[24.6554,42.072349],[24.655575,42.072499],[24.655745,42.072603],[24.655819,42.072668],[24.655891,42.072751],[24.655939,42.072872],[24.655951,42.072975],[24.655892,42.0732],[24.655898,42.073448],[24.65593,42.073527],[24.656664,42.073238],[24.657552,42.074365],[24.657702,42.074299],[24.657201,42.073744],[24.656889,42.07343],[24.65679,42.073265],[24.656534,42.073031],[24.656363,42.072769],[24.656195,42.072578],[24.656174,42.072514],[24.656049,42.072307],[24.655988,42.072326],[24.655809,42.071918],[24.655744,42.071599],[24.655755,42.071382],[24.655281,42.070876],[24.654209,42.070033],[24.653699,42.069445],[24.653382,42.069287],[24.65259,42.068973],[24.6521,42.0687],[24.651734,42.068534],[24.65143,42.068429],[24.650681,42.068358],[24.650245,42.068283],[24.649614,42.068129],[24.649066,42.067938],[24.64786,42.06744],[24.647675,42.067317],[24.647554,42.067256],[24.64786,42.066869],[24.647877,42.066809],[24.648179,42.066542],[24.648255,42.066507],[24.648357,42.066365],[24.648945,42.066001],[24.648704,42.065802],[24.648806,42.065675],[24.648809,42.065475],[24.648612,42.065362],[24.648511,42.065269],[24.648349,42.065208],[24.648244,42.065199],[24.648125,42.06514],[24.647973,42.065005],[24.647827,42.064904],[24.647632,42.064922],[24.647569,42.064965],[24.647472,42.065002],[24.646904,42.065296],[24.646732,42.065246],[24.646695,42.065218],[24.646799,42.065184],[24.647238,42.064879],[24.647387,42.064817],[24.647538,42.064715],[24.64745,42.064623],[24.647145,42.064535],[24.647034,42.064549],[24.646816,42.064705],[24.646853,42.064738],[24.646829,42.064763],[24.646585,42.06486],[24.646375,42.064894],[24.646208,42.064806],[24.646148,42.064814],[24.646048,42.064874],[24.645979,42.064945],[24.645974,42.06498],[24.646089,42.06503],[24.646146,42.065084],[24.646255,42.065296],[24.645922,42.065355],[24.645029,42.065191],[24.643812,42.065134],[24.6433,42.064948],[24.64149,42.0649],[24.641595,42.064526],[24.641557,42.064502],[24.641658,42.06442],[24.641783,42.064379],[24.641922,42.064355]]]},"properties":{"cadreg":28}},{"type":"Feature","geometry":{"type":"Polygon","coordinates":[[[24.623378,42.06222],[24.62324,42.062499],[24.623226,42.062684],[24.623254,42.062972],[24.623408,42.063273],[24.623502,42.063399],[24.623676,42.063614],[24.623763,42.063674],[24.623807,42.063687],[24.623737,42.065104],[24.623674,42.065151],[24.6234,42.065265],[24.623253,42.065346],[24.623148,42.065441],[24.622956,42.0657],[24.622739,42.066151],[24.622677,42.066335],[24.62264,42.066595],[24.62266,42.066671],[24.62276,42.066814],[24.623073,42.067026],[24.62327,42.067251],[24.623507,42.067403],[24.624032,42.067686],[24.624238,42.067947],[24.624233,42.068128],[24.624341,42.068334],[24.624374,42.068536],[24.624496,42.068984],[24.624508,42.069293],[24.624576,42.069404],[24.624904,42.069609],[24.625156,42.069693],[24.625459,42.06976],[24.625539,42.069792],[24.625861,42.069864],[24.626014,42.069915],[24.626176,42.069929],[24.626434,42.069923],[24.626782,42.069867],[24.62712,42.070238],[24.627603,42.070858],[24.627665,42.070963],[24.627671,42.071026],[24.627645,42.071218],[24.627581,42.071433],[24.627554,42.071761],[24.627569,42.072115],[24.627605,42.072197],[24.627716,42.07233],[24.6279,42.072421],[24.627964,42.072511],[24.628079,42.072747],[24.628122,42.072843],[24.628154,42.073021],[24.628133,42.073291],[24.62833,42.073629],[24.628385,42.073863],[24.628337,42.074082],[24.628375,42.074145],[24.628438,42.074184],[24.628541,42.074295],[24.628603,42.074395],[24.628614,42.074527],[24.6288,42.074774],[24.628913,42.075201],[24.62897,42.07532],[24.628929,42.07543],[24.62914,42.075603],[24.62924,42.075729],[24.629334,42.075917],[24.629455,42.075857],[24.629545,42.075848],[24.629623,42.075816],[24.63003,42.075631],[24.630505,42.07548],[24.631143,42.075366],[24.631801,42.07533],[24.632222,42.075264],[24.63239,42.07522],[24.632478,42.075163],[24.632613,42.075005],[24.632672,42.074879],[24.632769,42.074813],[24.633263,42.075202],[24.633248,42.075247],[24.633103,42.075354],[24.633055,42.075425],[24.633061,42.075464],[24.633239,42.075464],[24.633574,42.075548],[24.633781,42.075557],[24.633989,42.075481],[24.634117,42.075411],[24.634751,42.075339],[24.634991,42.074742],[24.634986,42.074688],[24.635235,42.07467],[24.635383,42.074633],[24.635484,42.074567],[24.635584,42.074547],[24.635576,42.074125],[24.636661,42.073256],[24.635568,42.073036],[24.63514,42.072858],[24.634964,42.07286],[24.634853,42.073143],[24.634973,42.073296],[24.634422,42.073611],[24.634437,42.073834],[24.633936,42.073915],[24.633912,42.073865],[24.633867,42.07383],[24.633679,42.073748],[24.633672,42.073672],[24.63386,42.073454],[24.633986,42.073252],[24.633984,42.073128],[24.63395,42.073013],[24.633893,42.072934],[24.634164,42.071701],[24.634558,42.071292],[24.635193,42.071646],[24.635502,42.071364],[24.635809,42.071185],[24.635998,42.071045],[24.636129,42.070994],[24.636057,42.070781],[24.635969,42.07064],[24.635798,42.070174],[24.637176,42.070044],[24.637058,42.069776],[24.637011,42.069525],[24.636635,42.06956],[24.636626,42.069507],[24.636196,42.069547],[24.635945,42.069235],[24.635824,42.069194],[24.635022,42.069269],[24.635417,42.069619],[24.635266,42.069633],[24.635181,42.069812],[24.634158,42.069545],[24.632967,42.070484],[24.632354,42.070483],[24.631524,42.070803],[24.630684,42.069966],[24.629474,42.069471],[24.629962,42.069238],[24.630148,42.069416],[24.630552,42.069315],[24.630659,42.069167],[24.630298,42.068987],[24.630538,42.068275],[24.631066,42.068369],[24.631158,42.068083],[24.63063,42.067989],[24.630677,42.067841],[24.630904,42.067604],[24.631593,42.067969],[24.632182,42.067353],[24.631493,42.066988],[24.631589,42.066887],[24.631814,42.066532],[24.631684,42.065713],[24.632286,42.065339],[24.631939,42.065059],[24.63149,42.06529],[24.630396,42.065621],[24.630434,42.065886],[24.631189,42.065865],[24.631178,42.065538],[24.631483,42.065511],[24.631612,42.065716],[24.631739,42.066519],[24.631368,42.066342],[24.630331,42.067427],[24.630371,42.067448],[24.630162,42.067666],[24.629844,42.068653],[24.630314,42.068737],[24.630247,42.068947],[24.630103,42.069106],[24.62973,42.069285],[24.629677,42.069229],[24.629633,42.069216],[24.629428,42.069192],[24.628771,42.069151],[24.628532,42.069156],[24.628464,42.069181],[24.62838,42.069255],[24.628316,42.069343],[24.628232,42.06938],[24.628179,42.069448],[24.62823,42.069655],[24.62794,42.069625],[24.627775,42.069702],[24.627194,42.069763],[24.626777,42.069848],[24.626434,42.069255],[24.626112,42.068553],[24.626023,42.068221],[24.625962,42.067732],[24.626035,42.067656],[24.625944,42.067625],[24.625937,42.067537],[24.625775,42.067016],[24.625663,42.066849],[24.624957,42.06635],[24.624857,42.066127],[24.624854,42.065498],[24.624774,42.064949],[24.624591,42.064583],[24.624393,42.064338],[24.623835,42.063858],[24.623847,42.063493],[24.623801,42.06323],[24.623813,42.062995],[24.623917,42.062813],[24.624372,42.062361],[24.624552,42.06231],[24.624994,42.062251],[24.625641,42.062054],[24.625954,42.061899],[24.626194,42.06175],[24.626345,42.061612],[24.626351,42.061452],[24.624085,42.061453],[24.623688,42.061792],[24.623581,42.061866],[24.623415,42.062101],[24.623378,42.06222]]]},"properties":{"cadreg":29}},{"type":"Feature","geometry":{"type":"Polygon","coordinates":[[[24.653562,42.077344],[24.653379,42.07733],[24.653147,42.077385],[24.652904,42.07749],[24.652634,42.077727],[24.652454,42.077943],[24.652281,42.07807],[24.651912,42.078186],[24.651557,42.078239],[24.651176,42.078277],[24.651071,42.078384],[24.651058,42.078453],[24.651089,42.078597],[24.651319,42.078895],[24.651369,42.078934],[24.651456,42.078895],[24.651598,42.079004],[24.651681,42.079044],[24.651967,42.079322],[24.65203,42.079441],[24.652124,42.079563],[24.652135,42.079663],[24.652185,42.079819],[24.652195,42.079988],[24.652251,42.080256],[24.652298,42.08073],[24.65238,42.080863],[24.652479,42.081102],[24.652749,42.081353],[24.652905,42.08155],[24.653128,42.081745],[24.65345,42.081899],[24.655899,42.079289],[24.655951,42.079254],[24.656997,42.078115],[24.657063,42.077996],[24.65724,42.077566],[24.657281,42.077355],[24.657197,42.076973],[24.65707,42.076676],[24.657063,42.076611],[24.657039,42.076612],[24.65704,42.076568],[24.65713,42.07637],[24.65721,42.076124],[24.657442,42.07574],[24.657593,42.075395],[24.657674,42.075387],[24.657561,42.075235],[24.656855,42.074684],[24.656544,42.074687],[24.654831,42.074427],[24.654806,42.074515],[24.655411,42.074607],[24.655219,42.074981],[24.654659,42.076233],[24.654582,42.076369],[24.65445,42.076544],[24.654142,42.076854],[24.653828,42.077133],[24.653785,42.077154],[24.653562,42.077344]]]},"properties":{"cadreg":31}},{"type":"Feature","geometry":{"type":"Polygon","coordinates":[[[24.644212,42.073295],[24.643074,42.073853],[24.64267,42.073884],[24.642065,42.074188],[24.641839,42.074394],[24.641746,42.074743],[24.641662,42.075395],[24.641517,42.075647],[24.642729,42.075868],[24.643094,42.075889],[24.643323,42.075816],[24.643657,42.07585],[24.644468,42.075863],[24.644522,42.07588],[24.644558,42.075904],[24.644573,42.075943],[24.644529,42.076008],[24.643577,42.076901],[24.643575,42.077002],[24.643662,42.077088],[24.643888,42.077211],[24.644236,42.077318],[24.644908,42.07729],[24.646343,42.077767],[24.646757,42.077838],[24.647451,42.078124],[24.648099,42.07829],[24.648935,42.078385],[24.650009,42.078646],[24.651124,42.078983],[24.651305,42.07897],[24.651369,42.078934],[24.65129,42.078863],[24.651089,42.078597],[24.65106,42.078486],[24.651071,42.078384],[24.651176,42.078277],[24.651557,42.078239],[24.651912,42.078186],[24.652281,42.07807],[24.652454,42.077943],[24.652634,42.077727],[24.652869,42.077513],[24.653005,42.077439],[24.653307,42.077343],[24.653084,42.077111],[24.653743,42.075931],[24.65374,42.075899],[24.651597,42.074818],[24.651601,42.074773],[24.65169,42.074732],[24.65149,42.073906],[24.646616,42.073212],[24.646239,42.072772],[24.646163,42.072721],[24.646101,42.072756],[24.646008,42.072724],[24.644847,42.072924],[24.644212,42.073295]]]},"properties":{"cadreg":32}},{"type":"Feature","geometry":{"type":"Polygon","coordinates":[[[24.637801,42.072443],[24.637735,42.072488],[24.637416,42.072568],[24.637225,42.072647],[24.637206,42.072833],[24.637159,42.07289],[24.637091,42.072931],[24.636988,42.072936],[24.636887,42.072902],[24.636798,42.072904],[24.636726,42.072908],[24.636642,42.072947],[24.636661,42.073256],[24.635576,42.074125],[24.635584,42.074547],[24.635484,42.074567],[24.635383,42.074633],[24.635235,42.07467],[24.634986,42.074688],[24.634991,42.074742],[24.634751,42.075339],[24.634807,42.075333],[24.635072,42.075385],[24.635215,42.075428],[24.635291,42.075467],[24.635448,42.075472],[24.63555,42.075298],[24.635715,42.075134],[24.63594,42.075066],[24.636287,42.075402],[24.636687,42.075447],[24.636713,42.075987],[24.637861,42.076117],[24.637875,42.076249],[24.638826,42.076148],[24.63989,42.075944],[24.640948,42.075674],[24.641517,42.075647],[24.641662,42.075395],[24.641746,42.074743],[24.641839,42.074394],[24.642065,42.074188],[24.64267,42.073884],[24.643074,42.073853],[24.644212,42.073295],[24.644847,42.072924],[24.646008,42.072724],[24.646101,42.072756],[24.646163,42.072721],[24.646301,42.072716],[24.644473,42.070647],[24.64466,42.070397],[24.644851,42.070369],[24.645063,42.070483],[24.645232,42.070522],[24.645524,42.070032],[24.645409,42.069999],[24.64539,42.070023],[24.645252,42.069926],[24.645187,42.069901],[24.645073,42.069883],[24.644926,42.06991],[24.644776,42.069912],[24.644592,42.069751],[24.644451,42.069698],[24.643839,42.069749],[24.643808,42.069884],[24.644113,42.069962],[24.644259,42.070138],[24.644329,42.070161],[24.644388,42.070216],[24.644455,42.070363],[24.644535,42.070433],[24.644558,42.070423],[24.64422,42.070873],[24.643873,42.070739],[24.643073,42.070781],[24.642961,42.070703],[24.642825,42.070643],[24.643113,42.070016],[24.642422,42.069713],[24.641704,42.070152],[24.64161,42.070279],[24.640682,42.069984],[24.640433,42.070347],[24.64142,42.07066],[24.641248,42.070762],[24.641125,42.070867],[24.640869,42.070982],[24.64071,42.071035],[24.64046,42.071081],[24.640005,42.071118],[24.639662,42.071207],[24.639472,42.071239],[24.639298,42.07131],[24.639197,42.071272],[24.63888,42.071286],[24.638784,42.071332],[24.638724,42.071335],[24.638325,42.071443],[24.638208,42.071497],[24.638088,42.071656],[24.638095,42.07184],[24.638067,42.071932],[24.638056,42.072082],[24.638023,42.07217],[24.637801,42.072443]]]},"properties":{"cadreg":33}},{"type":"Feature","geometry":{"type":"Polygon","coordinates":[[[24.638826,42.076148],[24.637875,42.076249],[24.637267,42.076281],[24.6369,42.076384],[24.636695,42.076497],[24.636502,42.076665],[24.636348,42.077054],[24.636185,42.078172],[24.636116,42.078891],[24.636234,42.079421],[24.636469,42.079607],[24.637038,42.079943],[24.637231,42.080207],[24.637328,42.080615],[24.63995,42.080124],[24.64006,42.080138],[24.640234,42.08083],[24.642722,42.0822],[24.642919,42.082532],[24.64262,42.082679],[24.642136,42.083083],[24.64185,42.083214],[24.641894,42.083258],[24.642183,42.083125],[24.642667,42.08272],[24.643265,42.082428],[24.643525,42.082377],[24.643788,42.082407],[24.644004,42.082381],[24.644349,42.082154],[24.64447,42.082134],[24.64484,42.081984],[24.645267,42.082006],[24.646131,42.0815],[24.646861,42.081301],[24.647053,42.081176],[24.647293,42.081185],[24.648297,42.081702],[24.648574,42.081691],[24.648983,42.081603],[24.649253,42.081486],[24.649768,42.081378],[24.650492,42.081386],[24.651671,42.081562],[24.652116,42.081557],[24.652523,42.081454],[24.652821,42.081451],[24.652749,42.081353],[24.652479,42.081102],[24.65238,42.080863],[24.652298,42.08073],[24.652251,42.080256],[24.652195,42.079988],[24.652185,42.079819],[24.652135,42.079663],[24.652124,42.079563],[24.65203,42.079441],[24.651967,42.079322],[24.651788,42.079142],[24.651681,42.079044],[24.651598,42.079004],[24.651456,42.078895],[24.651305,42.07897],[24.651124,42.078983],[24.650009,42.078646],[24.648935,42.078385],[24.648099,42.07829],[24.647451,42.078124],[24.646757,42.077838],[24.646343,42.077767],[24.644908,42.07729],[24.644236,42.077318],[24.643888,42.077211],[24.643662,42.077088],[24.643575,42.077002],[24.643577,42.076901],[24.644529,42.076008],[24.644573,42.075943],[24.644558,42.075904],[24.644522,42.07588],[24.644468,42.075863],[24.643657,42.07585],[24.643323,42.075816],[24.643094,42.075889],[24.642729,42.075868],[24.641517,42.075647],[24.640948,42.075674],[24.63989,42.075944],[24.638826,42.076148]]]},"properties":{"cadreg":34}},{"type":"Feature","geometry":{"type":"Polygon","coordinates":[[[24.640438,42.0866],[24.639994,42.087098],[24.639873,42.087128],[24.639112,42.086861],[24.638115,42.086958],[24.637695,42.087151],[24.637553,42.08718],[24.636924,42.087692],[24.636992,42.088421],[24.637883,42.089949],[24.637963,42.090177],[24.637442,42.090305],[24.636249,42.090501],[24.63626,42.090553],[24.63619,42.090565],[24.636347,42.091288],[24.638421,42.090886],[24.638797,42.090784],[24.639435,42.090642],[24.650614,42.086287],[24.65208,42.083259],[24.652155,42.083164],[24.652621,42.082737],[24.65345,42.081899],[24.653128,42.081745],[24.652905,42.08155],[24.652821,42.081451],[24.652523,42.081454],[24.652116,42.081557],[24.651671,42.081562],[24.650492,42.081386],[24.649768,42.081378],[24.649253,42.081486],[24.649068,42.081566],[24.648728,42.081942],[24.648535,42.082264],[24.648376,42.083383],[24.647039,42.085089],[24.646682,42.085124],[24.646191,42.084982],[24.644793,42.085011],[24.644376,42.084887],[24.643355,42.085684],[24.642574,42.085968],[24.642036,42.086336],[24.641376,42.086605],[24.640953,42.086624],[24.640438,42.0866]]]},"properties":{"cadreg":35}},{"type":"Feature","geometry":{"type":"Polygon","coordinates":[[[24.650614,42.086287],[24.639435,42.090642],[24.638797,42.090784],[24.638421,42.090886],[24.636347,42.091288],[24.636355,42.091323],[24.638332,42.09094],[24.639142,42.093384],[24.640373,42.093177],[24.640511,42.093137],[24.641415,42.092707],[24.645765,42.090737],[24.648805,42.087837],[24.650085,42.087102],[24.650319,42.086895],[24.650614,42.086287]]]},"properties":{"cadreg":36}},{"type":"Feature","geometry":{"type":"Polygon","coordinates":[[[24.639669,42.081933],[24.635957,42.082261],[24.634724,42.082584],[24.634287,42.083059],[24.634427,42.083137],[24.634543,42.083177],[24.634743,42.08322],[24.634954,42.083182],[24.635042,42.083194],[24.63508,42.08322],[24.635119,42.083315],[24.635283,42.083397],[24.635458,42.083457],[24.636098,42.083759],[24.636452,42.084045],[24.63661,42.084209],[24.636818,42.08439],[24.636952,42.084478],[24.637047,42.084587],[24.637,42.084837],[24.636987,42.085008],[24.637001,42.085182],[24.636972,42.085361],[24.636875,42.085547],[24.636742,42.085726],[24.636657,42.0859],[24.63637,42.086609],[24.636343,42.086728],[24.636261,42.08686],[24.636204,42.086895],[24.635893,42.087352],[24.635754,42.087405],[24.635606,42.087541],[24.635428,42.087868],[24.635013,42.088327],[24.634618,42.088597],[24.633951,42.089237],[24.633873,42.089353],[24.634151,42.08939],[24.634228,42.089453],[24.634317,42.089566],[24.634729,42.090132],[24.634916,42.090327],[24.635079,42.090417],[24.635245,42.090468],[24.635715,42.090521],[24.63608,42.090472],[24.636161,42.090433],[24.63619,42.090565],[24.63626,42.090553],[24.636249,42.090501],[24.637442,42.090305],[24.637963,42.090177],[24.637883,42.089949],[24.636992,42.088421],[24.636924,42.087692],[24.637553,42.08718],[24.637695,42.087151],[24.638115,42.086958],[24.639112,42.086861],[24.639873,42.087128],[24.639994,42.087098],[24.640438,42.0866],[24.640953,42.086624],[24.641376,42.086605],[24.642036,42.086336],[24.642574,42.085968],[24.643355,42.085684],[24.644376,42.084887],[24.644793,42.085011],[24.646191,42.084982],[24.646682,42.085124],[24.647039,42.085089],[24.648376,42.083383],[24.648535,42.082264],[24.648728,42.081942],[24.649068,42.081566],[24.648983,42.081603],[24.648574,42.081691],[24.648297,42.081702],[24.647293,42.081185],[24.647053,42.081176],[24.646861,42.081301],[24.646131,42.0815],[24.645267,42.082006],[24.64484,42.081984],[24.64447,42.082134],[24.644349,42.082154],[24.644004,42.082381],[24.643788,42.082407],[24.643525,42.082377],[24.643265,42.082428],[24.642667,42.08272],[24.642183,42.083125],[24.641894,42.083258],[24.64185,42.083214],[24.642136,42.083083],[24.64262,42.082679],[24.642919,42.082532],[24.642722,42.0822],[24.640234,42.08083],[24.64006,42.080138],[24.63995,42.080124],[24.637328,42.080615],[24.637573,42.081146],[24.638543,42.081508],[24.639719,42.08189],[24.64029,42.082234],[24.64061,42.082583],[24.641496,42.083179],[24.641798,42.083239],[24.641809,42.083297],[24.641459,42.083227],[24.640555,42.082619],[24.640237,42.082271],[24.639669,42.081933]]]},"properties":{"cadreg":37}},{"type":"Feature","geometry":{"type":"Polygon","coordinates":[[[24.637861,42.076117],[24.636713,42.075987],[24.636687,42.075447],[24.636287,42.075402],[24.63594,42.075066],[24.635715,42.075134],[24.63555,42.075298],[24.63546,42.075462],[24.63542,42.075477],[24.635291,42.075467],[24.635215,42.075428],[24.635072,42.075385],[24.634807,42.075333],[24.634117,42.075411],[24.633989,42.075481],[24.633781,42.075557],[24.633574,42.075548],[24.633239,42.075464],[24.633061,42.075464],[24.633055,42.075425],[24.633103,42.075354],[24.633248,42.075247],[24.633263,42.075202],[24.632769,42.074813],[24.632672,42.074879],[24.632613,42.075005],[24.632478,42.075163],[24.63239,42.07522],[24.632222,42.075264],[24.631801,42.07533],[24.631143,42.075366],[24.630505,42.07548],[24.63003,42.075631],[24.629623,42.075816],[24.629545,42.075848],[24.629455,42.075857],[24.629334,42.075917],[24.629571,42.07637],[24.629569,42.076457],[24.629516,42.076613],[24.629517,42.076687],[24.629733,42.076935],[24.629849,42.077008],[24.629925,42.077104],[24.630004,42.077298],[24.630302,42.07767],[24.630406,42.078005],[24.630445,42.078076],[24.63053,42.07811],[24.630621,42.078276],[24.630636,42.078343],[24.630726,42.07844],[24.630897,42.078501],[24.630992,42.078577],[24.631008,42.078666],[24.630976,42.078738],[24.631028,42.078829],[24.63104,42.078903],[24.630994,42.079008],[24.631017,42.07914],[24.631066,42.079251],[24.631225,42.079448],[24.631445,42.079929],[24.63148,42.080066],[24.631404,42.080264],[24.631347,42.080332],[24.631446,42.080508],[24.63142,42.080631],[24.631127,42.080882],[24.631108,42.080953],[24.631162,42.081041],[24.631168,42.081108],[24.631142,42.081171],[24.631031,42.081225],[24.631098,42.081374],[24.631146,42.081449],[24.631304,42.081613],[24.63156,42.081769],[24.631853,42.081916],[24.63255,42.082339],[24.632775,42.082439],[24.633061,42.082507],[24.633292,42.082503],[24.633481,42.082465],[24.633659,42.082408],[24.633822,42.082292],[24.633992,42.082256],[24.634071,42.08228],[24.634132,42.082324],[24.634098,42.082412],[24.633964,42.082548],[24.633923,42.082616],[24.633931,42.082702],[24.634047,42.082792],[24.634235,42.083031],[24.634287,42.083059],[24.634724,42.082584],[24.635957,42.082261],[24.639669,42.081933],[24.640237,42.082271],[24.640555,42.082619],[24.641459,42.083227],[24.641809,42.083297],[24.641798,42.083239],[24.641496,42.083179],[24.64061,42.082583],[24.64029,42.082234],[24.639719,42.08189],[24.638543,42.081508],[24.637573,42.081146],[24.637328,42.080615],[24.637231,42.080207],[24.637038,42.079943],[24.636469,42.079607],[24.636234,42.079421],[24.636116,42.078891],[24.636185,42.078172],[24.636348,42.077054],[24.636502,42.076665],[24.636695,42.076497],[24.6369,42.076384],[24.637267,42.076281],[24.637875,42.076249],[24.637861,42.076117]]]},"properties":{"cadreg":38}},{"type":"Feature","geometry":{"type":"Polygon","coordinates":[[[24.663046,42.068387],[24.662816,42.068639],[24.662541,42.06887],[24.662378,42.068961],[24.662099,42.069076],[24.662027,42.069089],[24.661908,42.06908],[24.661731,42.069492],[24.661801,42.069542],[24.661667,42.069909],[24.66167,42.069988],[24.661858,42.069968],[24.661881,42.07],[24.66213,42.070501],[24.661967,42.070607],[24.662098,42.070714],[24.662368,42.070487],[24.662559,42.070628],[24.662574,42.070607],[24.662852,42.070719],[24.662774,42.070787],[24.662993,42.07095],[24.662685,42.071167],[24.662808,42.071223],[24.663032,42.070986],[24.663793,42.071572],[24.664079,42.071738],[24.664093,42.071798],[24.664718,42.071626],[24.664739,42.07133],[24.666026,42.071363],[24.66608,42.07163],[24.66629,42.071586],[24.6662,42.07133],[24.666838,42.071183],[24.666841,42.071161],[24.668191,42.071175],[24.668183,42.071462],[24.668278,42.071467],[24.668285,42.071176],[24.668448,42.071177],[24.668943,42.071103],[24.669233,42.070995],[24.669524,42.070865],[24.669535,42.070876],[24.669599,42.07085],[24.669232,42.070447],[24.669081,42.070234],[24.668309,42.069347],[24.6681,42.069029],[24.66804,42.067921],[24.667901,42.067025],[24.667861,42.066889],[24.667799,42.066817],[24.667594,42.066753],[24.667397,42.06675],[24.666509,42.066501],[24.665728,42.066309],[24.665254,42.066166],[24.665089,42.066177],[24.664984,42.066285],[24.664952,42.066363],[24.664939,42.066465],[24.664982,42.066589],[24.665031,42.066655],[24.665113,42.066712],[24.665261,42.06676],[24.66529,42.066824],[24.665043,42.067169],[24.664744,42.067346],[24.664517,42.067515],[24.664344,42.067577],[24.664219,42.067696],[24.664164,42.067723],[24.664065,42.067677],[24.663882,42.067866],[24.663814,42.06786],[24.663601,42.067995],[24.663477,42.068206],[24.66349,42.06825],[24.663185,42.06819],[24.663046,42.068387]]]},"properties":{"cadreg":40}},{"type":"Feature","geometry":{"type":"Polygon","coordinates":[[[24.642825,42.070643],[24.642961,42.070703],[24.643073,42.070781],[24.643873,42.070739],[24.64422,42.070873],[24.644558,42.070423],[24.644535,42.070433],[24.644455,42.070363],[24.644388,42.070216],[24.644329,42.070161],[24.644259,42.070138],[24.644113,42.069962],[24.643808,42.069884],[24.643839,42.069749],[24.643904,42.069744],[24.643747,42.06966],[24.643474,42.069366],[24.643386,42.069259],[24.643233,42.068945],[24.643084,42.068767],[24.643045,42.068668],[24.643136,42.06846],[24.643083,42.068262],[24.642986,42.068245],[24.642902,42.068255],[24.642729,42.068086],[24.642449,42.068],[24.642219,42.067949],[24.642157,42.067905],[24.642025,42.067915],[24.641844,42.067891],[24.64171,42.067856],[24.641502,42.067751],[24.641334,42.067771],[24.641263,42.067835],[24.641132,42.067873],[24.640652,42.067988],[24.640412,42.068027],[24.639905,42.06798],[24.639602,42.06793],[24.639296,42.067753],[24.639163,42.067746],[24.638899,42.067786],[24.638777,42.067742],[24.638655,42.067672],[24.638556,42.067574],[24.638518,42.067502],[24.638262,42.067406],[24.638245,42.067217],[24.638206,42.06711],[24.638037,42.067103],[24.637894,42.067159],[24.637167,42.067033],[24.636781,42.066993],[24.636528,42.066997],[24.636261,42.066964],[24.636056,42.066958],[24.635575,42.067001],[24.635092,42.066953],[24.634646,42.066968],[24.634452,42.066934],[24.634104,42.067002],[24.633963,42.067139],[24.633832,42.067204],[24.633726,42.067287],[24.633595,42.067343],[24.633342,42.067355],[24.633249,42.067491],[24.633021,42.067522],[24.632854,42.067596],[24.632738,42.067751],[24.632669,42.067887],[24.632551,42.067997],[24.632409,42.068089],[24.632305,42.068262],[24.632203,42.068533],[24.63211,42.068652],[24.632088,42.068715],[24.63209,42.068824],[24.632059,42.069013],[24.631875,42.069359],[24.631834,42.069639],[24.631741,42.069748],[24.631658,42.069803],[24.631503,42.06986],[24.630732,42.070014],[24.631524,42.070803],[24.632354,42.070483],[24.632967,42.070484],[24.634158,42.069545],[24.635181,42.069812],[24.635266,42.069633],[24.635417,42.069619],[24.635022,42.069269],[24.635824,42.069194],[24.635945,42.069235],[24.636196,42.069547],[24.636626,42.069507],[24.636635,42.06956],[24.637011,42.069525],[24.637058,42.069776],[24.637176,42.070044],[24.635798,42.070174],[24.635969,42.07064],[24.636057,42.070781],[24.636129,42.070994],[24.635998,42.071045],[24.635809,42.071185],[24.635502,42.071364],[24.635193,42.071646],[24.634558,42.071292],[24.634164,42.071701],[24.633893,42.072934],[24.63395,42.073013],[24.633984,42.073128],[24.633986,42.073252],[24.63386,42.073454],[24.633672,42.073672],[24.633679,42.073748],[24.633867,42.07383],[24.633912,42.073865],[24.633936,42.073915],[24.634437,42.073834],[24.634422,42.073611],[24.634973,42.073296],[24.634853,42.073143],[24.634964,42.07286],[24.63514,42.072858],[24.635568,42.073036],[24.636661,42.073256],[24.636638,42.073039],[24.636642,42.072947],[24.636668,42.072926],[24.636726,42.072908],[24.636887,42.072902],[24.636988,42.072936],[24.637091,42.072931],[24.637159,42.07289],[24.637206,42.072833],[24.637225,42.072647],[24.637416,42.072568],[24.637735,42.072488],[24.637801,42.072443],[24.638023,42.07217],[24.638056,42.072082],[24.638067,42.071932],[24.638095,42.07184],[24.638088,42.071656],[24.638208,42.071497],[24.638325,42.071443],[24.638724,42.071335],[24.638784,42.071332],[24.63888,42.071286],[24.639197,42.071272],[24.639298,42.07131],[24.639472,42.071239],[24.639662,42.071207],[24.640005,42.071118],[24.64046,42.071081],[24.64071,42.071035],[24.640869,42.070982],[24.641125,42.070867],[24.641248,42.070762],[24.64142,42.07066],[24.640433,42.070347],[24.640682,42.069984],[24.64161,42.070279],[24.641704,42.070152],[24.642422,42.069713],[24.643113,42.070016],[24.642825,42.070643]]]},"properties":{"cadreg":41}},{"type":"Feature","geometry":{"type":"Polygon","coordinates":[[[24.628663,42.061753],[24.627913,42.061628],[24.626984,42.061613],[24.62643,42.061639],[24.626329,42.061628],[24.626194,42.06175],[24.625954,42.061899],[24.625641,42.062054],[24.624994,42.062251],[24.624552,42.06231],[24.624372,42.062361],[24.623917,42.062813],[24.623813,42.062995],[24.623801,42.06323],[24.623836,42.063384],[24.623852,42.063605],[24.623835,42.063858],[24.624393,42.064338],[24.624591,42.064583],[24.624758,42.064909],[24.62479,42.065004],[24.624854,42.065498],[24.624857,42.066127],[24.624957,42.06635],[24.625663,42.066849],[24.625775,42.067016],[24.625937,42.067537],[24.625944,42.067625],[24.626035,42.067656],[24.625962,42.067732],[24.626023,42.068221],[24.626112,42.068553],[24.626434,42.069255],[24.626777,42.069848],[24.627194,42.069763],[24.627775,42.069702],[24.62794,42.069625],[24.62823,42.069655],[24.628179,42.069448],[24.628232,42.06938],[24.628316,42.069343],[24.62838,42.069255],[24.628464,42.069181],[24.628532,42.069156],[24.628771,42.069151],[24.629428,42.069192],[24.629633,42.069216],[24.629677,42.069229],[24.62973,42.069285],[24.630103,42.069106],[24.630247,42.068947],[24.630314,42.068737],[24.629844,42.068653],[24.630162,42.067666],[24.630371,42.067448],[24.630331,42.067427],[24.631368,42.066342],[24.631739,42.066519],[24.631612,42.065716],[24.631483,42.065511],[24.631178,42.065538],[24.631189,42.065865],[24.630434,42.065886],[24.630396,42.065621],[24.63149,42.06529],[24.631939,42.065059],[24.632286,42.065339],[24.631684,42.065713],[24.631814,42.066532],[24.631589,42.066887],[24.631493,42.066988],[24.632182,42.067353],[24.631593,42.067969],[24.630904,42.067604],[24.630677,42.067841],[24.63063,42.067989],[24.631158,42.068083],[24.631066,42.068369],[24.630538,42.068275],[24.630298,42.068987],[24.630659,42.069167],[24.630552,42.069315],[24.630148,42.069416],[24.629962,42.069238],[24.629474,42.069471],[24.630684,42.069966],[24.630732,42.070014],[24.631503,42.06986],[24.631658,42.069803],[24.631741,42.069748],[24.631834,42.069639],[24.631875,42.069359],[24.632059,42.069013],[24.63209,42.068824],[24.632088,42.068715],[24.63211,42.068652],[24.632203,42.068533],[24.632305,42.068262],[24.632409,42.068089],[24.632551,42.067997],[24.632669,42.067887],[24.632738,42.067751],[24.632854,42.067596],[24.633021,42.067522],[24.633249,42.067491],[24.633342,42.067355],[24.633595,42.067343],[24.633726,42.067287],[24.633832,42.067204],[24.633963,42.067139],[24.634104,42.067002],[24.634452,42.066934],[24.634646,42.066968],[24.635092,42.066953],[24.635575,42.067001],[24.635247,42.066879],[24.63504,42.066827],[24.634821,42.066731],[24.634662,42.066652],[24.63455,42.066536],[24.634432,42.06615],[24.634428,42.065988],[24.634519,42.065806],[24.634524,42.065508],[24.634406,42.065167],[24.63427,42.065043],[24.634195,42.064945],[24.634079,42.064657],[24.633955,42.064515],[24.633795,42.064382],[24.633304,42.064046],[24.632827,42.063781],[24.632592,42.063559],[24.632282,42.063211],[24.631689,42.062696],[24.631565,42.062536],[24.631435,42.062176],[24.631225,42.061972],[24.631161,42.061846],[24.63112,42.061676],[24.630996,42.061444],[24.630694,42.061483],[24.629555,42.061732],[24.629277,42.061727],[24.628941,42.061759],[24.628663,42.061753]]]},"properties":{"cadreg":42}},{"type":"Feature","geometry":{"type":"Polygon","coordinates":[[[24.640034,42.065239],[24.640349,42.064997],[24.639035,42.064259],[24.638098,42.063909],[24.63788,42.06384],[24.637499,42.063593],[24.63487,42.061229],[24.634458,42.060987],[24.634269,42.061065],[24.634021,42.061128],[24.633664,42.061165],[24.632674,42.061189],[24.631695,42.061351],[24.631373,42.061381],[24.630994,42.061436],[24.63112,42.061676],[24.631161,42.061846],[24.631225,42.061972],[24.631435,42.062176],[24.631565,42.062536],[24.631689,42.062696],[24.632282,42.063211],[24.632592,42.063559],[24.632827,42.063781],[24.633304,42.064046],[24.633795,42.064382],[24.633955,42.064515],[24.634079,42.064657],[24.634195,42.064945],[24.63427,42.065043],[24.634406,42.065167],[24.634524,42.065508],[24.634519,42.065806],[24.634428,42.065988],[24.634432,42.06615],[24.634499,42.066402],[24.63455,42.066536],[24.634662,42.066652],[24.634821,42.066731],[24.63504,42.066827],[24.635247,42.066879],[24.635575,42.067001],[24.636056,42.066958],[24.636261,42.066964],[24.636528,42.066997],[24.636781,42.066993],[24.637167,42.067033],[24.637894,42.067159],[24.638037,42.067103],[24.638206,42.06711],[24.638245,42.067217],[24.638262,42.067406],[24.638518,42.067502],[24.638556,42.067574],[24.638655,42.067672],[24.638777,42.067742],[24.638899,42.067786],[24.639163,42.067746],[24.639296,42.067753],[24.639602,42.06793],[24.639905,42.06798],[24.640412,42.068027],[24.640652,42.067988],[24.641132,42.067873],[24.641263,42.067835],[24.641334,42.067771],[24.641502,42.067751],[24.64171,42.067856],[24.641844,42.067891],[24.642025,42.067915],[24.642157,42.067905],[24.642219,42.067949],[24.642449,42.068],[24.642729,42.068086],[24.642902,42.068255],[24.642986,42.068245],[24.643083,42.068262],[24.643136,42.06846],[24.643045,42.068668],[24.643084,42.068767],[24.643233,42.068945],[24.643386,42.069259],[24.643474,42.069366],[24.643747,42.06966],[24.643904,42.069744],[24.644451,42.069698],[24.644601,42.06976],[24.644695,42.069756],[24.644737,42.069735],[24.644867,42.069598],[24.64491,42.069575],[24.645074,42.069514],[24.645206,42.069491],[24.645521,42.06948],[24.645699,42.069489],[24.645812,42.069513],[24.646113,42.069485],[24.646151,42.069493],[24.646228,42.069518],[24.646265,42.069562],[24.646265,42.069605],[24.646152,42.069822],[24.645977,42.069963],[24.645874,42.069989],[24.645987,42.070072],[24.646023,42.070144],[24.645839,42.070212],[24.645811,42.07028],[24.64583,42.070308],[24.64588,42.070326],[24.646005,42.070364],[24.646107,42.070373],[24.646955,42.070352],[24.646986,42.070334],[24.64707,42.070337],[24.647345,42.070488],[24.647769,42.070573],[24.648005,42.070659],[24.648064,42.070698],[24.648216,42.070876],[24.64831,42.071041],[24.648757,42.07087],[24.648912,42.071096],[24.64958,42.07124],[24.650225,42.07135],[24.651212,42.071353],[24.6511,42.07132],[24.65086,42.071282],[24.650318,42.071298],[24.650156,42.071282],[24.649907,42.071173],[24.649426,42.071001],[24.649227,42.070901],[24.649029,42.070771],[24.648615,42.070397],[24.648386,42.070106],[24.648309,42.07004],[24.648061,42.069889],[24.647979,42.069801],[24.647827,42.069701],[24.647565,42.069612],[24.647451,42.069592],[24.647315,42.069574],[24.646978,42.069562],[24.64678,42.06946],[24.646537,42.069382],[24.645934,42.069333],[24.645768,42.069309],[24.645649,42.069271],[24.645535,42.069217],[24.645323,42.068996],[24.64523,42.068922],[24.645166,42.068842],[24.644915,42.068628],[24.644827,42.068642],[24.645064,42.069279],[24.644768,42.069335],[24.644651,42.069209],[24.644537,42.069154],[24.644476,42.069209],[24.644543,42.069426],[24.644529,42.069521],[24.644422,42.069501],[24.644152,42.06938],[24.644092,42.069309],[24.64406,42.069163],[24.644322,42.068752],[24.644402,42.068671],[24.644452,42.068655],[24.644861,42.068581],[24.644814,42.068532],[24.644692,42.068484],[24.644649,42.068481],[24.644576,42.068499],[24.644502,42.068494],[24.644289,42.068561],[24.644067,42.0686],[24.643917,42.068587],[24.64388,42.068565],[24.643798,42.068374],[24.643764,42.068195],[24.643593,42.067981],[24.643456,42.067661],[24.643438,42.067602],[24.64345,42.067533],[24.643372,42.067451],[24.643636,42.06737],[24.643007,42.067199],[24.642448,42.067026],[24.641999,42.066915],[24.641754,42.066774],[24.641567,42.066533],[24.641316,42.066157],[24.641081,42.065959],[24.640872,42.065846],[24.640034,42.065239]]]},"properties":{"cadreg":43}},{"type":"Feature","geometry":{"type":"Polygon","coordinates":[[[24.650886,42.061622],[24.650394,42.061474],[24.650341,42.061521],[24.650198,42.061541],[24.649951,42.061406],[24.649564,42.061082],[24.649506,42.061046],[24.649245,42.060945],[24.649078,42.060842],[24.648939,42.060713],[24.64883,42.060565],[24.648707,42.060497],[24.647151,42.061082],[24.646912,42.061203],[24.647232,42.06146],[24.64746,42.061872],[24.647568,42.062303],[24.647771,42.062707],[24.647935,42.062975],[24.648193,42.06317],[24.648487,42.063346],[24.648931,42.063728],[24.648645,42.063831],[24.648612,42.063958],[24.648772,42.064091],[24.648513,42.064329],[24.648265,42.064513],[24.647833,42.064591],[24.647238,42.064879],[24.646899,42.065122],[24.646799,42.065184],[24.646695,42.065218],[24.646732,42.065246],[24.646904,42.065296],[24.647472,42.065002],[24.647569,42.064965],[24.647632,42.064922],[24.647827,42.064904],[24.647973,42.065005],[24.648125,42.06514],[24.648244,42.065199],[24.648349,42.065208],[24.648511,42.065269],[24.648612,42.065362],[24.648809,42.065475],[24.648806,42.065675],[24.648704,42.065802],[24.648945,42.066001],[24.648357,42.066365],[24.648255,42.066507],[24.648179,42.066542],[24.647877,42.066809],[24.64786,42.066869],[24.647554,42.067256],[24.647675,42.067317],[24.64786,42.06744],[24.649066,42.067938],[24.649614,42.068129],[24.650245,42.068283],[24.650681,42.068358],[24.65143,42.068429],[24.651734,42.068534],[24.6521,42.0687],[24.65259,42.068973],[24.653382,42.069287],[24.653699,42.069445],[24.654209,42.070033],[24.655281,42.070876],[24.655755,42.071382],[24.656048,42.070538],[24.655797,42.070386],[24.655567,42.070075],[24.655496,42.070028],[24.655401,42.069737],[24.655432,42.069284],[24.655338,42.067591],[24.655388,42.067525],[24.655499,42.067458],[24.655308,42.067149],[24.654714,42.065567],[24.654873,42.065576],[24.654928,42.065562],[24.654874,42.065516],[24.654809,42.065386],[24.654721,42.065287],[24.654618,42.065128],[24.654517,42.064919],[24.654461,42.064741],[24.654097,42.064141],[24.65372,42.063703],[24.653544,42.063572],[24.653536,42.063541],[24.653304,42.063347],[24.653056,42.06302],[24.652881,42.062755],[24.652635,42.062214],[24.652555,42.062119],[24.652384,42.062003],[24.652105,42.061976],[24.652046,42.061947],[24.651946,42.061929],[24.65161,42.061793],[24.651486,42.061715],[24.651421,42.061754],[24.651325,42.061777],[24.650886,42.061622]]]},"properties":{"cadreg":44}},{"type":"Feature","geometry":{"type":"Polygon","coordinates":[[[24.65268,42.057113],[24.652597,42.057033],[24.652694,42.057167],[24.652407,42.057281],[24.652303,42.057365],[24.652277,42.057537],[24.652317,42.057744],[24.6525,42.058067],[24.652632,42.058263],[24.652884,42.058538],[24.652999,42.058688],[24.65301,42.058784],[24.652984,42.058799],[24.652927,42.058799],[24.652285,42.058715],[24.652595,42.05923],[24.652823,42.059557],[24.652945,42.059636],[24.653116,42.059932],[24.65316,42.060147],[24.65316,42.060311],[24.65314,42.060403],[24.653154,42.060884],[24.653176,42.061016],[24.653246,42.061188],[24.653692,42.061636],[24.654047,42.061923],[24.654136,42.062006],[24.65417,42.062068],[24.654262,42.062133],[24.654342,42.062273],[24.654398,42.062432],[24.654425,42.06267],[24.654605,42.062651],[24.654687,42.062761],[24.655119,42.062625],[24.656182,42.064386],[24.656373,42.064318],[24.6564,42.064325],[24.656523,42.064469],[24.656563,42.064583],[24.656556,42.064675],[24.656523,42.06469],[24.656515,42.064734],[24.656636,42.064841],[24.656687,42.064841],[24.656799,42.064807],[24.65702,42.064652],[24.657256,42.064641],[24.657366,42.064655],[24.657688,42.064555],[24.657731,42.064559],[24.657763,42.064585],[24.657773,42.064694],[24.657725,42.064786],[24.657512,42.064957],[24.657366,42.064954],[24.657333,42.064922],[24.657252,42.064778],[24.657254,42.064696],[24.657046,42.064705],[24.656837,42.064854],[24.656703,42.064894],[24.656641,42.0649],[24.656595,42.064887],[24.656479,42.064783],[24.656443,42.064798],[24.65633,42.064906],[24.656508,42.065115],[24.656304,42.065213],[24.656744,42.065828],[24.657015,42.066285],[24.657287,42.066843],[24.65741,42.067051],[24.657525,42.067203],[24.657849,42.067555],[24.658425,42.068016],[24.658786,42.068393],[24.659574,42.069303],[24.659886,42.069851],[24.660087,42.069907],[24.660192,42.070074],[24.660349,42.070148],[24.660389,42.070024],[24.660164,42.067944],[24.660251,42.06762],[24.660121,42.067307],[24.660127,42.067091],[24.66043,42.066718],[24.660555,42.066482],[24.660632,42.066229],[24.660675,42.065974],[24.660589,42.066028],[24.659909,42.065462],[24.660424,42.065138],[24.659451,42.064279],[24.659576,42.064269],[24.659955,42.064198],[24.660291,42.064179],[24.660728,42.064117],[24.660916,42.064071],[24.661025,42.063996],[24.661158,42.063823],[24.661215,42.063665],[24.661308,42.063486],[24.661353,42.063435],[24.661488,42.063346],[24.661624,42.063285],[24.661718,42.063287],[24.661837,42.063238],[24.662007,42.063221],[24.662178,42.063088],[24.662233,42.063066],[24.662326,42.063116],[24.662453,42.063281],[24.662509,42.06331],[24.662608,42.06334],[24.662823,42.063328],[24.661965,42.061977],[24.661933,42.06203],[24.661851,42.062025],[24.661947,42.062106],[24.661977,42.062191],[24.660561,42.062563],[24.65846,42.061078],[24.659625,42.060772],[24.659367,42.060626],[24.659254,42.060525],[24.659078,42.060459],[24.658765,42.06043],[24.658006,42.060542],[24.657834,42.060541],[24.657791,42.060459],[24.657597,42.060246],[24.657511,42.060123],[24.657368,42.059998],[24.65723,42.059904],[24.657122,42.059845],[24.656828,42.059728],[24.656387,42.059587],[24.655873,42.05945],[24.655808,42.05936],[24.655793,42.05927],[24.65582,42.059188],[24.655735,42.059022],[24.655327,42.058771],[24.654979,42.058615],[24.654243,42.058443],[24.65391,42.058309],[24.6538,42.058161],[24.653767,42.057961],[24.653676,42.057851],[24.653308,42.05766],[24.653157,42.057538],[24.653101,42.057443],[24.652865,42.057209],[24.652796,42.057159],[24.65268,42.057113]]]},"properties":{"cadreg":45}},{"type":"Feature","geometry":{"type":"Polygon","coordinates":[[[24.667417,42.056624],[24.667091,42.056863],[24.666481,42.05725],[24.666057,42.057591],[24.665744,42.057896],[24.665304,42.058235],[24.664935,42.058587],[24.664608,42.058676],[24.664076,42.059082],[24.663787,42.059416],[24.663128,42.059633],[24.662602,42.05983],[24.661946,42.059903],[24.661854,42.059898],[24.661649,42.060483],[24.661676,42.060575],[24.661803,42.060795],[24.661903,42.061094],[24.661916,42.061215],[24.661891,42.061537],[24.661992,42.061894],[24.663049,42.063557],[24.663497,42.063895],[24.661305,42.065275],[24.661512,42.065447],[24.660675,42.065974],[24.660632,42.066229],[24.660555,42.066482],[24.66043,42.066718],[24.660127,42.067091],[24.660121,42.067307],[24.660251,42.06762],[24.660164,42.067944],[24.660389,42.070024],[24.660524,42.070044],[24.660711,42.069659],[24.660962,42.069212],[24.661179,42.068901],[24.661403,42.068757],[24.662141,42.068556],[24.662246,42.068749],[24.662024,42.068833],[24.662047,42.068875],[24.661769,42.06898],[24.661908,42.06908],[24.662027,42.069089],[24.662197,42.069043],[24.662444,42.068927],[24.662644,42.068797],[24.662923,42.068526],[24.663125,42.068287],[24.663185,42.06819],[24.66349,42.06825],[24.663477,42.068206],[24.663601,42.067995],[24.663814,42.06786],[24.663882,42.067866],[24.664065,42.067677],[24.664164,42.067723],[24.664219,42.067696],[24.664344,42.067577],[24.664517,42.067515],[24.664744,42.067346],[24.665043,42.067169],[24.66529,42.066824],[24.665261,42.06676],[24.665113,42.066712],[24.665031,42.066655],[24.664982,42.066589],[24.664939,42.066465],[24.664952,42.066363],[24.664984,42.066285],[24.665089,42.066177],[24.665254,42.066166],[24.665728,42.066309],[24.666509,42.066501],[24.667,42.066648],[24.667397,42.06675],[24.667491,42.066752],[24.667699,42.066223],[24.666922,42.066033],[24.666728,42.065809],[24.666719,42.065404],[24.666687,42.065053],[24.66675,42.064637],[24.667024,42.064471],[24.667528,42.06433],[24.668331,42.064058],[24.66853,42.06393],[24.668829,42.063646],[24.668994,42.063473],[24.669357,42.062963],[24.66937,42.062458],[24.669413,42.062232],[24.669552,42.061978],[24.669851,42.061848],[24.670228,42.061377],[24.670533,42.060562],[24.671513,42.06023],[24.671562,42.060184],[24.671626,42.060155],[24.671673,42.059997],[24.671688,42.059818],[24.671751,42.059785],[24.671846,42.059771],[24.671909,42.059742],[24.671997,42.05975],[24.672116,42.059535],[24.672338,42.059065],[24.672538,42.058376],[24.672884,42.058412],[24.673105,42.058388],[24.673345,42.058217],[24.673607,42.057979],[24.673735,42.057882],[24.673838,42.057833],[24.673746,42.05775],[24.673578,42.057326],[24.673569,42.057238],[24.673435,42.057027],[24.673344,42.056263],[24.673123,42.055598],[24.67243,42.055169],[24.672343,42.05509],[24.672153,42.055057],[24.671919,42.05492],[24.671513,42.054731],[24.67136,42.05458],[24.67124,42.054568],[24.671036,42.054575],[24.670653,42.054632],[24.669951,42.054668],[24.669457,42.054673],[24.668821,42.054881],[24.668434,42.055081],[24.668062,42.055365],[24.66763,42.056378],[24.667417,42.056624]]]},"properties":{"cadreg":46}},{"type":"Feature","geometry":{"type":"Polygon","coordinates":[[[24.669552,42.061978],[24.669413,42.062232],[24.66937,42.062458],[24.669357,42.062963],[24.668994,42.063473],[24.66853,42.06393],[24.668331,42.064058],[24.667528,42.06433],[24.667024,42.064471],[24.66675,42.064637],[24.666687,42.065053],[24.666719,42.065404],[24.666728,42.065809],[24.66689,42.065996],[24.666922,42.066033],[24.667699,42.066223],[24.667491,42.066752],[24.667594,42.066753],[24.667799,42.066817],[24.667828,42.066851],[24.667972,42.066699],[24.668103,42.066604],[24.668311,42.066553],[24.66843,42.066547],[24.668507,42.066556],[24.668556,42.066577],[24.668636,42.066819],[24.668816,42.067184],[24.66887,42.067361],[24.669024,42.067447],[24.66911,42.067645],[24.669144,42.067758],[24.669144,42.067934],[24.669091,42.068005],[24.669088,42.06809],[24.669144,42.068257],[24.669167,42.068485],[24.669208,42.068616],[24.66925,42.068686],[24.669421,42.068879],[24.669522,42.069081],[24.669568,42.069243],[24.66965,42.069382],[24.669687,42.069483],[24.669879,42.069635],[24.669899,42.069618],[24.669935,42.069276],[24.671005,42.06921],[24.671826,42.069096],[24.672274,42.068955],[24.672289,42.068721],[24.672268,42.068604],[24.672293,42.068549],[24.672297,42.06846],[24.672326,42.068404],[24.672393,42.068381],[24.672529,42.06837],[24.672665,42.068394],[24.672881,42.068471],[24.673119,42.068533],[24.673187,42.068532],[24.673302,42.068502],[24.67335,42.068472],[24.673433,42.068379],[24.673562,42.068287],[24.673981,42.06766],[24.673924,42.067537],[24.67385,42.067432],[24.673485,42.067023],[24.673148,42.066416],[24.672988,42.066066],[24.672912,42.065945],[24.672803,42.065604],[24.672622,42.064912],[24.672608,42.064593],[24.672676,42.064212],[24.672746,42.064025],[24.672857,42.063839],[24.673027,42.063646],[24.673268,42.063414],[24.673404,42.06331],[24.673611,42.063114],[24.673791,42.062998],[24.673802,42.062787],[24.673749,42.06255],[24.673705,42.062445],[24.673681,42.06226],[24.673583,42.061881],[24.673518,42.061476],[24.67348,42.06095],[24.673484,42.060798],[24.673522,42.060583],[24.673654,42.060377],[24.673795,42.060274],[24.673914,42.060239],[24.674111,42.060212],[24.674451,42.060214],[24.674716,42.060184],[24.674733,42.060135],[24.674736,42.059916],[24.674682,42.059575],[24.674634,42.059547],[24.674044,42.05949],[24.673577,42.059373],[24.673428,42.059301],[24.673355,42.059245],[24.673094,42.059113],[24.672975,42.059023],[24.672862,42.058824],[24.672789,42.05874],[24.672822,42.058639],[24.672872,42.058574],[24.673105,42.058388],[24.672884,42.058412],[24.672538,42.058376],[24.672338,42.059065],[24.671997,42.05975],[24.671909,42.059742],[24.671846,42.059771],[24.671702,42.059805],[24.671636,42.060142],[24.671513,42.06023],[24.670533,42.060562],[24.670228,42.061377],[24.669851,42.061848],[24.669552,42.061978]]]},"properties":{"cadreg":47}},{"type":"Feature","geometry":{"type":"Polygon","coordinates":[[[24.64719,42.064541],[24.64745,42.064623],[24.647538,42.064715],[24.647512,42.064742],[24.647833,42.064591],[24.648265,42.064513],[24.648513,42.064329],[24.648772,42.064091],[24.648612,42.063958],[24.648645,42.063831],[24.648931,42.063728],[24.648487,42.063346],[24.648193,42.06317],[24.647935,42.062975],[24.647771,42.062707],[24.647568,42.062303],[24.64746,42.061872],[24.647232,42.06146],[24.646912,42.061203],[24.646795,42.061349],[24.646533,42.061461],[24.646137,42.06152],[24.645655,42.061553],[24.644828,42.061718],[24.644599,42.061748],[24.64425,42.061762],[24.643806,42.061813],[24.643266,42.061919],[24.642165,42.062214],[24.641771,42.062381],[24.640672,42.062739],[24.640206,42.062907],[24.639557,42.063184],[24.63967,42.06322],[24.639722,42.063302],[24.639579,42.063432],[24.639523,42.063515],[24.639468,42.063547],[24.639344,42.063542],[24.639169,42.063336],[24.63788,42.06384],[24.638098,42.063909],[24.639035,42.064259],[24.640349,42.064997],[24.64038,42.064974],[24.640361,42.064957],[24.640418,42.064923],[24.6405,42.064734],[24.641081,42.06421],[24.641276,42.06418],[24.64132,42.064129],[24.641327,42.064086],[24.641281,42.064036],[24.640977,42.064025],[24.640871,42.063991],[24.640857,42.063947],[24.640858,42.063878],[24.640918,42.063777],[24.641032,42.063646],[24.641177,42.063552],[24.641241,42.063536],[24.641487,42.063603],[24.641701,42.063709],[24.642107,42.063878],[24.64225,42.063928],[24.642555,42.063988],[24.642578,42.064007],[24.64248,42.064227],[24.64237,42.064308],[24.642173,42.064344],[24.641834,42.064367],[24.641658,42.06442],[24.641619,42.064449],[24.641557,42.064502],[24.641595,42.064526],[24.64149,42.0649],[24.6433,42.064948],[24.643812,42.065134],[24.645029,42.065191],[24.645922,42.065355],[24.646255,42.065296],[24.646146,42.065084],[24.646089,42.06503],[24.645974,42.06498],[24.645979,42.064945],[24.64609,42.064846],[24.646148,42.064814],[24.646208,42.064806],[24.646375,42.064894],[24.646585,42.06486],[24.646829,42.064763],[24.646853,42.064738],[24.646816,42.064705],[24.647034,42.064549],[24.647071,42.064535],[24.64719,42.064541]]]},"properties":{"cadreg":48}},{"type":"Feature","geometry":{"type":"Polygon","coordinates":[[[24.637891,42.06004],[24.63659,42.060142],[24.636429,42.060183],[24.636074,42.060239],[24.635866,42.060296],[24.635551,42.060424],[24.634785,42.060867],[24.634458,42.060987],[24.63487,42.061229],[24.637444,42.063553],[24.63788,42.06384],[24.639169,42.063336],[24.639344,42.063542],[24.639468,42.063547],[24.639523,42.063515],[24.639579,42.063432],[24.639722,42.063302],[24.63967,42.06322],[24.639557,42.063184],[24.640206,42.062907],[24.640672,42.062739],[24.641771,42.062381],[24.642165,42.062214],[24.643266,42.061919],[24.643806,42.061813],[24.64425,42.061762],[24.644599,42.061748],[24.644828,42.061718],[24.645655,42.061553],[24.646137,42.06152],[24.646533,42.061461],[24.646795,42.061349],[24.646912,42.061203],[24.647151,42.061082],[24.646993,42.061113],[24.646818,42.061075],[24.645478,42.060407],[24.645192,42.060359],[24.644695,42.060319],[24.643753,42.060195],[24.641867,42.059837],[24.640556,42.059841],[24.64011,42.059817],[24.639495,42.05973],[24.639195,42.059666],[24.639121,42.059685],[24.639055,42.059733],[24.638828,42.059815],[24.638498,42.05991],[24.638137,42.059994],[24.637891,42.06004]]]},"properties":{"cadreg":49}},{"type":"Feature","geometry":{"type":"Polygon","coordinates":[[[24.629555,42.061732],[24.630694,42.061483],[24.630994,42.061436],[24.630141,42.061457],[24.629041,42.061425],[24.628371,42.061455],[24.626351,42.061452],[24.626354,42.06155],[24.626329,42.061628],[24.62643,42.061639],[24.626984,42.061613],[24.627913,42.061628],[24.628663,42.061753],[24.628941,42.061759],[24.629277,42.061727],[24.629555,42.061732]]]},"properties":{"cadreg":50}},{"type":"Feature","geometry":{"type":"Polygon","coordinates":[[[24.653561,42.056033],[24.653434,42.055983],[24.652962,42.055853],[24.652572,42.05581],[24.652173,42.055831],[24.652152,42.055891],[24.652009,42.055925],[24.652252,42.056206],[24.652444,42.056603],[24.652493,42.056755],[24.652633,42.056981],[24.652728,42.057071],[24.652839,42.057115],[24.652919,42.057173],[24.653165,42.057417],[24.653219,42.057508],[24.653355,42.057619],[24.653727,42.057812],[24.653837,42.057944],[24.653871,42.058146],[24.653963,42.05827],[24.654269,42.058393],[24.655012,42.058566],[24.65537,42.058727],[24.655794,42.058989],[24.655895,42.059186],[24.655867,42.059273],[24.655878,42.059343],[24.655924,42.059406],[24.656413,42.059537],[24.656858,42.059678],[24.65716,42.059798],[24.657276,42.059862],[24.657421,42.059961],[24.657571,42.060093],[24.65766,42.060219],[24.657855,42.060433],[24.657885,42.06049],[24.657994,42.060488],[24.658763,42.060375],[24.659095,42.060406],[24.659177,42.060427],[24.659305,42.060485],[24.659415,42.060585],[24.659737,42.060772],[24.659823,42.060807],[24.659897,42.060876],[24.659895,42.060931],[24.659955,42.061],[24.659956,42.061062],[24.660069,42.061113],[24.660328,42.061178],[24.66052,42.06125],[24.66079,42.061444],[24.660951,42.061754],[24.661001,42.061802],[24.661178,42.061893],[24.661359,42.061946],[24.661622,42.061995],[24.661788,42.061993],[24.661885,42.061978],[24.66192,42.061886],[24.661818,42.061537],[24.661844,42.061211],[24.661832,42.061105],[24.661734,42.060811],[24.661607,42.060591],[24.661575,42.060483],[24.661779,42.059895],[24.661539,42.059882],[24.661208,42.059764],[24.660864,42.059454],[24.660494,42.059004],[24.660386,42.058791],[24.659656,42.058753],[24.659162,42.058686],[24.658416,42.058513],[24.65815,42.058438],[24.658041,42.058393],[24.657499,42.058148],[24.657252,42.05802],[24.656679,42.057862],[24.656493,42.057777],[24.655868,42.057557],[24.655711,42.057481],[24.655551,42.057275],[24.655116,42.056842],[24.655063,42.056829],[24.654565,42.056561],[24.654411,42.056458],[24.653561,42.056033]]]},"properties":{"cadreg":51}},{"type":"Feature","geometry":{"type":"Polygon","coordinates":[[[24.658229,42.067944],[24.658,42.067993],[24.657582,42.0697],[24.65784,42.069763],[24.657133,42.070416],[24.656715,42.071111],[24.656656,42.071235],[24.656623,42.071511],[24.656644,42.071646],[24.656701,42.071774],[24.656861,42.071984],[24.65669,42.072189],[24.656848,42.072453],[24.657873,42.073346],[24.657693,42.073539],[24.657774,42.073599],[24.657656,42.073678],[24.658731,42.074821],[24.658945,42.075099],[24.659226,42.075367],[24.659372,42.075548],[24.659063,42.075683],[24.658949,42.075764],[24.658835,42.075781],[24.65869,42.075752],[24.65841,42.075559],[24.658372,42.07551],[24.658283,42.075467],[24.657757,42.075264],[24.657762,42.075389],[24.657629,42.075383],[24.657593,42.075395],[24.657442,42.07574],[24.65721,42.076124],[24.65713,42.07637],[24.65704,42.076568],[24.657039,42.076612],[24.657063,42.076611],[24.65707,42.076676],[24.657197,42.076973],[24.657277,42.077306],[24.657367,42.077291],[24.657457,42.077359],[24.657398,42.077565],[24.657205,42.078033],[24.657206,42.078139],[24.657114,42.078242],[24.657658,42.078516],[24.657756,42.078386],[24.658066,42.078516],[24.658593,42.078568],[24.658627,42.077928],[24.659817,42.077724],[24.659619,42.077237],[24.659542,42.076661],[24.659378,42.076303],[24.659232,42.076136],[24.659274,42.076097],[24.659005,42.075788],[24.659096,42.075735],[24.65948,42.075569],[24.65995,42.076048],[24.66043,42.076947],[24.661063,42.07742],[24.661382,42.077231],[24.661848,42.077686],[24.66237,42.078292],[24.662701,42.078604],[24.662944,42.078788],[24.663445,42.079037],[24.66599,42.079883],[24.66656,42.080196],[24.666604,42.080183],[24.667093,42.080493],[24.667303,42.080601],[24.667516,42.080682],[24.667743,42.080739],[24.667981,42.080765],[24.668219,42.08076],[24.668456,42.080721],[24.668681,42.080654],[24.668924,42.080541],[24.671018,42.079434],[24.675342,42.081679],[24.675424,42.081592],[24.675272,42.081512],[24.675338,42.081442],[24.674892,42.080846],[24.674688,42.080897],[24.672521,42.079484],[24.671734,42.07976],[24.6707,42.07922],[24.671676,42.078033],[24.669102,42.076499],[24.670032,42.074939],[24.668473,42.074414],[24.668838,42.073933],[24.669111,42.073934],[24.671537,42.073749],[24.671556,42.073659],[24.671531,42.07344],[24.671642,42.073433],[24.671469,42.072914],[24.671391,42.072746],[24.671279,42.072592],[24.669728,42.07109],[24.669524,42.070865],[24.669233,42.070995],[24.668943,42.071103],[24.668448,42.071177],[24.668285,42.071176],[24.668278,42.071467],[24.668183,42.071462],[24.668191,42.071175],[24.666841,42.071161],[24.666838,42.071183],[24.6662,42.07133],[24.66629,42.071586],[24.66608,42.07163],[24.666026,42.071363],[24.664739,42.07133],[24.664718,42.071626],[24.664093,42.071798],[24.664079,42.071738],[24.663793,42.071572],[24.663032,42.070986],[24.662808,42.071223],[24.662685,42.071167],[24.662993,42.07095],[24.662774,42.070787],[24.662852,42.070719],[24.662574,42.070607],[24.662559,42.070628],[24.662368,42.070487],[24.662098,42.070714],[24.661967,42.070607],[24.66213,42.070501],[24.661858,42.069968],[24.66167,42.069988],[24.661667,42.069909],[24.661801,42.069542],[24.661731,42.069492],[24.661908,42.06908],[24.661769,42.06898],[24.662047,42.068875],[24.662024,42.068833],[24.662246,42.068749],[24.662141,42.068556],[24.661403,42.068757],[24.661179,42.068901],[24.660962,42.069212],[24.660711,42.069659],[24.660524,42.070044],[24.660389,42.070024],[24.660349,42.070148],[24.660192,42.070074],[24.660087,42.069907],[24.659863,42.069845],[24.659776,42.069857],[24.659451,42.069281],[24.658949,42.068691],[24.658408,42.068111],[24.658229,42.067944]]]},"properties":{"cadreg":501}}]}