{"type":"FeatureCollection","features":[{"type":"Feature","geometry":{"type":"Polygon","coordinates":[[[24.660438,42.188224],[24.657216,42.193116],[24.657258,42.193132],[24.657245,42.193152],[24.657285,42.193174],[24.657328,42.193167],[24.657338,42.193184],[24.660682,42.19258],[24.660689,42.192534],[24.660739,42.192526],[24.660745,42.192488],[24.662801,42.19214],[24.66297,42.190494],[24.664816,42.190598],[24.664835,42.190492],[24.664341,42.190465],[24.664525,42.189427],[24.66797,42.189629],[24.667938,42.190662],[24.668209,42.190677],[24.668203,42.190789],[24.670871,42.190939],[24.66995,42.188107],[24.669943,42.188004],[24.67,42.187863],[24.67061,42.186881],[24.672617,42.183476],[24.676138,42.177585],[24.676552,42.177069],[24.676554,42.176606],[24.673043,42.176409],[24.672285,42.176354],[24.672087,42.176325],[24.671562,42.176226],[24.671017,42.176082],[24.670537,42.175909],[24.670099,42.175713],[24.669809,42.175554],[24.669515,42.175673],[24.669493,42.175633],[24.667851,42.176298],[24.667919,42.176371],[24.667888,42.176386],[24.667953,42.176469],[24.667848,42.176512],[24.667964,42.176528],[24.668036,42.176596],[24.666537,42.178908],[24.66045,42.188121],[24.660395,42.188208],[24.660438,42.188224]]]},"properties":{"cadreg":18}},{"type":"Feature","geometry":{"type":"Polygon","coordinates":[[[24.616378,42.208498],[24.616461,42.208602],[24.616077,42.208635],[24.61918,42.211586],[24.624643,42.208615],[24.624675,42.208613],[24.625686,42.204651],[24.616378,42.208498]]]},"properties":{"cadreg":1}},{"type":"Feature","geometry":{"type":"Polygon","coordinates":[[[24.601294,42.200832],[24.59975,42.215999],[24.599844,42.21603],[24.601283,42.214375],[24.605687,42.21251],[24.615747,42.208323],[24.616077,42.208635],[24.616461,42.208602],[24.616378,42.208498],[24.625686,42.204651],[24.62664,42.200959],[24.627335,42.19817],[24.626899,42.198177],[24.62687,42.198154],[24.626813,42.198151],[24.626837,42.198042],[24.623767,42.198169],[24.620359,42.198395],[24.617357,42.198639],[24.616088,42.198769],[24.601285,42.200409],[24.601279,42.200569],[24.601245,42.200574],[24.601294,42.200832]]]},"properties":{"cadreg":2}},{"type":"Feature","geometry":{"type":"Polygon","coordinates":[[[24.601804,42.193638],[24.601222,42.200449],[24.601245,42.200574],[24.601279,42.200569],[24.601285,42.200409],[24.616088,42.198769],[24.617357,42.198639],[24.620359,42.198395],[24.620274,42.198344],[24.615797,42.193859],[24.602504,42.193731],[24.601804,42.193638]]]},"properties":{"cadreg":3}},{"type":"Feature","geometry":{"type":"Polygon","coordinates":[[[24.617583,42.193876],[24.615797,42.193859],[24.620274,42.198344],[24.620359,42.198395],[24.623304,42.198198],[24.62453,42.198134],[24.624418,42.19807],[24.620151,42.193977],[24.619995,42.193872],[24.617583,42.193844],[24.617583,42.193876]]]},"properties":{"cadreg":4}},{"type":"Feature","geometry":{"type":"Polygon","coordinates":[[[24.62687,42.198154],[24.626906,42.198178],[24.626979,42.198178],[24.627981,42.193962],[24.619995,42.193872],[24.620151,42.193977],[24.624418,42.19807],[24.62453,42.198134],[24.626837,42.198042],[24.626813,42.198151],[24.62687,42.198154]]]},"properties":{"cadreg":5}},{"type":"Feature","geometry":{"type":"Polygon","coordinates":[[[24.617305,42.191772],[24.617384,42.191934],[24.617588,42.192706],[24.617583,42.193844],[24.628194,42.193962],[24.628979,42.190611],[24.617389,42.190433],[24.617243,42.191014],[24.617305,42.191772]]]},"properties":{"cadreg":6}},{"type":"Feature","geometry":{"type":"Polygon","coordinates":[[[24.635652,42.18581],[24.633081,42.184605],[24.630331,42.187797],[24.6334,42.189537],[24.633501,42.189445],[24.633592,42.189503],[24.634524,42.189124],[24.634611,42.189264],[24.635036,42.189131],[24.634812,42.188673],[24.634857,42.188655],[24.635121,42.188645],[24.635529,42.188666],[24.635557,42.1887],[24.636122,42.188508],[24.636873,42.188139],[24.637171,42.188463],[24.638381,42.18644],[24.638528,42.186165],[24.638543,42.186168],[24.638833,42.185692],[24.641363,42.181744],[24.635652,42.18581]]]},"properties":{"cadreg":7}},{"type":"Feature","geometry":{"type":"Polygon","coordinates":[[[24.6334,42.189537],[24.630331,42.187797],[24.629646,42.188592],[24.629522,42.188767],[24.62938,42.189037],[24.629297,42.189246],[24.628194,42.193962],[24.627981,42.193962],[24.626979,42.198178],[24.627335,42.19817],[24.627433,42.198153],[24.627504,42.198113],[24.627518,42.198066],[24.627728,42.198064],[24.627764,42.198133],[24.627849,42.198132],[24.627871,42.198095],[24.627943,42.198062],[24.629361,42.198037],[24.632552,42.197993],[24.632559,42.198061],[24.632595,42.198092],[24.632645,42.19809],[24.63268,42.197932],[24.632719,42.197908],[24.63275,42.197494],[24.634782,42.195963],[24.634463,42.195685],[24.634406,42.195686],[24.633873,42.196062],[24.633843,42.196034],[24.633332,42.19576],[24.633165,42.195686],[24.633191,42.195616],[24.632694,42.195762],[24.632368,42.195908],[24.632309,42.195717],[24.632388,42.195271],[24.631996,42.19531],[24.631377,42.195316],[24.631435,42.194984],[24.631709,42.194927],[24.631882,42.194861],[24.632055,42.194751],[24.632199,42.194601],[24.63239,42.193666],[24.632081,42.193478],[24.632103,42.193267],[24.632209,42.192887],[24.632444,42.191395],[24.632602,42.191028],[24.632329,42.190774],[24.632116,42.190623],[24.632575,42.19033],[24.633786,42.189895],[24.633694,42.18979],[24.633742,42.189755],[24.6334,42.189537]]]},"properties":{"cadreg":8}},{"type":"Feature","geometry":{"type":"Polygon","coordinates":[[[24.627335,42.19817],[24.62664,42.200959],[24.624675,42.208613],[24.631451,42.208141],[24.632355,42.201308],[24.632114,42.201399],[24.632134,42.2013],[24.632367,42.201211],[24.632645,42.19809],[24.632595,42.198092],[24.632559,42.198061],[24.632552,42.197993],[24.627943,42.198062],[24.627871,42.198095],[24.627849,42.198132],[24.627764,42.198133],[24.627728,42.198064],[24.627518,42.198066],[24.627504,42.198113],[24.627479,42.198132],[24.627335,42.19817]]]},"properties":{"cadreg":9}},{"type":"Feature","geometry":{"type":"Polygon","coordinates":[[[24.631451,42.208141],[24.632418,42.208074],[24.633306,42.207478],[24.633268,42.207438],[24.634107,42.20699],[24.633658,42.206203],[24.640552,42.201077],[24.640387,42.198535],[24.640385,42.198384],[24.640417,42.198374],[24.640396,42.198184],[24.640224,42.198183],[24.640212,42.19808],[24.632719,42.197908],[24.63268,42.197932],[24.632647,42.19806],[24.632617,42.198529],[24.632367,42.201211],[24.632134,42.2013],[24.632114,42.201399],[24.632355,42.201308],[24.631451,42.208141]]]},"properties":{"cadreg":10}},{"type":"Feature","geometry":{"type":"Polygon","coordinates":[[[24.635608,42.196681],[24.634782,42.195963],[24.63275,42.197494],[24.632719,42.197908],[24.637883,42.198023],[24.637907,42.197761],[24.637864,42.197755],[24.638013,42.197058],[24.636764,42.197094],[24.636545,42.196504],[24.636508,42.196486],[24.635608,42.196681]]]},"properties":{"cadreg":11}},{"type":"Feature","geometry":{"type":"Polygon","coordinates":[[[24.645611,42.198383],[24.640396,42.198184],[24.640417,42.198374],[24.640385,42.198384],[24.640552,42.201077],[24.645611,42.198383]]]},"properties":{"cadreg":12}},{"type":"Feature","geometry":{"type":"Polygon","coordinates":[[[24.643013,42.196283],[24.64326,42.19675],[24.642328,42.196879],[24.642448,42.19727],[24.64287,42.198268],[24.645611,42.198383],[24.646443,42.197941],[24.644522,42.193941],[24.644392,42.19399],[24.644369,42.193955],[24.644179,42.194022],[24.644172,42.194003],[24.644087,42.194003],[24.643327,42.194116],[24.643532,42.194591],[24.643206,42.194859],[24.644379,42.195546],[24.644388,42.19569],[24.643048,42.196139],[24.643013,42.196283]]]},"properties":{"cadreg":13}},{"type":"Feature","geometry":{"type":"MultiPolygon","coordinates":[[[[24.648951,42.193451],[24.644442,42.193202],[24.644439,42.19322],[24.64452,42.193224],[24.644527,42.193796],[24.644507,42.193831],[24.644556,42.193928],[24.644522,42.193941],[24.646443,42.197941],[24.648199,42.19701],[24.647123,42.195891],[24.648726,42.19528],[24.648951,42.193451]]],[[[24.653994,42.193683],[24.653297,42.193656],[24.653213,42.194349],[24.654448,42.193693],[24.654447,42.193672],[24.653994,42.193683]]]]},"properties":{"cadreg":14}},{"type":"Feature","geometry":{"type":"Polygon","coordinates":[[[24.650191,42.186998],[24.649937,42.186942],[24.646457,42.190249],[24.646612,42.190368],[24.646095,42.190808],[24.645365,42.191471],[24.645521,42.191557],[24.645418,42.19165],[24.645323,42.191596],[24.6453,42.191616],[24.645169,42.192397],[24.646469,42.192319],[24.646479,42.19226],[24.646254,42.191014],[24.647887,42.190903],[24.64972,42.19106],[24.650797,42.19083],[24.650808,42.190865],[24.653068,42.190477],[24.65625,42.191018],[24.657165,42.189636],[24.658817,42.190239],[24.658853,42.190282],[24.658937,42.190157],[24.657231,42.189535],[24.651769,42.187589],[24.650771,42.187227],[24.650586,42.18714],[24.650191,42.186998]]]},"properties":{"cadreg":15}},{"type":"Feature","geometry":{"type":"Polygon","coordinates":[[[24.641592,42.181655],[24.640465,42.183413],[24.643312,42.184973],[24.641706,42.186593],[24.641753,42.186623],[24.641801,42.189003],[24.641912,42.189891],[24.641932,42.189905],[24.6425,42.189896],[24.642548,42.189908],[24.642612,42.189959],[24.642749,42.190229],[24.64335,42.189919],[24.643346,42.189901],[24.643733,42.18975],[24.64345,42.189414],[24.643511,42.189361],[24.643561,42.189285],[24.644079,42.189615],[24.64419,42.189571],[24.644039,42.190462],[24.644154,42.191046],[24.644243,42.191032],[24.645492,42.190694],[24.645708,42.190511],[24.645701,42.190192],[24.646457,42.190249],[24.65016,42.186737],[24.652344,42.184602],[24.653152,42.183963],[24.653723,42.183546],[24.653712,42.183454],[24.646634,42.179395],[24.646659,42.179349],[24.646584,42.179311],[24.646575,42.179271],[24.646467,42.179254],[24.642,42.181394],[24.642011,42.181428],[24.641647,42.181609],[24.641592,42.181655]]]},"properties":{"cadreg":16}},{"type":"Feature","geometry":{"type":"Polygon","coordinates":[[[24.646659,42.179349],[24.646634,42.179395],[24.653712,42.183454],[24.653723,42.183546],[24.655937,42.181413],[24.65634,42.181043],[24.656458,42.180956],[24.656577,42.180893],[24.657289,42.180591],[24.669493,42.175633],[24.669515,42.175673],[24.669809,42.175554],[24.66337,42.171863],[24.663286,42.171938],[24.662569,42.171539],[24.646467,42.179254],[24.646575,42.179271],[24.646584,42.179311],[24.646659,42.179349]]]},"properties":{"cadreg":17}},{"type":"Feature","geometry":{"type":"Polygon","coordinates":[[[24.676596,42.168639],[24.676432,42.168713],[24.676273,42.168835],[24.676085,42.169077],[24.675039,42.172081],[24.674993,42.172054],[24.674536,42.173409],[24.674481,42.173513],[24.674219,42.173705],[24.674102,42.173755],[24.669958,42.175438],[24.669964,42.17549],[24.669809,42.175554],[24.669925,42.175625],[24.670537,42.175909],[24.671017,42.176082],[24.671562,42.176226],[24.672087,42.176325],[24.672285,42.176354],[24.673043,42.176409],[24.676554,42.176606],[24.676596,42.168639]]]},"properties":{"cadreg":19}},{"type":"Feature","geometry":{"type":"Polygon","coordinates":[[[24.669387,42.168842],[24.667323,42.170603],[24.665789,42.169729],[24.66337,42.171863],[24.669809,42.175554],[24.669964,42.17549],[24.669958,42.175438],[24.669995,42.175422],[24.674102,42.173755],[24.674219,42.173705],[24.674332,42.173631],[24.674481,42.173513],[24.674536,42.173409],[24.674993,42.172054],[24.669387,42.168842]]]},"properties":{"cadreg":20}},{"type":"Feature","geometry":{"type":"Polygon","coordinates":[[[24.667953,42.176469],[24.667888,42.176386],[24.667919,42.176371],[24.667851,42.176298],[24.657289,42.180591],[24.656699,42.180835],[24.656458,42.180956],[24.65634,42.181043],[24.655584,42.181745],[24.653723,42.183546],[24.653152,42.183963],[24.652344,42.184602],[24.649937,42.186942],[24.650191,42.186998],[24.650586,42.18714],[24.650771,42.187227],[24.651769,42.187589],[24.657231,42.189535],[24.658937,42.190157],[24.658853,42.190282],[24.658888,42.190325],[24.657013,42.193157],[24.657028,42.193154],[24.657045,42.193208],[24.656945,42.193224],[24.656953,42.193252],[24.657338,42.193184],[24.657328,42.193167],[24.657285,42.193174],[24.657245,42.193152],[24.657258,42.193132],[24.657216,42.193116],[24.660438,42.188224],[24.660395,42.188208],[24.66045,42.188121],[24.667192,42.177908],[24.668036,42.176596],[24.667964,42.176528],[24.667848,42.176512],[24.667953,42.176469]]]},"properties":{"cadreg":21}},{"type":"Feature","geometry":{"type":"Polygon","coordinates":[[[24.653068,42.190477],[24.650808,42.190865],[24.65099,42.191601],[24.650808,42.193385],[24.648895,42.193293],[24.648857,42.193445],[24.651468,42.193583],[24.653994,42.193683],[24.654447,42.193672],[24.654448,42.193693],[24.656953,42.193252],[24.656945,42.193224],[24.657045,42.193208],[24.657028,42.193154],[24.657013,42.193157],[24.658888,42.190325],[24.658817,42.190239],[24.657165,42.189636],[24.65625,42.191018],[24.653068,42.190477]]]},"properties":{"cadreg":22}},{"type":"Feature","geometry":{"type":"Polygon","coordinates":[[[24.64335,42.189919],[24.642749,42.190229],[24.643324,42.191367],[24.64337,42.191391],[24.644426,42.191262],[24.644475,42.191289],[24.644469,42.192058],[24.646457,42.190249],[24.645701,42.190192],[24.645708,42.190511],[24.645492,42.190694],[24.644243,42.191032],[24.644154,42.191046],[24.644039,42.190462],[24.64419,42.189571],[24.644079,42.189615],[24.643561,42.189285],[24.643511,42.189361],[24.64345,42.189414],[24.643733,42.18975],[24.643346,42.189901],[24.64335,42.189919]]]},"properties":{"cadreg":23}},{"type":"Feature","geometry":{"type":"Polygon","coordinates":[[[24.642178,42.196436],[24.640367,42.196832],[24.640352,42.196855],[24.64036,42.197007],[24.640219,42.197011],[24.640163,42.196997],[24.640224,42.198183],[24.640894,42.198195],[24.64287,42.198268],[24.642448,42.19727],[24.642328,42.196879],[24.64326,42.19675],[24.643013,42.196283],[24.643048,42.196139],[24.642178,42.196436]]]},"properties":{"cadreg":24}},{"type":"Feature","geometry":{"type":"Polygon","coordinates":[[[24.639137,42.197027],[24.638013,42.197058],[24.637864,42.197755],[24.637907,42.197761],[24.637883,42.198023],[24.640212,42.19808],[24.640163,42.196997],[24.640108,42.196983],[24.639137,42.197027]]]},"properties":{"cadreg":25}},{"type":"Feature","geometry":{"type":"Polygon","coordinates":[[[24.633786,42.189895],[24.632575,42.19033],[24.632116,42.190623],[24.632329,42.190774],[24.632602,42.191028],[24.632444,42.191395],[24.632209,42.192887],[24.632103,42.193267],[24.632081,42.193478],[24.63239,42.193666],[24.632199,42.194601],[24.632055,42.194751],[24.631882,42.194861],[24.631709,42.194927],[24.631435,42.194984],[24.631377,42.195316],[24.631996,42.19531],[24.632388,42.195271],[24.632309,42.195717],[24.632368,42.195908],[24.632694,42.195762],[24.633191,42.195616],[24.633165,42.195686],[24.633332,42.19576],[24.633843,42.196034],[24.633873,42.196062],[24.634406,42.195686],[24.634463,42.195685],[24.635801,42.194681],[24.635807,42.194643],[24.635027,42.194005],[24.634752,42.193569],[24.634675,42.193362],[24.634585,42.192836],[24.63447,42.191817],[24.634485,42.191667],[24.634736,42.19039],[24.633742,42.189755],[24.633694,42.18979],[24.633786,42.189895]]]},"properties":{"cadreg":26}},{"type":"Feature","geometry":{"type":"Polygon","coordinates":[[[24.636218,42.189591],[24.635529,42.188666],[24.635121,42.188645],[24.634857,42.188655],[24.634812,42.188673],[24.635036,42.189131],[24.634611,42.189264],[24.634524,42.189124],[24.633592,42.189503],[24.633501,42.189445],[24.6334,42.189537],[24.634736,42.19039],[24.63478,42.190304],[24.634874,42.190317],[24.636208,42.189651],[24.636218,42.189591]]]},"properties":{"cadreg":27}},{"type":"Feature","geometry":{"type":"Polygon","coordinates":[[[24.63987,42.186557],[24.641674,42.186573],[24.641706,42.186593],[24.643312,42.184973],[24.640465,42.183413],[24.641532,42.181729],[24.641647,42.181609],[24.642011,42.181428],[24.642,42.181394],[24.641556,42.181606],[24.641363,42.181744],[24.638833,42.185692],[24.638543,42.186168],[24.638528,42.186165],[24.638381,42.18644],[24.637171,42.188463],[24.63749,42.18881],[24.637554,42.188815],[24.639747,42.187509],[24.639789,42.187451],[24.639819,42.186596],[24.63987,42.186557]]]},"properties":{"cadreg":28}},{"type":"Feature","geometry":{"type":"Polygon","coordinates":[[[24.646479,42.19226],[24.646469,42.192319],[24.645169,42.192397],[24.645038,42.193156],[24.646406,42.193237],[24.648891,42.193353],[24.648895,42.193293],[24.650808,42.193385],[24.65099,42.191601],[24.650797,42.19083],[24.64972,42.19106],[24.647887,42.190903],[24.646254,42.191014],[24.646479,42.19226]]]},"properties":{"cadreg":69}},{"type":"Feature","geometry":{"type":"Polygon","coordinates":[[[24.646457,42.190249],[24.644469,42.192058],[24.644501,42.192062],[24.644518,42.193121],[24.644453,42.193117],[24.644442,42.193202],[24.648857,42.193445],[24.648891,42.193353],[24.646406,42.193237],[24.645038,42.193156],[24.6453,42.191616],[24.645323,42.191596],[24.645418,42.19165],[24.645521,42.191557],[24.645365,42.191471],[24.646095,42.190808],[24.646612,42.190368],[24.646457,42.190249]]]},"properties":{"cadreg":72}},{"type":"Feature","geometry":{"type":"Polygon","coordinates":[[[24.634874,42.190317],[24.63478,42.190304],[24.634731,42.190399],[24.634472,42.19177],[24.634475,42.191929],[24.634585,42.192836],[24.634675,42.193362],[24.634752,42.193569],[24.635027,42.194005],[24.635807,42.194643],[24.635801,42.194681],[24.634463,42.195685],[24.635608,42.196681],[24.636508,42.196486],[24.636545,42.196504],[24.636764,42.197094],[24.639186,42.197026],[24.640108,42.196983],[24.640219,42.197011],[24.64036,42.197007],[24.640352,42.196855],[24.640367,42.196832],[24.642178,42.196436],[24.644388,42.19569],[24.644379,42.195546],[24.643206,42.194859],[24.643532,42.194591],[24.643327,42.194116],[24.644087,42.194003],[24.644172,42.194003],[24.644179,42.194022],[24.644369,42.193955],[24.644392,42.19399],[24.644556,42.193928],[24.644507,42.193831],[24.644527,42.193796],[24.64452,42.193224],[24.644439,42.19322],[24.644453,42.193117],[24.644518,42.193121],[24.644501,42.192062],[24.644469,42.192062],[24.644475,42.191289],[24.644426,42.191262],[24.64337,42.191391],[24.643324,42.191367],[24.642599,42.189941],[24.642556,42.189911],[24.6425,42.189896],[24.641932,42.189905],[24.641912,42.189891],[24.641801,42.189003],[24.641753,42.186623],[24.641674,42.186573],[24.63987,42.186557],[24.639819,42.186596],[24.639789,42.187451],[24.639747,42.187509],[24.637554,42.188815],[24.63749,42.18881],[24.636873,42.188139],[24.636122,42.188508],[24.635557,42.1887],[24.636218,42.189591],[24.636208,42.189651],[24.634874,42.190317]],[[24.639185,42.190603],[24.639193,42.190603],[24.639133,42.190604],[24.639185,42.190603]],[[24.639239,42.190602],[24.639275,42.190602],[24.639193,42.190603],[24.639239,42.190602]]]},"properties":{"cadreg":501}}]}