{"type":"FeatureCollection","features":[{"type":"Feature","geometry":{"type":"Polygon","coordinates":[[[24.81615,42.161307],[24.81302,42.156373],[24.813854,42.156233],[24.813856,42.156188],[24.811221,42.156646],[24.810781,42.156758],[24.810134,42.15697],[24.810125,42.156952],[24.810035,42.15698],[24.810597,42.158055],[24.811824,42.160008],[24.816717,42.167577],[24.816963,42.167581],[24.817082,42.167613],[24.820571,42.167747],[24.820046,42.16703],[24.819951,42.167049],[24.819887,42.167044],[24.819848,42.167027],[24.81977,42.166925],[24.818097,42.164272],[24.817986,42.164131],[24.817841,42.163985],[24.817799,42.163891],[24.817776,42.163739],[24.817576,42.163426],[24.81622,42.161358],[24.81615,42.161307]]]},"properties":{"cadreg":1}},{"type":"Feature","geometry":{"type":"Polygon","coordinates":[[[24.823065,42.167835],[24.824624,42.167846],[24.822386,42.164325],[24.819793,42.160169],[24.8169,42.155675],[24.813856,42.156188],[24.813854,42.156233],[24.81302,42.156373],[24.81615,42.161307],[24.81622,42.161358],[24.817776,42.163739],[24.817799,42.163891],[24.817841,42.163985],[24.817986,42.164131],[24.818097,42.164272],[24.81977,42.166925],[24.819848,42.167027],[24.81992,42.167051],[24.820046,42.16703],[24.820571,42.167747],[24.823065,42.167835]]]},"properties":{"cadreg":2}},{"type":"Feature","geometry":{"type":"Polygon","coordinates":[[[24.822459,42.164439],[24.824624,42.167846],[24.824825,42.167852],[24.826985,42.168118],[24.827601,42.166396],[24.827608,42.16637],[24.82755,42.166215],[24.827534,42.165863],[24.827683,42.165619],[24.827766,42.165401],[24.827869,42.164795],[24.827941,42.164614],[24.828054,42.164464],[24.828169,42.164401],[24.829181,42.164206],[24.829397,42.164137],[24.829595,42.164007],[24.829978,42.163649],[24.830282,42.163442],[24.830686,42.16299],[24.831141,42.162316],[24.8312,42.162165],[24.831236,42.161755],[24.831277,42.161688],[24.831419,42.161579],[24.831496,42.161305],[24.831434,42.161291],[24.831381,42.161544],[24.831244,42.161653],[24.831198,42.161721],[24.831153,42.161913],[24.831144,42.162117],[24.831059,42.162378],[24.830818,42.162742],[24.830592,42.163047],[24.830301,42.163357],[24.830207,42.163438],[24.830012,42.163565],[24.829619,42.163922],[24.829432,42.164058],[24.829262,42.164154],[24.828153,42.164363],[24.828051,42.164406],[24.827952,42.164486],[24.827889,42.164576],[24.827805,42.164764],[24.827738,42.165219],[24.82768,42.165459],[24.827597,42.165667],[24.827467,42.165866],[24.827278,42.164114],[24.822459,42.164439]]]},"properties":{"cadreg":3}},{"type":"Feature","geometry":{"type":"Polygon","coordinates":[[[24.830788,42.161414],[24.821015,42.162133],[24.822459,42.164439],[24.82936,42.163963],[24.829437,42.163887],[24.83099,42.161297],[24.831111,42.161135],[24.831183,42.161122],[24.832042,42.161074],[24.832148,42.1611],[24.832934,42.161563],[24.834493,42.162431],[24.834583,42.162438],[24.834629,42.162418],[24.837203,42.16061],[24.84088,42.158076],[24.841911,42.157348],[24.842139,42.157161],[24.844257,42.153592],[24.844317,42.153468],[24.844281,42.153417],[24.844144,42.153421],[24.84407,42.153454],[24.844038,42.153488],[24.842364,42.156258],[24.841889,42.157074],[24.841814,42.157148],[24.83605,42.161184],[24.834536,42.162271],[24.832813,42.161345],[24.832189,42.160988],[24.832092,42.160967],[24.831556,42.161009],[24.831051,42.161008],[24.830956,42.161097],[24.830788,42.161414]]]},"properties":{"cadreg":4}},{"type":"Feature","geometry":{"type":"Polygon","coordinates":[[[24.831111,42.161135],[24.830868,42.161491],[24.829398,42.163938],[24.82936,42.163963],[24.829288,42.163974],[24.827278,42.164114],[24.827467,42.165866],[24.827597,42.165667],[24.82768,42.165459],[24.827738,42.165219],[24.827805,42.164764],[24.827889,42.164576],[24.827952,42.164486],[24.828051,42.164406],[24.828153,42.164363],[24.829262,42.164154],[24.829432,42.164058],[24.829619,42.163922],[24.830012,42.163565],[24.830207,42.163438],[24.830301,42.163357],[24.830592,42.163047],[24.830818,42.162742],[24.831059,42.162378],[24.831144,42.162117],[24.831153,42.161913],[24.831198,42.161721],[24.831244,42.161653],[24.831381,42.161544],[24.831434,42.161291],[24.831496,42.161305],[24.831419,42.161579],[24.831277,42.161688],[24.831236,42.161755],[24.8312,42.162165],[24.831141,42.162316],[24.830686,42.16299],[24.830282,42.163442],[24.829978,42.163649],[24.829595,42.164007],[24.829397,42.164137],[24.829181,42.164206],[24.828169,42.164401],[24.828054,42.164464],[24.827941,42.164614],[24.827869,42.164795],[24.827766,42.165401],[24.827683,42.165619],[24.827534,42.165863],[24.82755,42.166215],[24.827608,42.16637],[24.827601,42.166396],[24.826985,42.168118],[24.8261,42.168003],[24.824723,42.167847],[24.823065,42.167835],[24.818616,42.167675],[24.817082,42.167613],[24.816963,42.167581],[24.816717,42.167577],[24.816783,42.167676],[24.825356,42.168052],[24.829194,42.168542],[24.839678,42.169837],[24.84246,42.170215],[24.845946,42.17071],[24.845953,42.170669],[24.84592,42.170612],[24.845863,42.170572],[24.843101,42.170178],[24.839364,42.169671],[24.832736,42.168864],[24.833442,42.168341],[24.833519,42.168176],[24.833626,42.167784],[24.833949,42.16625],[24.83395,42.166157],[24.833817,42.165348],[24.833768,42.165221],[24.833757,42.165137],[24.833914,42.164655],[24.834234,42.164053],[24.834291,42.163713],[24.834191,42.163693],[24.834139,42.163657],[24.833916,42.163189],[24.833832,42.163064],[24.833504,42.162686],[24.833189,42.162189],[24.832956,42.161743],[24.832921,42.161709],[24.832876,42.161676],[24.832349,42.161431],[24.832103,42.161337],[24.83178,42.161293],[24.831635,42.161293],[24.831499,42.161262],[24.831373,42.161113],[24.831111,42.161135]]]},"properties":{"cadreg":5}},{"type":"Feature","geometry":{"type":"Polygon","coordinates":[[[24.819698,42.160022],[24.821015,42.162133],[24.830788,42.161414],[24.830956,42.161097],[24.830887,42.160999],[24.830696,42.159222],[24.830537,42.15915],[24.830414,42.159131],[24.823978,42.159546],[24.821085,42.159749],[24.820467,42.159841],[24.819698,42.160022]]]},"properties":{"cadreg":6}},{"type":"Feature","geometry":{"type":"Polygon","coordinates":[[[24.831051,42.161008],[24.831556,42.161009],[24.832092,42.160967],[24.832189,42.160988],[24.832813,42.161345],[24.834536,42.162271],[24.83605,42.161184],[24.839863,42.15852],[24.831921,42.159039],[24.83087,42.159097],[24.831051,42.161008]]]},"properties":{"cadreg":7}},{"type":"Feature","geometry":{"type":"Polygon","coordinates":[[[24.83087,42.159097],[24.839863,42.15852],[24.841814,42.157148],[24.841889,42.157074],[24.842476,42.156082],[24.830582,42.156826],[24.83067,42.156985],[24.83087,42.159097]]]},"properties":{"cadreg":8}},{"type":"Feature","geometry":{"type":"Polygon","coordinates":[[[24.830448,42.156847],[24.823496,42.157284],[24.818174,42.15765],[24.819698,42.160022],[24.820467,42.159841],[24.821085,42.159749],[24.823978,42.159546],[24.830414,42.159131],[24.830537,42.15915],[24.830696,42.159222],[24.830887,42.160999],[24.830956,42.161097],[24.831051,42.161008],[24.830881,42.159197],[24.83067,42.156985],[24.830582,42.156826],[24.830351,42.154708],[24.830228,42.154718],[24.830448,42.156847]]]},"properties":{"cadreg":9}},{"type":"Feature","geometry":{"type":"Polygon","coordinates":[[[24.830228,42.154718],[24.817866,42.15555],[24.8169,42.155675],[24.818174,42.15765],[24.823496,42.157284],[24.830448,42.156847],[24.830228,42.154718]]]},"properties":{"cadreg":10}},{"type":"Feature","geometry":{"type":"Polygon","coordinates":[[[24.810433,42.156664],[24.811098,42.156496],[24.8149,42.155832],[24.816522,42.155558],[24.817294,42.155448],[24.81768,42.155407],[24.823447,42.155024],[24.830227,42.154552],[24.830217,42.152309],[24.830301,42.152266],[24.830254,42.152222],[24.830101,42.152147],[24.82992,42.152108],[24.829161,42.152055],[24.82827,42.151826],[24.827868,42.15165],[24.827451,42.151426],[24.827136,42.151338],[24.826918,42.151251],[24.826764,42.151242],[24.826341,42.151257],[24.825884,42.151109],[24.82578,42.151087],[24.825481,42.151103],[24.82519,42.151069],[24.824889,42.151005],[24.824741,42.151006],[24.824595,42.151016],[24.824148,42.151094],[24.823759,42.151085],[24.82368,42.151119],[24.823638,42.151181],[24.823574,42.151232],[24.823364,42.151253],[24.823205,42.151312],[24.823003,42.151451],[24.822757,42.151646],[24.822669,42.151734],[24.822496,42.151828],[24.822196,42.151916],[24.821907,42.151971],[24.821327,42.152111],[24.821216,42.152146],[24.820699,42.152382],[24.81912,42.15288],[24.817677,42.15324],[24.817077,42.153423],[24.816498,42.153549],[24.816137,42.153611],[24.815837,42.153629],[24.815519,42.153616],[24.815085,42.153536],[24.814654,42.153436],[24.813635,42.153321],[24.813188,42.15333],[24.812515,42.153277],[24.811635,42.15328],[24.811067,42.153214],[24.810984,42.153189],[24.810555,42.153155],[24.810244,42.153163],[24.809759,42.153201],[24.809424,42.153206],[24.808887,42.153181],[24.808568,42.153184],[24.808321,42.152498],[24.807999,42.152501],[24.808198,42.153127],[24.809645,42.157144],[24.80957,42.157176],[24.809615,42.157268],[24.809669,42.157328],[24.809693,42.157428],[24.811205,42.15984],[24.8163,42.167756],[24.816783,42.167676],[24.811824,42.160008],[24.810597,42.158055],[24.810035,42.15698],[24.809976,42.156831],[24.810433,42.156664]]]},"properties":{"cadreg":11}},{"type":"Feature","geometry":{"type":"Polygon","coordinates":[[[24.8356,42.152433],[24.834795,42.152369],[24.83457,42.152361],[24.834489,42.152367],[24.834439,42.152423],[24.834421,42.152476],[24.833427,42.15245],[24.833012,42.152449],[24.832507,42.152479],[24.831717,42.152462],[24.831048,42.152409],[24.830594,42.152345],[24.830301,42.152266],[24.830217,42.152309],[24.830227,42.154552],[24.835128,42.154218],[24.838668,42.154002],[24.839538,42.153932],[24.843195,42.153404],[24.84358,42.153333],[24.844139,42.153198],[24.84471,42.15298],[24.845076,42.152824],[24.84574,42.152505],[24.846359,42.152177],[24.846527,42.152051],[24.846443,42.152052],[24.84642,42.152091],[24.845212,42.15205],[24.844144,42.1521],[24.843401,42.151985],[24.843399,42.151818],[24.842604,42.151596],[24.842324,42.151563],[24.842052,42.15159],[24.841836,42.151478],[24.841709,42.15145],[24.841402,42.151422],[24.84109,42.151339],[24.840701,42.151261],[24.840168,42.151251],[24.839607,42.15129],[24.839319,42.15138],[24.838982,42.151518],[24.838877,42.151533],[24.838778,42.15151],[24.838671,42.151508],[24.838575,42.151525],[24.838319,42.151625],[24.838172,42.151702],[24.837775,42.152014],[24.837631,42.152093],[24.837102,42.152301],[24.836816,42.152368],[24.835939,42.152511],[24.835777,42.152461],[24.8356,42.152433]]]},"properties":{"cadreg":12}},{"type":"Feature","geometry":{"type":"Polygon","coordinates":[[[24.844144,42.153421],[24.844281,42.153417],[24.844197,42.153372],[24.844359,42.153318],[24.845296,42.152903],[24.845973,42.152583],[24.84632,42.152368],[24.846451,42.152315],[24.846563,42.152312],[24.846612,42.152329],[24.846662,42.152282],[24.84684,42.152193],[24.846859,42.152146],[24.846451,42.152119],[24.84574,42.152505],[24.845076,42.152824],[24.844345,42.153126],[24.843879,42.153266],[24.843195,42.153404],[24.839538,42.153932],[24.838668,42.154002],[24.834107,42.154285],[24.823447,42.155024],[24.81768,42.155407],[24.817294,42.155448],[24.816522,42.155558],[24.811098,42.156496],[24.810433,42.156664],[24.809976,42.156831],[24.810035,42.15698],[24.810125,42.156952],[24.810134,42.15697],[24.810781,42.156758],[24.811437,42.156602],[24.8169,42.155675],[24.817866,42.15555],[24.830351,42.154708],[24.830582,42.156826],[24.842476,42.156082],[24.844038,42.153488],[24.84407,42.153454],[24.844144,42.153421]]]},"properties":{"cadreg":13}},{"type":"Feature","geometry":{"type":"Polygon","coordinates":[[[24.846612,42.152329],[24.846563,42.152312],[24.846451,42.152315],[24.84632,42.152368],[24.845973,42.152583],[24.845296,42.152903],[24.844359,42.153318],[24.844197,42.153372],[24.8443,42.153436],[24.844317,42.153468],[24.844305,42.153503],[24.843109,42.155524],[24.852471,42.158059],[24.852591,42.158069],[24.852697,42.158024],[24.853751,42.157242],[24.854692,42.156055],[24.855209,42.155243],[24.856617,42.153643],[24.856833,42.153366],[24.857078,42.153029],[24.857073,42.152862],[24.857377,42.152997],[24.857429,42.152924],[24.857748,42.152613],[24.858075,42.152233],[24.858167,42.15211],[24.858216,42.152005],[24.858447,42.15171],[24.858755,42.151478],[24.858389,42.151496],[24.857948,42.151496],[24.857367,42.151467],[24.856973,42.151543],[24.856482,42.151603],[24.856271,42.151636],[24.856076,42.151684],[24.855879,42.151705],[24.855414,42.151686],[24.855245,42.151642],[24.855053,42.151617],[24.854861,42.151613],[24.85467,42.151622],[24.854202,42.151677],[24.853764,42.151696],[24.853375,42.151704],[24.852588,42.151683],[24.85106,42.151768],[24.848844,42.151921],[24.847392,42.152033],[24.847043,42.152077],[24.846896,42.152103],[24.84684,42.152193],[24.846662,42.152282],[24.846612,42.152329]]]},"properties":{"cadreg":14}},{"type":"Feature","geometry":{"type":"Polygon","coordinates":[[[24.841911,42.157348],[24.840819,42.158114],[24.840634,42.158534],[24.839479,42.160947],[24.838646,42.160798],[24.837662,42.162891],[24.83583,42.164178],[24.835687,42.164253],[24.835535,42.164273],[24.835873,42.16436],[24.840326,42.165039],[24.841903,42.165212],[24.842079,42.165244],[24.842172,42.165302],[24.843389,42.166266],[24.844361,42.166975],[24.844557,42.167096],[24.845771,42.167958],[24.845914,42.168095],[24.846032,42.168307],[24.84611,42.167964],[24.846655,42.164992],[24.847036,42.162517],[24.847164,42.162257],[24.84733,42.162022],[24.847481,42.16186],[24.852372,42.158261],[24.852447,42.158141],[24.852471,42.158059],[24.843109,42.155524],[24.842139,42.157161],[24.841911,42.157348]]]},"properties":{"cadreg":15}},{"type":"Feature","geometry":{"type":"Polygon","coordinates":[[[24.832222,42.161375],[24.832876,42.161676],[24.832956,42.161743],[24.833189,42.162189],[24.833504,42.162686],[24.833832,42.163064],[24.833916,42.163189],[24.834139,42.163657],[24.834191,42.163693],[24.834291,42.163713],[24.834234,42.164053],[24.833914,42.164655],[24.833757,42.165137],[24.833768,42.165221],[24.833817,42.165348],[24.83395,42.166157],[24.833949,42.16625],[24.833626,42.167784],[24.833519,42.168176],[24.833442,42.168341],[24.832736,42.168864],[24.839364,42.169671],[24.840519,42.169825],[24.840521,42.169788],[24.840471,42.169781],[24.840391,42.165387],[24.840383,42.165148],[24.840345,42.16504],[24.835873,42.16436],[24.835535,42.164273],[24.835687,42.164253],[24.83583,42.164178],[24.837662,42.162891],[24.838646,42.160798],[24.839479,42.160947],[24.840634,42.158534],[24.840819,42.158114],[24.834583,42.162438],[24.834493,42.162431],[24.832934,42.161563],[24.832148,42.1611],[24.832042,42.161074],[24.831373,42.161113],[24.831499,42.161262],[24.831635,42.161293],[24.83178,42.161293],[24.832103,42.161337],[24.832222,42.161375]]]},"properties":{"cadreg":16}},{"type":"Feature","geometry":{"type":"Polygon","coordinates":[[[24.840383,42.165148],[24.840471,42.169781],[24.840521,42.169788],[24.840519,42.169825],[24.845863,42.170572],[24.845975,42.170289],[24.845932,42.170064],[24.845886,42.169365],[24.84592,42.168862],[24.846032,42.168307],[24.845914,42.168095],[24.845699,42.167903],[24.844557,42.167096],[24.844361,42.166975],[24.843389,42.166266],[24.842172,42.165302],[24.842079,42.165244],[24.841903,42.165212],[24.840591,42.165077],[24.840345,42.16504],[24.840383,42.165148]]]},"properties":{"cadreg":17}},{"type":"Feature","geometry":{"type":"Polygon","coordinates":[[[24.842896,42.174995],[24.842617,42.175134],[24.842399,42.175274],[24.842168,42.17547],[24.8419,42.17576],[24.841843,42.175848],[24.841505,42.176648],[24.840982,42.177811],[24.842987,42.178329],[24.843855,42.178609],[24.844141,42.178678],[24.844342,42.178722],[24.844556,42.178742],[24.84557,42.178917],[24.845877,42.178999],[24.846994,42.179191],[24.846981,42.17924],[24.852144,42.18015],[24.852127,42.180241],[24.852169,42.18025],[24.854787,42.18061],[24.856765,42.1809],[24.856736,42.180728],[24.85419,42.18037],[24.852383,42.180095],[24.852371,42.180077],[24.852056,42.180024],[24.852101,42.179272],[24.85213,42.177331],[24.852108,42.177278],[24.852062,42.17723],[24.851018,42.176287],[24.850953,42.176205],[24.850907,42.176094],[24.850764,42.174035],[24.850561,42.172825],[24.850524,42.172757],[24.850472,42.172738],[24.850385,42.172731],[24.849741,42.172797],[24.849484,42.172832],[24.849131,42.172909],[24.848701,42.172972],[24.847916,42.173057],[24.847064,42.173093],[24.846363,42.173077],[24.846112,42.173113],[24.846038,42.173142],[24.845945,42.173154],[24.845812,42.173139],[24.845766,42.173151],[24.845236,42.173763],[24.845192,42.173793],[24.845116,42.17377],[24.845105,42.173806],[24.844977,42.173973],[24.844862,42.174082],[24.844631,42.174251],[24.844347,42.174416],[24.843808,42.174654],[24.842896,42.174995]]]},"properties":{"cadreg":18}},{"type":"Feature","geometry":{"type":"Polygon","coordinates":[[[24.854692,42.172316],[24.850826,42.172766],[24.850543,42.172775],[24.850764,42.174035],[24.850907,42.176094],[24.850953,42.176205],[24.851018,42.176287],[24.852062,42.17723],[24.852108,42.177278],[24.85213,42.177331],[24.852101,42.179272],[24.852056,42.180024],[24.852371,42.180077],[24.852383,42.180095],[24.85419,42.18037],[24.856736,42.180728],[24.856559,42.177073],[24.857141,42.172226],[24.858149,42.172165],[24.858127,42.171608],[24.856285,42.17202],[24.854692,42.172316]]]},"properties":{"cadreg":19}},{"type":"Feature","geometry":{"type":"Polygon","coordinates":[[[24.854493,42.168506],[24.847367,42.170894],[24.846377,42.17078],[24.845991,42.17072],[24.845946,42.170884],[24.845862,42.17148],[24.845716,42.172223],[24.84569,42.172631],[24.845564,42.172907],[24.845265,42.173368],[24.845065,42.173629],[24.844847,42.173863],[24.844389,42.174235],[24.844241,42.174327],[24.843588,42.174653],[24.843074,42.174829],[24.84245,42.175112],[24.842314,42.175185],[24.842091,42.175351],[24.841849,42.175653],[24.841567,42.176147],[24.841396,42.176557],[24.841157,42.177046],[24.840984,42.177547],[24.840866,42.17778],[24.840982,42.177811],[24.841505,42.176648],[24.841843,42.175848],[24.8419,42.17576],[24.842168,42.17547],[24.842399,42.175274],[24.842742,42.175067],[24.843066,42.174928],[24.843808,42.174654],[24.844347,42.174416],[24.844631,42.174251],[24.844862,42.174082],[24.844977,42.173973],[24.845105,42.173806],[24.845116,42.17377],[24.845192,42.173793],[24.845236,42.173763],[24.845766,42.173151],[24.845812,42.173139],[24.845945,42.173154],[24.846038,42.173142],[24.846112,42.173113],[24.846363,42.173077],[24.847064,42.173093],[24.847916,42.173057],[24.848545,42.172993],[24.849131,42.172909],[24.849484,42.172832],[24.850385,42.172731],[24.850472,42.172738],[24.850543,42.172775],[24.850826,42.172766],[24.854692,42.172316],[24.855794,42.172113],[24.855675,42.171376],[24.855374,42.169852],[24.855161,42.168953],[24.854998,42.168378],[24.854889,42.168377],[24.854493,42.168506]]]},"properties":{"cadreg":20}},{"type":"Feature","geometry":{"type":"Polygon","coordinates":[[[24.86189,42.167234],[24.857884,42.167323],[24.855137,42.168266],[24.854998,42.168378],[24.855161,42.168953],[24.855374,42.169852],[24.855675,42.171376],[24.855794,42.172113],[24.856285,42.17202],[24.858127,42.171608],[24.858124,42.171526],[24.859673,42.171126],[24.861604,42.170653],[24.861567,42.171035],[24.861672,42.171055],[24.86188,42.17077],[24.861965,42.170588],[24.862061,42.170315],[24.862209,42.169166],[24.862202,42.168947],[24.862153,42.168571],[24.862042,42.167909],[24.861887,42.16737],[24.86189,42.167234]]]},"properties":{"cadreg":21}},{"type":"Feature","geometry":{"type":"Polygon","coordinates":[[[24.862042,42.167909],[24.862202,42.168947],[24.862209,42.169166],[24.862187,42.16936],[24.862061,42.170315],[24.86193,42.170669],[24.862204,42.170645],[24.86276,42.170748],[24.863073,42.170714],[24.863419,42.170753],[24.863419,42.170906],[24.863725,42.170904],[24.864222,42.170858],[24.864219,42.170642],[24.864288,42.170619],[24.863886,42.170647],[24.863661,42.170625],[24.863399,42.170565],[24.863391,42.17048],[24.863682,42.170548],[24.863886,42.170569],[24.864228,42.170549],[24.86451,42.170505],[24.864493,42.170454],[24.86458,42.170428],[24.864965,42.170235],[24.866718,42.169678],[24.866969,42.1686],[24.866992,42.168411],[24.867099,42.168195],[24.867239,42.167966],[24.867633,42.167448],[24.867663,42.167394],[24.867676,42.167307],[24.86765,42.167233],[24.867529,42.167261],[24.867305,42.167267],[24.867243,42.167247],[24.867222,42.167221],[24.867205,42.167138],[24.86189,42.167234],[24.861887,42.16737],[24.862042,42.167909]]]},"properties":{"cadreg":22}},{"type":"Feature","geometry":{"type":"Polygon","coordinates":[[[24.860288,42.164815],[24.859207,42.164804],[24.858524,42.164759],[24.857953,42.164697],[24.857437,42.164613],[24.857244,42.164609],[24.857138,42.164633],[24.856959,42.164765],[24.856301,42.164785],[24.856049,42.164863],[24.855928,42.164928],[24.854772,42.166095],[24.854642,42.166258],[24.854698,42.166299],[24.855062,42.16821],[24.855137,42.168266],[24.857884,42.167323],[24.861809,42.167241],[24.861809,42.167128],[24.861534,42.165039],[24.861468,42.165013],[24.860614,42.16505],[24.860462,42.165025],[24.860412,42.164983],[24.860372,42.164855],[24.860288,42.164815]]]},"properties":{"cadreg":23}},{"type":"Feature","geometry":{"type":"Polygon","coordinates":[[[24.847251,42.164737],[24.846702,42.164659],[24.846655,42.164992],[24.84611,42.167964],[24.84592,42.168862],[24.845889,42.16951],[24.845932,42.170064],[24.845975,42.170289],[24.845863,42.170572],[24.84592,42.170612],[24.845953,42.170669],[24.845946,42.17071],[24.846377,42.17078],[24.847312,42.170893],[24.847424,42.170882],[24.854493,42.168506],[24.854889,42.168377],[24.854998,42.168378],[24.855137,42.168266],[24.855062,42.16821],[24.854698,42.166299],[24.854642,42.166258],[24.847349,42.164611],[24.847326,42.16476],[24.847251,42.164737]]]},"properties":{"cadreg":24}},{"type":"Feature","geometry":{"type":"Polygon","coordinates":[[[24.856617,42.153643],[24.855209,42.155243],[24.854692,42.156055],[24.853751,42.157242],[24.852697,42.158024],[24.852591,42.158069],[24.852471,42.158059],[24.852447,42.158141],[24.852372,42.158261],[24.848495,42.16111],[24.847425,42.161914],[24.847164,42.162257],[24.847036,42.162517],[24.846702,42.164659],[24.847251,42.164737],[24.847326,42.16476],[24.847349,42.164611],[24.854642,42.166258],[24.854772,42.166095],[24.855928,42.164928],[24.856049,42.164863],[24.856301,42.164785],[24.856959,42.164765],[24.857138,42.164633],[24.857244,42.164609],[24.857437,42.164613],[24.857953,42.164697],[24.858524,42.164759],[24.859207,42.164804],[24.860246,42.164808],[24.860372,42.164855],[24.860412,42.164983],[24.860462,42.165025],[24.860614,42.16505],[24.861468,42.165013],[24.861534,42.165039],[24.861809,42.167128],[24.861809,42.167241],[24.86189,42.167234],[24.861755,42.166213],[24.861632,42.165076],[24.861633,42.164885],[24.861794,42.164111],[24.861835,42.163721],[24.861836,42.163278],[24.861772,42.162119],[24.861624,42.161062],[24.861551,42.160199],[24.861743,42.159183],[24.861663,42.159002],[24.861506,42.158728],[24.86138,42.158617],[24.861257,42.158543],[24.861191,42.158465],[24.861187,42.158426],[24.861119,42.158433],[24.861181,42.158527],[24.861363,42.158658],[24.861119,42.158628],[24.860848,42.158643],[24.86081,42.158634],[24.860889,42.158572],[24.860809,42.158478],[24.859272,42.158379],[24.85788,42.158271],[24.856427,42.158134],[24.855203,42.157995],[24.854822,42.157983],[24.854581,42.158025],[24.854427,42.158064],[24.854302,42.158115],[24.853998,42.158276],[24.853776,42.158424],[24.852756,42.15891],[24.852472,42.158956],[24.852434,42.158922],[24.853006,42.158501],[24.853213,42.158324],[24.854087,42.15771],[24.854307,42.157522],[24.854533,42.157265],[24.856911,42.154157],[24.857074,42.153998],[24.857406,42.153809],[24.857932,42.153406],[24.85798,42.153348],[24.857968,42.15326],[24.857845,42.153159],[24.857408,42.152955],[24.857377,42.152997],[24.857073,42.152862],[24.857078,42.153029],[24.856617,42.153643]]]},"properties":{"cadreg":25}},{"type":"Feature","geometry":{"type":"Polygon","coordinates":[[[24.861506,42.158728],[24.861743,42.159183],[24.861551,42.160199],[24.861624,42.161062],[24.861772,42.162119],[24.861836,42.163278],[24.861835,42.163721],[24.861794,42.164111],[24.861633,42.164885],[24.861632,42.165076],[24.861755,42.166213],[24.86189,42.167234],[24.867205,42.167138],[24.867222,42.167221],[24.867243,42.167247],[24.867305,42.167267],[24.867529,42.167261],[24.86765,42.167233],[24.867696,42.1672],[24.867727,42.167103],[24.86771,42.16706],[24.867648,42.16705],[24.867652,42.166905],[24.867457,42.165728],[24.867247,42.165252],[24.867228,42.16512],[24.867328,42.164655],[24.86747,42.164215],[24.867588,42.163548],[24.867649,42.163459],[24.867732,42.163397],[24.86851,42.163043],[24.868636,42.162933],[24.868606,42.162822],[24.868656,42.162747],[24.86885,42.162624],[24.86892,42.162562],[24.868978,42.162445],[24.868988,42.16237],[24.86893,42.160971],[24.868854,42.160194],[24.868871,42.159551],[24.868987,42.159154],[24.868987,42.159088],[24.868943,42.158992],[24.868918,42.158959],[24.868841,42.15893],[24.868601,42.158884],[24.868203,42.15888],[24.868006,42.158845],[24.867892,42.158879],[24.866617,42.159026],[24.86604,42.159049],[24.86549,42.158991],[24.864987,42.158887],[24.864432,42.15885],[24.86419,42.158849],[24.863875,42.158812],[24.863046,42.158759],[24.8627,42.158717],[24.862044,42.158676],[24.86179,42.1586],[24.861421,42.158466],[24.861291,42.158433],[24.861187,42.158426],[24.861217,42.158505],[24.861444,42.158671],[24.861506,42.158728]]]},"properties":{"cadreg":26}},{"type":"Feature","geometry":{"type":"Polygon","coordinates":[[[24.858167,42.15211],[24.857653,42.152716],[24.857408,42.152955],[24.857913,42.153203],[24.857968,42.15326],[24.857985,42.15331],[24.85798,42.153348],[24.857932,42.153406],[24.857406,42.153809],[24.857074,42.153998],[24.856911,42.154157],[24.854533,42.157265],[24.854307,42.157522],[24.854087,42.15771],[24.853213,42.158324],[24.853006,42.158501],[24.852434,42.158922],[24.852472,42.158956],[24.852756,42.15891],[24.852951,42.158825],[24.853776,42.158424],[24.853998,42.158276],[24.854302,42.158115],[24.854427,42.158064],[24.854581,42.158025],[24.854822,42.157983],[24.855203,42.157995],[24.856427,42.158134],[24.85788,42.158271],[24.859272,42.158379],[24.860809,42.158478],[24.860889,42.158572],[24.86081,42.158634],[24.860848,42.158643],[24.861119,42.158628],[24.861363,42.158658],[24.861181,42.158527],[24.861119,42.158433],[24.861291,42.158433],[24.862044,42.158676],[24.8627,42.158717],[24.863046,42.158759],[24.863875,42.158812],[24.86419,42.158849],[24.864432,42.15885],[24.864987,42.158887],[24.86549,42.158991],[24.86604,42.159049],[24.866617,42.159026],[24.867892,42.158879],[24.86868,42.158646],[24.869361,42.158464],[24.86991,42.158214],[24.87013,42.158089],[24.870312,42.157959],[24.870705,42.157718],[24.870864,42.157528],[24.871269,42.157169],[24.871439,42.156992],[24.871662,42.156696],[24.871891,42.156292],[24.872126,42.155721],[24.872168,42.155651],[24.872266,42.155553],[24.872667,42.155485],[24.872785,42.15545],[24.873218,42.155239],[24.873289,42.155223],[24.873266,42.155168],[24.873554,42.155125],[24.87405,42.155169],[24.875004,42.154951],[24.874961,42.154926],[24.874708,42.154938],[24.873499,42.155054],[24.873018,42.155066],[24.872592,42.155017],[24.872385,42.154975],[24.871793,42.154799],[24.871454,42.154657],[24.871014,42.154509],[24.870798,42.154456],[24.869689,42.154113],[24.869563,42.154082],[24.8695,42.154094],[24.869456,42.154126],[24.869351,42.154135],[24.869046,42.154029],[24.868904,42.153961],[24.86869,42.153907],[24.868536,42.153842],[24.868175,42.153756],[24.867425,42.153498],[24.866798,42.15337],[24.866445,42.153322],[24.866129,42.153242],[24.865615,42.153064],[24.865057,42.152824],[24.86384,42.1525],[24.863451,42.152376],[24.862664,42.152156],[24.861092,42.151611],[24.860685,42.151528],[24.860481,42.151498],[24.860099,42.151467],[24.859537,42.151491],[24.859245,42.151532],[24.858956,42.151484],[24.858755,42.151478],[24.858447,42.15171],[24.858216,42.152005],[24.858167,42.15211]]]},"properties":{"cadreg":27}},{"type":"Feature","geometry":{"type":"Polygon","coordinates":[[[24.871269,42.157169],[24.870864,42.157528],[24.870705,42.157718],[24.870312,42.157959],[24.87013,42.158089],[24.86991,42.158214],[24.869361,42.158464],[24.868006,42.158845],[24.868203,42.15888],[24.868601,42.158884],[24.868841,42.15893],[24.868918,42.158959],[24.868987,42.159088],[24.868969,42.159232],[24.868871,42.159551],[24.868854,42.160194],[24.86893,42.160971],[24.868988,42.16237],[24.868978,42.162445],[24.86892,42.162562],[24.86885,42.162624],[24.868656,42.162747],[24.868606,42.162822],[24.868636,42.162933],[24.868955,42.162707],[24.869131,42.162624],[24.869363,42.162559],[24.873281,42.161774],[24.875672,42.161276],[24.875574,42.161071],[24.875531,42.16084],[24.875425,42.160514],[24.875367,42.160205],[24.875377,42.159934],[24.875343,42.159213],[24.875581,42.159186],[24.875218,42.155713],[24.875215,42.155337],[24.874615,42.155351],[24.874233,42.155345],[24.873534,42.155229],[24.873415,42.155213],[24.873318,42.155217],[24.873218,42.155239],[24.872785,42.15545],[24.872667,42.155485],[24.872266,42.155553],[24.872168,42.155651],[24.872082,42.155806],[24.871891,42.156292],[24.871725,42.156599],[24.871439,42.156992],[24.871269,42.157169]]]},"properties":{"cadreg":28}},{"type":"Feature","geometry":{"type":"Polygon","coordinates":[[[24.875938,42.154908],[24.875839,42.154879],[24.875739,42.154881],[24.875267,42.15498],[24.875182,42.15498],[24.874961,42.154926],[24.875004,42.154951],[24.87405,42.155169],[24.873554,42.155125],[24.873266,42.155168],[24.873289,42.155223],[24.873415,42.155213],[24.874233,42.155345],[24.874615,42.155351],[24.875215,42.155337],[24.875218,42.155713],[24.875581,42.159186],[24.875343,42.159213],[24.875377,42.159934],[24.875367,42.160205],[24.875425,42.160514],[24.875531,42.16084],[24.875574,42.161071],[24.875672,42.161276],[24.878121,42.160854],[24.879351,42.160611],[24.879604,42.160586],[24.880143,42.160676],[24.880622,42.160703],[24.880771,42.160736],[24.881497,42.161014],[24.881684,42.161118],[24.881846,42.161176],[24.881988,42.161193],[24.882205,42.161161],[24.882276,42.161137],[24.882421,42.160974],[24.882827,42.160614],[24.883354,42.160103],[24.883378,42.160057],[24.883424,42.159431],[24.883399,42.159011],[24.883403,42.158476],[24.88334,42.157696],[24.88332,42.157212],[24.883407,42.156413],[24.883383,42.156064],[24.883293,42.155928],[24.883221,42.155894],[24.883114,42.155878],[24.882691,42.155887],[24.882568,42.155867],[24.882432,42.155844],[24.882075,42.155719],[24.881961,42.155632],[24.881926,42.155571],[24.88181,42.155223],[24.88171,42.155076],[24.881084,42.15492],[24.880816,42.154877],[24.880672,42.154873],[24.879765,42.154927],[24.878972,42.15504],[24.87835,42.155095],[24.878076,42.155152],[24.877567,42.15521],[24.877427,42.155204],[24.877287,42.15515],[24.87651,42.154973],[24.876302,42.154935],[24.875938,42.154908]]]},"properties":{"cadreg":29}},{"type":"Feature","geometry":{"type":"Polygon","coordinates":[[[24.88181,42.155223],[24.881926,42.155571],[24.88201,42.15568],[24.882176,42.155759],[24.882432,42.155844],[24.882691,42.155887],[24.882967,42.155876],[24.883221,42.155894],[24.883293,42.155928],[24.883334,42.155973],[24.883383,42.156064],[24.883399,42.156199],[24.883395,42.156592],[24.88336,42.156746],[24.88332,42.157212],[24.88334,42.157696],[24.883403,42.158476],[24.883399,42.159011],[24.883424,42.159431],[24.883378,42.160057],[24.883354,42.160103],[24.882827,42.160614],[24.882421,42.160974],[24.882276,42.161137],[24.882483,42.161068],[24.882748,42.16107],[24.882915,42.161099],[24.883111,42.161212],[24.887257,42.1604],[24.888347,42.160165],[24.888726,42.160061],[24.889225,42.159864],[24.890364,42.159361],[24.893353,42.157965],[24.894176,42.157633],[24.894319,42.157549],[24.894335,42.157521],[24.894046,42.157519],[24.893565,42.157548],[24.893354,42.157543],[24.892985,42.15744],[24.892854,42.157439],[24.892699,42.157395],[24.892484,42.157416],[24.892349,42.157363],[24.891737,42.157272],[24.891571,42.157236],[24.891484,42.157179],[24.891193,42.157137],[24.891094,42.157135],[24.890766,42.15704],[24.89064,42.157047],[24.890473,42.157012],[24.890347,42.157033],[24.890303,42.157028],[24.890278,42.156993],[24.890218,42.156958],[24.890129,42.156975],[24.88981,42.156917],[24.889312,42.156756],[24.8891,42.15667],[24.888996,42.156683],[24.888926,42.15664],[24.888879,42.15664],[24.888841,42.156609],[24.888731,42.156583],[24.88841,42.156527],[24.88829,42.156525],[24.888159,42.156498],[24.887968,42.156481],[24.88778,42.156443],[24.887636,42.156411],[24.887403,42.156308],[24.887008,42.156223],[24.88671,42.156086],[24.886561,42.155997],[24.886172,42.155714],[24.885907,42.155573],[24.885787,42.155531],[24.88552,42.155504],[24.885173,42.155581],[24.88499,42.155597],[24.884795,42.155593],[24.884068,42.155475],[24.883631,42.155333],[24.883454,42.155298],[24.882513,42.155164],[24.882054,42.15508],[24.881204,42.154881],[24.880516,42.154811],[24.880294,42.154808],[24.880023,42.154824],[24.878888,42.154967],[24.877691,42.155072],[24.877505,42.155044],[24.876795,42.154883],[24.87642,42.154815],[24.876064,42.154775],[24.875943,42.154775],[24.875516,42.154828],[24.874961,42.154926],[24.875182,42.15498],[24.875267,42.15498],[24.875739,42.154881],[24.875839,42.154879],[24.875938,42.154908],[24.876302,42.154935],[24.87651,42.154973],[24.877287,42.15515],[24.877427,42.155204],[24.877567,42.15521],[24.878076,42.155152],[24.87835,42.155095],[24.878972,42.15504],[24.879765,42.154927],[24.880672,42.154873],[24.880816,42.154877],[24.881084,42.15492],[24.88171,42.155076],[24.88181,42.155223]]]},"properties":{"cadreg":30}},{"type":"Feature","geometry":{"type":"Polygon","coordinates":[[[24.868947,42.167056],[24.878167,42.166874],[24.87814,42.166749],[24.87815,42.166593],[24.878229,42.166476],[24.878355,42.16639],[24.87856,42.166307],[24.880504,42.165718],[24.880637,42.165628],[24.880755,42.165515],[24.880865,42.165325],[24.880952,42.164888],[24.881024,42.164677],[24.881187,42.164016],[24.88124,42.163674],[24.881317,42.1635],[24.881402,42.163042],[24.88163,42.162116],[24.881773,42.161656],[24.881781,42.16157],[24.881866,42.161483],[24.882008,42.161421],[24.883111,42.161212],[24.882915,42.161099],[24.882748,42.16107],[24.882483,42.161068],[24.882205,42.161161],[24.881988,42.161193],[24.881846,42.161176],[24.881684,42.161118],[24.881497,42.161014],[24.880771,42.160736],[24.880622,42.160703],[24.880143,42.160676],[24.879604,42.160586],[24.879481,42.160589],[24.878121,42.160854],[24.875672,42.161276],[24.873281,42.161774],[24.869363,42.162559],[24.869131,42.162624],[24.868955,42.162707],[24.868636,42.162933],[24.86851,42.163043],[24.867732,42.163397],[24.867649,42.163459],[24.867588,42.163548],[24.86747,42.164215],[24.867328,42.164655],[24.867228,42.16512],[24.867247,42.165252],[24.867457,42.165728],[24.867652,42.166905],[24.867648,42.16705],[24.86771,42.16706],[24.867727,42.167103],[24.867696,42.1672],[24.86765,42.167233],[24.867676,42.167307],[24.867663,42.167394],[24.867633,42.167448],[24.867239,42.167966],[24.867099,42.168195],[24.866992,42.168411],[24.866969,42.1686],[24.866718,42.169678],[24.864965,42.170235],[24.86458,42.170428],[24.864493,42.170454],[24.86451,42.170505],[24.864228,42.170549],[24.863886,42.170569],[24.863682,42.170548],[24.863391,42.17048],[24.863399,42.170565],[24.863661,42.170625],[24.863886,42.170647],[24.864288,42.170619],[24.864932,42.170399],[24.86654,42.169891],[24.866761,42.16981],[24.866817,42.169775],[24.866901,42.169662],[24.866987,42.169417],[24.867034,42.16897],[24.867091,42.168817],[24.867126,42.168554],[24.867184,42.168385],[24.867333,42.168124],[24.867698,42.167641],[24.867868,42.167049],[24.868848,42.167028],[24.868947,42.167056]]]},"properties":{"cadreg":31}},{"type":"Feature","geometry":{"type":"Polygon","coordinates":[[[24.885874,42.160754],[24.882122,42.161522],[24.88202,42.161588],[24.881984,42.16169],[24.881348,42.16441],[24.88118,42.165196],[24.88106,42.16553],[24.880984,42.165671],[24.880929,42.165729],[24.880722,42.165869],[24.879715,42.16619],[24.878649,42.166504],[24.878485,42.166575],[24.87839,42.166641],[24.87835,42.166737],[24.878342,42.16687],[24.88051,42.166821],[24.880522,42.166779],[24.883248,42.166722],[24.885065,42.166879],[24.886578,42.16709],[24.889521,42.167528],[24.889573,42.167468],[24.889629,42.167326],[24.890213,42.165118],[24.890344,42.164839],[24.890691,42.164289],[24.891223,42.163506],[24.891301,42.163434],[24.891415,42.163394],[24.893311,42.163277],[24.895905,42.16326],[24.895978,42.163246],[24.896024,42.163221],[24.896073,42.163147],[24.896076,42.162706],[24.896117,42.162417],[24.896175,42.162194],[24.89659,42.1612],[24.896797,42.160613],[24.89681,42.160586],[24.89687,42.160548],[24.896976,42.160517],[24.897214,42.160494],[24.89796,42.160482],[24.898585,42.160437],[24.899838,42.160425],[24.899961,42.160405],[24.89999,42.160378],[24.89992,42.16034],[24.900002,42.160297],[24.900033,42.160247],[24.900022,42.160181],[24.899973,42.160133],[24.899865,42.160082],[24.899649,42.160057],[24.89953,42.160072],[24.89984,42.159777],[24.899946,42.15974],[24.900231,42.159572],[24.90055,42.15942],[24.900882,42.159305],[24.901164,42.159176],[24.901756,42.158936],[24.902283,42.158744],[24.902607,42.158604],[24.903566,42.158293],[24.903776,42.158233],[24.904187,42.158148],[24.904576,42.158032],[24.904941,42.157953],[24.905617,42.157863],[24.905965,42.157858],[24.905937,42.157799],[24.905957,42.157733],[24.905916,42.157717],[24.905562,42.157779],[24.905454,42.157761],[24.905341,42.157783],[24.905248,42.157778],[24.90516,42.15779],[24.904937,42.157866],[24.904268,42.157966],[24.904178,42.157976],[24.904083,42.157951],[24.904039,42.157964],[24.903962,42.158061],[24.903892,42.158086],[24.903752,42.158088],[24.903304,42.158055],[24.90311,42.158009],[24.902988,42.158001],[24.902536,42.158041],[24.902477,42.158036],[24.901678,42.157887],[24.901503,42.157818],[24.901307,42.157782],[24.901111,42.157684],[24.901009,42.157654],[24.90093,42.157651],[24.900785,42.157729],[24.900548,42.157707],[24.900457,42.157675],[24.899926,42.157589],[24.899731,42.15763],[24.899346,42.157636],[24.898782,42.157707],[24.89862,42.157712],[24.898296,42.157682],[24.897836,42.157572],[24.897604,42.157624],[24.897473,42.157676],[24.897361,42.157699],[24.897085,42.157707],[24.895598,42.157593],[24.895371,42.157564],[24.894914,42.157531],[24.894595,42.157524],[24.894557,42.157566],[24.894442,42.157637],[24.893149,42.158196],[24.892426,42.158553],[24.891791,42.158798],[24.890304,42.15949],[24.889499,42.159833],[24.889102,42.160035],[24.888794,42.16014],[24.888435,42.160253],[24.887336,42.160498],[24.885874,42.160754]]]},"properties":{"cadreg":32}},{"type":"Feature","geometry":{"type":"Polygon","coordinates":[[[24.883126,42.16689],[24.880433,42.166896],[24.880432,42.16692],[24.880204,42.167049],[24.879223,42.167473],[24.878343,42.167734],[24.878102,42.168021],[24.877985,42.168342],[24.877934,42.168387],[24.877941,42.168477],[24.877825,42.168903],[24.877082,42.171448],[24.875896,42.1754],[24.875654,42.176281],[24.875687,42.176288],[24.875759,42.176274],[24.875801,42.176175],[24.875907,42.175758],[24.875932,42.17573],[24.875995,42.175726],[24.886864,42.176631],[24.886957,42.176493],[24.887163,42.176088],[24.887373,42.175557],[24.88755,42.174894],[24.88868,42.170144],[24.889292,42.167668],[24.885101,42.167102],[24.883614,42.166918],[24.883126,42.16689]]]},"properties":{"cadreg":33}},{"type":"Feature","geometry":{"type":"MultiPolygon","coordinates":[[[[24.867698,42.167641],[24.867333,42.168124],[24.867184,42.168385],[24.867126,42.168554],[24.867091,42.168817],[24.867034,42.16897],[24.866987,42.169417],[24.866901,42.169662],[24.866817,42.169775],[24.866761,42.16981],[24.864219,42.170642],[24.864222,42.170858],[24.863725,42.170904],[24.863419,42.170906],[24.863419,42.170753],[24.863073,42.170714],[24.86276,42.170748],[24.862204,42.170645],[24.862107,42.170652],[24.86193,42.170669],[24.86188,42.17077],[24.861672,42.171055],[24.86343,42.171395],[24.86449,42.171572],[24.865961,42.171867],[24.866938,42.169721],[24.868427,42.169761],[24.87332,42.169625],[24.873645,42.170893],[24.874411,42.171894],[24.874411,42.171999],[24.874951,42.172381],[24.874746,42.172497],[24.874569,42.172557],[24.874675,42.172754],[24.87494,42.172668],[24.876314,42.173334],[24.875986,42.174439],[24.872691,42.179012],[24.873082,42.178992],[24.8731,42.179025],[24.872861,42.179121],[24.872797,42.179316],[24.872822,42.179509],[24.872633,42.179359],[24.872423,42.179281],[24.872185,42.179253],[24.871958,42.179285],[24.871793,42.179361],[24.871627,42.179474],[24.871535,42.179624],[24.871305,42.17943],[24.870385,42.180033],[24.87041,42.181412],[24.8705,42.182551],[24.871694,42.182584],[24.87326,42.182706],[24.873661,42.182718],[24.873737,42.182618],[24.873796,42.182484],[24.874172,42.181153],[24.875653,42.176155],[24.875775,42.175655],[24.877628,42.16942],[24.877884,42.168508],[24.877883,42.168377],[24.877936,42.168336],[24.877967,42.168267],[24.878025,42.168022],[24.878277,42.167709],[24.87832,42.167687],[24.879106,42.167458],[24.88036,42.166897],[24.878315,42.166924],[24.878342,42.16687],[24.87835,42.166737],[24.87839,42.166641],[24.878485,42.166575],[24.878649,42.166504],[24.879715,42.16619],[24.880722,42.165869],[24.880929,42.165729],[24.880984,42.165671],[24.88106,42.16553],[24.88118,42.165196],[24.881834,42.162304],[24.88202,42.161588],[24.882122,42.161522],[24.88224,42.161494],[24.885874,42.160754],[24.887336,42.160498],[24.888435,42.160253],[24.888794,42.16014],[24.889102,42.160035],[24.889499,42.159833],[24.890304,42.15949],[24.891791,42.158798],[24.892426,42.158553],[24.893149,42.158196],[24.894442,42.157637],[24.894557,42.157566],[24.894595,42.157524],[24.894335,42.157521],[24.894319,42.157549],[24.894176,42.157633],[24.893353,42.157965],[24.890364,42.159361],[24.889225,42.159864],[24.888726,42.160061],[24.888347,42.160165],[24.887257,42.1604],[24.882008,42.161421],[24.881866,42.161483],[24.881781,42.16157],[24.881773,42.161656],[24.88163,42.162116],[24.881402,42.163042],[24.881317,42.1635],[24.88124,42.163674],[24.881187,42.164016],[24.881024,42.164677],[24.880952,42.164888],[24.880865,42.165325],[24.880755,42.165515],[24.880637,42.165628],[24.880504,42.165718],[24.87856,42.166307],[24.878355,42.16639],[24.878229,42.166476],[24.87815,42.166593],[24.87814,42.166749],[24.878167,42.166874],[24.871105,42.167021],[24.868947,42.167056],[24.868848,42.167028],[24.867868,42.167049],[24.867698,42.167641]]],[[[24.874547,42.173729],[24.874904,42.173639],[24.874972,42.173605],[24.874999,42.173536],[24.874978,42.173484],[24.874926,42.17345],[24.874881,42.173449],[24.87428,42.173602],[24.874547,42.173729]]]]},"properties":{"cadreg":34}},{"type":"Feature","geometry":{"type":"Polygon","coordinates":[[[24.886864,42.176631],[24.875932,42.17573],[24.875907,42.175758],[24.875801,42.176175],[24.875759,42.176274],[24.875687,42.176288],[24.875654,42.176281],[24.875896,42.1754],[24.877082,42.171448],[24.877825,42.168903],[24.877941,42.168477],[24.877934,42.168387],[24.877985,42.168342],[24.878102,42.168021],[24.878343,42.167734],[24.879223,42.167473],[24.880204,42.167049],[24.880432,42.16692],[24.880433,42.166896],[24.88036,42.166897],[24.879106,42.167458],[24.87832,42.167687],[24.878277,42.167709],[24.878025,42.168022],[24.877967,42.168267],[24.877936,42.168336],[24.877883,42.168377],[24.877884,42.168508],[24.877628,42.16942],[24.875775,42.175655],[24.875653,42.176155],[24.874172,42.181153],[24.873796,42.182484],[24.873737,42.182618],[24.873661,42.182718],[24.877711,42.183117],[24.879542,42.183256],[24.880955,42.183384],[24.881335,42.18344],[24.882184,42.183721],[24.883196,42.184016],[24.883562,42.183972],[24.882406,42.183623],[24.882514,42.18335],[24.882692,42.182765],[24.882786,42.182555],[24.883107,42.182093],[24.884022,42.180793],[24.88679,42.176934],[24.887009,42.176616],[24.887273,42.176136],[24.887462,42.175636],[24.887809,42.174301],[24.887816,42.174265],[24.887799,42.174263],[24.888572,42.171134],[24.888715,42.170398],[24.889399,42.167682],[24.889292,42.167668],[24.88868,42.170144],[24.88755,42.174894],[24.887373,42.175557],[24.887163,42.176088],[24.886957,42.176493],[24.886864,42.176631]]]},"properties":{"cadreg":35}},{"type":"Feature","geometry":{"type":"Polygon","coordinates":[[[24.857141,42.172226],[24.856559,42.177073],[24.856736,42.180728],[24.856765,42.1809],[24.857774,42.181053],[24.857591,42.181734],[24.857509,42.181812],[24.857477,42.181944],[24.857563,42.181996],[24.857741,42.18205],[24.858019,42.182092],[24.858355,42.182104],[24.85838,42.182142],[24.858369,42.182225],[24.858314,42.182292],[24.858091,42.182485],[24.857769,42.182807],[24.857555,42.183055],[24.857265,42.183289],[24.857118,42.183469],[24.857095,42.183538],[24.85699,42.183633],[24.856923,42.183729],[24.860011,42.184286],[24.861142,42.184329],[24.861118,42.184662],[24.862431,42.184707],[24.862664,42.184991],[24.862667,42.185249],[24.863289,42.185226],[24.8633,42.185387],[24.864084,42.185317],[24.864077,42.185857],[24.867086,42.185913],[24.86754,42.182484],[24.8705,42.182551],[24.87041,42.181412],[24.870385,42.180033],[24.871305,42.17943],[24.871535,42.179624],[24.871627,42.179474],[24.871793,42.179361],[24.871958,42.179285],[24.872185,42.179253],[24.872423,42.179281],[24.872633,42.179359],[24.872822,42.179509],[24.872797,42.179316],[24.872861,42.179121],[24.8731,42.179025],[24.873082,42.178992],[24.872691,42.179012],[24.875986,42.174439],[24.876314,42.173334],[24.87494,42.172668],[24.874675,42.172754],[24.874569,42.172557],[24.874746,42.172497],[24.874951,42.172381],[24.874411,42.171999],[24.874411,42.171894],[24.873645,42.170893],[24.87332,42.169625],[24.868427,42.169761],[24.866938,42.169721],[24.865961,42.171867],[24.86449,42.171572],[24.86343,42.171395],[24.861567,42.171035],[24.861604,42.170653],[24.859673,42.171126],[24.858124,42.171526],[24.858149,42.172165],[24.857141,42.172226]],[[24.874926,42.17345],[24.874978,42.173484],[24.874999,42.173536],[24.874972,42.173605],[24.874904,42.173639],[24.874547,42.173729],[24.87428,42.173602],[24.874881,42.173449],[24.874926,42.17345]]]},"properties":{"cadreg":501}},{"type":"Feature","geometry":{"type":"Polygon","coordinates":[[[24.86754,42.182484],[24.867086,42.185913],[24.864104,42.185858],[24.864064,42.186476],[24.872869,42.185379],[24.874922,42.185093],[24.883196,42.184016],[24.882184,42.183721],[24.881335,42.18344],[24.880955,42.183384],[24.879542,42.183256],[24.877711,42.183117],[24.873661,42.182718],[24.87326,42.182706],[24.871981,42.182602],[24.870101,42.182539],[24.86754,42.182484]]]},"properties":{"cadreg":36}},{"type":"Feature","geometry":{"type":"Polygon","coordinates":[[[24.88369,42.184149],[24.880435,42.184554],[24.880474,42.18469],[24.881872,42.185518],[24.881645,42.189504],[24.881777,42.189507],[24.881793,42.189412],[24.881966,42.186843],[24.890083,42.187144],[24.890119,42.187126],[24.890142,42.187024],[24.890287,42.186015],[24.890402,42.186033],[24.890512,42.185979],[24.890571,42.185929],[24.890221,42.185854],[24.888867,42.185459],[24.888308,42.185318],[24.887399,42.185151],[24.8862,42.184874],[24.884636,42.18445],[24.883886,42.184223],[24.88369,42.184149]]]},"properties":{"cadreg":37}},{"type":"Feature","geometry":{"type":"Polygon","coordinates":[[[24.890083,42.187144],[24.881966,42.186843],[24.881777,42.189507],[24.884755,42.189641],[24.890706,42.189868],[24.898366,42.190187],[24.898823,42.190194],[24.899002,42.187034],[24.898931,42.187013],[24.897102,42.186801],[24.892792,42.18632],[24.892256,42.18624],[24.890571,42.185929],[24.890512,42.185979],[24.890402,42.186033],[24.890287,42.186015],[24.890142,42.187024],[24.890119,42.187126],[24.890083,42.187144]]]},"properties":{"cadreg":38}},{"type":"Feature","geometry":{"type":"Polygon","coordinates":[[[24.88369,42.184149],[24.883886,42.184223],[24.884636,42.18445],[24.8862,42.184874],[24.887399,42.185151],[24.888308,42.185318],[24.888867,42.185459],[24.890221,42.185854],[24.890571,42.185929],[24.892256,42.18624],[24.892792,42.18632],[24.897102,42.186801],[24.898931,42.187013],[24.899002,42.187034],[24.899126,42.186842],[24.899373,42.186033],[24.90016,42.183268],[24.896542,42.182708],[24.895761,42.182638],[24.895436,42.182627],[24.894931,42.182638],[24.894354,42.182687],[24.892443,42.182954],[24.890507,42.183205],[24.88369,42.184149]]]},"properties":{"cadreg":39}},{"type":"Feature","geometry":{"type":"Polygon","coordinates":[[[24.882498,42.183395],[24.882406,42.183623],[24.883562,42.183972],[24.874922,42.185093],[24.872869,42.185379],[24.869054,42.185859],[24.864064,42.186476],[24.864061,42.186457],[24.861555,42.186788],[24.860217,42.186892],[24.856233,42.187378],[24.856188,42.187448],[24.856049,42.187468],[24.855932,42.187644],[24.867783,42.186139],[24.880281,42.184481],[24.880398,42.184454],[24.880435,42.184554],[24.884136,42.184094],[24.890507,42.183205],[24.892443,42.182954],[24.894354,42.182687],[24.894931,42.182638],[24.895436,42.182627],[24.895761,42.182638],[24.896542,42.182708],[24.90016,42.183268],[24.900179,42.183194],[24.905944,42.184061],[24.910282,42.184735],[24.911087,42.184872],[24.911734,42.185031],[24.912388,42.185223],[24.913947,42.1858],[24.913988,42.185728],[24.912169,42.185068],[24.911823,42.184967],[24.910905,42.184763],[24.90449,42.183761],[24.90451,42.183666],[24.89898,42.182848],[24.895809,42.182318],[24.895971,42.182221],[24.895997,42.182154],[24.897288,42.177079],[24.897978,42.17444],[24.897898,42.174434],[24.897208,42.177078],[24.895945,42.182105],[24.8959,42.182181],[24.895844,42.182217],[24.895762,42.182223],[24.895084,42.182155],[24.894935,42.182205],[24.8949,42.18224],[24.885813,42.181042],[24.884022,42.180793],[24.882786,42.182555],[24.882692,42.182765],[24.882498,42.183395]]]},"properties":{"cadreg":40}},{"type":"Feature","geometry":{"type":"Polygon","coordinates":[[[24.89656,42.179675],[24.885847,42.178255],[24.884022,42.180793],[24.885813,42.181042],[24.8949,42.18224],[24.894935,42.182205],[24.895084,42.182155],[24.895762,42.182223],[24.895844,42.182217],[24.8959,42.182181],[24.895945,42.182105],[24.89656,42.179675]]]},"properties":{"cadreg":41}},{"type":"Feature","geometry":{"type":"Polygon","coordinates":[[[24.896619,42.179699],[24.895997,42.182154],[24.895971,42.182221],[24.895809,42.182318],[24.89898,42.182848],[24.90451,42.183666],[24.904578,42.183588],[24.905149,42.182321],[24.90572,42.180931],[24.896619,42.179699]]]},"properties":{"cadreg":42}},{"type":"Feature","geometry":{"type":"Polygon","coordinates":[[[24.897311,42.177003],[24.896619,42.179699],[24.90572,42.180931],[24.906797,42.178283],[24.897311,42.177003]]]},"properties":{"cadreg":43}},{"type":"Feature","geometry":{"type":"Polygon","coordinates":[[[24.887259,42.176163],[24.887009,42.176616],[24.885847,42.178255],[24.89656,42.179675],[24.89724,42.176962],[24.88745,42.175676],[24.887259,42.176163]]]},"properties":{"cadreg":44}},{"type":"Feature","geometry":{"type":"Polygon","coordinates":[[[24.887816,42.174265],[24.88745,42.175676],[24.89724,42.176962],[24.897941,42.174271],[24.888117,42.172987],[24.887799,42.174263],[24.887816,42.174265]]]},"properties":{"cadreg":45}},{"type":"Feature","geometry":{"type":"Polygon","coordinates":[[[24.898011,42.174306],[24.897311,42.177003],[24.906797,42.178283],[24.907885,42.175612],[24.898011,42.174306]]]},"properties":{"cadreg":46}},{"type":"Feature","geometry":{"type":"Polygon","coordinates":[[[24.906464,42.179129],[24.905149,42.182321],[24.904578,42.183588],[24.90451,42.183666],[24.90449,42.183761],[24.904733,42.183797],[24.904778,42.183675],[24.904925,42.183659],[24.905,42.183668],[24.907,42.183995],[24.907222,42.18415],[24.907298,42.184156],[24.907802,42.182983],[24.910182,42.177651],[24.910457,42.177136],[24.910762,42.176759],[24.910951,42.176597],[24.912013,42.175897],[24.914453,42.174239],[24.914264,42.173806],[24.914083,42.173528],[24.914058,42.173343],[24.914133,42.173174],[24.914509,42.172735],[24.914672,42.172619],[24.914783,42.172508],[24.914842,42.17242],[24.915065,42.172196],[24.915285,42.171934],[24.915338,42.171835],[24.915378,42.171518],[24.915563,42.17128],[24.915885,42.171159],[24.916142,42.170839],[24.916249,42.170735],[24.916403,42.17052],[24.916304,42.17054],[24.916182,42.170544],[24.910066,42.170117],[24.910051,42.170374],[24.907841,42.175713],[24.906464,42.179129]]]},"properties":{"cadreg":47}},{"type":"Feature","geometry":{"type":"Polygon","coordinates":[[[24.904733,42.183797],[24.910563,42.184706],[24.911334,42.184851],[24.911823,42.184967],[24.912319,42.185115],[24.913988,42.185728],[24.914066,42.185275],[24.914163,42.185138],[24.91426,42.185044],[24.914287,42.184951],[24.914284,42.184738],[24.914335,42.184178],[24.914337,42.183922],[24.914296,42.183663],[24.914227,42.183429],[24.913966,42.182906],[24.913694,42.182599],[24.913506,42.182486],[24.91342,42.1824],[24.913281,42.182213],[24.913182,42.181927],[24.913133,42.181578],[24.913079,42.181407],[24.913088,42.181132],[24.913146,42.180951],[24.913334,42.180597],[24.913448,42.1805],[24.913661,42.180408],[24.913741,42.180357],[24.914297,42.179758],[24.914907,42.179212],[24.91519,42.17886],[24.91542,42.178513],[24.915474,42.178391],[24.915607,42.17801],[24.915627,42.17775],[24.915631,42.177298],[24.915571,42.176813],[24.915501,42.176432],[24.915337,42.17584],[24.915082,42.175186],[24.914985,42.174994],[24.914801,42.174676],[24.914554,42.174407],[24.914453,42.174239],[24.912013,42.175897],[24.910951,42.176597],[24.910762,42.176759],[24.910457,42.177136],[24.910182,42.177651],[24.907802,42.182983],[24.907298,42.184156],[24.907222,42.18415],[24.907,42.183995],[24.905,42.183668],[24.904925,42.183659],[24.904778,42.183675],[24.904733,42.183797]]]},"properties":{"cadreg":48}},{"type":"Feature","geometry":{"type":"Polygon","coordinates":[[[24.898714,42.171646],[24.898011,42.174306],[24.907885,42.175612],[24.908961,42.173004],[24.898714,42.171646]]]},"properties":{"cadreg":49}},{"type":"Feature","geometry":{"type":"Polygon","coordinates":[[[24.888746,42.170273],[24.888572,42.171134],[24.888117,42.172987],[24.897941,42.174271],[24.898645,42.171601],[24.888746,42.170273]]]},"properties":{"cadreg":50}},{"type":"Feature","geometry":{"type":"Polygon","coordinates":[[[24.899325,42.169014],[24.889399,42.167682],[24.888746,42.170273],[24.898645,42.171601],[24.899325,42.169014]]]},"properties":{"cadreg":51}},{"type":"Feature","geometry":{"type":"Polygon","coordinates":[[[24.899407,42.168993],[24.898714,42.171646],[24.908961,42.173004],[24.910051,42.170374],[24.910066,42.170117],[24.909897,42.17012],[24.909403,42.17009],[24.906957,42.169922],[24.89945,42.168937],[24.899407,42.168993]]]},"properties":{"cadreg":52}},{"type":"Feature","geometry":{"type":"Polygon","coordinates":[[[24.903896,42.168077],[24.903326,42.168106],[24.903043,42.168134],[24.902156,42.168252],[24.901998,42.168256],[24.901583,42.168312],[24.901402,42.168352],[24.900565,42.16861],[24.899701,42.16879],[24.899599,42.168828],[24.89945,42.168937],[24.906957,42.169922],[24.909784,42.170113],[24.909985,42.167955],[24.909877,42.167929],[24.909746,42.168036],[24.909657,42.168149],[24.909495,42.168268],[24.9093,42.168313],[24.907202,42.168196],[24.905527,42.168068],[24.904727,42.168045],[24.903939,42.168064],[24.903896,42.168077]]]},"properties":{"cadreg":53}},{"type":"Feature","geometry":{"type":"Polygon","coordinates":[[[24.909996,42.167877],[24.909874,42.167863],[24.909823,42.167884],[24.909682,42.167993],[24.909614,42.16808],[24.90954,42.16814],[24.90939,42.1682],[24.90789,42.168145],[24.905362,42.167974],[24.904978,42.167962],[24.903976,42.167989],[24.903939,42.168064],[24.904727,42.168045],[24.905527,42.168068],[24.907202,42.168196],[24.9093,42.168313],[24.909495,42.168268],[24.909657,42.168149],[24.909834,42.167954],[24.909877,42.167929],[24.909902,42.167932],[24.909985,42.167955],[24.909784,42.170113],[24.910159,42.170119],[24.910722,42.170156],[24.916182,42.170544],[24.916304,42.17054],[24.916403,42.17052],[24.916534,42.170434],[24.917568,42.169163],[24.918167,42.168175],[24.918586,42.167912],[24.919001,42.167573],[24.920152,42.167095],[24.920729,42.166697],[24.92064,42.166675],[24.920136,42.167023],[24.920034,42.167077],[24.918918,42.167535],[24.918833,42.167597],[24.918806,42.167642],[24.918483,42.167895],[24.918175,42.168081],[24.918059,42.168227],[24.917505,42.169139],[24.916504,42.17037],[24.916346,42.170463],[24.916245,42.17049],[24.916479,42.168154],[24.916446,42.168025],[24.916373,42.16797],[24.916208,42.167888],[24.916195,42.16785],[24.91003,42.167522],[24.909996,42.167877]]]},"properties":{"cadreg":54}},{"type":"Feature","geometry":{"type":"Polygon","coordinates":[[[24.912887,42.165056],[24.910274,42.164895],[24.91003,42.167522],[24.916195,42.16785],[24.916208,42.167888],[24.916373,42.16797],[24.916446,42.168025],[24.916479,42.168154],[24.916245,42.17049],[24.916308,42.170476],[24.916538,42.168161],[24.916509,42.168013],[24.916448,42.167955],[24.916282,42.167875],[24.916237,42.167744],[24.916328,42.166623],[24.916342,42.166576],[24.916385,42.166542],[24.916465,42.166534],[24.917589,42.166554],[24.917634,42.166539],[24.917657,42.166498],[24.917718,42.165309],[24.912887,42.165056]]]},"properties":{"cadreg":55}},{"type":"Feature","geometry":{"type":"Polygon","coordinates":[[[24.910206,42.164861],[24.90481,42.164558],[24.90471,42.164668],[24.904623,42.164731],[24.904491,42.164919],[24.904361,42.165158],[24.904244,42.165592],[24.904185,42.166434],[24.904094,42.167287],[24.903976,42.167989],[24.904668,42.167963],[24.905362,42.167974],[24.90789,42.168145],[24.90939,42.1682],[24.90954,42.16814],[24.909614,42.16808],[24.909682,42.167993],[24.909823,42.167884],[24.909874,42.167863],[24.909996,42.167877],[24.910274,42.164895],[24.910206,42.164861]]]},"properties":{"cadreg":56}},{"type":"Feature","geometry":{"type":"Polygon","coordinates":[[[24.9035,42.161733],[24.896687,42.161096],[24.8969,42.160539],[24.89681,42.160586],[24.89659,42.1612],[24.896175,42.162194],[24.896117,42.162417],[24.896076,42.162706],[24.896073,42.163147],[24.896024,42.163221],[24.895978,42.163246],[24.895905,42.16326],[24.893311,42.163277],[24.891415,42.163394],[24.891301,42.163434],[24.89125,42.16347],[24.890538,42.164528],[24.890344,42.164839],[24.890213,42.165118],[24.889629,42.167326],[24.889573,42.167468],[24.889521,42.167528],[24.886578,42.16709],[24.885065,42.166879],[24.883248,42.166722],[24.880522,42.166779],[24.88051,42.166821],[24.878342,42.16687],[24.878315,42.166924],[24.882159,42.166878],[24.883126,42.16689],[24.883614,42.166918],[24.885737,42.167187],[24.899325,42.169014],[24.897898,42.174434],[24.897978,42.17444],[24.899422,42.168958],[24.899599,42.168828],[24.899701,42.16879],[24.900565,42.16861],[24.901402,42.168352],[24.901583,42.168312],[24.901753,42.168282],[24.902156,42.168252],[24.903326,42.168106],[24.903805,42.168091],[24.903896,42.168077],[24.903951,42.168052],[24.903996,42.167925],[24.904094,42.167287],[24.904185,42.166434],[24.904244,42.165592],[24.904277,42.165444],[24.904361,42.165158],[24.904491,42.164919],[24.904623,42.164731],[24.90471,42.164668],[24.90481,42.164558],[24.904284,42.164526],[24.904228,42.164418],[24.904563,42.161916],[24.904633,42.161879],[24.904828,42.161881],[24.913194,42.162322],[24.913199,42.162279],[24.905569,42.161876],[24.904898,42.161848],[24.90434,42.161853],[24.904228,42.161842],[24.903965,42.161783],[24.9035,42.161733]]]},"properties":{"cadreg":57}},{"type":"Feature","geometry":{"type":"Polygon","coordinates":[[[24.917871,42.162566],[24.906861,42.16198],[24.904633,42.161879],[24.904563,42.161916],[24.904543,42.161978],[24.904282,42.164097],[24.904228,42.164418],[24.904284,42.164526],[24.904358,42.164533],[24.910206,42.164861],[24.910274,42.164895],[24.912843,42.165054],[24.917718,42.165309],[24.917732,42.165216],[24.917863,42.165182],[24.918788,42.165219],[24.918835,42.165207],[24.918841,42.165182],[24.918794,42.164129],[24.918649,42.162797],[24.918628,42.162749],[24.918594,42.162728],[24.917866,42.162637],[24.917871,42.162566]]]},"properties":{"cadreg":58}},{"type":"Feature","geometry":{"type":"Polygon","coordinates":[[[24.899973,42.160133],[24.900022,42.160181],[24.900033,42.160247],[24.900002,42.160297],[24.89992,42.16034],[24.89999,42.160378],[24.899961,42.160405],[24.899838,42.160425],[24.898497,42.160439],[24.89796,42.160482],[24.897214,42.160494],[24.896976,42.160517],[24.8969,42.160539],[24.896687,42.161096],[24.9035,42.161733],[24.903965,42.161783],[24.904228,42.161842],[24.90434,42.161853],[24.904898,42.161848],[24.905569,42.161876],[24.913065,42.162271],[24.913199,42.162279],[24.913194,42.162322],[24.917871,42.162566],[24.917866,42.162637],[24.917957,42.162649],[24.917889,42.158809],[24.917306,42.158818],[24.916464,42.158877],[24.915523,42.158984],[24.915335,42.158985],[24.914316,42.15918],[24.913917,42.159213],[24.913309,42.159329],[24.91294,42.159384],[24.912335,42.159429],[24.911877,42.159493],[24.911725,42.159494],[24.911637,42.159408],[24.911353,42.159031],[24.911288,42.158906],[24.911218,42.158535],[24.91114,42.158431],[24.911062,42.1584],[24.91079,42.158394],[24.910601,42.158368],[24.909893,42.158033],[24.909797,42.15801],[24.909461,42.157991],[24.909001,42.157999],[24.908959,42.157965],[24.907743,42.15792],[24.906713,42.157859],[24.906199,42.157848],[24.905617,42.157863],[24.905169,42.157914],[24.904768,42.157985],[24.904187,42.158148],[24.903776,42.158233],[24.903566,42.158293],[24.902607,42.158604],[24.902283,42.158744],[24.901756,42.158936],[24.901164,42.159176],[24.900882,42.159305],[24.90055,42.15942],[24.900231,42.159572],[24.899946,42.15974],[24.89984,42.159777],[24.89953,42.160072],[24.899649,42.160057],[24.899865,42.160082],[24.899973,42.160133]]]},"properties":{"cadreg":59}},{"type":"Feature","geometry":{"type":"Polygon","coordinates":[[[24.918796,42.162794],[24.918777,42.162645],[24.918889,42.162626],[24.918028,42.162075],[24.918027,42.162196],[24.918641,42.162623],[24.918628,42.162749],[24.918659,42.162849],[24.918782,42.163973],[24.918835,42.165207],[24.918788,42.165219],[24.917863,42.165182],[24.917732,42.165216],[24.917657,42.166498],[24.917634,42.166539],[24.917589,42.166554],[24.916465,42.166534],[24.916385,42.166542],[24.916342,42.166576],[24.916237,42.167744],[24.916282,42.167875],[24.916448,42.167955],[24.916509,42.168013],[24.916538,42.168161],[24.916308,42.170476],[24.916504,42.17037],[24.917505,42.169139],[24.918059,42.168227],[24.918175,42.168081],[24.918483,42.167895],[24.918806,42.167642],[24.918833,42.167597],[24.918918,42.167535],[24.920034,42.167077],[24.920136,42.167023],[24.920773,42.166588],[24.920818,42.166494],[24.920824,42.166333],[24.920816,42.165527],[24.920854,42.165407],[24.920943,42.165294],[24.92172,42.164967],[24.922316,42.164774],[24.922457,42.164739],[24.922804,42.16469],[24.922883,42.164697],[24.923335,42.164537],[24.923956,42.164394],[24.924148,42.164325],[24.924472,42.164172],[24.924852,42.164068],[24.925293,42.163989],[24.92547,42.163932],[24.92582,42.163765],[24.925992,42.16367],[24.926122,42.163565],[24.926225,42.163437],[24.926304,42.163309],[24.926375,42.162996],[24.926443,42.162859],[24.926694,42.162497],[24.926976,42.162343],[24.927121,42.162294],[24.927224,42.162308],[24.927617,42.162578],[24.927764,42.162649],[24.928242,42.16278],[24.928588,42.162921],[24.928713,42.162937],[24.928774,42.162924],[24.92866,42.162781],[24.928593,42.162732],[24.928803,42.16265],[24.929301,42.162407],[24.929378,42.162402],[24.929528,42.162362],[24.929631,42.162318],[24.92972,42.162257],[24.929805,42.162184],[24.929903,42.162053],[24.929971,42.161699],[24.929788,42.161703],[24.926766,42.161594],[24.926106,42.161421],[24.925952,42.161404],[24.922319,42.161106],[24.922192,42.16111],[24.922095,42.161123],[24.919508,42.162189],[24.919537,42.162255],[24.91949,42.162493],[24.91943,42.162623],[24.919327,42.162692],[24.919054,42.162742],[24.918929,42.162781],[24.918796,42.162794]]]},"properties":{"cadreg":60}},{"type":"Feature","geometry":{"type":"Polygon","coordinates":[[[24.917965,42.158808],[24.917927,42.158518],[24.917729,42.157448],[24.917662,42.157472],[24.917889,42.158809],[24.917957,42.162649],[24.918594,42.162728],[24.918628,42.162749],[24.918647,42.162656],[24.918641,42.162623],[24.918027,42.162196],[24.918028,42.162075],[24.918889,42.162626],[24.918777,42.162645],[24.918796,42.162794],[24.918929,42.162781],[24.919054,42.162742],[24.919327,42.162692],[24.91943,42.162623],[24.91949,42.162493],[24.919537,42.162255],[24.919508,42.162189],[24.922095,42.161123],[24.922192,42.16111],[24.922319,42.161106],[24.925952,42.161404],[24.926106,42.161421],[24.926766,42.161594],[24.929788,42.161703],[24.929971,42.161699],[24.929975,42.161426],[24.929932,42.161343],[24.929215,42.160368],[24.929087,42.160234],[24.928956,42.160111],[24.928627,42.159881],[24.928348,42.159755],[24.928058,42.159684],[24.927999,42.159651],[24.928011,42.159473],[24.928083,42.159311],[24.928085,42.159231],[24.928174,42.158975],[24.928189,42.15879],[24.928173,42.158764],[24.927752,42.158672],[24.927539,42.158651],[24.927294,42.158574],[24.926985,42.158572],[24.926753,42.158546],[24.926536,42.158496],[24.926428,42.158492],[24.926319,42.158453],[24.925755,42.15838],[24.925504,42.158282],[24.92518,42.158202],[24.924804,42.15815],[24.924729,42.158166],[24.924635,42.15816],[24.92457,42.158138],[24.924514,42.158072],[24.924433,42.158038],[24.924421,42.157968],[24.924444,42.157939],[24.924436,42.157882],[24.924374,42.15784],[24.924207,42.157838],[24.924102,42.1578],[24.9241,42.157701],[24.923884,42.157698],[24.923714,42.157653],[24.923633,42.157691],[24.923583,42.157655],[24.923593,42.15762],[24.923641,42.157569],[24.923564,42.15754],[24.923449,42.157556],[24.923411,42.157507],[24.923339,42.157458],[24.923261,42.157354],[24.923144,42.15739],[24.923044,42.157377],[24.922956,42.157335],[24.922918,42.157238],[24.92292,42.157125],[24.922981,42.157032],[24.922988,42.156979],[24.923102,42.15693],[24.923113,42.156889],[24.92305,42.156824],[24.922967,42.156786],[24.922823,42.156801],[24.922723,42.156785],[24.922652,42.156689],[24.922603,42.156674],[24.922534,42.156703],[24.922488,42.156783],[24.922495,42.156808],[24.922453,42.15683],[24.922309,42.156771],[24.922218,42.156843],[24.922073,42.156837],[24.922041,42.156851],[24.922011,42.156884],[24.921766,42.15702],[24.92167,42.157028],[24.921555,42.157014],[24.921464,42.157038],[24.921407,42.157088],[24.921411,42.157126],[24.921502,42.157213],[24.921506,42.157241],[24.921458,42.157257],[24.921365,42.157259],[24.921329,42.157244],[24.921296,42.15726],[24.921253,42.157335],[24.921206,42.157331],[24.921127,42.157296],[24.921061,42.15729],[24.92109,42.157436],[24.921231,42.157603],[24.921238,42.157639],[24.921185,42.157712],[24.921202,42.157736],[24.921488,42.157808],[24.921529,42.157844],[24.921579,42.157964],[24.921545,42.158063],[24.92145,42.15817],[24.921111,42.158398],[24.92075,42.158396],[24.920499,42.158431],[24.920036,42.158572],[24.919379,42.158701],[24.918946,42.158758],[24.918496,42.158791],[24.917965,42.158808]]]},"properties":{"cadreg":61}},{"type":"Feature","geometry":{"type":"Polygon","coordinates":[[[24.862664,42.184991],[24.862431,42.184707],[24.861118,42.184662],[24.861142,42.184329],[24.860011,42.184286],[24.858397,42.183993],[24.856049,42.187468],[24.856188,42.187448],[24.856233,42.187378],[24.860217,42.186892],[24.861555,42.186788],[24.864061,42.186457],[24.864104,42.185858],[24.864077,42.185857],[24.864084,42.185317],[24.8633,42.185387],[24.863289,42.185226],[24.862667,42.185249],[24.862664,42.184991]]]},"properties":{"cadreg":62}},{"type":"Feature","geometry":{"type":"Polygon","coordinates":[[[24.93594,42.158905],[24.935763,42.158906],[24.935539,42.158836],[24.935236,42.158791],[24.935179,42.158749],[24.935137,42.158771],[24.934752,42.158713],[24.934478,42.158721],[24.934316,42.158667],[24.934313,42.158644],[24.934068,42.158602],[24.933884,42.158537],[24.933843,42.158505],[24.93373,42.158469],[24.933588,42.158398],[24.93355,42.158344],[24.933506,42.158301],[24.933468,42.158288],[24.933347,42.158161],[24.933301,42.158149],[24.933068,42.157995],[24.932852,42.157921],[24.932787,42.157888],[24.932782,42.157869],[24.932626,42.157799],[24.932456,42.157675],[24.932245,42.157342],[24.932242,42.157277],[24.932219,42.157258],[24.932185,42.1571],[24.932167,42.156703],[24.932124,42.156492],[24.932074,42.156399],[24.931848,42.156247],[24.931451,42.15602],[24.931397,42.155971],[24.931124,42.155833],[24.931016,42.155759],[24.931003,42.155721],[24.930916,42.155691],[24.930871,42.155644],[24.930219,42.155529],[24.930072,42.155487],[24.929292,42.155412],[24.928736,42.155275],[24.928597,42.155221],[24.928241,42.155125],[24.92815,42.155086],[24.92809,42.15508],[24.927911,42.155008],[24.927249,42.154835],[24.926903,42.154906],[24.926801,42.154946],[24.926541,42.155006],[24.926269,42.155038],[24.926177,42.155063],[24.925846,42.155173],[24.92542,42.155278],[24.925287,42.155331],[24.925021,42.155381],[24.924664,42.155507],[24.924539,42.155536],[24.92438,42.155603],[24.92416,42.155652],[24.923894,42.155743],[24.9234,42.155881],[24.923006,42.155942],[24.922885,42.155977],[24.922485,42.156044],[24.922084,42.156138],[24.921666,42.15626],[24.921122,42.156354],[24.920992,42.156396],[24.92087,42.156394],[24.920745,42.156449],[24.920368,42.156532],[24.920189,42.156556],[24.920139,42.15658],[24.919298,42.156717],[24.918941,42.156799],[24.918452,42.15688],[24.917711,42.157042],[24.917577,42.157035],[24.916889,42.157093],[24.916314,42.157167],[24.915697,42.157204],[24.915269,42.157269],[24.914491,42.157338],[24.913678,42.157482],[24.913481,42.157494],[24.912361,42.15751],[24.912088,42.157484],[24.910479,42.157237],[24.909968,42.157259],[24.90908,42.157202],[24.907995,42.157057],[24.90654,42.156909],[24.905978,42.156808],[24.905448,42.156746],[24.905206,42.156692],[24.904699,42.156657],[24.904587,42.156668],[24.904016,42.156853],[24.903752,42.156915],[24.903447,42.156964],[24.902655,42.157156],[24.902445,42.157176],[24.901877,42.157152],[24.901573,42.157101],[24.899857,42.156664],[24.899159,42.156549],[24.898358,42.156479],[24.898097,42.156477],[24.897702,42.15651],[24.897605,42.15714],[24.895977,42.157072],[24.893719,42.15676],[24.893509,42.156639],[24.89303,42.156752],[24.892284,42.156815],[24.891695,42.156847],[24.890445,42.156804],[24.889707,42.156731],[24.889073,42.156599],[24.887653,42.155991],[24.887108,42.155777],[24.88627,42.155605],[24.886133,42.155592],[24.885951,42.155537],[24.88548,42.155498],[24.885135,42.155448],[24.884943,42.155404],[24.884417,42.155232],[24.883968,42.155128],[24.883364,42.154752],[24.88285,42.15453],[24.881849,42.154186],[24.881203,42.153869],[24.880589,42.153724],[24.879784,42.15361],[24.8786,42.153605],[24.877594,42.153565],[24.876304,42.153592],[24.875487,42.153653],[24.874726,42.153749],[24.874223,42.153797],[24.87342,42.153829],[24.872275,42.154003],[24.871898,42.15396],[24.870864,42.153795],[24.870092,42.153563],[24.86911,42.153219],[24.867484,42.15257],[24.866465,42.152225],[24.865862,42.151953],[24.864917,42.151487],[24.864269,42.151237],[24.863359,42.151027],[24.862345,42.150893],[24.861729,42.150857],[24.8608,42.150864],[24.859895,42.150954],[24.85942,42.150974],[24.857998,42.150842],[24.857168,42.150783],[24.856497,42.150705],[24.85561,42.150573],[24.855161,42.150484],[24.854637,42.150485],[24.854229,42.150591],[24.853579,42.150713],[24.852344,42.151102],[24.852136,42.151124],[24.85138,42.151115],[24.850793,42.151133],[24.849676,42.151284],[24.848696,42.151363],[24.848171,42.151386],[24.845222,42.151322],[24.842836,42.151246],[24.841326,42.151155],[24.840001,42.151093],[24.839129,42.151113],[24.838652,42.151192],[24.838328,42.15129],[24.837708,42.151573],[24.836931,42.152046],[24.836006,42.152252],[24.83511,42.152251],[24.834487,42.152196],[24.832935,42.152157],[24.832277,42.152124],[24.831843,42.152123],[24.831088,42.152041],[24.828987,42.151683],[24.828044,42.151334],[24.826831,42.151008],[24.826131,42.150931],[24.824028,42.150818],[24.822244,42.151211],[24.817209,42.152946],[24.816263,42.153102],[24.815412,42.153076],[24.812568,42.152715],[24.810983,42.152595],[24.808447,42.152642],[24.808384,42.152498],[24.808321,42.152498],[24.808568,42.153184],[24.808887,42.153181],[24.809424,42.153206],[24.809759,42.153201],[24.810244,42.153163],[24.810555,42.153155],[24.810984,42.153189],[24.811067,42.153214],[24.811635,42.15328],[24.812515,42.153277],[24.813188,42.15333],[24.813746,42.153327],[24.814654,42.153436],[24.815085,42.153536],[24.815519,42.153616],[24.815837,42.153629],[24.816137,42.153611],[24.816913,42.153462],[24.817408,42.153328],[24.817677,42.15324],[24.81912,42.15288],[24.820699,42.152382],[24.821216,42.152146],[24.821327,42.152111],[24.821907,42.151971],[24.822196,42.151916],[24.822496,42.151828],[24.822669,42.151734],[24.822757,42.151646],[24.823003,42.151451],[24.823205,42.151312],[24.823364,42.151253],[24.823574,42.151232],[24.823638,42.151181],[24.82368,42.151119],[24.823759,42.151085],[24.824148,42.151094],[24.824595,42.151016],[24.824741,42.151006],[24.824889,42.151005],[24.82519,42.151069],[24.825481,42.151103],[24.82578,42.151087],[24.825884,42.151109],[24.826341,42.151257],[24.826764,42.151242],[24.826918,42.151251],[24.827136,42.151338],[24.827451,42.151426],[24.827868,42.15165],[24.82827,42.151826],[24.829161,42.152055],[24.829569,42.152089],[24.829755,42.152091],[24.82992,42.152108],[24.830101,42.152147],[24.830254,42.152222],[24.830301,42.152266],[24.830594,42.152345],[24.831314,42.152438],[24.831717,42.152462],[24.832507,42.152479],[24.833012,42.152449],[24.83409,42.152459],[24.834421,42.152476],[24.834439,42.152423],[24.834489,42.152367],[24.83457,42.152361],[24.8356,42.152433],[24.835777,42.152461],[24.835939,42.152511],[24.836519,42.152424],[24.837102,42.152301],[24.837631,42.152093],[24.837775,42.152014],[24.838172,42.151702],[24.838319,42.151625],[24.838575,42.151525],[24.838671,42.151508],[24.838778,42.15151],[24.838877,42.151533],[24.838982,42.151518],[24.839319,42.15138],[24.839607,42.15129],[24.840168,42.151251],[24.840701,42.151261],[24.84109,42.151339],[24.841402,42.151422],[24.841709,42.15145],[24.841836,42.151478],[24.842052,42.15159],[24.842324,42.151563],[24.842604,42.151596],[24.843399,42.151818],[24.843401,42.151985],[24.844144,42.1521],[24.845212,42.15205],[24.84642,42.152091],[24.846443,42.152052],[24.846527,42.152051],[24.846451,42.152119],[24.846859,42.152146],[24.846896,42.152103],[24.847392,42.152033],[24.85106,42.151768],[24.852588,42.151683],[24.853375,42.151704],[24.853764,42.151696],[24.854202,42.151677],[24.85467,42.151622],[24.854861,42.151613],[24.855053,42.151617],[24.855245,42.151642],[24.855414,42.151686],[24.855879,42.151705],[24.856076,42.151684],[24.856271,42.151636],[24.856482,42.151603],[24.856973,42.151543],[24.857367,42.151467],[24.857948,42.151496],[24.858389,42.151496],[24.858791,42.151478],[24.858956,42.151484],[24.859245,42.151532],[24.859537,42.151491],[24.860099,42.151467],[24.860284,42.151477],[24.860685,42.151528],[24.861092,42.151611],[24.862664,42.152156],[24.863451,42.152376],[24.86384,42.1525],[24.865057,42.152824],[24.865615,42.153064],[24.866129,42.153242],[24.866445,42.153322],[24.866798,42.15337],[24.867425,42.153498],[24.868175,42.153756],[24.868536,42.153842],[24.86869,42.153907],[24.868904,42.153961],[24.869046,42.154029],[24.869351,42.154135],[24.869456,42.154126],[24.8695,42.154094],[24.869563,42.154082],[24.869689,42.154113],[24.871237,42.15458],[24.871793,42.154799],[24.872385,42.154975],[24.872592,42.155017],[24.873018,42.155066],[24.873499,42.155054],[24.874708,42.154938],[24.87499,42.154925],[24.875516,42.154828],[24.875943,42.154775],[24.876064,42.154775],[24.87642,42.154815],[24.877691,42.155072],[24.878888,42.154967],[24.880023,42.154824],[24.880294,42.154808],[24.880516,42.154811],[24.881204,42.154881],[24.882054,42.15508],[24.882513,42.155164],[24.883454,42.155298],[24.883631,42.155333],[24.884068,42.155475],[24.884795,42.155593],[24.88499,42.155597],[24.885173,42.155581],[24.88552,42.155504],[24.885787,42.155531],[24.885907,42.155573],[24.886172,42.155714],[24.886561,42.155997],[24.88686,42.156158],[24.887008,42.156223],[24.887403,42.156308],[24.887636,42.156411],[24.887968,42.156481],[24.888159,42.156498],[24.88829,42.156525],[24.88841,42.156527],[24.888731,42.156583],[24.888841,42.156609],[24.888879,42.15664],[24.888926,42.15664],[24.888996,42.156683],[24.8891,42.15667],[24.889312,42.156756],[24.88981,42.156917],[24.890129,42.156975],[24.890218,42.156958],[24.890278,42.156993],[24.890303,42.157028],[24.890347,42.157033],[24.890473,42.157012],[24.89064,42.157047],[24.890766,42.15704],[24.891094,42.157135],[24.891193,42.157137],[24.891484,42.157179],[24.89153,42.157216],[24.891612,42.157247],[24.892349,42.157363],[24.892484,42.157416],[24.892699,42.157395],[24.892854,42.157439],[24.892985,42.15744],[24.893354,42.157543],[24.893427,42.157549],[24.893725,42.157544],[24.894046,42.157519],[24.894914,42.157531],[24.895806,42.157609],[24.896267,42.157635],[24.896939,42.157704],[24.897242,42.157709],[24.897473,42.157676],[24.897604,42.157624],[24.897836,42.157572],[24.898296,42.157682],[24.89862,42.157712],[24.898782,42.157707],[24.899346,42.157636],[24.899731,42.15763],[24.899926,42.157589],[24.900457,42.157675],[24.900548,42.157707],[24.900785,42.157729],[24.90093,42.157651],[24.901009,42.157654],[24.901111,42.157684],[24.901307,42.157782],[24.901503,42.157818],[24.901678,42.157887],[24.902477,42.158036],[24.902536,42.158041],[24.902988,42.158001],[24.90311,42.158009],[24.903304,42.158055],[24.903752,42.158088],[24.903892,42.158086],[24.903962,42.158061],[24.904039,42.157964],[24.904083,42.157951],[24.904178,42.157976],[24.904268,42.157966],[24.904937,42.157866],[24.90516,42.15779],[24.905341,42.157783],[24.905454,42.157761],[24.905562,42.157779],[24.905659,42.157771],[24.905916,42.157717],[24.905957,42.157733],[24.905937,42.157799],[24.905965,42.157858],[24.906199,42.157848],[24.906713,42.157859],[24.907743,42.15792],[24.908959,42.157965],[24.909001,42.157999],[24.909461,42.157991],[24.909797,42.15801],[24.909893,42.158033],[24.910601,42.158368],[24.91079,42.158394],[24.911062,42.1584],[24.91114,42.158431],[24.911218,42.158535],[24.911288,42.158906],[24.911353,42.159031],[24.911637,42.159408],[24.911725,42.159494],[24.911768,42.159497],[24.911877,42.159493],[24.912335,42.159429],[24.91294,42.159384],[24.913309,42.159329],[24.913917,42.159213],[24.914316,42.15918],[24.915335,42.158985],[24.915523,42.158984],[24.916464,42.158877],[24.917306,42.158818],[24.917889,42.158809],[24.917662,42.157472],[24.917729,42.157448],[24.917927,42.158518],[24.917965,42.158808],[24.918496,42.158791],[24.919265,42.15872],[24.920036,42.158572],[24.920499,42.158431],[24.92075,42.158396],[24.921111,42.158398],[24.92145,42.15817],[24.921545,42.158063],[24.921579,42.157964],[24.921529,42.157844],[24.921488,42.157808],[24.921202,42.157736],[24.921185,42.157712],[24.921238,42.157639],[24.921231,42.157603],[24.92109,42.157436],[24.921061,42.15729],[24.921127,42.157296],[24.921206,42.157331],[24.921253,42.157335],[24.921296,42.15726],[24.921329,42.157244],[24.921365,42.157259],[24.921458,42.157257],[24.921506,42.157241],[24.921502,42.157213],[24.921411,42.157126],[24.921407,42.157088],[24.921464,42.157038],[24.921555,42.157014],[24.92167,42.157028],[24.921766,42.15702],[24.922011,42.156884],[24.922041,42.156851],[24.922073,42.156837],[24.922218,42.156843],[24.922309,42.156771],[24.922453,42.15683],[24.922495,42.156808],[24.922488,42.156783],[24.922534,42.156703],[24.922603,42.156674],[24.922652,42.156689],[24.922723,42.156785],[24.922823,42.156801],[24.922967,42.156786],[24.923096,42.156859],[24.923117,42.15691],[24.923102,42.15693],[24.922988,42.156979],[24.922981,42.157032],[24.92292,42.157125],[24.922918,42.157238],[24.922956,42.157335],[24.923044,42.157377],[24.923144,42.15739],[24.923261,42.157354],[24.923339,42.157458],[24.923411,42.157507],[24.923449,42.157556],[24.923564,42.15754],[24.923641,42.157569],[24.923593,42.15762],[24.923583,42.157655],[24.923633,42.157691],[24.923714,42.157653],[24.923884,42.157698],[24.9241,42.157701],[24.924102,42.1578],[24.924207,42.157838],[24.924374,42.15784],[24.924436,42.157882],[24.924444,42.157939],[24.924421,42.157968],[24.924433,42.158038],[24.924514,42.158072],[24.92457,42.158138],[24.924635,42.15816],[24.924729,42.158166],[24.924804,42.15815],[24.92518,42.158202],[24.925504,42.158282],[24.925755,42.15838],[24.926319,42.158453],[24.926428,42.158492],[24.926536,42.158496],[24.926753,42.158546],[24.926985,42.158572],[24.927294,42.158574],[24.927539,42.158651],[24.927752,42.158672],[24.928184,42.158773],[24.928174,42.158975],[24.928085,42.159231],[24.928083,42.159311],[24.928011,42.159473],[24.927999,42.159651],[24.928058,42.159684],[24.928348,42.159755],[24.928627,42.159881],[24.928956,42.160111],[24.929215,42.160368],[24.929932,42.161343],[24.929975,42.161426],[24.929973,42.161683],[24.929903,42.162053],[24.929805,42.162184],[24.929631,42.162318],[24.929528,42.162362],[24.929378,42.162402],[24.929301,42.162407],[24.928803,42.16265],[24.928593,42.162732],[24.92866,42.162781],[24.928774,42.162924],[24.928713,42.162937],[24.928588,42.162921],[24.928242,42.16278],[24.927764,42.162649],[24.927617,42.162578],[24.927224,42.162308],[24.927121,42.162294],[24.926976,42.162343],[24.926694,42.162497],[24.926443,42.162859],[24.926375,42.162996],[24.926304,42.163309],[24.926225,42.163437],[24.926122,42.163565],[24.925992,42.16367],[24.92582,42.163765],[24.92547,42.163932],[24.925293,42.163989],[24.924852,42.164068],[24.924472,42.164172],[24.924148,42.164325],[24.923956,42.164394],[24.923335,42.164537],[24.922883,42.164697],[24.922804,42.16469],[24.922457,42.164739],[24.922316,42.164774],[24.92172,42.164967],[24.920943,42.165294],[24.920854,42.165407],[24.920816,42.165527],[24.920831,42.166152],[24.920818,42.166494],[24.920773,42.166588],[24.92064,42.166675],[24.920729,42.166697],[24.920152,42.167095],[24.919001,42.167573],[24.918586,42.167912],[24.918167,42.168175],[24.917568,42.169163],[24.916534,42.170434],[24.916403,42.17052],[24.916249,42.170735],[24.916042,42.170958],[24.915963,42.171078],[24.915885,42.171159],[24.915563,42.17128],[24.915378,42.171518],[24.915338,42.171835],[24.915285,42.171934],[24.915065,42.172196],[24.914842,42.17242],[24.914783,42.172508],[24.914672,42.172619],[24.914509,42.172735],[24.914133,42.173174],[24.914058,42.173343],[24.914083,42.173528],[24.914264,42.173806],[24.914484,42.174305],[24.914554,42.174407],[24.914801,42.174676],[24.914985,42.174994],[24.915082,42.175186],[24.915337,42.17584],[24.915538,42.176617],[24.915597,42.176987],[24.915634,42.177457],[24.915607,42.17801],[24.915579,42.17812],[24.91542,42.178513],[24.91519,42.17886],[24.914907,42.179212],[24.914297,42.179758],[24.913741,42.180357],[24.913661,42.180408],[24.913448,42.1805],[24.913334,42.180597],[24.913146,42.180951],[24.913088,42.181132],[24.913079,42.181407],[24.913133,42.181578],[24.913182,42.181927],[24.913281,42.182213],[24.91342,42.1824],[24.913506,42.182486],[24.913694,42.182599],[24.913966,42.182906],[24.914227,42.183429],[24.914296,42.183663],[24.914337,42.183922],[24.914335,42.184178],[24.914284,42.184738],[24.914287,42.184951],[24.91426,42.185044],[24.914163,42.185138],[24.914066,42.185275],[24.913988,42.185728],[24.913947,42.1858],[24.914193,42.18589],[24.914412,42.185329],[24.91454,42.184897],[24.914644,42.18446],[24.914664,42.184189],[24.914656,42.183883],[24.914625,42.183608],[24.914561,42.183331],[24.914464,42.183066],[24.914327,42.182809],[24.914243,42.182687],[24.9141,42.182542],[24.913828,42.182212],[24.913711,42.182035],[24.913582,42.18176],[24.913526,42.181542],[24.913521,42.181272],[24.91354,42.181156],[24.913567,42.181062],[24.913615,42.180982],[24.913841,42.180671],[24.914054,42.18047],[24.914446,42.180143],[24.914922,42.179807],[24.915215,42.179508],[24.915604,42.178907],[24.915718,42.178818],[24.915879,42.178574],[24.915996,42.178345],[24.916096,42.178075],[24.916207,42.177726],[24.916218,42.177598],[24.916192,42.1771],[24.916149,42.176933],[24.915961,42.176426],[24.915702,42.175924],[24.915588,42.175759],[24.915168,42.174975],[24.914976,42.174502],[24.914851,42.174002],[24.914853,42.17347],[24.914904,42.173114],[24.915158,42.172506],[24.915225,42.172386],[24.915334,42.172245],[24.916013,42.171436],[24.916975,42.170575],[24.917255,42.170168],[24.917327,42.17002],[24.917532,42.169737],[24.918432,42.168622],[24.918678,42.168389],[24.918856,42.168168],[24.919117,42.167949],[24.919437,42.167727],[24.919641,42.167619],[24.920231,42.167389],[24.921016,42.16713],[24.921636,42.16697],[24.922474,42.166824],[24.922875,42.166738],[24.923782,42.166628],[24.924364,42.166593],[24.924923,42.166436],[24.925288,42.166313],[24.925457,42.166246],[24.92594,42.166003],[24.926378,42.165748],[24.926626,42.165542],[24.926775,42.165459],[24.927289,42.165274],[24.927603,42.165124],[24.927755,42.165019],[24.929015,42.164387],[24.929162,42.164289],[24.929922,42.163926],[24.930121,42.16381],[24.930277,42.163757],[24.930613,42.163556],[24.931152,42.163288],[24.931532,42.163065],[24.931721,42.162969],[24.93213,42.162803],[24.93254,42.162604],[24.932735,42.162482],[24.933227,42.162027],[24.933393,42.16186],[24.933826,42.161348],[24.934144,42.160847],[24.934241,42.160727],[24.934402,42.160352],[24.934529,42.160115],[24.934892,42.159703],[24.9351,42.159523],[24.935403,42.159304],[24.935723,42.159101],[24.93594,42.158905]]]},"properties":{"cadreg":70}}]}