{"type":"FeatureCollection","features":[{"type":"Feature","geometry":{"type":"Polygon","coordinates":[[[24.809143,42.018201],[24.80948,42.017912],[24.809283,42.017745],[24.808912,42.017484],[24.80854,42.017352],[24.808335,42.017219],[24.808383,42.017159],[24.808693,42.017191],[24.808909,42.017167],[24.809132,42.017189],[24.809351,42.017164],[24.809397,42.017139],[24.809455,42.01729],[24.809493,42.017334],[24.809785,42.017477],[24.809877,42.017343],[24.810303,42.016542],[24.810459,42.016592],[24.8109,42.016459],[24.810735,42.016131],[24.810632,42.016116],[24.810502,42.016155],[24.810331,42.01581],[24.810244,42.015763],[24.809465,42.01501],[24.808995,42.014838],[24.808837,42.015148],[24.808718,42.015111],[24.808093,42.014982],[24.80802,42.015002],[24.80798,42.014818],[24.807843,42.014734],[24.80764,42.014348],[24.807398,42.014322],[24.806739,42.014413],[24.806031,42.014164],[24.805796,42.013816],[24.805648,42.013865],[24.805555,42.013695],[24.80538,42.013725],[24.805129,42.013717],[24.805068,42.013959],[24.805242,42.013983],[24.805092,42.014192],[24.805222,42.014265],[24.80508,42.014401],[24.805058,42.014874],[24.805139,42.015618],[24.805223,42.016028],[24.805431,42.016091],[24.805079,42.016782],[24.805189,42.016967],[24.805089,42.017018],[24.805686,42.017189],[24.805715,42.017143],[24.806432,42.017361],[24.806771,42.016778],[24.806815,42.016991],[24.807037,42.017288],[24.807683,42.017941],[24.807801,42.01789],[24.808088,42.017677],[24.808696,42.017903],[24.809143,42.018201]]]},"properties":{"cadreg":888}},{"type":"Feature","geometry":{"type":"Polygon","coordinates":[[[24.825125,42.031584],[24.824822,42.031593],[24.824456,42.03142],[24.824051,42.031536],[24.823716,42.031426],[24.823555,42.031523],[24.82322,42.031418],[24.823021,42.031403],[24.822232,42.031647],[24.822341,42.032147],[24.822715,42.032711],[24.823146,42.032735],[24.823907,42.032914],[24.82477,42.033414],[24.824935,42.033665],[24.826132,42.034322],[24.82644,42.034027],[24.827256,42.034189],[24.827333,42.034075],[24.827243,42.034021],[24.827318,42.033942],[24.827413,42.033923],[24.827499,42.033807],[24.826938,42.033456],[24.827027,42.033331],[24.826513,42.033172],[24.826284,42.033023],[24.826607,42.032738],[24.826102,42.032402],[24.826078,42.032327],[24.825807,42.032157],[24.825871,42.032073],[24.825469,42.031927],[24.825549,42.031856],[24.8256,42.031749],[24.825169,42.031615],[24.825125,42.031584]]]},"properties":{"cadreg":1}},{"type":"Feature","geometry":{"type":"Polygon","coordinates":[[[24.811029,42.020737],[24.811102,42.021274],[24.811089,42.021307],[24.810762,42.021646],[24.810607,42.021912],[24.810443,42.022035],[24.810416,42.022107],[24.810558,42.022292],[24.811181,42.022264],[24.811207,42.022239],[24.811693,42.022275],[24.811845,42.022253],[24.811944,42.022286],[24.811976,42.022278],[24.812787,42.02263],[24.812943,42.022577],[24.81303,42.022503],[24.813557,42.022702],[24.813777,42.022508],[24.81376,42.022397],[24.814029,42.022511],[24.814172,42.022527],[24.814381,42.022459],[24.814456,42.022384],[24.81439,42.022307],[24.814393,42.022192],[24.814532,42.022018],[24.814788,42.022121],[24.81485,42.02199],[24.814856,42.021822],[24.814724,42.021734],[24.814535,42.021716],[24.814219,42.021859],[24.814006,42.022018],[24.814052,42.021933],[24.814239,42.021727],[24.814123,42.021631],[24.813665,42.021549],[24.813242,42.021367],[24.812733,42.021084],[24.812336,42.020888],[24.811778,42.020491],[24.811346,42.020322],[24.81103,42.020219],[24.810944,42.020076],[24.810827,42.020073],[24.810719,42.020246],[24.810875,42.020524],[24.810835,42.020582],[24.811029,42.020737]]]},"properties":{"cadreg":2}},{"type":"Feature","geometry":{"type":"Polygon","coordinates":[[[24.810594,42.016622],[24.810142,42.016845],[24.809877,42.017343],[24.809785,42.017477],[24.809493,42.017334],[24.809455,42.01729],[24.809397,42.017139],[24.809351,42.017164],[24.809132,42.017189],[24.808909,42.017167],[24.808693,42.017191],[24.808383,42.017159],[24.808335,42.017219],[24.80854,42.017352],[24.808912,42.017484],[24.809283,42.017745],[24.80948,42.017912],[24.809391,42.017989],[24.809696,42.018342],[24.809761,42.018536],[24.810256,42.018893],[24.810444,42.01913],[24.810523,42.019319],[24.810516,42.019404],[24.810585,42.019504],[24.810891,42.019774],[24.811123,42.019933],[24.811118,42.019986],[24.810944,42.020076],[24.81103,42.020219],[24.811346,42.020322],[24.811778,42.020491],[24.812336,42.020888],[24.812733,42.021084],[24.813242,42.021367],[24.813665,42.021549],[24.814123,42.021631],[24.814239,42.021727],[24.814052,42.021933],[24.814006,42.022018],[24.814219,42.021859],[24.814535,42.021716],[24.814724,42.021734],[24.814856,42.021822],[24.815189,42.021738],[24.814992,42.021545],[24.814733,42.021144],[24.814736,42.020947],[24.814685,42.020734],[24.814647,42.020678],[24.814558,42.020656],[24.814482,42.020672],[24.814733,42.020576],[24.814845,42.0205],[24.815006,42.020235],[24.815063,42.019923],[24.814897,42.019331],[24.814423,42.018563],[24.814308,42.018515],[24.81414,42.018249],[24.814114,42.018008],[24.814037,42.01772],[24.81402,42.017398],[24.813366,42.017076],[24.812899,42.016882],[24.812363,42.016681],[24.811804,42.016515],[24.81131,42.016286],[24.811023,42.016497],[24.810678,42.016721],[24.810594,42.016622]]]},"properties":{"cadreg":3}},{"type":"Feature","geometry":{"type":"Polygon","coordinates":[[[24.826078,42.032327],[24.826102,42.032402],[24.826607,42.032738],[24.826287,42.033027],[24.826513,42.033172],[24.827027,42.033331],[24.826938,42.033456],[24.827499,42.033807],[24.827413,42.033923],[24.827318,42.033942],[24.827243,42.034021],[24.827333,42.034075],[24.827256,42.034189],[24.82644,42.034027],[24.826132,42.034322],[24.824935,42.033665],[24.82477,42.033414],[24.82415,42.033051],[24.824126,42.033098],[24.824379,42.035932],[24.824688,42.036098],[24.825056,42.036269],[24.826354,42.03674],[24.826654,42.036826],[24.827635,42.03689],[24.82889,42.037106],[24.828753,42.036881],[24.828619,42.036708],[24.828572,42.036622],[24.828571,42.036528],[24.828826,42.036084],[24.828878,42.035907],[24.828884,42.035683],[24.828737,42.035646],[24.828663,42.035148],[24.828392,42.034656],[24.828298,42.034383],[24.828069,42.034027],[24.827532,42.033583],[24.827149,42.033324],[24.827141,42.033187],[24.827078,42.032978],[24.826971,42.032844],[24.826803,42.032702],[24.826345,42.032509],[24.826181,42.03236],[24.826031,42.03216],[24.826028,42.032196],[24.825959,42.032256],[24.826078,42.032327]]]},"properties":{"cadreg":4}},{"type":"Feature","geometry":{"type":"Polygon","coordinates":[[[24.824762,42.029484],[24.824285,42.029707],[24.823527,42.030002],[24.823353,42.030012],[24.822819,42.030122],[24.822578,42.030144],[24.821765,42.030305],[24.821603,42.030342],[24.821389,42.030481],[24.82141,42.030516],[24.8215,42.030539],[24.821777,42.030812],[24.821786,42.030918],[24.821674,42.031083],[24.822199,42.031538],[24.822232,42.031647],[24.823021,42.031403],[24.82322,42.031418],[24.823555,42.031523],[24.823716,42.031426],[24.824051,42.031536],[24.824456,42.03142],[24.824822,42.031593],[24.825125,42.031584],[24.825169,42.031615],[24.8256,42.031749],[24.825549,42.031856],[24.825469,42.031927],[24.825871,42.032073],[24.825807,42.032157],[24.825959,42.032256],[24.826028,42.032196],[24.826031,42.03216],[24.825898,42.031919],[24.826161,42.032021],[24.826311,42.032059],[24.826686,42.032112],[24.826967,42.032009],[24.82723,42.032043],[24.827291,42.03209],[24.827443,42.032274],[24.827557,42.032364],[24.82768,42.03242],[24.827997,42.032469],[24.828091,42.032425],[24.828187,42.032289],[24.828129,42.03213],[24.827984,42.031987],[24.828009,42.031664],[24.828062,42.031483],[24.828115,42.031387],[24.828251,42.031319],[24.828424,42.031278],[24.828707,42.031262],[24.82884,42.031224],[24.828863,42.031146],[24.828825,42.031011],[24.82891,42.030834],[24.829022,42.030762],[24.829095,42.030752],[24.829199,42.030586],[24.829361,42.03047],[24.829717,42.030321],[24.829904,42.030351],[24.830018,42.030402],[24.830194,42.030373],[24.830315,42.030312],[24.830465,42.030201],[24.830709,42.029971],[24.830798,42.029857],[24.830827,42.029771],[24.830784,42.02961],[24.830657,42.029473],[24.830313,42.029303],[24.830232,42.02924],[24.830366,42.029212],[24.830666,42.029255],[24.830806,42.029254],[24.830884,42.029199],[24.830736,42.029109],[24.830425,42.029094],[24.830296,42.029054],[24.830292,42.028845],[24.830363,42.028727],[24.830797,42.028751],[24.830931,42.028736],[24.830878,42.028501],[24.831031,42.028481],[24.831177,42.028485],[24.831334,42.028397],[24.831354,42.028175],[24.831429,42.028112],[24.831544,42.028049],[24.831674,42.028009],[24.831786,42.027946],[24.831744,42.027821],[24.831552,42.027601],[24.831444,42.027517],[24.831148,42.027623],[24.83107,42.027693],[24.830921,42.02776],[24.830867,42.027814],[24.830764,42.027805],[24.830693,42.027781],[24.830675,42.027752],[24.830183,42.027887],[24.829609,42.028185],[24.829239,42.028327],[24.829209,42.028321],[24.829128,42.028183],[24.828951,42.028065],[24.828612,42.027917],[24.828434,42.027923],[24.827859,42.028152],[24.827449,42.028335],[24.827008,42.028575],[24.826881,42.028587],[24.826618,42.028681],[24.826154,42.028861],[24.825901,42.029001],[24.825744,42.029003],[24.825581,42.029041],[24.825251,42.029247],[24.825106,42.02942],[24.825013,42.029422],[24.824762,42.029484]]]},"properties":{"cadreg":5}},{"type":"Feature","geometry":{"type":"Polygon","coordinates":[[[24.826218,42.023823],[24.824315,42.023395],[24.823183,42.023843],[24.822362,42.023841],[24.822104,42.023816],[24.822205,42.02392],[24.822341,42.024166],[24.822298,42.024249],[24.822138,42.024451],[24.822092,42.024596],[24.822056,42.024852],[24.822471,42.025195],[24.822578,42.025361],[24.822827,42.025584],[24.822994,42.025774],[24.823137,42.025899],[24.823207,42.026038],[24.823156,42.026173],[24.823526,42.026295],[24.823626,42.026375],[24.823669,42.026423],[24.823695,42.02652],[24.823685,42.026623],[24.823747,42.026728],[24.823838,42.026807],[24.824172,42.026841],[24.824196,42.026901],[24.824199,42.027111],[24.824268,42.027331],[24.824235,42.027435],[24.824219,42.027636],[24.824272,42.027811],[24.82445,42.028098],[24.824806,42.028503],[24.824896,42.028664],[24.824964,42.028747],[24.824962,42.028827],[24.824939,42.02889],[24.824673,42.02897],[24.824307,42.029128],[24.824302,42.029287],[24.82433,42.029471],[24.824455,42.029626],[24.824762,42.029484],[24.825013,42.029422],[24.825106,42.02942],[24.825251,42.029247],[24.825581,42.029041],[24.825744,42.029003],[24.825901,42.029001],[24.826154,42.028861],[24.826618,42.028681],[24.826881,42.028587],[24.827008,42.028575],[24.827449,42.028335],[24.827859,42.028152],[24.828434,42.027923],[24.828612,42.027917],[24.828951,42.028065],[24.829128,42.028183],[24.829209,42.028321],[24.829239,42.028327],[24.829609,42.028185],[24.830183,42.027887],[24.830675,42.027752],[24.830482,42.027298],[24.830392,42.02715],[24.830187,42.027015],[24.829969,42.026939],[24.82921,42.026748],[24.82912,42.026733],[24.82895,42.026761],[24.828736,42.02674],[24.828583,42.026687],[24.828508,42.026624],[24.828523,42.026429],[24.828465,42.0263],[24.828354,42.026238],[24.828108,42.026332],[24.827963,42.026357],[24.827799,42.026355],[24.827622,42.026303],[24.827449,42.026197],[24.827381,42.026117],[24.827348,42.02604],[24.827348,42.025805],[24.827403,42.025518],[24.827257,42.02539],[24.827099,42.025357],[24.826891,42.025287],[24.826706,42.025186],[24.826595,42.024964],[24.826567,42.024764],[24.826564,42.024456],[24.826627,42.024157],[24.826538,42.024005],[24.826218,42.023823]]]},"properties":{"cadreg":6}},{"type":"Feature","geometry":{"type":"Polygon","coordinates":[[[24.814704,42.024101],[24.81455,42.024267],[24.814198,42.024494],[24.814203,42.024505],[24.813875,42.024637],[24.813779,42.024646],[24.813507,42.024719],[24.813449,42.02469],[24.813039,42.024698],[24.812291,42.024608],[24.812055,42.024625],[24.811748,42.024564],[24.811711,42.024578],[24.811773,42.024705],[24.812004,42.025015],[24.812217,42.025226],[24.812345,42.025445],[24.812387,42.02571],[24.812338,42.026066],[24.812299,42.026612],[24.812378,42.026727],[24.812402,42.026847],[24.812384,42.027078],[24.812395,42.027174],[24.812577,42.027357],[24.813048,42.027708],[24.813493,42.028204],[24.813506,42.028243],[24.813503,42.02881],[24.813555,42.028927],[24.813677,42.029046],[24.814253,42.029371],[24.81461,42.029597],[24.814799,42.029534],[24.814928,42.029413],[24.815055,42.029228],[24.815167,42.029023],[24.815242,42.028836],[24.815514,42.028445],[24.815712,42.028378],[24.815865,42.028369],[24.816057,42.028424],[24.81621,42.028517],[24.816407,42.028684],[24.816635,42.028841],[24.816903,42.028995],[24.817066,42.029025],[24.817219,42.029027],[24.817293,42.029015],[24.817923,42.028582],[24.817987,42.028553],[24.818064,42.028561],[24.818155,42.028631],[24.818235,42.028763],[24.818314,42.028993],[24.818647,42.029686],[24.818722,42.029994],[24.818676,42.030364],[24.818616,42.030546],[24.818927,42.030584],[24.819503,42.030784],[24.819808,42.030855],[24.820061,42.030879],[24.820487,42.030873],[24.820683,42.030838],[24.821365,42.030542],[24.82141,42.030516],[24.821389,42.030481],[24.821603,42.030342],[24.822578,42.030144],[24.822819,42.030122],[24.823353,42.030012],[24.823527,42.030002],[24.824285,42.029707],[24.824455,42.029626],[24.82433,42.029471],[24.824302,42.029287],[24.824307,42.029128],[24.824673,42.02897],[24.824939,42.02889],[24.824962,42.028827],[24.824964,42.028747],[24.824896,42.028664],[24.824806,42.028503],[24.82445,42.028098],[24.824272,42.027811],[24.824219,42.027636],[24.824235,42.027435],[24.824268,42.027331],[24.824199,42.027111],[24.824196,42.026901],[24.824172,42.026841],[24.823838,42.026807],[24.823747,42.026728],[24.823685,42.026623],[24.823695,42.02652],[24.823669,42.026423],[24.823626,42.026375],[24.823526,42.026295],[24.823156,42.026173],[24.823207,42.026038],[24.823137,42.025899],[24.822994,42.025774],[24.822827,42.025584],[24.822578,42.025361],[24.822471,42.025195],[24.822056,42.024852],[24.822092,42.024596],[24.822138,42.024451],[24.822298,42.024249],[24.822341,42.024166],[24.822205,42.02392],[24.822104,42.023816],[24.821518,42.02376],[24.821078,42.023644],[24.820474,42.023432],[24.81949,42.023183],[24.818691,42.023267],[24.818344,42.022876],[24.817562,42.022618],[24.81683,42.022461],[24.816482,42.022496],[24.815843,42.022656],[24.81564,42.022773],[24.815691,42.022971],[24.815748,42.022983],[24.815808,42.02294],[24.815855,42.022845],[24.815956,42.022717],[24.816075,42.022679],[24.816158,42.022698],[24.816201,42.022741],[24.81619,42.022812],[24.816152,42.022886],[24.815861,42.023154],[24.815595,42.023345],[24.814955,42.023708],[24.814719,42.023982],[24.814704,42.024101]]]},"properties":{"cadreg":7}},{"type":"Feature","geometry":{"type":"Polygon","coordinates":[[[24.81645,42.018218],[24.816342,42.017998],[24.816013,42.017808],[24.815819,42.017749],[24.815423,42.01767],[24.81536,42.017602],[24.815254,42.017604],[24.814907,42.017547],[24.814623,42.017476],[24.814454,42.017401],[24.814202,42.017497],[24.814158,42.017437],[24.814062,42.017379],[24.81402,42.017398],[24.814037,42.01772],[24.814114,42.018008],[24.81414,42.018249],[24.814308,42.018515],[24.814423,42.018563],[24.814897,42.019331],[24.815063,42.019923],[24.815006,42.020235],[24.814845,42.0205],[24.814733,42.020576],[24.814482,42.020672],[24.814558,42.020656],[24.814647,42.020678],[24.814685,42.020734],[24.814736,42.020947],[24.814733,42.021144],[24.814992,42.021545],[24.815114,42.021654],[24.81525,42.02182],[24.815448,42.022412],[24.81549,42.022464],[24.815488,42.022498],[24.815598,42.022567],[24.815633,42.022642],[24.81564,42.022773],[24.815843,42.022656],[24.816482,42.022496],[24.81683,42.022461],[24.817562,42.022618],[24.818344,42.022876],[24.818691,42.023267],[24.81949,42.023183],[24.820474,42.023432],[24.821078,42.023644],[24.821518,42.02376],[24.822362,42.023841],[24.823183,42.023843],[24.824315,42.023395],[24.824599,42.023437],[24.824924,42.023513],[24.825153,42.023539],[24.824958,42.023421],[24.82477,42.023241],[24.824512,42.023033],[24.824488,42.022988],[24.824251,42.022798],[24.824224,42.02267],[24.824171,42.022563],[24.824175,42.022385],[24.824037,42.022319],[24.823752,42.022217],[24.823653,42.022148],[24.823521,42.022096],[24.823263,42.021717],[24.822946,42.021467],[24.822986,42.021392],[24.822965,42.021313],[24.822911,42.021224],[24.822817,42.021192],[24.822291,42.021227],[24.822067,42.021215],[24.821861,42.02118],[24.821796,42.021119],[24.821519,42.021082],[24.821325,42.020969],[24.821175,42.020916],[24.821082,42.020842],[24.821075,42.020774],[24.820951,42.020658],[24.820801,42.020574],[24.820394,42.020466],[24.820138,42.020262],[24.820095,42.020196],[24.820144,42.020087],[24.820112,42.02007],[24.820195,42.019887],[24.819719,42.019573],[24.82024,42.018995],[24.820383,42.018945],[24.820268,42.018848],[24.819903,42.018882],[24.819672,42.019142],[24.819587,42.019037],[24.819332,42.018833],[24.81925,42.018685],[24.819193,42.018619],[24.819116,42.01857],[24.818796,42.01857],[24.817854,42.018185],[24.817806,42.018222],[24.817543,42.018158],[24.816785,42.018278],[24.81645,42.018218]]]},"properties":{"cadreg":8}},{"type":"Feature","geometry":{"type":"Polygon","coordinates":[[[24.822969,42.015701],[24.822746,42.015699],[24.822661,42.015755],[24.822474,42.01584],[24.822348,42.015934],[24.822048,42.016117],[24.821758,42.016264],[24.821632,42.016295],[24.821556,42.016258],[24.821514,42.016214],[24.821492,42.015968],[24.821002,42.01618],[24.820772,42.016492],[24.820032,42.016583],[24.820175,42.016775],[24.819714,42.017078],[24.819465,42.017179],[24.819208,42.017256],[24.818779,42.017249],[24.818448,42.017226],[24.818256,42.017252],[24.817713,42.017485],[24.817566,42.017601],[24.817339,42.017708],[24.816916,42.017831],[24.816819,42.017876],[24.816691,42.017898],[24.816375,42.017918],[24.816342,42.017998],[24.81645,42.018218],[24.816785,42.018278],[24.817543,42.018158],[24.817806,42.018222],[24.817854,42.018185],[24.818796,42.01857],[24.819116,42.01857],[24.819193,42.018619],[24.81925,42.018685],[24.819332,42.018833],[24.819587,42.019037],[24.819672,42.019142],[24.819903,42.018882],[24.820268,42.018848],[24.820383,42.018945],[24.82024,42.018995],[24.819719,42.019573],[24.820195,42.019887],[24.820112,42.02007],[24.820144,42.020087],[24.820095,42.020196],[24.820138,42.020262],[24.820337,42.020433],[24.820394,42.020466],[24.820801,42.020574],[24.821006,42.020704],[24.821075,42.020774],[24.821082,42.020842],[24.821175,42.020916],[24.821325,42.020969],[24.821519,42.021082],[24.821796,42.021119],[24.821861,42.02118],[24.822067,42.021215],[24.822291,42.021227],[24.822817,42.021192],[24.822911,42.021224],[24.822965,42.021313],[24.822986,42.021392],[24.822946,42.021467],[24.823263,42.021717],[24.823521,42.022096],[24.823653,42.022148],[24.823752,42.022217],[24.824037,42.022319],[24.824175,42.022385],[24.824171,42.022563],[24.824224,42.02267],[24.824251,42.022798],[24.824488,42.022988],[24.824512,42.023033],[24.82477,42.023241],[24.824958,42.023421],[24.825153,42.023539],[24.824924,42.023513],[24.824599,42.023437],[24.82442,42.023419],[24.826218,42.023823],[24.826004,42.02369],[24.826192,42.023122],[24.826254,42.022862],[24.826346,42.022785],[24.826491,42.02276],[24.826785,42.022797],[24.82696,42.022765],[24.827232,42.02253],[24.827505,42.022346],[24.827485,42.021845],[24.827654,42.021621],[24.827843,42.021196],[24.828185,42.021141],[24.828356,42.021128],[24.828321,42.021302],[24.828421,42.021339],[24.828604,42.021371],[24.828927,42.021367],[24.829315,42.021319],[24.829137,42.021032],[24.828956,42.020814],[24.828788,42.02072],[24.828024,42.020418],[24.827843,42.020268],[24.827892,42.020022],[24.827998,42.019808],[24.828411,42.019337],[24.827929,42.019206],[24.827506,42.01889],[24.827645,42.018615],[24.827558,42.018452],[24.827422,42.018275],[24.827145,42.018097],[24.826707,42.017494],[24.826495,42.01724],[24.826368,42.016862],[24.826244,42.016692],[24.826079,42.0166],[24.825872,42.01653],[24.826087,42.016458],[24.825947,42.015805],[24.825533,42.015274],[24.824949,42.015182],[24.824475,42.015276],[24.82316,42.015583],[24.823209,42.015685],[24.822969,42.015701]]]},"properties":{"cadreg":9}},{"type":"Feature","geometry":{"type":"Polygon","coordinates":[[[24.811949,42.013869],[24.811877,42.01393],[24.81171,42.013961],[24.811394,42.013976],[24.810448,42.01413],[24.810189,42.014202],[24.809814,42.014429],[24.809366,42.014633],[24.809094,42.014657],[24.809086,42.01479],[24.80921,42.014827],[24.809352,42.014965],[24.809465,42.01501],[24.810244,42.015763],[24.810331,42.01581],[24.810502,42.016155],[24.810632,42.016116],[24.810735,42.016131],[24.8109,42.016459],[24.810459,42.016592],[24.810303,42.016542],[24.810142,42.016845],[24.810437,42.016686],[24.810594,42.016622],[24.810678,42.016721],[24.811023,42.016497],[24.81131,42.016286],[24.811804,42.016515],[24.812363,42.016681],[24.813366,42.017076],[24.81402,42.017398],[24.814062,42.017379],[24.814158,42.017437],[24.814202,42.017497],[24.814454,42.017401],[24.814623,42.017476],[24.814907,42.017547],[24.815254,42.017604],[24.81536,42.017602],[24.815423,42.01767],[24.815819,42.017749],[24.816013,42.017808],[24.816342,42.017998],[24.816375,42.017918],[24.816691,42.017898],[24.816819,42.017876],[24.816916,42.017831],[24.817339,42.017708],[24.817566,42.017601],[24.817713,42.017485],[24.818256,42.017252],[24.818448,42.017226],[24.818779,42.017249],[24.819208,42.017256],[24.819465,42.017179],[24.819714,42.017078],[24.820175,42.016775],[24.820032,42.016583],[24.820772,42.016492],[24.821002,42.01618],[24.821492,42.015968],[24.821514,42.016214],[24.821556,42.016258],[24.821632,42.016295],[24.821758,42.016264],[24.821886,42.016208],[24.822193,42.016034],[24.822474,42.01584],[24.822661,42.015755],[24.822746,42.015699],[24.822969,42.015701],[24.823209,42.015685],[24.82316,42.015583],[24.824475,42.015276],[24.824949,42.015182],[24.825533,42.015274],[24.825947,42.015805],[24.826087,42.016458],[24.826531,42.016354],[24.826635,42.016304],[24.827501,42.016055],[24.827742,42.015951],[24.828781,42.01562],[24.829342,42.015408],[24.828497,42.014844],[24.828155,42.014552],[24.827661,42.014182],[24.827354,42.013916],[24.826997,42.013682],[24.826684,42.013551],[24.826189,42.013409],[24.825887,42.013362],[24.825471,42.013351],[24.82499,42.013425],[24.824429,42.01343],[24.823816,42.013347],[24.823267,42.013219],[24.823026,42.013126],[24.823183,42.013042],[24.823565,42.012708],[24.823938,42.012094],[24.824416,42.011103],[24.824663,42.010655],[24.824506,42.010586],[24.824306,42.01056],[24.823206,42.010504],[24.8223,42.010525],[24.821596,42.01064],[24.820934,42.010797],[24.820298,42.011086],[24.820115,42.01119],[24.819667,42.010983],[24.819333,42.010778],[24.818652,42.010443],[24.818339,42.01032],[24.818127,42.010267],[24.818004,42.010446],[24.817866,42.010609],[24.817623,42.010789],[24.817162,42.011048],[24.816544,42.011537],[24.816384,42.01163],[24.81619,42.0117],[24.816124,42.011823],[24.816003,42.011963],[24.815868,42.012058],[24.815445,42.012252],[24.815226,42.012417],[24.814677,42.012765],[24.814282,42.012899],[24.814172,42.012984],[24.813705,42.013266],[24.813467,42.013388],[24.813122,42.013527],[24.812882,42.013608],[24.812636,42.013663],[24.812076,42.013688],[24.812039,42.01367],[24.811992,42.013698],[24.811949,42.013869]]]},"properties":{"cadreg":10}},{"type":"Feature","geometry":{"type":"Polygon","coordinates":[[[24.807448,42.002916],[24.80666,42.003425],[24.806663,42.003453],[24.806903,42.003528],[24.807068,42.00361],[24.807521,42.003911],[24.808017,42.004153],[24.808663,42.004321],[24.808895,42.004358],[24.809189,42.00439],[24.809484,42.004394],[24.809771,42.004432],[24.809973,42.004488],[24.810572,42.004705],[24.810633,42.004714],[24.81082,42.004868],[24.810762,42.004972],[24.810602,42.005157],[24.810338,42.005343],[24.809991,42.00556],[24.809788,42.005584],[24.80953,42.005667],[24.808664,42.006466],[24.807692,42.007038],[24.80742,42.007275],[24.807209,42.007389],[24.806676,42.007507],[24.806311,42.00753],[24.805931,42.007468],[24.80602,42.007851],[24.805989,42.007928],[24.805928,42.007952],[24.805862,42.008006],[24.805778,42.008148],[24.805786,42.008196],[24.805841,42.008284],[24.805803,42.008326],[24.805802,42.008386],[24.80596,42.008548],[24.806047,42.008661],[24.806113,42.008784],[24.806091,42.008969],[24.805769,42.009332],[24.805534,42.009452],[24.80545,42.009531],[24.805328,42.009727],[24.805247,42.009779],[24.805164,42.009789],[24.804992,42.00977],[24.804945,42.009846],[24.804943,42.009943],[24.804758,42.010025],[24.804717,42.010078],[24.804744,42.010156],[24.804614,42.010383],[24.804647,42.010454],[24.804727,42.010459],[24.804996,42.010429],[24.805088,42.010445],[24.805148,42.010472],[24.805173,42.010512],[24.805111,42.010573],[24.805002,42.010628],[24.804545,42.010795],[24.804487,42.010909],[24.804553,42.011059],[24.804596,42.011265],[24.804576,42.01144],[24.804617,42.011559],[24.804778,42.011712],[24.805079,42.011907],[24.805138,42.012093],[24.805302,42.012312],[24.805317,42.012392],[24.805524,42.012616],[24.805624,42.012772],[24.805671,42.012895],[24.805709,42.013119],[24.805702,42.013356],[24.80573,42.013612],[24.805922,42.013703],[24.805973,42.013743],[24.806003,42.013825],[24.806107,42.013991],[24.806345,42.014147],[24.806591,42.014253],[24.806786,42.014299],[24.807107,42.014337],[24.807284,42.014338],[24.807398,42.014322],[24.80764,42.014348],[24.807843,42.014734],[24.80798,42.014818],[24.80802,42.015002],[24.808093,42.014982],[24.808718,42.015111],[24.808837,42.015148],[24.808995,42.014838],[24.809352,42.014965],[24.80921,42.014827],[24.809086,42.01479],[24.809094,42.014657],[24.809366,42.014633],[24.809554,42.014556],[24.809814,42.014429],[24.810189,42.014202],[24.810671,42.014085],[24.811394,42.013976],[24.81171,42.013961],[24.811877,42.01393],[24.811949,42.013869],[24.811992,42.013698],[24.812039,42.01367],[24.812076,42.013688],[24.812636,42.013663],[24.812882,42.013608],[24.813467,42.013388],[24.813961,42.013114],[24.814282,42.012899],[24.814677,42.012765],[24.815226,42.012417],[24.815445,42.012252],[24.815868,42.012058],[24.816003,42.011963],[24.816124,42.011823],[24.81619,42.0117],[24.816384,42.01163],[24.816544,42.011537],[24.817162,42.011048],[24.817623,42.010789],[24.817866,42.010609],[24.818004,42.010446],[24.818127,42.010267],[24.818288,42.009855],[24.818356,42.009597],[24.81846,42.009397],[24.818712,42.009046],[24.81889,42.008955],[24.819257,42.008822],[24.819349,42.008753],[24.81967,42.008623],[24.81984,42.008482],[24.819839,42.008271],[24.819667,42.008164],[24.819405,42.007675],[24.819541,42.007356],[24.819773,42.007044],[24.819936,42.006871],[24.820129,42.006753],[24.820544,42.006163],[24.820717,42.005401],[24.820099,42.004539],[24.820036,42.004564],[24.81988,42.004674],[24.81957,42.00494],[24.819366,42.004985],[24.818384,42.004811],[24.818184,42.004792],[24.817971,42.004842],[24.817845,42.004849],[24.817586,42.004808],[24.817052,42.004796],[24.816808,42.004759],[24.816557,42.004691],[24.816417,42.004611],[24.816383,42.004536],[24.816334,42.004346],[24.8163,42.004057],[24.816236,42.003924],[24.815805,42.003487],[24.815467,42.003388],[24.815242,42.003348],[24.81422,42.003282],[24.814073,42.003232],[24.813868,42.003128],[24.813459,42.002963],[24.813317,42.002851],[24.81325,42.002769],[24.813217,42.002651],[24.812949,42.002136],[24.812807,42.001944],[24.812619,42.001758],[24.812125,42.001855],[24.811771,42.001961],[24.810985,42.002275],[24.810688,42.002359],[24.809794,42.002739],[24.809662,42.002749],[24.809693,42.002595],[24.809696,42.002453],[24.809626,42.002468],[24.809428,42.002563],[24.809146,42.002661],[24.808417,42.002435],[24.808181,42.002516],[24.807916,42.002465],[24.807733,42.002502],[24.807617,42.002639],[24.807564,42.002817],[24.807448,42.002916]]]},"properties":{"cadreg":11}},{"type":"Feature","geometry":{"type":"Polygon","coordinates":[[[24.798775,42.012415],[24.799019,42.012559],[24.799071,42.012542],[24.79913,42.012491],[24.799206,42.012551],[24.799262,42.012672],[24.799377,42.012791],[24.799737,42.012927],[24.800081,42.013122],[24.800242,42.013104],[24.800794,42.012904],[24.801082,42.012515],[24.801088,42.012468],[24.801063,42.012422],[24.801268,42.012192],[24.801525,42.012066],[24.801572,42.012012],[24.801654,42.011806],[24.801739,42.011685],[24.801834,42.011589],[24.802171,42.011576],[24.802245,42.011565],[24.802308,42.011523],[24.802411,42.011505],[24.802501,42.011512],[24.802564,42.011564],[24.802672,42.011775],[24.802866,42.01198],[24.802984,42.012031],[24.803092,42.012029],[24.80321,42.012091],[24.803398,42.012126],[24.803509,42.012275],[24.803501,42.012237],[24.803542,42.012188],[24.803849,42.012095],[24.803968,42.012083],[24.804128,42.012091],[24.80472,42.011984],[24.804858,42.011995],[24.805138,42.012093],[24.805079,42.011907],[24.804778,42.011712],[24.804617,42.011559],[24.804576,42.01144],[24.804596,42.011265],[24.804553,42.011059],[24.804487,42.010909],[24.804545,42.010795],[24.805002,42.010628],[24.805111,42.010573],[24.805173,42.010512],[24.805148,42.010472],[24.805088,42.010445],[24.804996,42.010429],[24.804727,42.010459],[24.804647,42.010454],[24.804614,42.010383],[24.804744,42.010156],[24.804717,42.010078],[24.804758,42.010025],[24.804943,42.009943],[24.804945,42.009846],[24.804992,42.00977],[24.805164,42.009789],[24.805247,42.009779],[24.805328,42.009727],[24.80545,42.009531],[24.805534,42.009452],[24.805769,42.009332],[24.806091,42.008969],[24.806113,42.008784],[24.806047,42.008661],[24.80596,42.008548],[24.805802,42.008386],[24.805803,42.008326],[24.805841,42.008284],[24.805786,42.008196],[24.805778,42.008148],[24.805862,42.008006],[24.805928,42.007952],[24.805989,42.007928],[24.80602,42.007851],[24.805978,42.00762],[24.805917,42.007426],[24.806005,42.007243],[24.805951,42.007164],[24.805921,42.007006],[24.805808,42.006932],[24.805613,42.006716],[24.805508,42.006499],[24.805492,42.006374],[24.80553,42.006243],[24.80544,42.006226],[24.805263,42.006151],[24.804988,42.006096],[24.804892,42.00605],[24.804744,42.005874],[24.804681,42.005742],[24.804677,42.005606],[24.804696,42.005459],[24.804744,42.005305],[24.80461,42.005268],[24.804526,42.005208],[24.80452,42.005134],[24.804604,42.005068],[24.804736,42.005004],[24.804537,42.004867],[24.804505,42.00459],[24.804445,42.004461],[24.804283,42.004374],[24.804036,42.004159],[24.803752,42.00428],[24.803469,42.00446],[24.803141,42.00463],[24.802454,42.004905],[24.802077,42.005036],[24.801809,42.005078],[24.800664,42.005111],[24.80054,42.005159],[24.800394,42.005288],[24.800327,42.00551],[24.800324,42.005698],[24.800415,42.005836],[24.800435,42.005983],[24.800367,42.006121],[24.800184,42.006354],[24.800162,42.006511],[24.80021,42.006652],[24.800311,42.006836],[24.800384,42.007019],[24.800388,42.007111],[24.800133,42.007464],[24.799258,42.008183],[24.798971,42.008347],[24.798849,42.008377],[24.798839,42.008507],[24.798777,42.008601],[24.798626,42.008679],[24.798599,42.008872],[24.798433,42.009048],[24.798324,42.009197],[24.798167,42.009255],[24.798081,42.00935],[24.797477,42.009465],[24.7968,42.009693],[24.796352,42.009886],[24.796168,42.009983],[24.796057,42.010151],[24.795902,42.010217],[24.795826,42.010313],[24.795801,42.010392],[24.795703,42.010504],[24.795509,42.010666],[24.795442,42.010872],[24.79575,42.010907],[24.795915,42.010947],[24.796042,42.011003],[24.796137,42.01109],[24.796178,42.011289],[24.796153,42.011476],[24.796202,42.011536],[24.796659,42.011627],[24.796909,42.011698],[24.797258,42.011826],[24.797691,42.012043],[24.798264,42.012183],[24.798582,42.012354],[24.798775,42.012415]]]},"properties":{"cadreg":12}},{"type":"Feature","geometry":{"type":"Polygon","coordinates":[[[24.796202,42.011536],[24.79744,42.013067],[24.797455,42.014388],[24.797491,42.015376],[24.79878,42.016001],[24.798891,42.015873],[24.799387,42.016015],[24.799701,42.016029],[24.800029,42.016119],[24.800662,42.016346],[24.800893,42.016402],[24.801149,42.016524],[24.801171,42.016612],[24.801112,42.016668],[24.801124,42.016694],[24.801069,42.016698],[24.801141,42.016984],[24.801369,42.016991],[24.801438,42.017333],[24.801141,42.01729],[24.801218,42.021698],[24.801465,42.021668],[24.80172,42.021587],[24.802211,42.021353],[24.802416,42.021226],[24.802609,42.021076],[24.802767,42.020861],[24.802897,42.020621],[24.803075,42.020373],[24.803246,42.020068],[24.803821,42.019518],[24.803943,42.019304],[24.804014,42.019232],[24.804411,42.019378],[24.804641,42.019496],[24.804718,42.019464],[24.805339,42.019551],[24.805394,42.01961],[24.805598,42.019604],[24.805769,42.019542],[24.805889,42.019479],[24.80613,42.019263],[24.806324,42.019161],[24.806325,42.019138],[24.806216,42.019072],[24.806062,42.018895],[24.805977,42.018871],[24.805927,42.018882],[24.805803,42.018803],[24.80574,42.01867],[24.805639,42.018206],[24.805504,42.017971],[24.805437,42.01797],[24.805327,42.017826],[24.805336,42.017738],[24.80527,42.017505],[24.805103,42.017271],[24.804621,42.017086],[24.804485,42.017015],[24.804346,42.016733],[24.804288,42.016712],[24.803902,42.016746],[24.803863,42.016574],[24.803867,42.016416],[24.803912,42.016272],[24.804124,42.016202],[24.804277,42.016206],[24.804268,42.016088],[24.804207,42.015983],[24.804265,42.015638],[24.804537,42.015643],[24.80445,42.016086],[24.804517,42.016189],[24.804627,42.016307],[24.804866,42.016529],[24.80488,42.016591],[24.804999,42.016648],[24.805079,42.016782],[24.805431,42.016091],[24.805223,42.016028],[24.805139,42.015618],[24.805058,42.014874],[24.80508,42.014401],[24.805222,42.014265],[24.805092,42.014192],[24.805242,42.013983],[24.805068,42.013959],[24.805129,42.013717],[24.80538,42.013725],[24.805555,42.013695],[24.805648,42.013865],[24.805796,42.013816],[24.806031,42.014164],[24.806739,42.014413],[24.807284,42.014338],[24.80695,42.014326],[24.806591,42.014253],[24.806345,42.014147],[24.806107,42.013991],[24.806003,42.013825],[24.805973,42.013743],[24.805922,42.013703],[24.80573,42.013612],[24.805702,42.013356],[24.805709,42.013119],[24.805671,42.012895],[24.805624,42.012772],[24.805524,42.012616],[24.805317,42.012392],[24.805302,42.012312],[24.805138,42.012093],[24.804858,42.011995],[24.80472,42.011984],[24.804128,42.012091],[24.803968,42.012083],[24.803849,42.012095],[24.803542,42.012188],[24.803501,42.012237],[24.803509,42.012275],[24.803398,42.012126],[24.80321,42.012091],[24.803092,42.012029],[24.802984,42.012031],[24.802866,42.01198],[24.802672,42.011775],[24.802564,42.011564],[24.802501,42.011512],[24.802411,42.011505],[24.802308,42.011523],[24.802245,42.011565],[24.802171,42.011576],[24.801834,42.011589],[24.801739,42.011685],[24.801654,42.011806],[24.801572,42.012012],[24.801525,42.012066],[24.801268,42.012192],[24.801063,42.012422],[24.801088,42.012468],[24.801082,42.012515],[24.800794,42.012904],[24.800242,42.013104],[24.800081,42.013122],[24.799737,42.012927],[24.799377,42.012791],[24.799262,42.012672],[24.799206,42.012551],[24.79913,42.012491],[24.799071,42.012542],[24.799019,42.012559],[24.798775,42.012415],[24.798582,42.012354],[24.798264,42.012183],[24.797691,42.012043],[24.797258,42.011826],[24.796909,42.011698],[24.796659,42.011627],[24.796202,42.011536]]]},"properties":{"cadreg":13}},{"type":"Feature","geometry":{"type":"Polygon","coordinates":[[[24.807683,42.017941],[24.807037,42.017288],[24.806815,42.016991],[24.806771,42.016778],[24.806432,42.017361],[24.805715,42.017143],[24.805686,42.017189],[24.805089,42.017018],[24.80493,42.017092],[24.805103,42.017271],[24.80527,42.017505],[24.805336,42.017738],[24.805327,42.017826],[24.805437,42.01797],[24.805504,42.017971],[24.805639,42.018206],[24.80574,42.01867],[24.805803,42.018803],[24.805927,42.018882],[24.805977,42.018871],[24.806062,42.018895],[24.806216,42.019072],[24.806325,42.019138],[24.806324,42.019161],[24.80613,42.019263],[24.805889,42.019479],[24.805769,42.019542],[24.805598,42.019604],[24.805394,42.01961],[24.805339,42.019551],[24.804718,42.019464],[24.804641,42.019496],[24.804411,42.019378],[24.804014,42.019232],[24.803943,42.019304],[24.803821,42.019518],[24.803246,42.020068],[24.803075,42.020373],[24.802897,42.020621],[24.802767,42.020861],[24.802609,42.021076],[24.802416,42.021226],[24.802211,42.021353],[24.801954,42.021482],[24.80172,42.021587],[24.801465,42.021668],[24.801218,42.021698],[24.801228,42.022268],[24.801816,42.02424],[24.80133,42.024791],[24.801009,42.025267],[24.8009,42.025823],[24.800897,42.026032],[24.800968,42.026212],[24.801098,42.026339],[24.801259,42.026466],[24.801473,42.026554],[24.801632,42.026519],[24.802211,42.026341],[24.802282,42.02634],[24.802398,42.026382],[24.80263,42.026496],[24.80266,42.02655],[24.802862,42.026622],[24.803902,42.026617],[24.807391,42.025869],[24.808498,42.025078],[24.808581,42.025086],[24.80876,42.025064],[24.809076,42.025003],[24.809149,42.024955],[24.809163,42.024796],[24.80919,42.024743],[24.809511,42.024532],[24.809686,42.024376],[24.811078,42.024006],[24.811567,42.024284],[24.811711,42.024578],[24.811748,42.024564],[24.812055,42.024625],[24.812291,42.024608],[24.813039,42.024698],[24.813449,42.02469],[24.813507,42.024719],[24.813779,42.024646],[24.813875,42.024637],[24.814203,42.024505],[24.814198,42.024494],[24.81455,42.024267],[24.814715,42.02409],[24.814706,42.024009],[24.814719,42.023982],[24.814955,42.023708],[24.815445,42.023435],[24.815715,42.023266],[24.816014,42.023021],[24.816152,42.022886],[24.81619,42.022812],[24.816201,42.022741],[24.816158,42.022698],[24.816075,42.022679],[24.815956,42.022717],[24.815855,42.022845],[24.815808,42.02294],[24.815748,42.022983],[24.815691,42.022971],[24.815636,42.022747],[24.815633,42.022642],[24.815598,42.022567],[24.815488,42.022498],[24.81549,42.022464],[24.815448,42.022412],[24.81525,42.02182],[24.815189,42.021738],[24.814856,42.021822],[24.81485,42.02199],[24.814787,42.022122],[24.814532,42.022018],[24.814393,42.022192],[24.81439,42.022307],[24.814456,42.022384],[24.814381,42.022459],[24.814172,42.022527],[24.814029,42.022511],[24.81376,42.022397],[24.813777,42.022508],[24.813557,42.022702],[24.81303,42.022503],[24.812943,42.022577],[24.812787,42.02263],[24.811976,42.022278],[24.811944,42.022286],[24.811845,42.022253],[24.811693,42.022275],[24.811207,42.022239],[24.811181,42.022264],[24.810558,42.022292],[24.810416,42.022107],[24.810443,42.022035],[24.810607,42.021912],[24.810762,42.021646],[24.811089,42.021307],[24.811102,42.021274],[24.811029,42.020737],[24.810835,42.020582],[24.810875,42.020524],[24.810719,42.020246],[24.810827,42.020073],[24.810944,42.020076],[24.811118,42.019986],[24.811123,42.019933],[24.810891,42.019774],[24.810585,42.019504],[24.810516,42.019404],[24.810523,42.019319],[24.810444,42.01913],[24.810337,42.018983],[24.810256,42.018893],[24.809761,42.018536],[24.809696,42.018342],[24.809391,42.017989],[24.809143,42.018201],[24.808696,42.017903],[24.808088,42.017677],[24.807801,42.01789],[24.807683,42.017941]]]},"properties":{"cadreg":14}},{"type":"Feature","geometry":{"type":"Polygon","coordinates":[[[24.799701,42.016029],[24.799387,42.016015],[24.798891,42.015873],[24.79878,42.016001],[24.801139,42.017144],[24.801141,42.01729],[24.801438,42.017333],[24.801369,42.016991],[24.801141,42.016984],[24.801069,42.016698],[24.801124,42.016694],[24.801112,42.016668],[24.801171,42.016612],[24.801149,42.016524],[24.800893,42.016402],[24.800662,42.016346],[24.800029,42.016119],[24.799701,42.016029]]]},"properties":{"cadreg":16}},{"type":"Feature","geometry":{"type":"Polygon","coordinates":[[[24.804265,42.015638],[24.804207,42.015983],[24.804268,42.016088],[24.804277,42.016206],[24.804124,42.016202],[24.803912,42.016272],[24.80386,42.016453],[24.803876,42.016678],[24.803902,42.016746],[24.804288,42.016712],[24.804346,42.016733],[24.804485,42.017015],[24.804621,42.017086],[24.805103,42.017271],[24.80493,42.017092],[24.805189,42.016967],[24.804999,42.016648],[24.80488,42.016591],[24.804866,42.016529],[24.804627,42.016307],[24.804517,42.016189],[24.80445,42.016086],[24.804537,42.015643],[24.804265,42.015638]]]},"properties":{"cadreg":17}}]}