{"type":"FeatureCollection","features":[{"type":"Feature","geometry":{"type":"Polygon","coordinates":[[[24.810124,42.017452],[24.810049,42.017474],[24.810068,42.017506],[24.810137,42.017486],[24.810142,42.017498],[24.810194,42.017475],[24.810179,42.017433],[24.810121,42.017447],[24.810124,42.017452]]]},"properties":{"num":1}},{"type":"Feature","geometry":{"type":"Polygon","coordinates":[[[24.812358,42.02015],[24.812445,42.020353],[24.81245,42.020352],[24.812493,42.020287],[24.812458,42.020277],[24.812499,42.02023],[24.8125,42.020211],[24.81247,42.020147],[24.812485,42.020143],[24.812474,42.02012],[24.812459,42.020124],[24.81245,42.020104],[24.812487,42.020055],[24.812415,42.020033],[24.81238,42.020079],[24.812344,42.020089],[24.812369,42.020148],[24.812358,42.02015]]]},"properties":{"num":1}},{"type":"Feature","geometry":{"type":"Polygon","coordinates":[[[24.812845,42.019841],[24.812913,42.019749],[24.81271,42.019674],[24.812648,42.019768],[24.812845,42.019841]]]},"properties":{"num":2}},{"type":"Feature","geometry":{"type":"Polygon","coordinates":[[[24.812011,42.019796],[24.812288,42.019894],[24.81237,42.019766],[24.812093,42.019667],[24.812011,42.019796]]]},"properties":{"num":3}},{"type":"Feature","geometry":{"type":"Polygon","coordinates":[[[24.81237,42.019766],[24.812463,42.019619],[24.812105,42.019492],[24.811976,42.019694],[24.812057,42.019723],[24.812093,42.019667],[24.81237,42.019766]]]},"properties":{"num":4}},{"type":"Feature","geometry":{"type":"Polygon","coordinates":[[[24.812026,42.019617],[24.812126,42.01946],[24.811866,42.019376],[24.811597,42.01928],[24.811375,42.019625],[24.811511,42.019674],[24.811637,42.019479],[24.812026,42.019617]]]},"properties":{"num":5}},{"type":"Feature","geometry":{"type":"Polygon","coordinates":[[[24.8109,42.019335],[24.810997,42.019567],[24.811107,42.019535],[24.81109,42.019503],[24.811124,42.019493],[24.811036,42.019296],[24.8109,42.019335]]]},"properties":{"num":6}},{"type":"Feature","geometry":{"type":"Polygon","coordinates":[[[24.826434,42.036586],[24.826613,42.036218],[24.826746,42.036252],[24.826784,42.036172],[24.826701,42.036151],[24.826712,42.036126],[24.826664,42.036113],[24.826672,42.036095],[24.826538,42.036059],[24.826295,42.03655],[24.826434,42.036586]]]},"properties":{"num":1}},{"type":"Feature","geometry":{"type":"Polygon","coordinates":[[[24.827398,42.036336],[24.827121,42.036257],[24.827044,42.036412],[24.827322,42.036492],[24.827398,42.036336]]]},"properties":{"num":2}},{"type":"Feature","geometry":{"type":"Polygon","coordinates":[[[24.827325,42.036687],[24.827258,42.036667],[24.827232,42.036718],[24.8273,42.036737],[24.827325,42.036687]]]},"properties":{"num":3}},{"type":"Feature","geometry":{"type":"Polygon","coordinates":[[[24.827191,42.036711],[24.827242,42.036607],[24.827128,42.036577],[24.827104,42.036627],[24.827032,42.036606],[24.827005,42.036661],[24.827191,42.036711]]]},"properties":{"num":4}},{"type":"Feature","geometry":{"type":"Polygon","coordinates":[[[24.826859,42.036615],[24.826701,42.036573],[24.826674,42.036627],[24.826831,42.036671],[24.826859,42.036615]]]},"properties":{"num":5}},{"type":"Feature","geometry":{"type":"Polygon","coordinates":[[[24.828578,42.036073],[24.828488,42.035741],[24.827488,42.035893],[24.827579,42.036224],[24.828578,42.036073]]]},"properties":{"num":1}},{"type":"Feature","geometry":{"type":"Polygon","coordinates":[[[24.827482,42.036217],[24.827421,42.03619],[24.827399,42.036216],[24.82746,42.036244],[24.827482,42.036217]]]},"properties":{"num":2}},{"type":"Feature","geometry":{"type":"Polygon","coordinates":[[[24.814158,42.024832],[24.814117,42.024785],[24.814045,42.02482],[24.814086,42.024867],[24.814158,42.024832]]]},"properties":{"num":1}},{"type":"Feature","geometry":{"type":"Polygon","coordinates":[[[24.815887,42.019994],[24.815717,42.019869],[24.815635,42.01993],[24.815805,42.020055],[24.815887,42.019994]]]},"properties":{"num":1}},{"type":"Feature","geometry":{"type":"Polygon","coordinates":[[[24.823528,42.015687],[24.823506,42.015575],[24.823374,42.015591],[24.823397,42.015701],[24.823528,42.015687]]]},"properties":{"num":1}},{"type":"Feature","geometry":{"type":"Polygon","coordinates":[[[24.823394,42.015686],[24.823386,42.01565],[24.823221,42.015678],[24.823255,42.015718],[24.823311,42.015716],[24.82331,42.015704],[24.82336,42.015698],[24.823394,42.015686]]]},"properties":{"num":2}},{"type":"Feature","geometry":{"type":"Polygon","coordinates":[[[24.806917,42.020668],[24.806874,42.020578],[24.806666,42.020635],[24.806709,42.020725],[24.806917,42.020668]]]},"properties":{"num":1}},{"type":"Feature","geometry":{"type":"Polygon","coordinates":[[[24.807304,42.020048],[24.807497,42.02011],[24.807541,42.020035],[24.807427,42.019999],[24.807491,42.019892],[24.80739,42.019861],[24.807325,42.019969],[24.807347,42.019976],[24.807304,42.020048]]]},"properties":{"num":1}},{"type":"Feature","geometry":{"type":"Polygon","coordinates":[[[24.808171,42.019153],[24.808249,42.019135],[24.80823,42.019086],[24.808238,42.019085],[24.808257,42.019039],[24.80821,42.019028],[24.808171,42.019153]]]},"properties":{"num":1}},{"type":"Feature","geometry":{"type":"Polygon","coordinates":[[[24.80819,42.019187],[24.808236,42.019172],[24.80822,42.019143],[24.808171,42.019153],[24.80819,42.019187]]]},"properties":{"num":2}},{"type":"Feature","geometry":{"type":"Polygon","coordinates":[[[24.808364,42.019391],[24.808236,42.019172],[24.80819,42.019187],[24.808316,42.019407],[24.808364,42.019391]]]},"properties":{"num":3}},{"type":"Feature","geometry":{"type":"Polygon","coordinates":[[[24.808549,42.019982],[24.808546,42.019915],[24.80841,42.019916],[24.808411,42.019981],[24.808394,42.019981],[24.808395,42.020004],[24.808472,42.020003],[24.80847,42.019983],[24.808549,42.019982]]]},"properties":{"num":1}},{"type":"Feature","geometry":{"type":"Polygon","coordinates":[[[24.810499,42.020959],[24.810543,42.020953],[24.810544,42.020958],[24.810634,42.020946],[24.810609,42.020837],[24.810591,42.02084],[24.810579,42.020783],[24.810498,42.020741],[24.810505,42.020734],[24.810472,42.020716],[24.810425,42.020767],[24.810432,42.020771],[24.810406,42.020799],[24.810459,42.020827],[24.810465,42.020854],[24.810475,42.020852],[24.810485,42.020894],[24.810429,42.020901],[24.810406,42.020926],[24.810382,42.020913],[24.810331,42.020967],[24.810453,42.021027],[24.810502,42.020972],[24.810499,42.020959]]]},"properties":{"num":1}},{"type":"Feature","geometry":{"type":"Polygon","coordinates":[[[24.808217,42.01903],[24.808231,42.019005],[24.808229,42.018997],[24.808198,42.018987],[24.808192,42.019025],[24.808217,42.01903]]]},"properties":{"num":1}},{"type":"Feature","geometry":{"type":"Polygon","coordinates":[[[24.81451,42.022178],[24.814478,42.022222],[24.814567,42.022259],[24.814579,42.022242],[24.814587,42.022245],[24.81459,42.022242],[24.814582,42.022239],[24.814664,42.022125],[24.814575,42.022089],[24.814551,42.022121],[24.814511,42.022105],[24.81447,42.022162],[24.81451,42.022178]]]},"properties":{"num":1}},{"type":"Feature","geometry":{"type":"Polygon","coordinates":[[[24.808689,42.021935],[24.808637,42.021926],[24.808636,42.021931],[24.808618,42.021927],[24.808619,42.021923],[24.808568,42.021914],[24.808545,42.021984],[24.808695,42.022011],[24.80871,42.021967],[24.80868,42.021962],[24.808689,42.021935]]]},"properties":{"num":1}},{"type":"Feature","geometry":{"type":"Polygon","coordinates":[[[24.813527,42.023069],[24.813619,42.02297],[24.813534,42.022926],[24.813439,42.023029],[24.813528,42.023075],[24.813531,42.023072],[24.813527,42.023069]]]},"properties":{"num":1}},{"type":"Feature","geometry":{"type":"Polygon","coordinates":[[[24.81376,42.022971],[24.813734,42.022953],[24.813832,42.022873],[24.813841,42.022879],[24.813876,42.02285],[24.813892,42.022861],[24.813895,42.022859],[24.813784,42.022784],[24.81378,42.022787],[24.813789,42.022793],[24.813657,42.022902],[24.813648,42.022896],[24.813645,42.022899],[24.813756,42.022973],[24.81376,42.022971]]]},"properties":{"num":1}},{"type":"Feature","geometry":{"type":"Polygon","coordinates":[[[24.808482,42.019004],[24.808447,42.018918],[24.808402,42.018928],[24.808436,42.019014],[24.808482,42.019004]]]},"properties":{"num":1}}]}