{"type":"FeatureCollection","features":[{"type":"Feature","geometry":{"type":"Polygon","coordinates":[[[24.932024,42.138369],[24.935704,42.138506],[24.935851,42.136676],[24.935185,42.136639],[24.935318,42.135237],[24.935306,42.135191],[24.93692,42.135376],[24.936934,42.135303],[24.9371,42.135318],[24.93728,42.135429],[24.93746,42.135475],[24.939748,42.135775],[24.940106,42.135775],[24.940144,42.136367],[24.940082,42.136844],[24.941782,42.13694],[24.941821,42.136517],[24.941488,42.136503],[24.941525,42.136174],[24.942133,42.136206],[24.943331,42.1363],[24.943335,42.136277],[24.944657,42.136245],[24.944603,42.135905],[24.945285,42.135815],[24.945523,42.135701],[24.94561,42.13548],[24.945574,42.13522],[24.946016,42.135189],[24.945967,42.13472],[24.947851,42.134608],[24.947774,42.134084],[24.947242,42.133313],[24.947069,42.131627],[24.946835,42.131647],[24.944699,42.131566],[24.941058,42.131493],[24.940993,42.131447],[24.939055,42.131394],[24.939038,42.131367],[24.938556,42.131309],[24.938559,42.131299],[24.937168,42.131088],[24.936141,42.130824],[24.933716,42.130237],[24.933687,42.130302],[24.93177,42.12984],[24.93175,42.129879],[24.931556,42.129826],[24.931379,42.129798],[24.931388,42.129854],[24.931293,42.130332],[24.931046,42.130317],[24.930859,42.131187],[24.93042,42.132656],[24.930557,42.132656],[24.930565,42.1328],[24.93048,42.133295],[24.930234,42.133292],[24.929808,42.1355],[24.928504,42.138086],[24.929119,42.138337],[24.929261,42.138446],[24.929469,42.138511],[24.930105,42.138431],[24.932024,42.138369]]]},"properties":{"cadreg":501}},{"type":"Feature","geometry":{"type":"Polygon","coordinates":[[[24.941557,42.12791],[24.939599,42.12749],[24.939567,42.127569],[24.938708,42.127506],[24.938667,42.127642],[24.938382,42.127596],[24.938373,42.127626],[24.938111,42.127584],[24.937887,42.128319],[24.937937,42.128326],[24.937159,42.130748],[24.937256,42.130764],[24.937266,42.130735],[24.938602,42.13097],[24.940143,42.13114],[24.940188,42.131157],[24.940251,42.131215],[24.940296,42.13122],[24.940378,42.131197],[24.944226,42.131361],[24.946834,42.13144],[24.946916,42.131453],[24.946946,42.131472],[24.947062,42.131478],[24.947132,42.129258],[24.945254,42.129194],[24.943898,42.128899],[24.94283,42.12852],[24.941557,42.12791]]]},"properties":{"cadreg":600}},{"type":"Feature","geometry":{"type":"Polygon","coordinates":[[[24.892073,42.142693],[24.911038,42.1459],[24.911412,42.144796],[24.894089,42.141575],[24.892527,42.141307],[24.892073,42.142693]]]},"properties":{"cadreg":1}},{"type":"Feature","geometry":{"type":"Polygon","coordinates":[[[24.8938,42.137627],[24.892527,42.141307],[24.894089,42.141575],[24.911412,42.144796],[24.912854,42.141162],[24.912642,42.141126],[24.91267,42.140938],[24.902636,42.139066],[24.893886,42.137467],[24.8938,42.137627]]]},"properties":{"cadreg":2}},{"type":"Feature","geometry":{"type":"Polygon","coordinates":[[[24.909171,42.138324],[24.894665,42.135644],[24.89408,42.137446],[24.894033,42.137437],[24.894016,42.13749],[24.902636,42.139066],[24.91267,42.140938],[24.912578,42.140866],[24.912443,42.14084],[24.910214,42.139111],[24.909171,42.138324]]]},"properties":{"cadreg":3}},{"type":"Feature","geometry":{"type":"Polygon","coordinates":[[[24.895424,42.133307],[24.895461,42.132947],[24.894976,42.131397],[24.894846,42.131359],[24.895366,42.132928],[24.893886,42.137467],[24.894016,42.13749],[24.894033,42.137437],[24.89408,42.137446],[24.894665,42.135644],[24.909171,42.138324],[24.905798,42.135767],[24.895258,42.133819],[24.895424,42.133307]]]},"properties":{"cadreg":4}},{"type":"Feature","geometry":{"type":"Polygon","coordinates":[[[24.895424,42.133307],[24.895258,42.133819],[24.905798,42.135767],[24.905283,42.135375],[24.905404,42.135288],[24.902981,42.133457],[24.898449,42.132283],[24.895408,42.13148],[24.894814,42.131261],[24.894846,42.131359],[24.894976,42.131397],[24.895461,42.132947],[24.895424,42.133307]]]},"properties":{"cadreg":5}},{"type":"Feature","geometry":{"type":"Polygon","coordinates":[[[24.908397,42.132766],[24.905283,42.135375],[24.910214,42.139111],[24.912443,42.14084],[24.912578,42.140866],[24.91267,42.140938],[24.912897,42.140854],[24.913023,42.140866],[24.913085,42.140515],[24.912988,42.140504],[24.913147,42.139938],[24.913178,42.139568],[24.912998,42.139556],[24.913002,42.13944],[24.906568,42.134495],[24.9066,42.134468],[24.90655,42.134429],[24.908426,42.132857],[24.908397,42.132766]]]},"properties":{"cadreg":6}},{"type":"Feature","geometry":{"type":"Polygon","coordinates":[[[24.908426,42.132857],[24.90738,42.133734],[24.913206,42.138221],[24.913553,42.136149],[24.908426,42.132857]]]},"properties":{"cadreg":7}},{"type":"Feature","geometry":{"type":"Polygon","coordinates":[[[24.911965,42.130692],[24.911887,42.130642],[24.911871,42.130661],[24.911304,42.130376],[24.909803,42.131584],[24.908397,42.132766],[24.908426,42.132857],[24.913617,42.13619],[24.913737,42.136201],[24.913885,42.136256],[24.91437,42.13184],[24.914342,42.131752],[24.91396,42.131815],[24.912059,42.130641],[24.91201,42.130646],[24.911965,42.130692]]]},"properties":{"cadreg":8}},{"type":"Feature","geometry":{"type":"Polygon","coordinates":[[[24.912024,42.143809],[24.911454,42.14523],[24.934677,42.148787],[24.93487,42.148048],[24.934208,42.147961],[24.934222,42.147908],[24.934783,42.147982],[24.934861,42.147684],[24.912024,42.143809]]]},"properties":{"cadreg":9}},{"type":"Feature","geometry":{"type":"Polygon","coordinates":[[[24.912024,42.143809],[24.923187,42.145704],[24.923548,42.144357],[24.912555,42.142491],[24.9131,42.141205],[24.912854,42.141162],[24.911412,42.144796],[24.911038,42.1459],[24.911176,42.145923],[24.91141,42.145223],[24.911454,42.14523],[24.912024,42.143809]]]},"properties":{"cadreg":10}},{"type":"Feature","geometry":{"type":"Polygon","coordinates":[[[24.9131,42.141205],[24.912555,42.142491],[24.923548,42.144357],[24.923916,42.142985],[24.913776,42.14125],[24.912942,42.141122],[24.912926,42.141175],[24.9131,42.141205]]]},"properties":{"cadreg":11}},{"type":"Feature","geometry":{"type":"Polygon","coordinates":[[[24.923187,42.145704],[24.934861,42.147684],[24.934783,42.147982],[24.934222,42.147908],[24.934208,42.147961],[24.93487,42.148048],[24.935309,42.146375],[24.935208,42.146358],[24.935214,42.146336],[24.923548,42.144357],[24.923187,42.145704]]]},"properties":{"cadreg":12}},{"type":"Feature","geometry":{"type":"Polygon","coordinates":[[[24.923548,42.144357],[24.935214,42.146336],[24.935208,42.146358],[24.935309,42.146375],[24.935674,42.144983],[24.923916,42.142985],[24.923548,42.144357]]]},"properties":{"cadreg":13}},{"type":"Feature","geometry":{"type":"Polygon","coordinates":[[[24.913406,42.139653],[24.913191,42.140882],[24.912897,42.140854],[24.91267,42.140938],[24.912642,42.141126],[24.912926,42.141175],[24.912942,42.141122],[24.913776,42.14125],[24.927396,42.143576],[24.927487,42.143343],[24.928046,42.140405],[24.913558,42.138112],[24.913512,42.138227],[24.913406,42.139653]]]},"properties":{"cadreg":14}},{"type":"Feature","geometry":{"type":"Polygon","coordinates":[[[24.928046,42.140405],[24.927487,42.143343],[24.927396,42.143576],[24.935674,42.144983],[24.936402,42.141711],[24.933685,42.14125],[24.931273,42.140921],[24.928046,42.140405]]]},"properties":{"cadreg":15}},{"type":"Feature","geometry":{"type":"Polygon","coordinates":[[[24.937153,42.138304],[24.93677,42.14024],[24.936726,42.140235],[24.935674,42.144983],[24.934677,42.148787],[24.93492,42.148818],[24.940395,42.149785],[24.955571,42.152273],[24.954982,42.151351],[24.951769,42.147401],[24.950483,42.145705],[24.944362,42.145292],[24.944341,42.145259],[24.943287,42.145188],[24.94185,42.143638],[24.940084,42.141667],[24.93816,42.139558],[24.938307,42.139447],[24.939835,42.138728],[24.940898,42.138138],[24.942326,42.137431],[24.943194,42.137137],[24.944242,42.137016],[24.944582,42.137788],[24.945203,42.137554],[24.944681,42.136993],[24.944628,42.136919],[24.94551,42.136906],[24.94555,42.136749],[24.944912,42.136734],[24.944912,42.13668],[24.944751,42.136718],[24.944641,42.136805],[24.942754,42.136942],[24.942785,42.137078],[24.941788,42.137474],[24.940166,42.138297],[24.940041,42.138191],[24.940235,42.136942],[24.941782,42.13694],[24.940082,42.136844],[24.93982,42.138198],[24.939733,42.138438],[24.939423,42.138401],[24.93855,42.13882],[24.938693,42.139019],[24.93793,42.139453],[24.937242,42.138688],[24.937274,42.138523],[24.937263,42.138301],[24.937153,42.138304]],[[24.943214,42.145283],[24.938102,42.145016],[24.938872,42.144457],[24.939024,42.144439],[24.939161,42.144373],[24.939816,42.144187],[24.940171,42.144147],[24.940623,42.144178],[24.940719,42.144141],[24.940859,42.144048],[24.941433,42.143872],[24.941786,42.143712],[24.943214,42.145283]],[[24.939077,42.142042],[24.937794,42.142811],[24.937458,42.142644],[24.936772,42.14171],[24.93689,42.140973],[24.937141,42.140493],[24.937561,42.139982],[24.938006,42.139639],[24.940106,42.141904],[24.939077,42.142042]],[[24.940641,42.147853],[24.94087,42.145421],[24.950298,42.145937],[24.950557,42.14611],[24.95521,42.151944],[24.949639,42.150959],[24.942319,42.149733],[24.940444,42.149685],[24.940641,42.147853]]]},"properties":{"cadreg":16}},{"type":"Feature","geometry":{"type":"Polygon","coordinates":[[[24.940641,42.147853],[24.943455,42.148],[24.943673,42.145569],[24.94087,42.145421],[24.940641,42.147853]]]},"properties":{"cadreg":17}},{"type":"Feature","geometry":{"type":"Polygon","coordinates":[[[24.940641,42.147853],[24.940444,42.149685],[24.942319,42.149733],[24.949639,42.150959],[24.95521,42.151944],[24.950557,42.14611],[24.950298,42.145937],[24.943673,42.145569],[24.943455,42.148],[24.940641,42.147853]]]},"properties":{"cadreg":18}},{"type":"Feature","geometry":{"type":"Polygon","coordinates":[[[24.940084,42.141667],[24.94185,42.143638],[24.942415,42.143143],[24.9441,42.145002],[24.94423,42.145254],[24.944341,42.145259],[24.944362,42.145292],[24.950483,42.145705],[24.947484,42.141072],[24.945945,42.141047],[24.944975,42.140642],[24.94684,42.140081],[24.945203,42.137554],[24.945169,42.137567],[24.946667,42.139927],[24.941369,42.141515],[24.940084,42.141667]],[[24.94576,42.141115],[24.945749,42.141154],[24.945305,42.141335],[24.944855,42.140789],[24.944885,42.140726],[24.94576,42.141115]]]},"properties":{"cadreg":19}},{"type":"Feature","geometry":{"type":"Polygon","coordinates":[[[24.947484,42.141072],[24.94684,42.140081],[24.944975,42.140642],[24.945945,42.141047],[24.947484,42.141072]]]},"properties":{"cadreg":20}},{"type":"Feature","geometry":{"type":"Polygon","coordinates":[[[24.943287,42.145188],[24.94423,42.145254],[24.9441,42.145002],[24.942415,42.143143],[24.94185,42.143638],[24.943287,42.145188]]]},"properties":{"cadreg":21}},{"type":"Feature","geometry":{"type":"Polygon","coordinates":[[[24.940859,42.144048],[24.940719,42.144141],[24.940623,42.144178],[24.940171,42.144147],[24.939816,42.144187],[24.939161,42.144373],[24.939024,42.144439],[24.938872,42.144457],[24.938102,42.145016],[24.943214,42.145283],[24.941786,42.143712],[24.941433,42.143872],[24.940859,42.144048]]]},"properties":{"cadreg":23}},{"type":"Feature","geometry":{"type":"Polygon","coordinates":[[[24.940106,42.141904],[24.938006,42.139639],[24.937561,42.139982],[24.937141,42.140493],[24.93689,42.140973],[24.936772,42.14171],[24.937458,42.142644],[24.937794,42.142811],[24.939077,42.142042],[24.940106,42.141904]]]},"properties":{"cadreg":25}},{"type":"Feature","geometry":{"type":"Polygon","coordinates":[[[24.944242,42.137016],[24.943194,42.137137],[24.942326,42.137431],[24.940898,42.138138],[24.939835,42.138728],[24.938307,42.139447],[24.93816,42.139558],[24.940084,42.141667],[24.941369,42.141515],[24.946667,42.139927],[24.945169,42.137567],[24.944582,42.137788],[24.944242,42.137016]]]},"properties":{"cadreg":26}},{"type":"Feature","geometry":{"type":"Polygon","coordinates":[[[24.940235,42.136942],[24.940041,42.138191],[24.940166,42.138297],[24.941788,42.137474],[24.942785,42.137078],[24.942754,42.136942],[24.940235,42.136942]]]},"properties":{"cadreg":27}},{"type":"Feature","geometry":{"type":"Polygon","coordinates":[[[24.936726,42.140235],[24.933261,42.139853],[24.93363,42.140687],[24.933685,42.14125],[24.936402,42.141711],[24.936726,42.140235]]]},"properties":{"cadreg":28}},{"type":"Feature","geometry":{"type":"Polygon","coordinates":[[[24.937438,42.13756],[24.935787,42.137468],[24.935704,42.138506],[24.931988,42.13837],[24.932065,42.139442],[24.932367,42.139429],[24.933261,42.139853],[24.93677,42.14024],[24.937153,42.138304],[24.937263,42.138301],[24.937321,42.138197],[24.937438,42.13756]]]},"properties":{"cadreg":29}},{"type":"Feature","geometry":{"type":"Polygon","coordinates":[[[24.933261,42.139853],[24.932367,42.139429],[24.932065,42.139442],[24.931988,42.13837],[24.930105,42.138431],[24.929801,42.13847],[24.931273,42.140921],[24.933685,42.14125],[24.93363,42.140687],[24.933261,42.139853]]]},"properties":{"cadreg":30}},{"type":"Feature","geometry":{"type":"Polygon","coordinates":[[[24.92837,42.138313],[24.927975,42.140393],[24.931273,42.140921],[24.929801,42.13847],[24.929469,42.138511],[24.929261,42.138446],[24.92922,42.138414],[24.92918,42.13853],[24.92837,42.138313]]]},"properties":{"cadreg":31}},{"type":"Feature","geometry":{"type":"Polygon","coordinates":[[[24.925243,42.136796],[24.923909,42.137418],[24.923104,42.137671],[24.922332,42.137945],[24.921201,42.138256],[24.919131,42.137882],[24.919039,42.137886],[24.918827,42.137968],[24.918431,42.137966],[24.918133,42.137942],[24.917744,42.137981],[24.917047,42.137997],[24.916793,42.138036],[24.916662,42.138093],[24.916382,42.138182],[24.916102,42.138211],[24.915656,42.13823],[24.915213,42.138223],[24.914846,42.138251],[24.914394,42.138236],[24.914024,42.13817],[24.913558,42.138112],[24.927975,42.140393],[24.92837,42.138313],[24.925245,42.137475],[24.925149,42.137238],[24.925243,42.136796]]]},"properties":{"cadreg":32}},{"type":"Feature","geometry":{"type":"Polygon","coordinates":[[[24.913563,42.138086],[24.914033,42.138144],[24.914399,42.138209],[24.914845,42.138224],[24.915211,42.138196],[24.915655,42.138203],[24.9161,42.138184],[24.916372,42.138156],[24.916646,42.138069],[24.91678,42.13801],[24.917043,42.13797],[24.917742,42.137954],[24.918133,42.137915],[24.918434,42.137939],[24.918818,42.137941],[24.919001,42.13787],[24.917754,42.13767],[24.915307,42.137219],[24.913841,42.136623],[24.913563,42.138086]]]},"properties":{"cadreg":33}},{"type":"Feature","geometry":{"type":"Polygon","coordinates":[[[24.914104,42.134265],[24.913841,42.136623],[24.915307,42.137219],[24.917754,42.13767],[24.919001,42.13787],[24.918818,42.137941],[24.918434,42.137939],[24.918133,42.137915],[24.917742,42.137954],[24.917043,42.13797],[24.91678,42.13801],[24.916646,42.138069],[24.916372,42.138156],[24.9161,42.138184],[24.915655,42.138203],[24.915211,42.138196],[24.914845,42.138224],[24.914399,42.138209],[24.914033,42.138144],[24.913563,42.138086],[24.913558,42.138112],[24.914024,42.13817],[24.914394,42.138236],[24.914846,42.138251],[24.915213,42.138223],[24.915656,42.13823],[24.916102,42.138211],[24.916382,42.138182],[24.916662,42.138093],[24.916793,42.138036],[24.917047,42.137997],[24.917744,42.137981],[24.918133,42.137942],[24.918431,42.137966],[24.918827,42.137968],[24.919039,42.137886],[24.919131,42.137882],[24.921201,42.138256],[24.922332,42.137945],[24.923104,42.137671],[24.923909,42.137418],[24.925243,42.136796],[24.925492,42.135342],[24.914104,42.134265]]]},"properties":{"cadreg":34}},{"type":"Feature","geometry":{"type":"Polygon","coordinates":[[[24.917651,42.131169],[24.917158,42.131316],[24.914362,42.131814],[24.914104,42.134265],[24.925492,42.135342],[24.925877,42.133181],[24.925573,42.133119],[24.924045,42.132905],[24.922543,42.132597],[24.920736,42.132301],[24.920352,42.13211],[24.919931,42.131872],[24.917781,42.131356],[24.917651,42.131169]]]},"properties":{"cadreg":35}},{"type":"Feature","geometry":{"type":"Polygon","coordinates":[[[24.947242,42.133313],[24.947774,42.134084],[24.947851,42.134608],[24.947827,42.13461],[24.9479,42.134911],[24.947931,42.135126],[24.947906,42.135165],[24.948492,42.135112],[24.947978,42.133124],[24.94791,42.133147],[24.947213,42.133029],[24.947242,42.133313]]]},"properties":{"cadreg":36}},{"type":"Feature","geometry":{"type":"Polygon","coordinates":[[[24.929141,42.136329],[24.925492,42.135342],[24.925243,42.136796],[24.925149,42.137238],[24.925245,42.137475],[24.92918,42.13853],[24.92922,42.138414],[24.929119,42.138337],[24.928504,42.138086],[24.929808,42.1355],[24.929914,42.134944],[24.929595,42.135426],[24.929141,42.136329]]]},"properties":{"cadreg":37}},{"type":"Feature","geometry":{"type":"Polygon","coordinates":[[[24.926145,42.133248],[24.925877,42.133181],[24.925492,42.135342],[24.929141,42.136329],[24.929595,42.135426],[24.929914,42.134944],[24.930192,42.133486],[24.93018,42.133427],[24.929867,42.133286],[24.928944,42.13307],[24.928426,42.133053],[24.926384,42.133195],[24.926189,42.133135],[24.926145,42.133248]]]},"properties":{"cadreg":38}},{"type":"Feature","geometry":{"type":"MultiPolygon","coordinates":[[[[24.926475,42.129373],[24.926007,42.129779],[24.924942,42.129651],[24.922851,42.129083],[24.92276,42.129975],[24.922733,42.130871],[24.923138,42.130876],[24.923071,42.131183],[24.924611,42.131276],[24.92461,42.1309],[24.925814,42.130922],[24.925465,42.131832],[24.924954,42.132083],[24.923005,42.131641],[24.922059,42.131315],[24.921853,42.132074],[24.921319,42.13202],[24.921251,42.132196],[24.921575,42.132271],[24.9228,42.132482],[24.922815,42.132354],[24.924709,42.13274],[24.924902,42.132758],[24.925609,42.132918],[24.92614,42.133],[24.926189,42.133135],[24.926384,42.133195],[24.928426,42.133053],[24.928944,42.13307],[24.929867,42.133286],[24.93018,42.133427],[24.930192,42.133486],[24.930234,42.133292],[24.93048,42.133295],[24.930565,42.1328],[24.930557,42.132656],[24.93042,42.132656],[24.930859,42.131187],[24.931046,42.130317],[24.931293,42.130332],[24.931388,42.129854],[24.931379,42.129798],[24.931027,42.12979],[24.930289,42.12985],[24.929991,42.129828],[24.929746,42.129761],[24.929484,42.129639],[24.929275,42.129495],[24.929197,42.12939],[24.928636,42.129977],[24.926475,42.129373]]],[[[24.930676,42.12927],[24.930887,42.129323],[24.930978,42.129345],[24.930687,42.129231],[24.930676,42.12927]]]]},"properties":{"cadreg":39}},{"type":"Feature","geometry":{"type":"Polygon","coordinates":[[[24.922785,42.129058],[24.921992,42.131293],[24.923005,42.131641],[24.924954,42.132083],[24.925465,42.131832],[24.925814,42.130922],[24.92461,42.1309],[24.924611,42.131276],[24.923071,42.131183],[24.923138,42.130876],[24.922733,42.130871],[24.92276,42.129975],[24.922851,42.129083],[24.922785,42.129058]]]},"properties":{"cadreg":40}},{"type":"Feature","geometry":{"type":"Polygon","coordinates":[[[24.922465,42.129961],[24.916973,42.129707],[24.917825,42.130978],[24.917879,42.13119],[24.917801,42.131176],[24.917658,42.131196],[24.917781,42.131356],[24.919931,42.131872],[24.920352,42.13211],[24.920736,42.132301],[24.922543,42.132597],[24.924045,42.132905],[24.925573,42.133119],[24.926145,42.133248],[24.926189,42.133135],[24.92614,42.133],[24.925609,42.132918],[24.924902,42.132758],[24.924709,42.13274],[24.922815,42.132354],[24.9228,42.132482],[24.921575,42.132271],[24.921251,42.132196],[24.921319,42.13202],[24.921853,42.132074],[24.922059,42.131315],[24.921992,42.131293],[24.922465,42.129961]]]},"properties":{"cadreg":41}},{"type":"Feature","geometry":{"type":"Polygon","coordinates":[[[24.922465,42.129961],[24.922785,42.129058],[24.920133,42.128109],[24.918786,42.129791],[24.922465,42.129961]]]},"properties":{"cadreg":42}},{"type":"Feature","geometry":{"type":"Polygon","coordinates":[[[24.920096,42.128156],[24.91701,42.12705],[24.916917,42.127113],[24.916847,42.127087],[24.916327,42.127516],[24.916128,42.128384],[24.916187,42.128655],[24.917755,42.130996],[24.917801,42.131176],[24.917879,42.13119],[24.917825,42.130978],[24.916973,42.129707],[24.918786,42.129791],[24.920096,42.128156]]]},"properties":{"cadreg":43}},{"type":"Feature","geometry":{"type":"Polygon","coordinates":[[[24.915052,42.126556],[24.914827,42.12783],[24.914741,42.128018],[24.914381,42.128409],[24.913775,42.128995],[24.913457,42.129123],[24.91201,42.130646],[24.912059,42.130641],[24.91396,42.131815],[24.914342,42.131752],[24.914362,42.131814],[24.917158,42.131316],[24.917651,42.131169],[24.917658,42.131196],[24.917801,42.131176],[24.917755,42.130996],[24.916187,42.128655],[24.916128,42.128384],[24.916327,42.127516],[24.916847,42.127087],[24.916702,42.127035],[24.916857,42.126956],[24.913825,42.125888],[24.914096,42.126133],[24.914155,42.126218],[24.915015,42.126461],[24.915052,42.126556]]]},"properties":{"cadreg":45}},{"type":"Feature","geometry":{"type":"Polygon","coordinates":[[[24.909754,42.124007],[24.90976,42.124255],[24.910579,42.124573],[24.911159,42.125004],[24.912116,42.126614],[24.912519,42.127596],[24.913207,42.129106],[24.911887,42.130642],[24.911965,42.130692],[24.913457,42.129123],[24.913775,42.128995],[24.914381,42.128409],[24.914741,42.128018],[24.914827,42.12783],[24.915052,42.126556],[24.915015,42.126461],[24.914155,42.126218],[24.914096,42.126133],[24.913825,42.125888],[24.911985,42.124992],[24.910954,42.124432],[24.909754,42.124007]]]},"properties":{"cadreg":46}},{"type":"Feature","geometry":{"type":"Polygon","coordinates":[[[24.917446,42.126108],[24.909814,42.121445],[24.909814,42.120988],[24.909766,42.120958],[24.909754,42.124007],[24.910954,42.124432],[24.911985,42.124992],[24.913825,42.125888],[24.916857,42.126956],[24.916815,42.126901],[24.917446,42.126108]]]},"properties":{"cadreg":47}},{"type":"Feature","geometry":{"type":"Polygon","coordinates":[[[24.909877,42.120931],[24.909814,42.120988],[24.909814,42.121445],[24.917446,42.126108],[24.918753,42.124461],[24.911108,42.11979],[24.909827,42.120892],[24.909877,42.120931]]]},"properties":{"cadreg":48}},{"type":"Feature","geometry":{"type":"Polygon","coordinates":[[[24.907048,42.116763],[24.907993,42.115547],[24.907957,42.115524],[24.906342,42.117613],[24.907777,42.119392],[24.909814,42.120988],[24.909877,42.120931],[24.909827,42.120892],[24.911471,42.119477],[24.907048,42.116763]]]},"properties":{"cadreg":49}},{"type":"Feature","geometry":{"type":"Polygon","coordinates":[[[24.907048,42.116763],[24.911471,42.119477],[24.912714,42.118408],[24.907975,42.1155],[24.907957,42.115524],[24.907993,42.115547],[24.907048,42.116763]]]},"properties":{"cadreg":50}},{"type":"Feature","geometry":{"type":"MultiPolygon","coordinates":[[[[24.912714,42.118408],[24.911108,42.11979],[24.918753,42.124461],[24.919204,42.123894],[24.919342,42.123515],[24.917622,42.121859],[24.916494,42.120742],[24.912714,42.118408]]],[[[24.917767,42.121513],[24.919136,42.122811],[24.919726,42.123356],[24.919877,42.12303],[24.920059,42.122978],[24.919729,42.122699],[24.917767,42.121513]]]]},"properties":{"cadreg":51}},{"type":"Feature","geometry":{"type":"MultiPolygon","coordinates":[[[[24.919726,42.123356],[24.92042,42.123999],[24.920898,42.124406],[24.921645,42.125009],[24.922255,42.125461],[24.922825,42.12475],[24.925634,42.12646],[24.925728,42.126447],[24.923702,42.125221],[24.920059,42.122978],[24.919877,42.12303],[24.919726,42.123356]]],[[[24.92,42.124286],[24.920254,42.124333],[24.919558,42.123717],[24.919412,42.124031],[24.918677,42.124989],[24.918946,42.124673],[24.919126,42.124513],[24.91924,42.124364],[24.919309,42.124406],[24.91952,42.124331],[24.919824,42.124285],[24.92,42.124286]]],[[[24.920365,42.124517],[24.920171,42.124446],[24.919942,42.124412],[24.919713,42.124413],[24.91951,42.124459],[24.92189,42.125917],[24.922024,42.12575],[24.921137,42.125124],[24.920704,42.124789],[24.920594,42.124662],[24.920365,42.124517]]]]},"properties":{"cadreg":52}},{"type":"Feature","geometry":{"type":"MultiPolygon","coordinates":[[[[24.919126,42.124513],[24.919309,42.124406],[24.91924,42.124364],[24.919126,42.124513]]],[[[24.919009,42.12479],[24.918605,42.125275],[24.918495,42.125226],[24.919412,42.124031],[24.919558,42.123717],[24.919342,42.123515],[24.919204,42.123894],[24.916815,42.126901],[24.916857,42.126956],[24.916702,42.127035],[24.916917,42.127113],[24.917067,42.12701],[24.917586,42.126467],[24.918676,42.126463],[24.918902,42.127154],[24.920358,42.127032],[24.920347,42.127001],[24.9208,42.127277],[24.92189,42.125917],[24.91951,42.124459],[24.919436,42.124485],[24.919209,42.124607],[24.919009,42.12479]]]]},"properties":{"cadreg":53}},{"type":"Feature","geometry":{"type":"Polygon","coordinates":[[[24.918902,42.127154],[24.918676,42.126463],[24.917586,42.126467],[24.917067,42.12701],[24.91701,42.12705],[24.920096,42.128156],[24.920133,42.128109],[24.920106,42.128099],[24.920751,42.127294],[24.920327,42.127035],[24.918902,42.127154]]]},"properties":{"cadreg":55}},{"type":"Feature","geometry":{"type":"Polygon","coordinates":[[[24.920106,42.128099],[24.922785,42.129058],[24.923126,42.128748],[24.920751,42.127294],[24.920106,42.128099]]]},"properties":{"cadreg":56}},{"type":"Feature","geometry":{"type":"Polygon","coordinates":[[[24.92189,42.125917],[24.9208,42.127277],[24.920347,42.127001],[24.920358,42.127032],[24.920327,42.127035],[24.923126,42.128748],[24.924487,42.127506],[24.92189,42.125917]]]},"properties":{"cadreg":57}},{"type":"Feature","geometry":{"type":"MultiPolygon","coordinates":[[[[24.922255,42.125461],[24.923073,42.126007],[24.923735,42.126413],[24.924413,42.126803],[24.924945,42.127088],[24.925634,42.12646],[24.922825,42.12475],[24.922255,42.125461]]],[[[24.922975,42.126379],[24.922024,42.12575],[24.92189,42.125917],[24.924487,42.127506],[24.924671,42.127338],[24.923853,42.1269],[24.922975,42.126379]]]]},"properties":{"cadreg":58}},{"type":"Feature","geometry":{"type":"MultiPolygon","coordinates":[[[[24.924945,42.127088],[24.926032,42.127625],[24.927089,42.128086],[24.928068,42.128464],[24.929097,42.128818],[24.929137,42.128643],[24.929239,42.128464],[24.927364,42.127444],[24.925728,42.126447],[24.925634,42.12646],[24.924945,42.127088]]],[[[24.924671,42.127338],[24.922785,42.129058],[24.924942,42.129651],[24.926007,42.129779],[24.926475,42.129373],[24.928636,42.129977],[24.929197,42.12939],[24.929114,42.129181],[24.927989,42.128794],[24.926775,42.128319],[24.925703,42.127845],[24.924671,42.127338]]],[[[24.929649,42.128675],[24.929551,42.128955],[24.930676,42.12927],[24.930687,42.129231],[24.930978,42.129345],[24.931346,42.129443],[24.931369,42.129434],[24.930723,42.129184],[24.929649,42.128675]]]]},"properties":{"cadreg":59}},{"type":"Feature","geometry":{"type":"Polygon","coordinates":[[[24.941525,42.136174],[24.941488,42.136503],[24.941821,42.136517],[24.941789,42.136859],[24.942047,42.136868],[24.942133,42.136206],[24.941525,42.136174]]]},"properties":{"cadreg":61}},{"type":"Feature","geometry":{"type":"Polygon","coordinates":[[[24.942047,42.136868],[24.941789,42.136859],[24.941782,42.13694],[24.942754,42.136942],[24.944641,42.136805],[24.944751,42.136718],[24.944714,42.136444],[24.944657,42.136245],[24.943335,42.136277],[24.943331,42.1363],[24.942133,42.136206],[24.942047,42.136868]]]},"properties":{"cadreg":62}},{"type":"Feature","geometry":{"type":"Polygon","coordinates":[[[24.944751,42.136718],[24.944912,42.13668],[24.944912,42.136734],[24.94555,42.136749],[24.945567,42.136679],[24.945542,42.135837],[24.945635,42.135585],[24.94561,42.13548],[24.945523,42.135701],[24.945285,42.135815],[24.944603,42.135905],[24.944657,42.136245],[24.944714,42.136444],[24.944751,42.136718]]]},"properties":{"cadreg":63}},{"type":"Feature","geometry":{"type":"Polygon","coordinates":[[[24.947827,42.13461],[24.945967,42.13472],[24.946016,42.135189],[24.945574,42.13522],[24.945635,42.135585],[24.945619,42.135628],[24.945941,42.135534],[24.946718,42.135376],[24.947246,42.135246],[24.947583,42.135195],[24.947906,42.135165],[24.947931,42.135126],[24.9479,42.134911],[24.947827,42.13461]]]},"properties":{"cadreg":64}},{"type":"Feature","geometry":{"type":"Polygon","coordinates":[[[24.948276,42.134275],[24.948492,42.135112],[24.947583,42.135195],[24.947246,42.135246],[24.946718,42.135376],[24.945941,42.135534],[24.945619,42.135628],[24.945542,42.135837],[24.947294,42.135649],[24.948564,42.135393],[24.950483,42.135226],[24.950741,42.133141],[24.950703,42.132424],[24.950051,42.132452],[24.949156,42.132741],[24.949687,42.134153],[24.948276,42.134275]]]},"properties":{"cadreg":65}},{"type":"Feature","geometry":{"type":"Polygon","coordinates":[[[24.949687,42.134153],[24.949156,42.132741],[24.947978,42.133124],[24.948276,42.134275],[24.949687,42.134153]]]},"properties":{"cadreg":66}},{"type":"Feature","geometry":{"type":"Polygon","coordinates":[[[24.949985,42.13228],[24.94977,42.131498],[24.948188,42.131463],[24.948195,42.130991],[24.947075,42.131004],[24.94706,42.131545],[24.947213,42.133029],[24.94791,42.133147],[24.950051,42.132452],[24.949985,42.13228]]]},"properties":{"cadreg":67}},{"type":"Feature","geometry":{"type":"Polygon","coordinates":[[[24.947132,42.129258],[24.947075,42.131004],[24.948195,42.130991],[24.948188,42.131463],[24.94977,42.131498],[24.949114,42.129281],[24.947132,42.129258]]]},"properties":{"cadreg":68}},{"type":"Feature","geometry":{"type":"Polygon","coordinates":[[[24.94283,42.12852],[24.943898,42.128899],[24.945254,42.129194],[24.947132,42.129258],[24.949114,42.129281],[24.94877,42.128117],[24.948668,42.128023],[24.942981,42.127423],[24.94283,42.12852]]]},"properties":{"cadreg":69}},{"type":"Feature","geometry":{"type":"Polygon","coordinates":[[[24.943982,42.127528],[24.948668,42.128023],[24.94877,42.128117],[24.948397,42.126858],[24.944161,42.126411],[24.943982,42.127528]]]},"properties":{"cadreg":70}},{"type":"Feature","geometry":{"type":"Polygon","coordinates":[[[24.94435,42.125232],[24.944046,42.12523],[24.943795,42.126336],[24.944095,42.126367],[24.944161,42.126411],[24.948397,42.126858],[24.948035,42.125634],[24.94435,42.125232]]]},"properties":{"cadreg":71}},{"type":"Feature","geometry":{"type":"Polygon","coordinates":[[[24.940523,42.12599],[24.943795,42.126336],[24.944046,42.12523],[24.940854,42.124886],[24.940523,42.12599]]]},"properties":{"cadreg":72}},{"type":"Feature","geometry":{"type":"Polygon","coordinates":[[[24.944095,42.126367],[24.940523,42.12599],[24.940182,42.127127],[24.943982,42.127528],[24.944161,42.126411],[24.944095,42.126367]]]},"properties":{"cadreg":73}},{"type":"Feature","geometry":{"type":"Polygon","coordinates":[[[24.940046,42.127581],[24.940726,42.127719],[24.941557,42.12791],[24.94283,42.12852],[24.942981,42.127423],[24.940182,42.127127],[24.940046,42.127581]]]},"properties":{"cadreg":74}},{"type":"Feature","geometry":{"type":"Polygon","coordinates":[[[24.940046,42.127581],[24.940854,42.124886],[24.937766,42.124553],[24.938111,42.127584],[24.938373,42.127626],[24.938382,42.127596],[24.938667,42.127642],[24.938708,42.127506],[24.939567,42.127569],[24.939599,42.12749],[24.940046,42.127581]]]},"properties":{"cadreg":75}},{"type":"Feature","geometry":{"type":"Polygon","coordinates":[[[24.934175,42.124755],[24.934575,42.128416],[24.93461,42.128441],[24.937801,42.128737],[24.937937,42.128326],[24.937887,42.128319],[24.938111,42.127584],[24.937766,42.124553],[24.934175,42.124755]]]},"properties":{"cadreg":76}},{"type":"Feature","geometry":{"type":"Polygon","coordinates":[[[24.934061,42.124701],[24.930285,42.124953],[24.93063,42.128072],[24.934385,42.128405],[24.93446,42.128366],[24.934475,42.128321],[24.934562,42.128321],[24.934175,42.124755],[24.934182,42.124663],[24.934061,42.124701]]]},"properties":{"cadreg":77}},{"type":"Feature","geometry":{"type":"Polygon","coordinates":[[[24.93063,42.128072],[24.930681,42.128465],[24.93082,42.128678],[24.93091,42.128727],[24.931864,42.128986],[24.93193,42.129101],[24.93194,42.129189],[24.931918,42.129295],[24.93292,42.129723],[24.935207,42.130369],[24.937147,42.130785],[24.937801,42.128737],[24.93461,42.128441],[24.934575,42.128416],[24.934562,42.128321],[24.934475,42.128321],[24.93446,42.128366],[24.934385,42.128405],[24.93063,42.128072]]]},"properties":{"cadreg":78}},{"type":"Feature","geometry":{"type":"MultiPolygon","coordinates":[[[[24.92714,42.117856],[24.928381,42.127597],[24.928763,42.127828],[24.929494,42.128183],[24.929955,42.12762],[24.930143,42.127307],[24.930233,42.127011],[24.930226,42.126502],[24.930393,42.126495],[24.930501,42.127643],[24.930574,42.128152],[24.929915,42.128161],[24.929837,42.128211],[24.929785,42.128324],[24.930328,42.128588],[24.9304,42.128572],[24.930554,42.128724],[24.930677,42.12881],[24.931226,42.129065],[24.931918,42.129295],[24.93194,42.129189],[24.93193,42.129101],[24.931864,42.128986],[24.93091,42.128727],[24.93082,42.128678],[24.930681,42.128465],[24.930287,42.124919],[24.929257,42.117326],[24.92899,42.117512],[24.929049,42.118008],[24.928989,42.118012],[24.928959,42.117752],[24.92714,42.117856]]],[[[24.930283,42.127628],[24.930286,42.127644],[24.930296,42.127635],[24.930283,42.127628]]]]},"properties":{"cadreg":79}},{"type":"Feature","geometry":{"type":"Polygon","coordinates":[[[24.928381,42.127597],[24.92714,42.117856],[24.928959,42.117752],[24.928989,42.118012],[24.929049,42.118008],[24.928997,42.117566],[24.925915,42.117771],[24.925911,42.117845],[24.925863,42.117835],[24.925708,42.121038],[24.924676,42.122343],[24.924835,42.124029],[24.924127,42.124975],[24.92417,42.124992],[24.924232,42.12509],[24.928381,42.127597]]]},"properties":{"cadreg":80}},{"type":"Feature","geometry":{"type":"Polygon","coordinates":[[[24.921638,42.123508],[24.923773,42.124836],[24.924127,42.124975],[24.924835,42.124029],[24.924781,42.123459],[24.921802,42.122793],[24.921638,42.123508]]]},"properties":{"cadreg":81}},{"type":"Feature","geometry":{"type":"Polygon","coordinates":[[[24.924928,42.122025],[24.92212,42.121397],[24.921802,42.122793],[24.924781,42.123459],[24.924676,42.122343],[24.924928,42.122025]]]},"properties":{"cadreg":82}},{"type":"Feature","geometry":{"type":"Polygon","coordinates":[[[24.922276,42.119909],[24.921957,42.121305],[24.92212,42.121397],[24.924928,42.122025],[24.925708,42.121038],[24.925723,42.120736],[24.922439,42.120002],[24.922276,42.119909]]]},"properties":{"cadreg":83}},{"type":"Feature","geometry":{"type":"Polygon","coordinates":[[[24.922582,42.118568],[24.922276,42.119909],[24.922439,42.120002],[24.925723,42.120736],[24.925796,42.11923],[24.92277,42.118553],[24.922582,42.118568]]]},"properties":{"cadreg":84}},{"type":"Feature","geometry":{"type":"Polygon","coordinates":[[[24.923092,42.11714],[24.92277,42.118553],[24.925796,42.11923],[24.925863,42.117835],[24.925911,42.117845],[24.925915,42.117771],[24.923092,42.11714]]]},"properties":{"cadreg":85}},{"type":"Feature","geometry":{"type":"Polygon","coordinates":[[[24.923076,42.117212],[24.920593,42.116657],[24.920239,42.118044],[24.922582,42.118568],[24.92277,42.118553],[24.923076,42.117212]]]},"properties":{"cadreg":86}},{"type":"Feature","geometry":{"type":"Polygon","coordinates":[[[24.920239,42.118044],[24.919899,42.119378],[24.922276,42.119909],[24.922582,42.118568],[24.920239,42.118044]]]},"properties":{"cadreg":87}},{"type":"Feature","geometry":{"type":"Polygon","coordinates":[[[24.919899,42.119378],[24.919546,42.120765],[24.921957,42.121305],[24.922276,42.119909],[24.919899,42.119378]]]},"properties":{"cadreg":88}},{"type":"Feature","geometry":{"type":"Polygon","coordinates":[[[24.921957,42.121305],[24.919393,42.120731],[24.919101,42.121875],[24.92002,42.122416],[24.920066,42.122531],[24.921638,42.123508],[24.92212,42.121397],[24.921957,42.121305]]]},"properties":{"cadreg":89}},{"type":"Feature","geometry":{"type":"MultiPolygon","coordinates":[[[[24.913509,42.117449],[24.916591,42.120397],[24.916807,42.120623],[24.917767,42.121513],[24.919729,42.122699],[24.920059,42.122978],[24.923702,42.125221],[24.927364,42.127444],[24.929239,42.128464],[24.929494,42.128183],[24.928763,42.127828],[24.924232,42.12509],[24.92417,42.124992],[24.923773,42.124836],[24.920066,42.122531],[24.92002,42.122416],[24.919101,42.121875],[24.919559,42.120083],[24.913853,42.117111],[24.913509,42.117449]]],[[[24.915477,42.119782],[24.913278,42.117676],[24.91269,42.118252],[24.908046,42.11541],[24.907975,42.1155],[24.916494,42.120742],[24.916311,42.120558],[24.91576,42.120076],[24.915477,42.119782]]],[[[24.929785,42.128324],[24.929649,42.128675],[24.930723,42.129184],[24.931369,42.129434],[24.932176,42.129678],[24.934015,42.130099],[24.935753,42.130523],[24.936224,42.130604],[24.936346,42.130613],[24.935207,42.130369],[24.93292,42.129723],[24.931953,42.129306],[24.931226,42.129065],[24.930677,42.12881],[24.930554,42.128724],[24.9304,42.128572],[24.930328,42.128588],[24.929785,42.128324]]]]},"properties":{"cadreg":90}},{"type":"Feature","geometry":{"type":"Polygon","coordinates":[[[24.913853,42.117111],[24.919559,42.120083],[24.919393,42.120731],[24.919546,42.120765],[24.920175,42.118295],[24.914774,42.116207],[24.913853,42.117111]]]},"properties":{"cadreg":91}},{"type":"Feature","geometry":{"type":"Polygon","coordinates":[[[24.914774,42.116207],[24.92013,42.118278],[24.920175,42.118295],[24.920593,42.116657],[24.920442,42.116623],[24.920473,42.116498],[24.915679,42.115426],[24.915564,42.115431],[24.914774,42.116207]]]},"properties":{"cadreg":92}},{"type":"Feature","geometry":{"type":"Polygon","coordinates":[[[24.915564,42.115431],[24.915679,42.115426],[24.920473,42.116498],[24.920814,42.115164],[24.916764,42.114259],[24.915564,42.115431]]]},"properties":{"cadreg":93}},{"type":"Feature","geometry":{"type":"Polygon","coordinates":[[[24.921376,42.112961],[24.918023,42.11303],[24.916764,42.114259],[24.920814,42.115164],[24.921376,42.112961]]]},"properties":{"cadreg":94}},{"type":"Feature","geometry":{"type":"Polygon","coordinates":[[[24.921852,42.111096],[24.919963,42.111135],[24.918023,42.11303],[24.921376,42.112961],[24.921852,42.111096]]]},"properties":{"cadreg":95}},{"type":"Feature","geometry":{"type":"Polygon","coordinates":[[[24.921926,42.111094],[24.922322,42.109544],[24.921366,42.109765],[24.919963,42.111135],[24.921926,42.111094]]]},"properties":{"cadreg":96}},{"type":"Feature","geometry":{"type":"Polygon","coordinates":[[[24.922322,42.109544],[24.921926,42.111094],[24.924412,42.111043],[24.924892,42.108938],[24.922322,42.109544]]]},"properties":{"cadreg":97}},{"type":"Feature","geometry":{"type":"Polygon","coordinates":[[[24.924486,42.111042],[24.921852,42.111096],[24.921376,42.112961],[24.92406,42.112906],[24.924486,42.111042]]]},"properties":{"cadreg":98}},{"type":"Feature","geometry":{"type":"Polygon","coordinates":[[[24.92406,42.112906],[24.921376,42.112961],[24.920442,42.116623],[24.923076,42.117212],[24.92406,42.112906]]]},"properties":{"cadreg":99}},{"type":"Feature","geometry":{"type":"Polygon","coordinates":[[[24.928659,42.115675],[24.923402,42.115783],[24.923092,42.11714],[24.925915,42.117771],[24.928997,42.117566],[24.92899,42.117512],[24.928917,42.117517],[24.928659,42.115675]]]},"properties":{"cadreg":100}},{"type":"Feature","geometry":{"type":"Polygon","coordinates":[[[24.928404,42.114221],[24.923737,42.114317],[24.923402,42.115783],[24.928659,42.115675],[24.928571,42.11505],[24.928404,42.114221]]]},"properties":{"cadreg":101}},{"type":"Feature","geometry":{"type":"Polygon","coordinates":[[[24.92406,42.112906],[24.923737,42.114317],[24.928404,42.114221],[24.928118,42.112822],[24.92406,42.112906]]]},"properties":{"cadreg":102}},{"type":"Feature","geometry":{"type":"Polygon","coordinates":[[[24.924486,42.111042],[24.92406,42.112906],[24.928118,42.112822],[24.927588,42.110978],[24.924486,42.111042]]]},"properties":{"cadreg":103}},{"type":"Feature","geometry":{"type":"Polygon","coordinates":[[[24.924672,42.109903],[24.924412,42.111043],[24.927588,42.110978],[24.927264,42.10985],[24.924672,42.109903]]]},"properties":{"cadreg":104}},{"type":"Feature","geometry":{"type":"Polygon","coordinates":[[[24.927264,42.10985],[24.926794,42.108538],[24.926863,42.108522],[24.926844,42.10847],[24.924892,42.108938],[24.924672,42.109903],[24.927264,42.10985]]]},"properties":{"cadreg":105}},{"type":"Feature","geometry":{"type":"Polygon","coordinates":[[[24.933279,42.117102],[24.932722,42.112581],[24.932693,42.112491],[24.928682,42.112742],[24.928569,42.112831],[24.928487,42.112855],[24.928134,42.112876],[24.928571,42.11505],[24.928917,42.117517],[24.92899,42.117512],[24.929257,42.117326],[24.933279,42.117102]]]},"properties":{"cadreg":106}},{"type":"Feature","geometry":{"type":"Polygon","coordinates":[[[24.932693,42.112491],[24.932722,42.112581],[24.933279,42.117102],[24.936813,42.116909],[24.936287,42.112346],[24.936348,42.112263],[24.932693,42.112491]]]},"properties":{"cadreg":107}},{"type":"Feature","geometry":{"type":"Polygon","coordinates":[[[24.933745,42.121154],[24.933279,42.117102],[24.929257,42.117326],[24.930285,42.124953],[24.934061,42.124701],[24.934182,42.124663],[24.933745,42.121154]]]},"properties":{"cadreg":108}},{"type":"Feature","geometry":{"type":"Polygon","coordinates":[[[24.937638,42.122691],[24.937651,42.121808],[24.937447,42.120769],[24.936942,42.116858],[24.936813,42.116909],[24.933279,42.117102],[24.933717,42.120927],[24.934182,42.124663],[24.934175,42.124755],[24.937766,42.124553],[24.937754,42.124489],[24.937819,42.124488],[24.937829,42.124435],[24.937638,42.122691]]]},"properties":{"cadreg":109}},{"type":"Feature","geometry":{"type":"Polygon","coordinates":[[[24.947084,42.122417],[24.937663,42.122919],[24.937829,42.124435],[24.937819,42.124488],[24.937754,42.124489],[24.937766,42.124553],[24.944046,42.12523],[24.94435,42.125232],[24.948035,42.125634],[24.947084,42.122417]]]},"properties":{"cadreg":110}},{"type":"Feature","geometry":{"type":"Polygon","coordinates":[[[24.946417,42.12016],[24.93743,42.120639],[24.937651,42.121808],[24.937634,42.122658],[24.937663,42.122919],[24.947084,42.122417],[24.946417,42.12016]]]},"properties":{"cadreg":111}},{"type":"Feature","geometry":{"type":"Polygon","coordinates":[[[24.93719,42.118788],[24.93743,42.120639],[24.946417,42.12016],[24.945874,42.118325],[24.93719,42.118788]]]},"properties":{"cadreg":113}},{"type":"Feature","geometry":{"type":"Polygon","coordinates":[[[24.941506,42.116617],[24.936942,42.116858],[24.93719,42.118788],[24.945874,42.118325],[24.945304,42.116396],[24.941506,42.116617]]]},"properties":{"cadreg":114}},{"type":"Feature","geometry":{"type":"Polygon","coordinates":[[[24.936548,42.1146],[24.936813,42.116909],[24.936942,42.116858],[24.941506,42.116617],[24.945304,42.116396],[24.944641,42.114154],[24.936548,42.1146]]]},"properties":{"cadreg":115}},{"type":"Feature","geometry":{"type":"Polygon","coordinates":[[[24.943952,42.111824],[24.936421,42.112303],[24.936348,42.112263],[24.936287,42.112346],[24.936548,42.1146],[24.944641,42.114154],[24.943952,42.111824]]]},"properties":{"cadreg":116}},{"type":"Feature","geometry":{"type":"Polygon","coordinates":[[[24.944765,42.111717],[24.944568,42.110449],[24.941999,42.110596],[24.936272,42.110983],[24.936421,42.112303],[24.943952,42.111824],[24.943947,42.111806],[24.944842,42.111746],[24.944837,42.111712],[24.944765,42.111717]]]},"properties":{"cadreg":117}},{"type":"Feature","geometry":{"type":"Polygon","coordinates":[[[24.944415,42.108985],[24.936098,42.109499],[24.936272,42.110983],[24.941999,42.110596],[24.944568,42.110449],[24.944765,42.111717],[24.944837,42.111712],[24.944415,42.108985]]]},"properties":{"cadreg":118}},{"type":"Feature","geometry":{"type":"Polygon","coordinates":[[[24.93611,42.109601],[24.932494,42.109808],[24.932385,42.109898],[24.932693,42.112491],[24.936348,42.112263],[24.936421,42.112303],[24.93611,42.109601]]]},"properties":{"cadreg":119}},{"type":"Feature","geometry":{"type":"Polygon","coordinates":[[[24.937084,42.10523],[24.936707,42.105352],[24.936376,42.105484],[24.935779,42.105665],[24.935237,42.105804],[24.934414,42.105856],[24.934082,42.105822],[24.933475,42.105824],[24.933052,42.105912],[24.932491,42.106263],[24.93188,42.106585],[24.931495,42.10691],[24.931302,42.106991],[24.930783,42.107112],[24.93048,42.107259],[24.930191,42.107512],[24.930144,42.108057],[24.930079,42.108223],[24.929709,42.10848],[24.929628,42.108592],[24.929616,42.108898],[24.928856,42.110022],[24.928635,42.110655],[24.928529,42.110868],[24.928377,42.110861],[24.928405,42.111806],[24.928569,42.112831],[24.928682,42.112742],[24.932693,42.112491],[24.932385,42.109898],[24.932494,42.109808],[24.93611,42.109601],[24.935838,42.107278],[24.937567,42.107162],[24.937535,42.106535],[24.938342,42.106137],[24.938643,42.105931],[24.93944,42.105763],[24.940059,42.105707],[24.941693,42.105422],[24.94244,42.105247],[24.943245,42.104897],[24.943731,42.104731],[24.943723,42.104675],[24.943746,42.104666],[24.943624,42.103426],[24.940195,42.104359],[24.93877,42.104773],[24.937084,42.10523]]]},"properties":{"cadreg":120}},{"type":"Feature","geometry":{"type":"Polygon","coordinates":[[[24.940456,42.108056],[24.935961,42.108333],[24.936098,42.109499],[24.94057,42.109223],[24.940456,42.108056]]]},"properties":{"cadreg":121}},{"type":"Feature","geometry":{"type":"Polygon","coordinates":[[[24.940348,42.106981],[24.935838,42.107278],[24.935961,42.108333],[24.940456,42.108056],[24.940348,42.106981]]]},"properties":{"cadreg":122}},{"type":"Feature","geometry":{"type":"Polygon","coordinates":[[[24.939515,42.105756],[24.938643,42.105931],[24.938342,42.106137],[24.937535,42.106535],[24.937567,42.107162],[24.940348,42.106981],[24.940221,42.105678],[24.940059,42.105707],[24.939515,42.105756]]]},"properties":{"cadreg":123}},{"type":"Feature","geometry":{"type":"Polygon","coordinates":[[[24.941693,42.105422],[24.940221,42.105678],[24.94057,42.109223],[24.940643,42.109218],[24.940641,42.1092],[24.942448,42.109091],[24.942077,42.105332],[24.941693,42.105422]]]},"properties":{"cadreg":124}},{"type":"Feature","geometry":{"type":"Polygon","coordinates":[[[24.94244,42.105247],[24.942077,42.105332],[24.942448,42.109091],[24.940641,42.1092],[24.940643,42.109218],[24.944415,42.108985],[24.943746,42.104666],[24.943723,42.104675],[24.943731,42.104731],[24.943245,42.104897],[24.94244,42.105247]]]},"properties":{"cadreg":125}},{"type":"Feature","geometry":{"type":"Polygon","coordinates":[[[24.94576,42.141115],[24.944885,42.140726],[24.944855,42.140789],[24.945305,42.141335],[24.945749,42.141154],[24.94576,42.141115]]]},"properties":{"cadreg":200}},{"type":"Feature","geometry":{"type":"Polygon","coordinates":[[[24.935306,42.135191],[24.935318,42.135237],[24.935185,42.136639],[24.935851,42.136676],[24.935787,42.137468],[24.937438,42.13756],[24.937321,42.138197],[24.937263,42.138301],[24.937274,42.138523],[24.937242,42.138688],[24.93793,42.139453],[24.938693,42.139019],[24.93855,42.13882],[24.939423,42.138401],[24.939733,42.138438],[24.93982,42.138198],[24.940095,42.136771],[24.940144,42.136367],[24.940106,42.135775],[24.939748,42.135775],[24.93746,42.135475],[24.93728,42.135429],[24.9371,42.135318],[24.936934,42.135303],[24.93692,42.135376],[24.935306,42.135191]]]},"properties":{"cadreg":216}},{"type":"Feature","geometry":{"type":"Polygon","coordinates":[[[24.90655,42.134429],[24.9066,42.134468],[24.906568,42.134495],[24.913002,42.13944],[24.912998,42.139556],[24.913178,42.139568],[24.913147,42.139938],[24.912988,42.140504],[24.913085,42.140515],[24.913023,42.140866],[24.913191,42.140882],[24.913416,42.139597],[24.913512,42.138227],[24.913558,42.138112],[24.913848,42.136585],[24.913885,42.136256],[24.913737,42.136201],[24.913617,42.13619],[24.913553,42.136149],[24.913206,42.138221],[24.90738,42.133734],[24.90655,42.134429]]]},"properties":{"cadreg":286}},{"type":"Feature","geometry":{"type":"Polygon","coordinates":[[[24.926844,42.10847],[24.926863,42.108522],[24.926794,42.108538],[24.927245,42.109784],[24.928134,42.112876],[24.928487,42.112855],[24.928569,42.112831],[24.928405,42.111806],[24.928377,42.110861],[24.927739,42.110829],[24.926958,42.108442],[24.926844,42.10847]]]},"properties":{"cadreg":369}},{"type":"Feature","geometry":{"type":"Polygon","coordinates":[[[24.937147,42.130785],[24.936346,42.130613],[24.936224,42.130604],[24.935753,42.130523],[24.934015,42.130099],[24.932361,42.129724],[24.931369,42.129434],[24.931346,42.129443],[24.931232,42.129403],[24.930773,42.129295],[24.929551,42.128955],[24.929695,42.128534],[24.929837,42.128211],[24.929938,42.128157],[24.930574,42.128152],[24.930501,42.127643],[24.930393,42.126495],[24.930226,42.126502],[24.930233,42.127011],[24.930172,42.127252],[24.930089,42.127408],[24.929861,42.127743],[24.929225,42.128485],[24.929134,42.12865],[24.929097,42.128818],[24.92862,42.128662],[24.927849,42.128382],[24.926662,42.127907],[24.925515,42.12738],[24.924511,42.126857],[24.923735,42.126413],[24.922794,42.125829],[24.921907,42.125209],[24.921144,42.124609],[24.920266,42.123861],[24.919136,42.122811],[24.917942,42.121674],[24.916876,42.120689],[24.916591,42.120397],[24.913509,42.117449],[24.913278,42.117676],[24.915477,42.119782],[24.91576,42.120076],[24.916311,42.120558],[24.91718,42.121428],[24.918875,42.123077],[24.91963,42.123785],[24.920254,42.124333],[24.92,42.124286],[24.919748,42.124292],[24.919461,42.124347],[24.919232,42.124447],[24.91909,42.124538],[24.918946,42.124673],[24.918495,42.125226],[24.918605,42.125275],[24.919009,42.12479],[24.919209,42.124607],[24.919436,42.124485],[24.919649,42.124423],[24.919813,42.124407],[24.920086,42.124429],[24.920284,42.12448],[24.920412,42.124543],[24.920594,42.124662],[24.920704,42.124789],[24.921137,42.125124],[24.922319,42.12595],[24.923263,42.126557],[24.924053,42.127011],[24.925388,42.127696],[24.926558,42.128227],[24.927766,42.128711],[24.929114,42.129181],[24.92922,42.129432],[24.929332,42.129541],[24.929484,42.129639],[24.929709,42.129747],[24.92994,42.129818],[24.930106,42.129844],[24.930289,42.12985],[24.931165,42.129787],[24.931387,42.129798],[24.931556,42.129826],[24.93175,42.129879],[24.93177,42.12984],[24.933687,42.130302],[24.933716,42.130237],[24.936141,42.130824],[24.937168,42.131088],[24.938559,42.131299],[24.938556,42.131309],[24.939038,42.131367],[24.939055,42.131394],[24.940993,42.131447],[24.941058,42.131493],[24.944699,42.131566],[24.946835,42.131647],[24.947069,42.131627],[24.947062,42.131478],[24.946946,42.131472],[24.946847,42.131441],[24.944226,42.131361],[24.940378,42.131197],[24.940296,42.13122],[24.940251,42.131215],[24.940188,42.131157],[24.940143,42.13114],[24.938602,42.13097],[24.937266,42.130735],[24.937256,42.130764],[24.937159,42.130748],[24.937147,42.130785]],[[24.930286,42.127644],[24.930283,42.127628],[24.930296,42.127635],[24.930286,42.127644]]]},"properties":{"cadreg":400}}]}