{"type":"FeatureCollection","features":[{"type":"Feature","geometry":{"type":"Polygon","coordinates":[[[24.944418,42.137203],[24.944498,42.137206],[24.9445,42.13717],[24.944518,42.137171],[24.944523,42.13709],[24.944471,42.137088],[24.944469,42.137115],[24.944423,42.137114],[24.944418,42.137203]]]},"properties":{"num":1}},{"type":"Feature","geometry":{"type":"Polygon","coordinates":[[[24.944391,42.137334],[24.944435,42.137323],[24.944412,42.137272],[24.944367,42.137282],[24.944391,42.137334]]]},"properties":{"num":2}},{"type":"Feature","geometry":{"type":"Polygon","coordinates":[[[24.944835,42.137183],[24.944815,42.137191],[24.944828,42.137211],[24.944843,42.137205],[24.944835,42.137183]]]},"properties":{"num":3}},{"type":"Feature","geometry":{"type":"Polygon","coordinates":[[[24.937312,42.1393],[24.937377,42.139296],[24.937379,42.139313],[24.937391,42.139322],[24.937525,42.139315],[24.937548,42.139295],[24.937534,42.139155],[24.937224,42.139172],[24.93724,42.139331],[24.937301,42.139327],[24.937314,42.139317],[24.937312,42.1393]]]},"properties":{"num":1}},{"type":"Feature","geometry":{"type":"Polygon","coordinates":[[[24.937794,42.139354],[24.937769,42.13932],[24.937736,42.139335],[24.937761,42.139369],[24.937794,42.139354]]]},"properties":{"num":2}},{"type":"Feature","geometry":{"type":"Polygon","coordinates":[[[24.936928,42.138192],[24.936903,42.138187],[24.936898,42.138205],[24.936922,42.13821],[24.936928,42.138192]]]},"properties":{"num":1}},{"type":"Feature","geometry":{"type":"Polygon","coordinates":[[[24.936777,42.138028],[24.93677,42.138073],[24.936987,42.13809],[24.936982,42.138126],[24.93706,42.138132],[24.937063,42.138118],[24.937168,42.138127],[24.937183,42.138045],[24.937077,42.138035],[24.937075,42.138052],[24.936777,42.138028]]]},"properties":{"num":1}},{"type":"Feature","geometry":{"type":"Polygon","coordinates":[[[24.937095,42.138121],[24.937063,42.138118],[24.937058,42.138141],[24.937091,42.138144],[24.937095,42.138121]]]},"properties":{"num":2}},{"type":"Feature","geometry":{"type":"Polygon","coordinates":[[[24.936638,42.138043],[24.936733,42.138049],[24.93674,42.137968],[24.936646,42.137962],[24.936638,42.138043]]]},"properties":{"num":3}},{"type":"Feature","geometry":{"type":"Polygon","coordinates":[[[24.929334,42.131155],[24.929342,42.131137],[24.929374,42.131145],[24.929398,42.131095],[24.929325,42.131075],[24.929286,42.131153],[24.929315,42.13116],[24.929334,42.131155]]]},"properties":{"num":1}},{"type":"Feature","geometry":{"type":"Polygon","coordinates":[[[24.929276,42.131431],[24.929203,42.13141],[24.929175,42.131466],[24.92925,42.131485],[24.929276,42.131431]]]},"properties":{"num":2}},{"type":"Feature","geometry":{"type":"Polygon","coordinates":[[[24.928921,42.131642],[24.92888,42.131628],[24.928851,42.131681],[24.929002,42.131729],[24.929025,42.131688],[24.928916,42.131652],[24.928921,42.131642]]]},"properties":{"num":1}},{"type":"Feature","geometry":{"type":"Polygon","coordinates":[[[24.92158,42.132194],[24.921272,42.132147],[24.921256,42.132196],[24.921564,42.132244],[24.92158,42.132194]]]},"properties":{"num":1}},{"type":"Feature","geometry":{"type":"Polygon","coordinates":[[[24.921564,42.132244],[24.921639,42.132256],[24.921656,42.132206],[24.92158,42.132194],[24.921564,42.132244]]]},"properties":{"num":2}},{"type":"Feature","geometry":{"type":"Polygon","coordinates":[[[24.921639,42.132256],[24.921677,42.132262],[24.921694,42.132212],[24.921656,42.132206],[24.921639,42.132256]]]},"properties":{"num":3}},{"type":"Feature","geometry":{"type":"Polygon","coordinates":[[[24.926732,42.129704],[24.926319,42.129592],[24.926266,42.129697],[24.926682,42.129809],[24.926732,42.129704]]]},"properties":{"num":1}},{"type":"Feature","geometry":{"type":"Polygon","coordinates":[[[24.926811,42.129562],[24.9264,42.12945],[24.92635,42.129554],[24.926762,42.129666],[24.926811,42.129562]]]},"properties":{"num":2}},{"type":"Feature","geometry":{"type":"Polygon","coordinates":[[[24.926851,42.129479],[24.926475,42.129373],[24.926409,42.12943],[24.9264,42.12945],[24.926811,42.129562],[24.926851,42.129479]]]},"properties":{"num":3}},{"type":"Feature","geometry":{"type":"Polygon","coordinates":[[[24.926555,42.13027],[24.925794,42.130115],[24.925554,42.130769],[24.926312,42.130924],[24.926555,42.13027]]]},"properties":{"num":1}},{"type":"Feature","geometry":{"type":"Polygon","coordinates":[[[24.926646,42.130215],[24.926429,42.13017],[24.926404,42.130239],[24.926555,42.13027],[24.926477,42.130479],[24.926588,42.130501],[24.92662,42.130413],[24.926585,42.130406],[24.92663,42.130282],[24.926622,42.13028],[24.926646,42.130215]]]},"properties":{"num":2}},{"type":"Feature","geometry":{"type":"Polygon","coordinates":[[[24.927122,42.131061],[24.927136,42.130693],[24.926645,42.130681],[24.926633,42.130979],[24.927122,42.131061]]]},"properties":{"num":1}},{"type":"Feature","geometry":{"type":"Polygon","coordinates":[[[24.926428,42.129776],[24.926147,42.1297],[24.926064,42.129957],[24.92681,42.130091],[24.926853,42.129957],[24.926682,42.12991],[24.926701,42.129851],[24.926419,42.1298],[24.926428,42.129776]]]},"properties":{"num":1}},{"type":"Feature","geometry":{"type":"Polygon","coordinates":[[[24.925365,42.130104],[24.924707,42.130082],[24.924668,42.130733],[24.925325,42.130754],[24.925365,42.130104]]]},"properties":{"num":1}},{"type":"Feature","geometry":{"type":"Polygon","coordinates":[[[24.924713,42.129903],[24.924715,42.129876],[24.924671,42.129874],[24.924671,42.129866],[24.924633,42.129864],[24.924631,42.129898],[24.924598,42.129897],[24.924596,42.129947],[24.924722,42.129951],[24.924724,42.129904],[24.924713,42.129903]]]},"properties":{"num":1}},{"type":"Feature","geometry":{"type":"Polygon","coordinates":[[[24.925381,42.129954],[24.925387,42.129775],[24.924834,42.129762],[24.924832,42.129832],[24.924771,42.129831],[24.924767,42.129942],[24.925381,42.129954]]]},"properties":{"num":2}},{"type":"Feature","geometry":{"type":"Polygon","coordinates":[[[24.924934,42.129651],[24.92451,42.129539],[24.924524,42.129758],[24.925387,42.129775],[24.925389,42.129702],[24.924934,42.129651]]]},"properties":{"num":3}},{"type":"Feature","geometry":{"type":"Polygon","coordinates":[[[24.928538,42.130506],[24.928487,42.130492],[24.92847,42.130528],[24.928519,42.130542],[24.928538,42.130506]]]},"properties":{"num":1}},{"type":"Feature","geometry":{"type":"Polygon","coordinates":[[[24.927407,42.129659],[24.926932,42.129524],[24.926837,42.129709],[24.927312,42.129844],[24.927407,42.129659]]]},"properties":{"num":1}},{"type":"Feature","geometry":{"type":"Polygon","coordinates":[[[24.927212,42.130056],[24.927725,42.130199],[24.927925,42.129805],[24.927412,42.129661],[24.927212,42.130056]]]},"properties":{"num":3}},{"type":"Feature","geometry":{"type":"Polygon","coordinates":[[[24.928687,42.13062],[24.928707,42.13058],[24.928768,42.130596],[24.928801,42.130528],[24.928628,42.130482],[24.928575,42.13059],[24.928687,42.13062]]]},"properties":{"num":1}},{"type":"Feature","geometry":{"type":"Polygon","coordinates":[[[24.928798,42.130527],[24.928966,42.130184],[24.928854,42.130153],[24.928822,42.130217],[24.928717,42.130189],[24.928693,42.130217],[24.928565,42.130479],[24.928622,42.130494],[24.928628,42.130482],[24.928798,42.130527]]]},"properties":{"num":2}},{"type":"Feature","geometry":{"type":"Polygon","coordinates":[[[24.930891,42.129911],[24.930653,42.129897],[24.930644,42.129999],[24.930882,42.130013],[24.930891,42.129911]]]},"properties":{"num":1}},{"type":"Feature","geometry":{"type":"Polygon","coordinates":[[[24.931174,42.129939],[24.93089,42.129921],[24.930882,42.130013],[24.931162,42.130029],[24.931174,42.129939]]]},"properties":{"num":1}},{"type":"Feature","geometry":{"type":"Polygon","coordinates":[[[24.927655,42.131381],[24.927376,42.131315],[24.927332,42.13142],[24.92761,42.131485],[24.927655,42.131381]]]},"properties":{"num":1}},{"type":"Feature","geometry":{"type":"Polygon","coordinates":[[[24.928071,42.131479],[24.927655,42.131381],[24.92761,42.131485],[24.928026,42.131583],[24.928071,42.131479]]]},"properties":{"num":2}},{"type":"Feature","geometry":{"type":"Polygon","coordinates":[[[24.929401,42.130339],[24.92929,42.130309],[24.929097,42.130707],[24.929208,42.130737],[24.929401,42.130339]]]},"properties":{"num":1}},{"type":"Feature","geometry":{"type":"Polygon","coordinates":[[[24.929658,42.1304],[24.929511,42.130361],[24.929308,42.130786],[24.929455,42.130824],[24.929658,42.1304]]]},"properties":{"num":2}},{"type":"Feature","geometry":{"type":"Polygon","coordinates":[[[24.928667,42.131333],[24.928745,42.131171],[24.928795,42.131184],[24.928837,42.131094],[24.928788,42.131081],[24.928847,42.130959],[24.928725,42.130925],[24.928544,42.131301],[24.928667,42.131333]]]},"properties":{"num":1}},{"type":"Feature","geometry":{"type":"Polygon","coordinates":[[[24.928813,42.131188],[24.928745,42.131171],[24.928666,42.131335],[24.928733,42.131353],[24.928813,42.131188]]]},"properties":{"num":2}},{"type":"Feature","geometry":{"type":"Polygon","coordinates":[[[24.928653,42.131074],[24.928621,42.131066],[24.928602,42.131104],[24.928634,42.131113],[24.928653,42.131074]]]},"properties":{"num":3}},{"type":"Feature","geometry":{"type":"Polygon","coordinates":[[[24.930725,42.13105],[24.930044,42.130864],[24.930004,42.13095],[24.930685,42.131133],[24.930725,42.13105]]]},"properties":{"num":1}},{"type":"Feature","geometry":{"type":"Polygon","coordinates":[[[24.930688,42.130334],[24.930552,42.130299],[24.930315,42.130814],[24.930452,42.13085],[24.930688,42.130334]]]},"properties":{"num":2}},{"type":"Feature","geometry":{"type":"Polygon","coordinates":[[[24.931219,42.130225],[24.930933,42.130195],[24.930918,42.130269],[24.93101,42.13028],[24.931009,42.130285],[24.931206,42.130305],[24.931219,42.130225]]]},"properties":{"num":1}},{"type":"Feature","geometry":{"type":"Polygon","coordinates":[[[24.93101,42.13028],[24.93086,42.130263],[24.930767,42.130689],[24.930912,42.130706],[24.93101,42.13028]]]},"properties":{"num":2}},{"type":"Feature","geometry":{"type":"Polygon","coordinates":[[[24.92985,42.13046],[24.929738,42.13043],[24.929548,42.130827],[24.92966,42.130857],[24.92985,42.13046]]]},"properties":{"num":1}},{"type":"Feature","geometry":{"type":"Polygon","coordinates":[[[24.929563,42.130797],[24.929516,42.130785],[24.929502,42.130815],[24.929548,42.130827],[24.929563,42.130797]]]},"properties":{"num":2}},{"type":"Feature","geometry":{"type":"Polygon","coordinates":[[[24.930397,42.133168],[24.929673,42.133105],[24.929656,42.133209],[24.929727,42.133219],[24.930377,42.133279],[24.930397,42.133168]]]},"properties":{"num":1}},{"type":"Feature","geometry":{"type":"Polygon","coordinates":[[[24.930498,42.132975],[24.929584,42.132895],[24.929549,42.133095],[24.930463,42.133175],[24.930498,42.132975]]]},"properties":{"num":2}},{"type":"Feature","geometry":{"type":"Polygon","coordinates":[[[24.930551,42.13288],[24.930504,42.132873],[24.930497,42.132896],[24.930548,42.132903],[24.930551,42.13288]]]},"properties":{"num":3}},{"type":"Feature","geometry":{"type":"Polygon","coordinates":[[[24.92757,42.130365],[24.927425,42.130363],[24.927407,42.130889],[24.927555,42.130891],[24.92757,42.130365]]]},"properties":{"num":1}},{"type":"Feature","geometry":{"type":"Polygon","coordinates":[[[24.9286,42.131567],[24.928482,42.131536],[24.928463,42.131574],[24.928582,42.131606],[24.9286,42.131567]]]},"properties":{"num":1}},{"type":"Feature","geometry":{"type":"Polygon","coordinates":[[[24.928719,42.131598],[24.9286,42.131567],[24.928582,42.131606],[24.9287,42.131638],[24.928719,42.131598]]]},"properties":{"num":1}},{"type":"Feature","geometry":{"type":"Polygon","coordinates":[[[24.928836,42.131629],[24.928719,42.131598],[24.9287,42.131638],[24.928817,42.13167],[24.928836,42.131629]]]},"properties":{"num":1}},{"type":"Feature","geometry":{"type":"Polygon","coordinates":[[[24.919187,42.126923],[24.919165,42.126847],[24.91902,42.126871],[24.919042,42.126947],[24.919187,42.126923]]]},"properties":{"num":1}},{"type":"Feature","geometry":{"type":"Polygon","coordinates":[[[24.918828,42.126619],[24.918816,42.126572],[24.918778,42.126577],[24.91879,42.126625],[24.918828,42.126619]]]},"properties":{"num":2}},{"type":"Feature","geometry":{"type":"Polygon","coordinates":[[[24.919519,42.126491],[24.919497,42.126416],[24.919394,42.126433],[24.919416,42.126509],[24.919519,42.126491]]]},"properties":{"num":3}},{"type":"Feature","geometry":{"type":"Polygon","coordinates":[[[24.918751,42.126271],[24.918746,42.126253],[24.918713,42.126259],[24.918718,42.126277],[24.918751,42.126271]]]},"properties":{"num":4}},{"type":"Feature","geometry":{"type":"Polygon","coordinates":[[[24.919066,42.126211],[24.919038,42.126116],[24.918806,42.126154],[24.918833,42.126249],[24.919066,42.126211]]]},"properties":{"num":5}},{"type":"Feature","geometry":{"type":"Polygon","coordinates":[[[24.943449,42.136509],[24.943347,42.136502],[24.943322,42.13672],[24.943423,42.136727],[24.943449,42.136509]]]},"properties":{"num":1}},{"type":"Feature","geometry":{"type":"Polygon","coordinates":[[[24.946701,42.135496],[24.946678,42.135401],[24.946588,42.135415],[24.946611,42.135508],[24.946701,42.135496]]]},"properties":{"num":1}},{"type":"Feature","geometry":{"type":"Polygon","coordinates":[[[24.946618,42.135507],[24.946627,42.13554],[24.946709,42.135529],[24.946701,42.135496],[24.946618,42.135507]]]},"properties":{"num":2}},{"type":"Feature","geometry":{"type":"Polygon","coordinates":[[[24.946623,42.135526],[24.946618,42.135507],[24.946611,42.135508],[24.946603,42.135477],[24.946576,42.135482],[24.94659,42.13553],[24.946623,42.135526]]]},"properties":{"num":3}},{"type":"Feature","geometry":{"type":"Polygon","coordinates":[[[24.945801,42.135708],[24.945779,42.135631],[24.94566,42.135654],[24.945684,42.135731],[24.945801,42.135708]]]},"properties":{"num":1}},{"type":"Feature","geometry":{"type":"Polygon","coordinates":[[[24.946039,42.135583],[24.946023,42.135548],[24.945903,42.135577],[24.945919,42.135612],[24.946039,42.135583]]]},"properties":{"num":2}},{"type":"Feature","geometry":{"type":"Polygon","coordinates":[[[24.947781,42.130745],[24.947786,42.130631],[24.947822,42.130632],[24.947823,42.130603],[24.947714,42.130601],[24.947707,42.130743],[24.947781,42.130745]]]},"properties":{"num":1}},{"type":"Feature","geometry":{"type":"Polygon","coordinates":[[[24.940383,42.127036],[24.940334,42.127031],[24.940322,42.127098],[24.94037,42.127103],[24.940383,42.127036]]]},"properties":{"num":1}},{"type":"Feature","geometry":{"type":"Polygon","coordinates":[[[24.940433,42.127041],[24.940383,42.127036],[24.94037,42.127103],[24.94042,42.127108],[24.940433,42.127041]]]},"properties":{"num":2}},{"type":"Feature","geometry":{"type":"Polygon","coordinates":[[[24.937425,42.129528],[24.937435,42.129499],[24.93745,42.129502],[24.937473,42.12943],[24.937426,42.129422],[24.937432,42.129401],[24.937385,42.129394],[24.937348,42.129411],[24.937318,42.129509],[24.937425,42.129528]]]},"properties":{"num":1}},{"type":"Feature","geometry":{"type":"Polygon","coordinates":[[[24.932971,42.129551],[24.932947,42.129589],[24.932995,42.129605],[24.933017,42.129567],[24.932971,42.129551]]]},"properties":{"num":2}},{"type":"Feature","geometry":{"type":"Polygon","coordinates":[[[24.933333,42.12968],[24.933305,42.129752],[24.933688,42.129827],[24.933715,42.129753],[24.933333,42.12968]]]},"properties":{"num":3}},{"type":"Feature","geometry":{"type":"Polygon","coordinates":[[[24.933802,42.129848],[24.934097,42.129905],[24.934132,42.129807],[24.933838,42.12975],[24.933802,42.129848]]]},"properties":{"num":4}},{"type":"Feature","geometry":{"type":"Polygon","coordinates":[[[24.934389,42.129881],[24.934338,42.130042],[24.935192,42.130192],[24.935243,42.13003],[24.934389,42.129881]]]},"properties":{"num":5}},{"type":"Feature","geometry":{"type":"Polygon","coordinates":[[[24.934923,42.129863],[24.935282,42.129927],[24.935299,42.129873],[24.934941,42.129809],[24.934923,42.129863]]]},"properties":{"num":6}},{"type":"Feature","geometry":{"type":"Polygon","coordinates":[[[24.935381,42.130059],[24.935359,42.130133],[24.935534,42.130163],[24.935555,42.13009],[24.935381,42.130059]]]},"properties":{"num":10}},{"type":"Feature","geometry":{"type":"Polygon","coordinates":[[[24.935556,42.130087],[24.935534,42.130163],[24.935696,42.130192],[24.935721,42.130117],[24.935556,42.130087]]]},"properties":{"num":11}},{"type":"Feature","geometry":{"type":"Polygon","coordinates":[[[24.93556,42.130087],[24.935654,42.130104],[24.935691,42.129989],[24.9356,42.129973],[24.93556,42.130087]]]},"properties":{"num":12}},{"type":"Feature","geometry":{"type":"Polygon","coordinates":[[[24.93555,42.129965],[24.935691,42.129989],[24.935749,42.129811],[24.935607,42.129786],[24.93555,42.129965]]]},"properties":{"num":13}},{"type":"Feature","geometry":{"type":"Polygon","coordinates":[[[24.935881,42.130397],[24.936217,42.130456],[24.936214,42.130465],[24.936257,42.130472],[24.93626,42.130463],[24.936387,42.130486],[24.936419,42.130385],[24.936087,42.130325],[24.936107,42.130262],[24.935932,42.130231],[24.935881,42.130397]]]},"properties":{"num":14}},{"type":"Feature","geometry":{"type":"Polygon","coordinates":[[[24.936486,42.130469],[24.936615,42.130492],[24.936625,42.130462],[24.936637,42.130464],[24.936647,42.130433],[24.936635,42.130431],[24.936643,42.130405],[24.936513,42.130381],[24.936486,42.130469]]]},"properties":{"num":15}},{"type":"Feature","geometry":{"type":"Polygon","coordinates":[[[24.936671,42.1305],[24.936697,42.130505],[24.936686,42.130539],[24.936826,42.13056],[24.936824,42.130564],[24.936879,42.130573],[24.936891,42.130539],[24.936915,42.130543],[24.93693,42.130494],[24.936686,42.13045],[24.936671,42.1305]]]},"properties":{"num":16}},{"type":"Feature","geometry":{"type":"Polygon","coordinates":[[[24.936979,42.130342],[24.937133,42.130371],[24.937217,42.130136],[24.937064,42.130105],[24.936979,42.130342]]]},"properties":{"num":17}},{"type":"Feature","geometry":{"type":"Polygon","coordinates":[[[24.935594,42.129474],[24.935563,42.129575],[24.935658,42.129589],[24.935689,42.129489],[24.935594,42.129474]]]},"properties":{"num":18}},{"type":"Feature","geometry":{"type":"Polygon","coordinates":[[[24.936336,42.129251],[24.936321,42.129295],[24.936358,42.129302],[24.936372,42.129258],[24.936336,42.129251]]]},"properties":{"num":19}},{"type":"Feature","geometry":{"type":"Polygon","coordinates":[[[24.936321,42.129295],[24.936337,42.129248],[24.936192,42.129225],[24.936184,42.129249],[24.936136,42.129242],[24.93615,42.129196],[24.936089,42.129186],[24.936081,42.129216],[24.936121,42.129222],[24.93611,42.129262],[24.936321,42.129295]]]},"properties":{"num":20}},{"type":"Feature","geometry":{"type":"Polygon","coordinates":[[[24.936086,42.129198],[24.935976,42.129182],[24.935965,42.129217],[24.935879,42.129203],[24.935871,42.12923],[24.935939,42.129242],[24.935943,42.129231],[24.936033,42.129245],[24.936044,42.12921],[24.936081,42.129216],[24.936086,42.129198]]]},"properties":{"num":21}},{"type":"Feature","geometry":{"type":"Polygon","coordinates":[[[24.935704,42.129185],[24.935724,42.129124],[24.93577,42.129132],[24.935787,42.129083],[24.935638,42.129055],[24.935605,42.129167],[24.935704,42.129185]]]},"properties":{"num":22}},{"type":"Feature","geometry":{"type":"Polygon","coordinates":[[[24.934205,42.1294],[24.934327,42.129421],[24.934396,42.129201],[24.934273,42.12918],[24.934264,42.129207],[24.934216,42.1292],[24.934176,42.12933],[24.934223,42.129337],[24.934205,42.1294]]]},"properties":{"num":23}},{"type":"Feature","geometry":{"type":"Polygon","coordinates":[[[24.934735,42.12883],[24.934705,42.128926],[24.934758,42.128936],[24.934787,42.12884],[24.934735,42.12883]]]},"properties":{"num":24}},{"type":"Feature","geometry":{"type":"Polygon","coordinates":[[[24.934746,42.128685],[24.934763,42.128625],[24.934576,42.128595],[24.934559,42.128655],[24.934746,42.128685]]]},"properties":{"num":26}},{"type":"Feature","geometry":{"type":"Polygon","coordinates":[[[24.933977,42.128519],[24.933948,42.128678],[24.934376,42.128722],[24.934407,42.128564],[24.933977,42.128519]]]},"properties":{"num":27}},{"type":"Feature","geometry":{"type":"Polygon","coordinates":[[[24.932952,42.12839],[24.932915,42.128507],[24.933349,42.128576],[24.933383,42.128456],[24.932952,42.12839]]]},"properties":{"num":28}},{"type":"Feature","geometry":{"type":"Polygon","coordinates":[[[24.933332,42.128396],[24.933326,42.128418],[24.93337,42.128423],[24.933375,42.128402],[24.933332,42.128396]]]},"properties":{"num":29}},{"type":"Feature","geometry":{"type":"Polygon","coordinates":[[[24.931991,42.128372],[24.931938,42.128632],[24.932164,42.128658],[24.932193,42.128524],[24.932242,42.12853],[24.932262,42.128445],[24.932205,42.128439],[24.932213,42.128399],[24.931991,42.128372]]]},"properties":{"num":30}},{"type":"Feature","geometry":{"type":"Polygon","coordinates":[[[24.931881,42.128771],[24.931891,42.128736],[24.931736,42.128714],[24.931727,42.128747],[24.931881,42.128771]]]},"properties":{"num":31}},{"type":"Feature","geometry":{"type":"Polygon","coordinates":[[[24.931924,42.128856],[24.932422,42.128932],[24.93245,42.128825],[24.931957,42.128747],[24.931924,42.128856]]]},"properties":{"num":32}},{"type":"Feature","geometry":{"type":"Polygon","coordinates":[[[24.939006,42.137966],[24.93905,42.137673],[24.938927,42.137664],[24.938922,42.13769],[24.938929,42.137702],[24.938928,42.137715],[24.938872,42.13771],[24.938841,42.1379],[24.9389,42.137905],[24.938898,42.137918],[24.938884,42.137928],[24.938882,42.137955],[24.939006,42.137966]]]},"properties":{"num":1}},{"type":"Feature","geometry":{"type":"Polygon","coordinates":[[[24.939038,42.13775],[24.939014,42.137913],[24.939095,42.137919],[24.939119,42.137758],[24.939038,42.13775]]]},"properties":{"num":2}},{"type":"Feature","geometry":{"type":"Polygon","coordinates":[[[24.93756,42.13767],[24.937521,42.137666],[24.937528,42.137631],[24.937478,42.137627],[24.93747,42.137662],[24.937455,42.137661],[24.937438,42.137735],[24.937456,42.137738],[24.937443,42.137787],[24.937496,42.137794],[24.937508,42.137737],[24.937545,42.137742],[24.93756,42.13767]]]},"properties":{"num":3}},{"type":"Feature","geometry":{"type":"Polygon","coordinates":[[[24.938597,42.135646],[24.938563,42.135799],[24.938774,42.135824],[24.93879,42.135757],[24.938758,42.135753],[24.93878,42.135656],[24.938682,42.135644],[24.938678,42.135664],[24.93863,42.135657],[24.938632,42.13565],[24.938597,42.135646]]]},"properties":{"num":1}},{"type":"Feature","geometry":{"type":"Polygon","coordinates":[[[24.939986,42.135875],[24.94,42.13582],[24.939819,42.135797],[24.939797,42.135877],[24.939817,42.13588],[24.93979,42.135986],[24.93996,42.136008],[24.939993,42.135875],[24.939986,42.135875]]]},"properties":{"num":1}},{"type":"Feature","geometry":{"type":"Polygon","coordinates":[[[24.937634,42.135712],[24.937661,42.13564],[24.93769,42.135644],[24.937702,42.135594],[24.937593,42.135579],[24.93756,42.135703],[24.937634,42.135712]]]},"properties":{"num":3}},{"type":"Feature","geometry":{"type":"Polygon","coordinates":[[[24.938337,42.135584],[24.938258,42.135576],[24.938246,42.135648],[24.938325,42.135656],[24.938337,42.135584]]]},"properties":{"num":1}},{"type":"Feature","geometry":{"type":"Polygon","coordinates":[[[24.938325,42.135656],[24.938273,42.135651],[24.938269,42.135676],[24.938321,42.135682],[24.938325,42.135656]]]},"properties":{"num":2}},{"type":"Feature","geometry":{"type":"Polygon","coordinates":[[[24.936798,42.13539],[24.9366,42.135366],[24.936598,42.135374],[24.936511,42.135362],[24.936507,42.135381],[24.93638,42.135365],[24.936384,42.135349],[24.935982,42.1353],[24.935926,42.13556],[24.936758,42.135663],[24.936809,42.135417],[24.936792,42.135415],[24.936798,42.13539]]]},"properties":{"num":1}},{"type":"Feature","geometry":{"type":"Polygon","coordinates":[[[24.937265,42.135467],[24.93691,42.135426],[24.93689,42.135523],[24.937245,42.135564],[24.937265,42.135467]]]},"properties":{"num":1}},{"type":"Feature","geometry":{"type":"Polygon","coordinates":[[[24.937217,42.135779],[24.937263,42.135562],[24.937246,42.13556],[24.937245,42.135564],[24.936914,42.135526],[24.936883,42.135687],[24.936969,42.135697],[24.936958,42.135749],[24.937217,42.135779]]]},"properties":{"num":2}},{"type":"Feature","geometry":{"type":"Polygon","coordinates":[[[24.937272,42.135429],[24.937174,42.135418],[24.937167,42.135456],[24.937265,42.135467],[24.937272,42.135429]]]},"properties":{"num":3}},{"type":"Feature","geometry":{"type":"Polygon","coordinates":[[[24.937174,42.135418],[24.937131,42.135413],[24.937124,42.135451],[24.937167,42.135456],[24.937174,42.135418]]]},"properties":{"num":4}},{"type":"Feature","geometry":{"type":"Polygon","coordinates":[[[24.93704,42.137015],[24.936673,42.136973],[24.93665,42.137087],[24.937017,42.137128],[24.93704,42.137015]]]},"properties":{"num":1}},{"type":"Feature","geometry":{"type":"Polygon","coordinates":[[[24.93734,42.137008],[24.937185,42.136993],[24.937151,42.137175],[24.937308,42.137191],[24.93734,42.137008]]]},"properties":{"num":2}},{"type":"Feature","geometry":{"type":"Polygon","coordinates":[[[24.937164,42.136733],[24.936299,42.136641],[24.936275,42.136756],[24.937144,42.136843],[24.937164,42.136733]]]},"properties":{"num":3}},{"type":"Feature","geometry":{"type":"Polygon","coordinates":[[[24.937189,42.136228],[24.936456,42.136155],[24.936416,42.136378],[24.937148,42.136452],[24.937189,42.136228]]]},"properties":{"num":4}},{"type":"Feature","geometry":{"type":"Polygon","coordinates":[[[24.937503,42.136289],[24.937427,42.13628],[24.937401,42.136415],[24.937476,42.136424],[24.937503,42.136289]]]},"properties":{"num":5}},{"type":"Feature","geometry":{"type":"Polygon","coordinates":[[[24.937401,42.136415],[24.937389,42.136469],[24.937468,42.136478],[24.93748,42.136424],[24.937401,42.136415]]]},"properties":{"num":6}},{"type":"Feature","geometry":{"type":"Polygon","coordinates":[[[24.936859,42.13101],[24.936981,42.131035],[24.936992,42.131003],[24.93694,42.130994],[24.936946,42.130973],[24.936927,42.13097],[24.936932,42.130954],[24.936881,42.130944],[24.936859,42.13101]]]},"properties":{"num":2}},{"type":"Feature","geometry":{"type":"Polygon","coordinates":[[[24.937509,42.131124],[24.937536,42.131039],[24.937353,42.131007],[24.937326,42.131093],[24.937509,42.131124]]]},"properties":{"num":3}},{"type":"Feature","geometry":{"type":"Polygon","coordinates":[[[24.938332,42.131197],[24.938297,42.131194],[24.938287,42.131241],[24.93832,42.131245],[24.938332,42.131197]]]},"properties":{"num":4}},{"type":"Feature","geometry":{"type":"Polygon","coordinates":[[[24.93889,42.13126],[24.938697,42.131234],[24.938683,42.13131],[24.938811,42.131323],[24.93881,42.131326],[24.938873,42.131333],[24.93889,42.13126]]]},"properties":{"num":7}},{"type":"Feature","geometry":{"type":"Polygon","coordinates":[[[24.938874,42.131329],[24.938998,42.131345],[24.939014,42.131278],[24.938889,42.131262],[24.938874,42.131329]]]},"properties":{"num":8}}]}