{"type":"FeatureCollection","features":[{"type":"Feature","geometry":{"type":"Polygon","coordinates":[[[24.841613,42.218463],[24.842927,42.215386],[24.84518,42.215624],[24.85031,42.216125],[24.850242,42.216279],[24.850377,42.2163],[24.854396,42.21667],[24.857207,42.216887],[24.859315,42.217068],[24.861469,42.217218],[24.861441,42.217053],[24.857395,42.21674],[24.857597,42.216595],[24.850499,42.215985],[24.845444,42.215487],[24.835116,42.214354],[24.831163,42.213971],[24.822265,42.212985],[24.815604,42.212213],[24.815357,42.212151],[24.814679,42.211789],[24.814011,42.211088],[24.813608,42.210814],[24.813209,42.210644],[24.811712,42.212025],[24.815256,42.212375],[24.815481,42.212387],[24.8314,42.214126],[24.831367,42.214318],[24.831263,42.214637],[24.831115,42.214977],[24.830833,42.215336],[24.830852,42.215774],[24.83096,42.215772],[24.831083,42.215885],[24.839161,42.217885],[24.841613,42.218463]]]},"properties":{"cadreg":1}},{"type":"Feature","geometry":{"type":"Polygon","coordinates":[[[24.854396,42.21667],[24.850242,42.216279],[24.848575,42.220101],[24.848548,42.220289],[24.848711,42.220441],[24.849121,42.220546],[24.850165,42.220742],[24.851345,42.221058],[24.851583,42.221044],[24.851646,42.221021],[24.852151,42.220673],[24.854984,42.218648],[24.857295,42.216895],[24.854396,42.21667]]]},"properties":{"cadreg":2}},{"type":"Feature","geometry":{"type":"Polygon","coordinates":[[[24.859315,42.217068],[24.857295,42.216895],[24.854984,42.218648],[24.852151,42.220673],[24.851646,42.221021],[24.851583,42.221044],[24.851345,42.221058],[24.851229,42.221035],[24.850165,42.220742],[24.849121,42.220546],[24.851241,42.221079],[24.851451,42.221104],[24.854722,42.220782],[24.855012,42.220764],[24.855249,42.22078],[24.856462,42.221011],[24.85677,42.221184],[24.857009,42.221306],[24.857091,42.221332],[24.859934,42.222151],[24.86032,42.222257],[24.860756,42.222351],[24.860885,42.222435],[24.86098,42.222541],[24.860947,42.222888],[24.860979,42.222972],[24.861027,42.223028],[24.861137,42.223085],[24.861591,42.223098],[24.862219,42.223077],[24.862682,42.223024],[24.862303,42.221654],[24.861929,42.219906],[24.861469,42.217218],[24.859315,42.217068]]]},"properties":{"cadreg":3}},{"type":"Feature","geometry":{"type":"Polygon","coordinates":[[[24.860361,42.214535],[24.851509,42.213662],[24.850499,42.215985],[24.857597,42.216595],[24.858486,42.215957],[24.858583,42.215862],[24.859132,42.215437],[24.860207,42.214634],[24.860361,42.214535]]]},"properties":{"cadreg":4}},{"type":"Feature","geometry":{"type":"Polygon","coordinates":[[[24.82601,42.201006],[24.823761,42.200636],[24.823721,42.200614],[24.823719,42.20056],[24.823744,42.200518],[24.823599,42.200487],[24.823516,42.200496],[24.823437,42.200611],[24.823308,42.200715],[24.822806,42.20132],[24.822465,42.201563],[24.821222,42.202806],[24.821142,42.202846],[24.820838,42.202951],[24.820701,42.203044],[24.820542,42.203329],[24.820505,42.203462],[24.817613,42.206312],[24.817649,42.206417],[24.814899,42.209085],[24.813209,42.210644],[24.813608,42.210814],[24.814011,42.211088],[24.814679,42.211789],[24.815357,42.212151],[24.815604,42.212213],[24.815708,42.212225],[24.815722,42.212151],[24.822307,42.212876],[24.830084,42.202113],[24.831327,42.20178],[24.831343,42.201741],[24.831371,42.201727],[24.831145,42.201781],[24.830937,42.201757],[24.830496,42.201739],[24.83043,42.2017],[24.830425,42.201594],[24.830313,42.201589],[24.830276,42.201647],[24.829862,42.201611],[24.82601,42.201006]]]},"properties":{"cadreg":5}},{"type":"Feature","geometry":{"type":"Polygon","coordinates":[[[24.830084,42.202113],[24.822307,42.212876],[24.815722,42.212151],[24.815708,42.212225],[24.822265,42.212985],[24.831798,42.214034],[24.832203,42.212986],[24.832331,42.212747],[24.83236,42.212746],[24.83234,42.212713],[24.832348,42.212555],[24.832374,42.212391],[24.832424,42.212255],[24.834907,42.206833],[24.837195,42.201425],[24.83074,42.201702],[24.830503,42.201687],[24.830437,42.201657],[24.83043,42.2017],[24.830496,42.201739],[24.830937,42.201757],[24.831145,42.201781],[24.831371,42.201727],[24.831343,42.201741],[24.831327,42.20178],[24.830084,42.202113]]]},"properties":{"cadreg":6}},{"type":"Feature","geometry":{"type":"Polygon","coordinates":[[[24.837195,42.201425],[24.834907,42.206833],[24.832424,42.212255],[24.832374,42.212391],[24.832348,42.212555],[24.83234,42.212713],[24.83236,42.212746],[24.832331,42.212747],[24.832203,42.212986],[24.831798,42.214034],[24.835116,42.214354],[24.845332,42.215476],[24.845374,42.215367],[24.840453,42.214817],[24.844637,42.205303],[24.846431,42.20108],[24.837195,42.201425]]]},"properties":{"cadreg":7}},{"type":"Feature","geometry":{"type":"Polygon","coordinates":[[[24.846431,42.20108],[24.844637,42.205303],[24.840453,42.214817],[24.845374,42.215367],[24.845332,42.215476],[24.845444,42.215487],[24.851724,42.200985],[24.854402,42.201002],[24.855477,42.201038],[24.856283,42.201103],[24.856367,42.201124],[24.856443,42.201165],[24.856497,42.201258],[24.856575,42.201069],[24.855517,42.20098],[24.854482,42.200948],[24.853657,42.200939],[24.853656,42.200902],[24.850523,42.200897],[24.846545,42.201043],[24.846541,42.201078],[24.846431,42.20108]]]},"properties":{"cadreg":8}},{"type":"Feature","geometry":{"type":"Polygon","coordinates":[[[24.854402,42.201002],[24.851724,42.200985],[24.845444,42.215487],[24.850499,42.215985],[24.851509,42.213662],[24.851359,42.213648],[24.856788,42.201056],[24.856658,42.201051],[24.856645,42.201074],[24.856575,42.201069],[24.856497,42.201258],[24.856443,42.201165],[24.856367,42.201124],[24.856283,42.201103],[24.855477,42.201038],[24.854402,42.201002]]]},"properties":{"cadreg":9}},{"type":"Feature","geometry":{"type":"Polygon","coordinates":[[[24.863903,42.186873],[24.856501,42.187928],[24.857231,42.190559],[24.85715,42.190569],[24.858761,42.196633],[24.858632,42.196757],[24.856767,42.200902],[24.856832,42.200946],[24.858698,42.196976],[24.859042,42.19675],[24.859135,42.196721],[24.86866,42.195309],[24.867821,42.193992],[24.867742,42.193804],[24.867024,42.190558],[24.866707,42.19002],[24.866384,42.189562],[24.865686,42.188818],[24.864161,42.187395],[24.864065,42.187217],[24.864033,42.18708],[24.864023,42.186857],[24.864046,42.186747],[24.863918,42.18677],[24.863903,42.186873]]]},"properties":{"cadreg":10}},{"type":"Feature","geometry":{"type":"Polygon","coordinates":[[[24.852806,42.188387],[24.852822,42.188856],[24.852749,42.188866],[24.852874,42.189373],[24.852389,42.189438],[24.8524,42.189511],[24.852359,42.189528],[24.851695,42.189558],[24.851807,42.190085],[24.851535,42.190158],[24.851736,42.191099],[24.852138,42.193587],[24.852188,42.193616],[24.852192,42.193645],[24.852146,42.193696],[24.852227,42.194414],[24.852227,42.194889],[24.852186,42.195293],[24.851404,42.200626],[24.850057,42.200663],[24.846625,42.200798],[24.846458,42.200827],[24.84644,42.200946],[24.8466,42.200929],[24.850295,42.200786],[24.854737,42.200776],[24.855551,42.200818],[24.856832,42.200946],[24.856767,42.200902],[24.858632,42.196757],[24.858761,42.196633],[24.85715,42.190569],[24.857231,42.190559],[24.856501,42.187928],[24.863903,42.186873],[24.863918,42.18677],[24.852806,42.188387]]]},"properties":{"cadreg":11}},{"type":"Feature","geometry":{"type":"MultiPolygon","coordinates":[[[[24.845469,42.190876],[24.845177,42.19088],[24.845137,42.19221],[24.845236,42.19223],[24.845323,42.192267],[24.846291,42.192879],[24.845945,42.193766],[24.845485,42.194325],[24.845319,42.194263],[24.845202,42.194241],[24.844771,42.194206],[24.84472,42.194643],[24.844256,42.194609],[24.844214,42.194619],[24.844205,42.195661],[24.844238,42.19568],[24.844236,42.195848],[24.844344,42.195844],[24.844154,42.197227],[24.844198,42.197225],[24.844183,42.19733],[24.844157,42.197376],[24.844116,42.197389],[24.843627,42.200924],[24.846458,42.200827],[24.846625,42.200798],[24.850057,42.200663],[24.851404,42.200626],[24.852186,42.195293],[24.852227,42.194889],[24.852227,42.194414],[24.852146,42.193696],[24.852192,42.193645],[24.852188,42.193616],[24.852138,42.193587],[24.851718,42.191012],[24.851344,42.191129],[24.851003,42.191166],[24.850906,42.190657],[24.850061,42.190747],[24.850004,42.190457],[24.849727,42.190488],[24.849706,42.190389],[24.847128,42.190723],[24.845469,42.190876]]],[[[24.851597,42.190427],[24.851562,42.190282],[24.851251,42.190317],[24.851278,42.190462],[24.851597,42.190427]]]]},"properties":{"cadreg":12}},{"type":"Feature","geometry":{"type":"Polygon","coordinates":[[[24.837634,42.198736],[24.837254,42.201232],[24.830546,42.201506],[24.830456,42.201545],[24.830425,42.201594],[24.830423,42.201641],[24.830503,42.201687],[24.83074,42.201702],[24.837195,42.201425],[24.846541,42.201078],[24.846545,42.201043],[24.849908,42.200911],[24.850523,42.200897],[24.853656,42.200902],[24.853657,42.200939],[24.854482,42.200948],[24.855517,42.20098],[24.856645,42.201074],[24.856658,42.201051],[24.856788,42.201056],[24.856832,42.200946],[24.855551,42.200818],[24.854737,42.200776],[24.850295,42.200786],[24.8466,42.200929],[24.84644,42.200946],[24.846458,42.200827],[24.843627,42.200924],[24.844116,42.197389],[24.844157,42.197376],[24.844183,42.19733],[24.844198,42.197225],[24.844118,42.197227],[24.844104,42.197332],[24.844063,42.197343],[24.837992,42.196127],[24.837634,42.198736]]]},"properties":{"cadreg":13}},{"type":"Feature","geometry":{"type":"Polygon","coordinates":[[[24.837992,42.196127],[24.834594,42.19545],[24.833838,42.201372],[24.837254,42.201232],[24.837634,42.198736],[24.837992,42.196127]]]},"properties":{"cadreg":14}},{"type":"Feature","geometry":{"type":"Polygon","coordinates":[[[24.8326,42.189394],[24.834334,42.189015],[24.834415,42.188964],[24.834788,42.188613],[24.834824,42.188382],[24.834658,42.188368],[24.834577,42.188336],[24.83447,42.188432],[24.83421,42.188505],[24.833922,42.188691],[24.8338,42.188811],[24.833738,42.188836],[24.833142,42.188939],[24.832278,42.189128],[24.827911,42.189746],[24.827636,42.189873],[24.82755,42.18996],[24.827451,42.190113],[24.825886,42.194254],[24.823711,42.200167],[24.823713,42.200252],[24.823599,42.200487],[24.823744,42.200518],[24.823719,42.20056],[24.823721,42.200614],[24.823761,42.200636],[24.82601,42.201006],[24.829862,42.201611],[24.830276,42.201647],[24.830313,42.201589],[24.830425,42.201594],[24.830456,42.201545],[24.830546,42.201506],[24.833838,42.201372],[24.834594,42.19545],[24.834447,42.195426],[24.834507,42.19497],[24.834508,42.194715],[24.834471,42.194538],[24.832379,42.189289],[24.8326,42.189394]]]},"properties":{"cadreg":15}},{"type":"Feature","geometry":{"type":"Polygon","coordinates":[[[24.815076,42.199197],[24.81608,42.201922],[24.817613,42.206312],[24.820505,42.203462],[24.820542,42.203329],[24.820701,42.203044],[24.820838,42.202951],[24.821142,42.202846],[24.821222,42.202806],[24.822465,42.201563],[24.822806,42.20132],[24.823308,42.200715],[24.823437,42.200611],[24.823292,42.200554],[24.815076,42.199197]]]},"properties":{"cadreg":16}},{"type":"Feature","geometry":{"type":"Polygon","coordinates":[[[24.817648,42.187711],[24.817671,42.188132],[24.817652,42.188296],[24.817574,42.188621],[24.817441,42.188944],[24.817263,42.189234],[24.810244,42.198399],[24.812103,42.198655],[24.814842,42.199095],[24.81505,42.19913],[24.815076,42.199197],[24.823292,42.200554],[24.823437,42.200611],[24.823516,42.200496],[24.823599,42.200487],[24.823713,42.200252],[24.823711,42.200167],[24.825886,42.194254],[24.827451,42.190113],[24.82755,42.18996],[24.827636,42.189873],[24.827911,42.189746],[24.832278,42.189128],[24.833142,42.188939],[24.833738,42.188836],[24.8338,42.188811],[24.833922,42.188691],[24.83421,42.188505],[24.83447,42.188432],[24.834577,42.188336],[24.834624,42.188195],[24.825034,42.187804],[24.817593,42.187577],[24.817648,42.187711]]]},"properties":{"cadreg":17}},{"type":"Feature","geometry":{"type":"Polygon","coordinates":[[[24.834415,42.188964],[24.834334,42.189015],[24.8326,42.189394],[24.832379,42.189289],[24.834471,42.194538],[24.834508,42.194715],[24.834507,42.19497],[24.834447,42.195426],[24.84373,42.197278],[24.844063,42.197343],[24.844104,42.197332],[24.844118,42.197227],[24.841631,42.196727],[24.841893,42.195948],[24.840903,42.195948],[24.840828,42.195928],[24.840765,42.195878],[24.840751,42.195831],[24.840787,42.194817],[24.840771,42.194783],[24.840713,42.19476],[24.839501,42.194716],[24.839481,42.194693],[24.839518,42.193752],[24.839489,42.193727],[24.83858,42.193652],[24.838435,42.193593],[24.838344,42.193501],[24.838313,42.193416],[24.838319,42.193328],[24.838797,42.192037],[24.83936,42.190248],[24.839342,42.190198],[24.839293,42.190165],[24.838157,42.19005],[24.838128,42.190029],[24.838125,42.189996],[24.838704,42.188717],[24.834824,42.188382],[24.834788,42.188613],[24.834415,42.188964]]]},"properties":{"cadreg":18}},{"type":"Feature","geometry":{"type":"Polygon","coordinates":[[[24.82269,42.177784],[24.822564,42.177798],[24.822574,42.178305],[24.82243,42.178936],[24.821913,42.180326],[24.821007,42.18242],[24.820804,42.182771],[24.820101,42.184338],[24.819463,42.185568],[24.818512,42.187529],[24.818565,42.187605],[24.825034,42.187804],[24.834624,42.188195],[24.834745,42.187951],[24.834074,42.187793],[24.833137,42.187491],[24.832021,42.187068],[24.830945,42.186612],[24.829802,42.186016],[24.829068,42.18553],[24.827991,42.184713],[24.826963,42.183782],[24.826449,42.183234],[24.825566,42.182205],[24.8238,42.179461],[24.822732,42.177751],[24.82269,42.177784]]]},"properties":{"cadreg":19}},{"type":"Feature","geometry":{"type":"Polygon","coordinates":[[[24.818376,42.174653],[24.811326,42.174603],[24.810178,42.172236],[24.809864,42.171688],[24.809704,42.171455],[24.808836,42.170722],[24.806954,42.168989],[24.806643,42.168675],[24.806639,42.168634],[24.806677,42.168574],[24.807014,42.168334],[24.808131,42.168173],[24.808117,42.168052],[24.80657,42.168309],[24.806552,42.168367],[24.806456,42.168508],[24.806409,42.168628],[24.809588,42.171616],[24.80957,42.171719],[24.809628,42.171779],[24.810078,42.172548],[24.813074,42.178678],[24.813263,42.178683],[24.813439,42.179129],[24.817593,42.187577],[24.818565,42.187605],[24.818512,42.187529],[24.819463,42.185568],[24.820101,42.184338],[24.820862,42.182659],[24.819853,42.179208],[24.818451,42.174687],[24.818379,42.174682],[24.818376,42.174653]]]},"properties":{"cadreg":20}},{"type":"Feature","geometry":{"type":"Polygon","coordinates":[[[24.818972,42.174698],[24.818451,42.174687],[24.819853,42.179208],[24.820862,42.182659],[24.821007,42.18242],[24.821913,42.180326],[24.82243,42.178936],[24.822574,42.178305],[24.822564,42.177798],[24.82269,42.177784],[24.822732,42.177751],[24.819627,42.173007],[24.819538,42.173001],[24.820714,42.174785],[24.818974,42.174746],[24.818972,42.174698]]]},"properties":{"cadreg":21}},{"type":"Feature","geometry":{"type":"Polygon","coordinates":[[[24.816783,42.167676],[24.8163,42.167756],[24.81634,42.167824],[24.819194,42.172351],[24.822898,42.178005],[24.8238,42.179461],[24.825566,42.182205],[24.826449,42.183234],[24.826963,42.183782],[24.827991,42.184713],[24.829068,42.18553],[24.829802,42.186016],[24.830945,42.186612],[24.832021,42.187068],[24.833137,42.187491],[24.834074,42.187793],[24.834745,42.187951],[24.834819,42.187764],[24.833828,42.187492],[24.833272,42.187318],[24.83218,42.18689],[24.830558,42.186139],[24.829668,42.185603],[24.828663,42.184914],[24.827732,42.184155],[24.827801,42.184147],[24.829856,42.183583],[24.830171,42.183467],[24.831359,42.181558],[24.831159,42.181545],[24.831812,42.180505],[24.831847,42.180517],[24.83253,42.180399],[24.832532,42.180544],[24.833064,42.180434],[24.834185,42.178613],[24.83443,42.178387],[24.834532,42.178317],[24.834834,42.177587],[24.83551,42.177217],[24.835579,42.177143],[24.835439,42.176331],[24.834998,42.176075],[24.83576,42.176266],[24.837746,42.176971],[24.837797,42.176787],[24.835823,42.176074],[24.834734,42.175815],[24.833417,42.175568],[24.831856,42.175204],[24.824024,42.1728],[24.823851,42.172736],[24.823651,42.172599],[24.823312,42.172333],[24.823006,42.172065],[24.822719,42.171885],[24.822505,42.171806],[24.821973,42.171803],[24.821634,42.171838],[24.820003,42.172118],[24.819863,42.172123],[24.819755,42.172093],[24.819666,42.172042],[24.819018,42.171134],[24.816783,42.167676]]]},"properties":{"cadreg":22}},{"type":"Feature","geometry":{"type":"MultiPolygon","coordinates":[[[[24.833792,42.179256],[24.833064,42.180434],[24.832532,42.180544],[24.832568,42.180592],[24.835159,42.180718],[24.835194,42.1807],[24.835572,42.179594],[24.833856,42.179278],[24.833792,42.179256]]],[[[24.830289,42.183292],[24.832238,42.183419],[24.832441,42.181629],[24.831359,42.181558],[24.830289,42.183292]]],[[[24.827739,42.184155],[24.828663,42.184914],[24.829668,42.185603],[24.830558,42.186139],[24.83218,42.18689],[24.833272,42.187318],[24.833828,42.187492],[24.834819,42.187764],[24.834624,42.188195],[24.834577,42.188336],[24.834658,42.188368],[24.834779,42.188378],[24.83484,42.188146],[24.834924,42.187922],[24.835205,42.187435],[24.835565,42.186863],[24.835883,42.186401],[24.836242,42.186048],[24.836038,42.185931],[24.836074,42.185914],[24.835653,42.185615],[24.835621,42.185718],[24.833228,42.18535],[24.833291,42.184824],[24.832079,42.184775],[24.83154,42.184583],[24.83116,42.184476],[24.830432,42.184301],[24.830578,42.183932],[24.830336,42.183709],[24.830204,42.183508],[24.8302,42.183436],[24.830151,42.183478],[24.829856,42.183583],[24.827739,42.184155]]]]},"properties":{"cadreg":23}},{"type":"Feature","geometry":{"type":"Polygon","coordinates":[[[24.848438,42.179622],[24.848087,42.180659],[24.84771,42.182399],[24.847232,42.184391],[24.847187,42.185113],[24.84791,42.185131],[24.847787,42.186617],[24.848144,42.186625],[24.848466,42.186583],[24.848568,42.187052],[24.847845,42.187136],[24.847874,42.187251],[24.847166,42.187245],[24.847303,42.188514],[24.850236,42.188135],[24.850145,42.187924],[24.850192,42.187815],[24.852158,42.180247],[24.852127,42.180241],[24.852144,42.18015],[24.846974,42.179235],[24.846947,42.179331],[24.848438,42.179622]]]},"properties":{"cadreg":24}},{"type":"Feature","geometry":{"type":"Polygon","coordinates":[[[24.852169,42.18025],[24.850192,42.187815],[24.850145,42.187924],[24.850236,42.188135],[24.852794,42.187801],[24.852806,42.188387],[24.864046,42.186747],[24.864073,42.186605],[24.855932,42.187644],[24.858397,42.183993],[24.856923,42.183729],[24.85699,42.183633],[24.857095,42.183538],[24.857118,42.183469],[24.857265,42.183289],[24.857555,42.183055],[24.857769,42.182807],[24.858091,42.182485],[24.858314,42.182292],[24.858369,42.182225],[24.85838,42.182142],[24.858355,42.182104],[24.858019,42.182092],[24.857741,42.18205],[24.857563,42.181996],[24.857477,42.181944],[24.857509,42.181812],[24.857591,42.181734],[24.857774,42.181053],[24.854787,42.18061],[24.852169,42.18025]]]},"properties":{"cadreg":25}},{"type":"Feature","geometry":{"type":"Polygon","coordinates":[[[24.845632,42.170657],[24.83939,42.1698],[24.829194,42.168542],[24.825356,42.168052],[24.816783,42.167676],[24.816808,42.167722],[24.822302,42.167965],[24.825696,42.168158],[24.837577,42.169689],[24.839457,42.169908],[24.838266,42.17128],[24.837084,42.172766],[24.836795,42.17322],[24.836311,42.173855],[24.834734,42.175815],[24.835823,42.176074],[24.837797,42.176787],[24.840368,42.17765],[24.840866,42.17778],[24.840984,42.177547],[24.841157,42.177046],[24.841396,42.176557],[24.841567,42.176147],[24.841849,42.175653],[24.842091,42.175351],[24.842314,42.175185],[24.84245,42.175112],[24.843074,42.174829],[24.843588,42.174653],[24.844241,42.174327],[24.844389,42.174235],[24.844748,42.173954],[24.845065,42.173629],[24.84547,42.173064],[24.845639,42.172759],[24.84569,42.172631],[24.845716,42.172223],[24.845862,42.17148],[24.845946,42.170884],[24.845991,42.17072],[24.845632,42.170657]]]},"properties":{"cadreg":26}},{"type":"Feature","geometry":{"type":"Polygon","coordinates":[[[24.832462,42.16907],[24.830484,42.170371],[24.829011,42.171121],[24.828511,42.171785],[24.828356,42.173596],[24.828112,42.174059],[24.831856,42.175204],[24.833417,42.175568],[24.834734,42.175815],[24.836311,42.173855],[24.836795,42.17322],[24.837084,42.172766],[24.838266,42.17128],[24.839457,42.169908],[24.837577,42.169689],[24.832712,42.169057],[24.832656,42.169095],[24.832462,42.16907]]]},"properties":{"cadreg":27}},{"type":"Feature","geometry":{"type":"Polygon","coordinates":[[[24.823049,42.168013],[24.822709,42.17176],[24.822683,42.171771],[24.822008,42.171761],[24.821638,42.171793],[24.821634,42.171838],[24.821973,42.171803],[24.822218,42.171796],[24.822505,42.171806],[24.822582,42.17183],[24.822719,42.171885],[24.823006,42.172065],[24.823501,42.172483],[24.823851,42.172736],[24.824024,42.1728],[24.828112,42.174059],[24.828356,42.173596],[24.828511,42.171785],[24.829011,42.171121],[24.830484,42.170371],[24.832462,42.16907],[24.832656,42.169095],[24.832712,42.169057],[24.825696,42.168158],[24.823049,42.168013]]]},"properties":{"cadreg":28}},{"type":"Feature","geometry":{"type":"Polygon","coordinates":[[[24.822302,42.167965],[24.816808,42.167722],[24.819018,42.171134],[24.819666,42.172042],[24.819755,42.172093],[24.819863,42.172123],[24.820003,42.172118],[24.821634,42.171838],[24.821638,42.171793],[24.822008,42.171761],[24.822683,42.171771],[24.822709,42.17176],[24.823049,42.168013],[24.822302,42.167965]]]},"properties":{"cadreg":29}},{"type":"Feature","geometry":{"type":"Polygon","coordinates":[[[24.811717,42.167285],[24.812463,42.167717],[24.81273,42.167922],[24.813184,42.168357],[24.813506,42.168756],[24.813795,42.169182],[24.814976,42.171049],[24.815455,42.171535],[24.815855,42.171848],[24.816048,42.171971],[24.816304,42.172094],[24.816746,42.17227],[24.817005,42.17234],[24.8178,42.172491],[24.818223,42.172537],[24.819199,42.172569],[24.819279,42.172604],[24.819391,42.172692],[24.819424,42.172697],[24.818653,42.171499],[24.8163,42.167756],[24.811717,42.167285]]]},"properties":{"cadreg":30}},{"type":"Feature","geometry":{"type":"Polygon","coordinates":[[[24.806567,42.168054],[24.806261,42.168489],[24.806409,42.168628],[24.806456,42.168508],[24.806552,42.168367],[24.80657,42.168309],[24.808117,42.168052],[24.808131,42.168173],[24.807014,42.168334],[24.806677,42.168574],[24.806639,42.168634],[24.806643,42.168675],[24.806954,42.168989],[24.808836,42.170722],[24.809704,42.171455],[24.809864,42.171688],[24.810178,42.172236],[24.811326,42.174603],[24.818376,42.174653],[24.818379,42.174682],[24.818972,42.174698],[24.818974,42.174746],[24.820714,42.174785],[24.819538,42.173001],[24.819627,42.173007],[24.819424,42.172697],[24.819391,42.172692],[24.819279,42.172604],[24.819199,42.172569],[24.819088,42.17256],[24.818873,42.172567],[24.818223,42.172537],[24.8178,42.172491],[24.817005,42.17234],[24.816746,42.17227],[24.816304,42.172094],[24.816048,42.171971],[24.815705,42.171738],[24.815455,42.171535],[24.814976,42.171049],[24.813795,42.169182],[24.813506,42.168756],[24.813184,42.168357],[24.81273,42.167922],[24.812463,42.167717],[24.811722,42.167287],[24.811553,42.167307],[24.810997,42.16705],[24.810044,42.166662],[24.809382,42.166437],[24.808788,42.166269],[24.808202,42.166164],[24.806894,42.165968],[24.806567,42.168054]]]},"properties":{"cadreg":31}},{"type":"Feature","geometry":{"type":"Polygon","coordinates":[[[24.810078,42.172548],[24.809628,42.171779],[24.80957,42.171719],[24.809434,42.172467],[24.807034,42.174526],[24.806497,42.175116],[24.805877,42.176086],[24.805602,42.1767],[24.805574,42.176902],[24.804448,42.178437],[24.80857,42.178568],[24.813074,42.178678],[24.810078,42.172548]]]},"properties":{"cadreg":32}},{"type":"Feature","geometry":{"type":"Polygon","coordinates":[[[24.835579,42.177143],[24.83551,42.177217],[24.834834,42.177587],[24.834641,42.178048],[24.83593,42.178243],[24.835644,42.179324],[24.837105,42.179397],[24.837746,42.176971],[24.83576,42.176266],[24.834998,42.176075],[24.835439,42.176331],[24.835579,42.177143]]]},"properties":{"cadreg":33}},{"type":"Feature","geometry":{"type":"Polygon","coordinates":[[[24.833792,42.179256],[24.835572,42.179594],[24.835194,42.1807],[24.835159,42.180718],[24.832568,42.180592],[24.832532,42.180544],[24.83253,42.180399],[24.831847,42.180517],[24.831812,42.180505],[24.831159,42.181545],[24.832441,42.181629],[24.832238,42.183419],[24.830289,42.183292],[24.8302,42.183436],[24.830204,42.183508],[24.830336,42.183709],[24.830578,42.183932],[24.830432,42.184301],[24.83116,42.184476],[24.83154,42.184583],[24.832079,42.184775],[24.833291,42.184824],[24.833228,42.18535],[24.835621,42.185718],[24.835653,42.185615],[24.836074,42.185914],[24.836038,42.185931],[24.836242,42.186048],[24.835883,42.186401],[24.835565,42.186863],[24.835205,42.187435],[24.834924,42.187922],[24.83484,42.188146],[24.834779,42.188378],[24.838704,42.188717],[24.838125,42.189996],[24.838128,42.190029],[24.838157,42.19005],[24.839293,42.190165],[24.839342,42.190198],[24.83936,42.190248],[24.838797,42.192037],[24.838319,42.193328],[24.838314,42.193425],[24.838355,42.193517],[24.838453,42.193604],[24.83858,42.193652],[24.839489,42.193727],[24.839518,42.193752],[24.839481,42.194693],[24.839501,42.194716],[24.840713,42.19476],[24.840771,42.194783],[24.840787,42.194817],[24.840751,42.195831],[24.840765,42.195878],[24.840828,42.195928],[24.840903,42.195948],[24.841893,42.195948],[24.841631,42.196727],[24.844154,42.197227],[24.844344,42.195844],[24.844236,42.195848],[24.844238,42.19568],[24.844205,42.195661],[24.844214,42.194619],[24.844256,42.194609],[24.84472,42.194643],[24.844771,42.194206],[24.845202,42.194241],[24.845319,42.194263],[24.845485,42.194325],[24.845945,42.193766],[24.846291,42.192879],[24.845323,42.192267],[24.845236,42.19223],[24.845137,42.19221],[24.845177,42.19088],[24.845426,42.19088],[24.847128,42.190723],[24.849706,42.190389],[24.849727,42.190488],[24.850004,42.190457],[24.850061,42.190747],[24.850906,42.190657],[24.851003,42.191166],[24.851344,42.191129],[24.851718,42.191012],[24.851597,42.190427],[24.851278,42.190462],[24.851251,42.190317],[24.851562,42.190282],[24.851535,42.190158],[24.851807,42.190085],[24.851695,42.189558],[24.852359,42.189528],[24.8524,42.189511],[24.852389,42.189438],[24.852874,42.189373],[24.852749,42.188866],[24.852822,42.188856],[24.852794,42.187801],[24.847303,42.188514],[24.847166,42.187245],[24.847874,42.187251],[24.847845,42.187136],[24.848568,42.187052],[24.848466,42.186583],[24.848144,42.186625],[24.847787,42.186617],[24.84791,42.185131],[24.847187,42.185113],[24.847232,42.184391],[24.84771,42.182399],[24.848087,42.180659],[24.848438,42.179622],[24.846947,42.179331],[24.846994,42.179191],[24.845877,42.178999],[24.84557,42.178917],[24.844556,42.178742],[24.844342,42.178722],[24.843855,42.178609],[24.842987,42.178329],[24.840368,42.17765],[24.837797,42.176787],[24.837105,42.179397],[24.835644,42.179324],[24.83593,42.178243],[24.834641,42.178048],[24.834532,42.178317],[24.83443,42.178387],[24.834185,42.178613],[24.833792,42.179256]]]},"properties":{"cadreg":502}}]}