{"type":"FeatureCollection","features":[{"type":"Feature","geometry":{"type":"Polygon","coordinates":[[[25.295132,42.312502],[25.29503,42.312496],[25.295021,42.3126],[25.294643,42.31258],[25.294636,42.312656],[25.295117,42.312682],[25.295132,42.312502]]]},"properties":{"num":1}},{"type":"Feature","geometry":{"type":"Polygon","coordinates":[[[25.295101,42.302653],[25.295151,42.30258],[25.295012,42.302526],[25.294962,42.302598],[25.295101,42.302653]]]},"properties":{"num":1}},{"type":"Feature","geometry":{"type":"Polygon","coordinates":[[[25.295189,42.302687],[25.29524,42.302614],[25.295151,42.30258],[25.295101,42.302653],[25.295189,42.302687]]]},"properties":{"num":2}},{"type":"Feature","geometry":{"type":"Polygon","coordinates":[[[25.295358,42.302621],[25.295261,42.302583],[25.295189,42.302687],[25.295287,42.302726],[25.295358,42.302621]]]},"properties":{"num":3}},{"type":"Feature","geometry":{"type":"Polygon","coordinates":[[[25.295833,42.301888],[25.295855,42.30186],[25.2958,42.301835],[25.295777,42.301864],[25.295833,42.301888]]]},"properties":{"num":1}},{"type":"Feature","geometry":{"type":"Polygon","coordinates":[[[25.295853,42.301766],[25.295818,42.30181],[25.29591,42.301851],[25.295945,42.301807],[25.295853,42.301766]]]},"properties":{"num":2}},{"type":"Feature","geometry":{"type":"Polygon","coordinates":[[[25.295878,42.301735],[25.295853,42.301766],[25.295945,42.301807],[25.295978,42.301766],[25.295878,42.301735]]]},"properties":{"num":3}},{"type":"Feature","geometry":{"type":"Polygon","coordinates":[[[25.292139,42.301542],[25.292137,42.301605],[25.292228,42.301624],[25.29223,42.301543],[25.292139,42.301542]]]},"properties":{"num":1}},{"type":"Feature","geometry":{"type":"Polygon","coordinates":[[[25.2932,42.301653],[25.293009,42.301626],[25.292985,42.301721],[25.293176,42.301748],[25.2932,42.301653]]]},"properties":{"num":1}},{"type":"Feature","geometry":{"type":"Polygon","coordinates":[[[25.292007,42.300853],[25.292035,42.300849],[25.292025,42.30082],[25.291997,42.300824],[25.292007,42.300853]]]},"properties":{"num":1}},{"type":"Feature","geometry":{"type":"Polygon","coordinates":[[[25.296056,42.30162],[25.295928,42.30158],[25.295901,42.301637],[25.295665,42.301564],[25.295632,42.301623],[25.295876,42.301699],[25.295909,42.301639],[25.296028,42.301676],[25.296056,42.30162]]]},"properties":{"num":1}},{"type":"Feature","geometry":{"type":"Polygon","coordinates":[[[25.295992,42.301713],[25.295966,42.301702],[25.295955,42.301716],[25.295981,42.301727],[25.295992,42.301713]]]},"properties":{"num":2}},{"type":"Feature","geometry":{"type":"Polygon","coordinates":[[[25.2935,42.300547],[25.293382,42.300524],[25.293365,42.300571],[25.293482,42.300594],[25.2935,42.300547]]]},"properties":{"num":1}},{"type":"Feature","geometry":{"type":"Polygon","coordinates":[[[25.292315,42.30065],[25.292363,42.300649],[25.292365,42.300617],[25.292316,42.300614],[25.292315,42.30065]]]},"properties":{"num":1}},{"type":"Feature","geometry":{"type":"Polygon","coordinates":[[[25.29245,42.300745],[25.292454,42.300646],[25.292363,42.300649],[25.292359,42.300748],[25.29245,42.300745]]]},"properties":{"num":2}},{"type":"Feature","geometry":{"type":"Polygon","coordinates":[[[25.292493,42.300935],[25.292437,42.301039],[25.292489,42.301055],[25.292545,42.30095],[25.292493,42.300935]]]},"properties":{"num":1}},{"type":"Feature","geometry":{"type":"Polygon","coordinates":[[[25.292553,42.300935],[25.292584,42.300877],[25.292533,42.300861],[25.292501,42.30092],[25.292553,42.300935]]]},"properties":{"num":2}},{"type":"Feature","geometry":{"type":"Polygon","coordinates":[[[25.29668,42.299157],[25.296693,42.299109],[25.297046,42.299174],[25.297061,42.299122],[25.296708,42.299056],[25.296715,42.299029],[25.296656,42.299018],[25.296649,42.299045],[25.296317,42.298983],[25.296302,42.299035],[25.296634,42.299098],[25.296621,42.299146],[25.29668,42.299157]]]},"properties":{"num":1}},{"type":"Feature","geometry":{"type":"Polygon","coordinates":[[[25.295213,42.298197],[25.295331,42.298218],[25.295494,42.297729],[25.295376,42.297707],[25.295312,42.2979],[25.295177,42.297875],[25.295242,42.297683],[25.295124,42.297662],[25.294959,42.298151],[25.295077,42.298172],[25.295154,42.297945],[25.295289,42.29797],[25.295213,42.298197]]]},"properties":{"num":1}},{"type":"Feature","geometry":{"type":"Polygon","coordinates":[[[25.294226,42.312097],[25.294512,42.312156],[25.294532,42.312104],[25.29424,42.312043],[25.294226,42.312097]]]},"properties":{"num":1}},{"type":"Feature","geometry":{"type":"Polygon","coordinates":[[[25.29469,42.312353],[25.294681,42.312434],[25.295165,42.312463],[25.295173,42.312383],[25.29469,42.312353]]]},"properties":{"num":1}},{"type":"Feature","geometry":{"type":"Polygon","coordinates":[[[25.295118,42.31228],[25.29509,42.312368],[25.295173,42.312383],[25.295201,42.312295],[25.295118,42.31228]]]},"properties":{"num":2}}]}