{"type":"FeatureCollection","features":[{"type":"Feature","geometry":{"type":"Polygon","coordinates":[[[24.869139,42.217492],[24.86152,42.217236],[24.861469,42.217218],[24.861929,42.219906],[24.862303,42.221654],[24.862682,42.223024],[24.863495,42.222916],[24.864027,42.222827],[24.864504,42.222727],[24.864745,42.222812],[24.864971,42.222918],[24.865116,42.223005],[24.86548,42.223156],[24.866022,42.223415],[24.866137,42.22348],[24.866302,42.223603],[24.866345,42.223683],[24.866947,42.223517],[24.867329,42.223469],[24.867517,42.223402],[24.867567,42.223303],[24.86841,42.222621],[24.868762,42.221113],[24.86886,42.220432],[24.868909,42.220312],[24.869022,42.220144],[24.869291,42.219904],[24.86958,42.219343],[24.869613,42.219216],[24.869622,42.219046],[24.869603,42.218932],[24.869534,42.218837],[24.869251,42.218644],[24.869202,42.218548],[24.869139,42.217492]]]},"properties":{"cadreg":1}},{"type":"Feature","geometry":{"type":"Polygon","coordinates":[[[24.872933,42.225746],[24.873115,42.225562],[24.873318,42.225448],[24.873442,42.22541],[24.873572,42.225396],[24.873734,42.2254],[24.873876,42.225425],[24.873989,42.225464],[24.874003,42.225513],[24.874262,42.225469],[24.874275,42.225446],[24.874481,42.225313],[24.874813,42.224985],[24.875031,42.224873],[24.875464,42.224767],[24.875595,42.22472],[24.875998,42.224521],[24.87612,42.224492],[24.876333,42.22449],[24.876644,42.224442],[24.87677,42.224396],[24.877033,42.224244],[24.877217,42.224167],[24.877799,42.223994],[24.878032,42.223885],[24.878381,42.223798],[24.878498,42.223747],[24.878578,42.223691],[24.878772,42.223443],[24.879213,42.222735],[24.879389,42.222532],[24.879466,42.222487],[24.879586,42.222461],[24.8797,42.222464],[24.879837,42.22249],[24.879992,42.222533],[24.880266,42.222649],[24.880378,42.222799],[24.880429,42.222948],[24.88048,42.223281],[24.880523,42.223398],[24.880614,42.223514],[24.880775,42.223663],[24.881005,42.223776],[24.881159,42.223818],[24.881524,42.223873],[24.881812,42.22389],[24.88174,42.222065],[24.883347,42.221888],[24.884497,42.221779],[24.884575,42.223593],[24.884593,42.223651],[24.88463,42.223691],[24.884696,42.223716],[24.884744,42.223713],[24.88483,42.223685],[24.884863,42.223628],[24.884813,42.221893],[24.884816,42.221787],[24.884845,42.22177],[24.885018,42.221747],[24.886068,42.221688],[24.88709,42.221679],[24.888412,42.221711],[24.888457,42.22272],[24.887949,42.222777],[24.887621,42.222791],[24.887586,42.222654],[24.887597,42.222515],[24.887551,42.222248],[24.887474,42.222184],[24.887304,42.222205],[24.887081,42.22229],[24.887037,42.222354],[24.887156,42.22266],[24.887179,42.222763],[24.887039,42.222806],[24.886555,42.222875],[24.886439,42.222927],[24.886279,42.223062],[24.886111,42.223344],[24.886075,42.223504],[24.886602,42.223617],[24.886802,42.223622],[24.886864,42.223616],[24.886977,42.223569],[24.887119,42.223465],[24.887216,42.223264],[24.887297,42.223144],[24.887397,42.223077],[24.887561,42.223002],[24.887658,42.222982],[24.8881,42.222988],[24.888403,42.222969],[24.888584,42.222926],[24.888771,42.222816],[24.88873,42.221707],[24.889976,42.221665],[24.889974,42.221638],[24.890123,42.221601],[24.890272,42.221536],[24.890404,42.221511],[24.890316,42.221317],[24.890251,42.221406],[24.88484,42.221461],[24.884798,42.221431],[24.884784,42.221374],[24.884713,42.219014],[24.886669,42.219077],[24.888295,42.219101],[24.888282,42.219131],[24.888159,42.219224],[24.888172,42.219311],[24.888282,42.219414],[24.888389,42.219476],[24.888439,42.219538],[24.888527,42.219712],[24.888535,42.219791],[24.888328,42.219933],[24.888263,42.220019],[24.888203,42.220042],[24.888107,42.220109],[24.888018,42.220265],[24.887939,42.220351],[24.887936,42.220412],[24.887963,42.220431],[24.888002,42.220429],[24.888065,42.220402],[24.888053,42.220335],[24.888215,42.220137],[24.888344,42.220055],[24.888482,42.220034],[24.888599,42.220034],[24.888873,42.220065],[24.8887,42.219866],[24.888617,42.219736],[24.888465,42.219404],[24.888428,42.219],[24.888425,42.21874],[24.887892,42.218475],[24.887142,42.218191],[24.883513,42.218075],[24.88346,42.218356],[24.883486,42.218641],[24.88346,42.218709],[24.883292,42.218782],[24.882745,42.218951],[24.88442,42.219005],[24.884498,42.221742],[24.883084,42.22188],[24.881688,42.222038],[24.881683,42.221815],[24.880814,42.222004],[24.879569,42.222226],[24.877772,42.222463],[24.877841,42.222519],[24.877258,42.222594],[24.877186,42.222616],[24.876874,42.222615],[24.876809,42.22259],[24.876758,42.222622],[24.874453,42.222914],[24.873916,42.22294],[24.873484,42.222999],[24.873221,42.223004],[24.872599,42.223095],[24.87217,42.223071],[24.87161,42.223169],[24.870402,42.223235],[24.869375,42.223191],[24.86767,42.223395],[24.867567,42.223303],[24.867517,42.223402],[24.867329,42.223469],[24.866947,42.223517],[24.866345,42.223683],[24.866302,42.223603],[24.866137,42.22348],[24.866022,42.223415],[24.86548,42.223156],[24.865116,42.223005],[24.864971,42.222918],[24.864745,42.222812],[24.864504,42.222727],[24.864027,42.222827],[24.863297,42.222946],[24.86326,42.222997],[24.86351,42.223005],[24.863987,42.222929],[24.864527,42.222894],[24.864824,42.22292],[24.865834,42.223382],[24.866031,42.223489],[24.866096,42.224744],[24.865996,42.225257],[24.865982,42.225753],[24.866069,42.226031],[24.866055,42.226235],[24.866109,42.226377],[24.866268,42.226523],[24.866544,42.226581],[24.867192,42.226655],[24.86736,42.226734],[24.867666,42.226623],[24.867841,42.226625],[24.86795,42.226651],[24.8682,42.226639],[24.8683,42.226608],[24.86839,42.226735],[24.868303,42.227084],[24.868297,42.227184],[24.869799,42.227969],[24.869899,42.22799],[24.870801,42.22798],[24.87089,42.22799],[24.870935,42.227909],[24.872665,42.225969],[24.872933,42.225746]]]},"properties":{"cadreg":2}},{"type":"Feature","geometry":{"type":"Polygon","coordinates":[[[24.869139,42.217492],[24.869202,42.218548],[24.869251,42.218644],[24.869534,42.218837],[24.869603,42.218932],[24.869622,42.219046],[24.869613,42.219216],[24.869578,42.219352],[24.869291,42.219904],[24.869022,42.220144],[24.868909,42.220312],[24.86886,42.220432],[24.868762,42.221113],[24.86841,42.222621],[24.867567,42.223303],[24.86767,42.223395],[24.869375,42.223191],[24.870402,42.223235],[24.87161,42.223169],[24.87217,42.223071],[24.872599,42.223095],[24.873221,42.223004],[24.873484,42.222999],[24.873916,42.22294],[24.874453,42.222914],[24.876758,42.222622],[24.876809,42.22259],[24.876874,42.222615],[24.877186,42.222616],[24.877258,42.222594],[24.877841,42.222519],[24.877772,42.222463],[24.879569,42.222226],[24.880814,42.222004],[24.882061,42.221733],[24.882035,42.221453],[24.881931,42.221261],[24.881826,42.220603],[24.881917,42.220529],[24.882273,42.220317],[24.88247,42.220264],[24.882428,42.220235],[24.882284,42.220022],[24.882295,42.219911],[24.88228,42.21959],[24.882225,42.219551],[24.882171,42.21948],[24.881699,42.219615],[24.881674,42.219528],[24.881464,42.219125],[24.881263,42.218789],[24.881263,42.218725],[24.88132,42.218642],[24.881488,42.218559],[24.881645,42.21854],[24.881737,42.218556],[24.881804,42.218589],[24.881845,42.218628],[24.8821,42.218957],[24.882167,42.219019],[24.882228,42.219065],[24.88232,42.219077],[24.883292,42.218782],[24.88346,42.218709],[24.883486,42.218641],[24.88346,42.218356],[24.883513,42.218075],[24.884675,42.218112],[24.884675,42.218049],[24.887119,42.218136],[24.888821,42.218155],[24.89289,42.218089],[24.892869,42.217693],[24.888149,42.217758],[24.88574,42.217691],[24.884439,42.217672],[24.880752,42.217549],[24.878277,42.217443],[24.868213,42.217114],[24.862013,42.216849],[24.860934,42.216781],[24.857689,42.216528],[24.857395,42.21674],[24.861441,42.217053],[24.861469,42.217218],[24.86152,42.217236],[24.869139,42.217492]]]},"properties":{"cadreg":3}},{"type":"Feature","geometry":{"type":"Polygon","coordinates":[[[24.884675,42.218112],[24.887142,42.218191],[24.887892,42.218475],[24.888425,42.21874],[24.888428,42.219],[24.888465,42.219404],[24.888551,42.219617],[24.8887,42.219866],[24.888822,42.220014],[24.888986,42.220156],[24.889467,42.220415],[24.889718,42.220518],[24.88989,42.220625],[24.890316,42.221317],[24.890404,42.221511],[24.890272,42.221536],[24.890123,42.221601],[24.889974,42.221638],[24.889927,42.22186],[24.889966,42.222093],[24.890692,42.22198],[24.89106,42.221975],[24.891139,42.221981],[24.891477,42.222062],[24.891742,42.22223],[24.891869,42.222261],[24.892336,42.222233],[24.892622,42.222283],[24.892991,42.222246],[24.893014,42.222032],[24.893166,42.221601],[24.893143,42.22133],[24.893158,42.221157],[24.893226,42.220987],[24.893293,42.220907],[24.893367,42.220851],[24.89332,42.220837],[24.893255,42.22079],[24.893148,42.220675],[24.893076,42.220508],[24.893027,42.220321],[24.89289,42.218089],[24.888821,42.218155],[24.887119,42.218136],[24.884675,42.218049],[24.884675,42.218112]]]},"properties":{"cadreg":4}},{"type":"Feature","geometry":{"type":"Polygon","coordinates":[[[24.88411,42.214108],[24.88242,42.213624],[24.882095,42.213466],[24.882322,42.213792],[24.882203,42.213755],[24.882164,42.213779],[24.882009,42.21396],[24.881857,42.214191],[24.881818,42.21429],[24.881664,42.214382],[24.881409,42.214394],[24.881126,42.21447],[24.880806,42.214078],[24.880811,42.213981],[24.879658,42.214387],[24.879355,42.214748],[24.879091,42.215449],[24.878814,42.216061],[24.879022,42.216307],[24.879939,42.216822],[24.880144,42.216743],[24.880752,42.217549],[24.884439,42.217672],[24.88574,42.217691],[24.888149,42.217758],[24.892869,42.217693],[24.892781,42.216234],[24.892729,42.21605],[24.888733,42.216762],[24.888467,42.216573],[24.887706,42.216265],[24.887705,42.216067],[24.88778,42.215657],[24.887726,42.21553],[24.887419,42.214101],[24.887364,42.213943],[24.88729,42.213929],[24.887147,42.213961],[24.88675,42.21412],[24.886404,42.214306],[24.88631,42.214392],[24.886307,42.214441],[24.886377,42.214617],[24.886332,42.214696],[24.886294,42.214718],[24.886017,42.21475],[24.885567,42.214853],[24.885166,42.215],[24.88505,42.215024],[24.884742,42.215028],[24.884417,42.214818],[24.884198,42.214741],[24.884262,42.214615],[24.884109,42.214552],[24.88411,42.214108]]]},"properties":{"cadreg":5}},{"type":"Feature","geometry":{"type":"Polygon","coordinates":[[[24.875809,42.208185],[24.874882,42.209035],[24.874625,42.209231],[24.874232,42.209504],[24.874002,42.209653],[24.873349,42.210028],[24.872699,42.210322],[24.871879,42.210633],[24.869187,42.211726],[24.869243,42.212133],[24.869205,42.212533],[24.868883,42.213237],[24.86881,42.213488],[24.868687,42.213714],[24.868617,42.213806],[24.868404,42.213966],[24.868166,42.214098],[24.868087,42.214228],[24.868019,42.21426],[24.8679,42.214289],[24.867638,42.214314],[24.867626,42.214332],[24.868257,42.215573],[24.868488,42.215924],[24.86851,42.216174],[24.868215,42.216699],[24.868213,42.217114],[24.878277,42.217443],[24.880752,42.217549],[24.880144,42.216743],[24.879939,42.216822],[24.879022,42.216307],[24.878814,42.216061],[24.879091,42.215449],[24.879355,42.214748],[24.879658,42.214387],[24.880811,42.213981],[24.880806,42.214078],[24.881126,42.21447],[24.881409,42.214394],[24.881664,42.214382],[24.881818,42.21429],[24.881857,42.214191],[24.882009,42.21396],[24.882164,42.213779],[24.882203,42.213755],[24.882322,42.213792],[24.882006,42.21334],[24.881069,42.212107],[24.880702,42.211687],[24.877275,42.208193],[24.876319,42.207631],[24.875809,42.208185]]]},"properties":{"cadreg":6}},{"type":"Feature","geometry":{"type":"Polygon","coordinates":[[[24.863989,42.213863],[24.85995,42.216706],[24.862013,42.216849],[24.868213,42.217114],[24.868215,42.216699],[24.86851,42.216174],[24.868488,42.215924],[24.868257,42.215573],[24.867626,42.214332],[24.867638,42.214314],[24.8679,42.214289],[24.868019,42.21426],[24.868087,42.214228],[24.868166,42.214098],[24.868404,42.213966],[24.868617,42.213806],[24.868687,42.213714],[24.86881,42.213488],[24.868883,42.213237],[24.869205,42.212533],[24.869243,42.212133],[24.869187,42.211726],[24.864787,42.213515],[24.863989,42.213863]]]},"properties":{"cadreg":7}},{"type":"Feature","geometry":{"type":"Polygon","coordinates":[[[24.865782,42.205283],[24.855582,42.203853],[24.851359,42.213648],[24.860361,42.214535],[24.861734,42.213654],[24.862525,42.213101],[24.863933,42.212389],[24.864205,42.21219],[24.864538,42.211383],[24.864642,42.211306],[24.864413,42.211059],[24.864326,42.210935],[24.863992,42.210768],[24.863883,42.210703],[24.86381,42.21064],[24.863711,42.210415],[24.863691,42.210105],[24.86377,42.209848],[24.863888,42.209633],[24.864302,42.208722],[24.864343,42.208426],[24.864336,42.207896],[24.864363,42.207656],[24.86446,42.207297],[24.864685,42.2067],[24.864804,42.206541],[24.864942,42.206404],[24.865118,42.206273],[24.865301,42.206157],[24.865704,42.205966],[24.865822,42.205927],[24.865902,42.205918],[24.865782,42.205283]]]},"properties":{"cadreg":8}},{"type":"Feature","geometry":{"type":"Polygon","coordinates":[[[24.856954,42.20111],[24.855771,42.203881],[24.865782,42.205283],[24.865609,42.204402],[24.865638,42.204281],[24.865847,42.201212],[24.860167,42.201401],[24.856987,42.201132],[24.856954,42.20111]]]},"properties":{"cadreg":9}},{"type":"Feature","geometry":{"type":"Polygon","coordinates":[[[24.868253,42.201134],[24.865847,42.201212],[24.865638,42.204281],[24.865688,42.204233],[24.865768,42.204193],[24.868074,42.204032],[24.868087,42.203566],[24.868115,42.203513],[24.868184,42.203478],[24.868032,42.202761],[24.869858,42.202766],[24.869425,42.200934],[24.869425,42.200868],[24.869459,42.200802],[24.86846,42.201072],[24.86838,42.201111],[24.868253,42.201134]]]},"properties":{"cadreg":10}},{"type":"Feature","geometry":{"type":"Polygon","coordinates":[[[24.868742,42.195298],[24.859135,42.196721],[24.859042,42.19675],[24.858698,42.196976],[24.856832,42.200946],[24.855582,42.203853],[24.855771,42.203881],[24.856954,42.20111],[24.856987,42.201132],[24.860167,42.201401],[24.868253,42.201134],[24.86838,42.201111],[24.86846,42.201072],[24.869459,42.200802],[24.869566,42.20073],[24.870058,42.200594],[24.87,42.200529],[24.86996,42.200417],[24.869753,42.197726],[24.869661,42.196752],[24.868742,42.195298]]]},"properties":{"cadreg":11}},{"type":"Feature","geometry":{"type":"Polygon","coordinates":[[[24.864046,42.186747],[24.864023,42.186857],[24.864033,42.18708],[24.864065,42.187217],[24.864161,42.187395],[24.865686,42.188818],[24.866384,42.189562],[24.866707,42.19002],[24.867024,42.190558],[24.867742,42.193804],[24.867821,42.193992],[24.86866,42.195309],[24.868742,42.195298],[24.868801,42.195392],[24.872991,42.194759],[24.873038,42.194741],[24.873055,42.194688],[24.873357,42.185538],[24.864046,42.186747]]]},"properties":{"cadreg":12}},{"type":"Feature","geometry":{"type":"Polygon","coordinates":[[[24.880281,42.184481],[24.867783,42.186139],[24.864073,42.186605],[24.864046,42.186747],[24.873357,42.185538],[24.873051,42.194719],[24.873038,42.194741],[24.872991,42.194759],[24.868801,42.195392],[24.868843,42.19546],[24.87469,42.194572],[24.874714,42.194538],[24.88105,42.19288],[24.88136,42.192774],[24.881792,42.185554],[24.881762,42.185509],[24.880344,42.184726],[24.88032,42.184685],[24.880351,42.184569],[24.880435,42.184554],[24.880398,42.184454],[24.880281,42.184481]]]},"properties":{"cadreg":13}},{"type":"Feature","geometry":{"type":"Polygon","coordinates":[[[24.869753,42.197726],[24.86996,42.200417],[24.87,42.200529],[24.870058,42.200594],[24.872829,42.199834],[24.872825,42.19972],[24.873676,42.199734],[24.875157,42.199676],[24.875441,42.199636],[24.875904,42.199489],[24.880802,42.197686],[24.88102,42.197632],[24.88136,42.192774],[24.88105,42.19288],[24.874714,42.194538],[24.87469,42.194572],[24.868843,42.19546],[24.869661,42.196752],[24.869753,42.197726]]]},"properties":{"cadreg":14}},{"type":"Feature","geometry":{"type":"Polygon","coordinates":[[[24.884755,42.189641],[24.881645,42.189504],[24.881872,42.185518],[24.880474,42.18469],[24.880435,42.184554],[24.880351,42.184569],[24.88032,42.184685],[24.880344,42.184726],[24.881762,42.185509],[24.881792,42.185554],[24.88136,42.192774],[24.88102,42.197632],[24.881223,42.197588],[24.884331,42.196399],[24.884525,42.196343],[24.8846,42.196336],[24.885164,42.196558],[24.888235,42.197885],[24.88832,42.197906],[24.888478,42.197916],[24.88863,42.197894],[24.889183,42.197709],[24.889557,42.19769],[24.889804,42.197657],[24.890294,42.197568],[24.89069,42.197476],[24.890972,42.19739],[24.891356,42.197238],[24.892144,42.196866],[24.892772,42.196614],[24.893064,42.196533],[24.893448,42.196465],[24.893553,42.19642],[24.893673,42.196337],[24.893828,42.196172],[24.894097,42.195641],[24.894143,42.195595],[24.894245,42.195565],[24.895272,42.195504],[24.895394,42.195487],[24.8955,42.19545],[24.895602,42.195313],[24.895641,42.19486],[24.895699,42.193646],[24.900359,42.191985],[24.899681,42.190243],[24.89886,42.190245],[24.898823,42.190194],[24.898366,42.190187],[24.890706,42.189868],[24.884755,42.189641]]]},"properties":{"cadreg":15}},{"type":"Feature","geometry":{"type":"Polygon","coordinates":[[[24.873676,42.199734],[24.872825,42.19972],[24.872829,42.199834],[24.872799,42.19984],[24.872759,42.201198],[24.872834,42.201255],[24.874866,42.201424],[24.876791,42.201791],[24.876549,42.202103],[24.87652,42.202189],[24.876524,42.202279],[24.876666,42.20268],[24.876644,42.202684],[24.87665,42.202701],[24.876734,42.202869],[24.876853,42.203015],[24.876906,42.202985],[24.877128,42.203197],[24.876966,42.203291],[24.876102,42.203477],[24.876006,42.20317],[24.875904,42.203191],[24.875783,42.202839],[24.875059,42.202965],[24.875796,42.203903],[24.876264,42.205237],[24.877234,42.205131],[24.880216,42.202175],[24.880299,42.202121],[24.880366,42.20195],[24.881009,42.201569],[24.881604,42.201258],[24.881937,42.201114],[24.883979,42.200315],[24.884389,42.20013],[24.884612,42.200005],[24.88614,42.199406],[24.886267,42.199424],[24.886348,42.199453],[24.887169,42.199128],[24.887392,42.198979],[24.887509,42.198842],[24.887944,42.197757],[24.885164,42.196558],[24.8846,42.196336],[24.884525,42.196343],[24.884331,42.196399],[24.881223,42.197588],[24.880802,42.197686],[24.875904,42.199489],[24.875441,42.199636],[24.875157,42.199676],[24.873676,42.199734]]]},"properties":{"cadreg":16}},{"type":"Feature","geometry":{"type":"Polygon","coordinates":[[[24.868369,42.207461],[24.868386,42.2074],[24.868178,42.205816],[24.868118,42.205776],[24.866008,42.205739],[24.865845,42.204437],[24.865875,42.204371],[24.865947,42.204342],[24.868255,42.204107],[24.868291,42.204083],[24.868302,42.20404],[24.868184,42.203478],[24.868115,42.203513],[24.868087,42.203566],[24.868074,42.204032],[24.865768,42.204193],[24.865688,42.204233],[24.865638,42.204281],[24.865609,42.204402],[24.865902,42.205918],[24.865822,42.205927],[24.865704,42.205966],[24.865301,42.206157],[24.865118,42.206273],[24.864942,42.206404],[24.864804,42.206541],[24.864685,42.2067],[24.86446,42.207297],[24.864363,42.207656],[24.864336,42.207896],[24.864343,42.208426],[24.864302,42.208722],[24.863888,42.209633],[24.86377,42.209848],[24.863691,42.210105],[24.863711,42.210415],[24.86381,42.21064],[24.863883,42.210703],[24.863992,42.210768],[24.864326,42.210935],[24.864413,42.211059],[24.864642,42.211306],[24.864538,42.211383],[24.864205,42.21219],[24.863933,42.212389],[24.862525,42.213101],[24.861734,42.213654],[24.860207,42.214634],[24.859132,42.215437],[24.858583,42.215862],[24.858486,42.215957],[24.857689,42.216528],[24.85995,42.216706],[24.863989,42.213863],[24.864787,42.213515],[24.870486,42.211196],[24.871879,42.210633],[24.872699,42.210322],[24.873349,42.210028],[24.874002,42.209653],[24.874232,42.209504],[24.874882,42.209035],[24.875299,42.20867],[24.875809,42.208185],[24.876319,42.207631],[24.876394,42.207599],[24.877225,42.206832],[24.879057,42.205308],[24.881444,42.203183],[24.881611,42.203084],[24.882204,42.202582],[24.882456,42.202406],[24.885018,42.201361],[24.886858,42.200645],[24.892518,42.19837],[24.896038,42.196978],[24.895984,42.196903],[24.895454,42.195833],[24.8955,42.19545],[24.895394,42.195487],[24.895272,42.195504],[24.894245,42.195565],[24.894143,42.195595],[24.894097,42.195641],[24.893828,42.196172],[24.893673,42.196337],[24.893553,42.19642],[24.893448,42.196465],[24.893064,42.196533],[24.892772,42.196614],[24.892144,42.196866],[24.891356,42.197238],[24.890972,42.19739],[24.89069,42.197476],[24.890294,42.197568],[24.889804,42.197657],[24.889557,42.19769],[24.889183,42.197709],[24.88863,42.197894],[24.888478,42.197916],[24.88832,42.197906],[24.888235,42.197885],[24.887944,42.197757],[24.887509,42.198842],[24.887392,42.198979],[24.887169,42.199128],[24.886348,42.199453],[24.886267,42.199424],[24.88614,42.199406],[24.884612,42.200005],[24.884389,42.20013],[24.883979,42.200315],[24.881937,42.201114],[24.881604,42.201258],[24.881009,42.201569],[24.880366,42.20195],[24.880299,42.202121],[24.880216,42.202175],[24.876299,42.206055],[24.875353,42.206967],[24.875202,42.20688],[24.87512,42.206942],[24.875046,42.206895],[24.874959,42.20687],[24.874878,42.206869],[24.87479,42.206894],[24.874452,42.207065],[24.873599,42.207978],[24.871955,42.208498],[24.871934,42.20854],[24.872234,42.208803],[24.872244,42.208855],[24.872213,42.208892],[24.869105,42.210148],[24.867437,42.210146],[24.867143,42.209238],[24.868369,42.207461]]]},"properties":{"cadreg":17}},{"type":"Feature","geometry":{"type":"Polygon","coordinates":[[[24.881444,42.203183],[24.879057,42.205308],[24.877543,42.206553],[24.876394,42.207599],[24.876319,42.207631],[24.877275,42.208193],[24.880702,42.211687],[24.881069,42.212107],[24.882095,42.213466],[24.88242,42.213624],[24.88411,42.214108],[24.884183,42.213507],[24.883014,42.211946],[24.885017,42.209942],[24.886453,42.210018],[24.886642,42.209998],[24.886817,42.209935],[24.887112,42.209762],[24.887364,42.209512],[24.887708,42.209214],[24.887771,42.209143],[24.887844,42.209001],[24.887875,42.208704],[24.887821,42.208558],[24.88772,42.208449],[24.887637,42.208414],[24.887421,42.208364],[24.886983,42.208061],[24.886771,42.208002],[24.886705,42.20801],[24.88668,42.207907],[24.887562,42.207766],[24.888091,42.207553],[24.888165,42.207647],[24.888762,42.20728],[24.889206,42.207047],[24.887773,42.206331],[24.887361,42.206143],[24.881444,42.203183]]]},"properties":{"cadreg":18}},{"type":"Feature","geometry":{"type":"Polygon","coordinates":[[[24.881444,42.203183],[24.889962,42.207427],[24.89059,42.207626],[24.890875,42.207647],[24.891294,42.207634],[24.89155,42.207655],[24.891691,42.207546],[24.891735,42.20723],[24.891728,42.207182],[24.891633,42.207131],[24.891416,42.206673],[24.891339,42.206566],[24.891317,42.206411],[24.891215,42.206084],[24.891221,42.205906],[24.89129,42.205691],[24.891415,42.205643],[24.892102,42.20553],[24.892339,42.205462],[24.892628,42.205444],[24.892907,42.205464],[24.893154,42.205444],[24.893242,42.205394],[24.893273,42.205359],[24.893249,42.205206],[24.893272,42.205142],[24.893461,42.205099],[24.893875,42.205063],[24.894173,42.205005],[24.894349,42.204881],[24.894416,42.204793],[24.894505,42.204626],[24.894556,42.204561],[24.894637,42.204499],[24.894907,42.204495],[24.895181,42.204446],[24.895328,42.204372],[24.895446,42.20429],[24.895701,42.204077],[24.896122,42.2039],[24.896272,42.203773],[24.896289,42.203701],[24.89624,42.203357],[24.896258,42.203319],[24.896394,42.203232],[24.896625,42.203148],[24.89688,42.202809],[24.89705,42.202641],[24.897212,42.202529],[24.897378,42.202447],[24.897683,42.202333],[24.897799,42.202259],[24.897992,42.202074],[24.898079,42.201958],[24.89867,42.200617],[24.897273,42.198653],[24.896038,42.196978],[24.892518,42.19837],[24.886858,42.200645],[24.885018,42.201361],[24.882456,42.202406],[24.882204,42.202582],[24.881611,42.203084],[24.881444,42.203183]]]},"properties":{"cadreg":19}},{"type":"Feature","geometry":{"type":"Polygon","coordinates":[[[24.888762,42.20728],[24.888165,42.207647],[24.888091,42.207553],[24.887562,42.207766],[24.88668,42.207907],[24.886705,42.20801],[24.886771,42.208002],[24.886983,42.208061],[24.887421,42.208364],[24.887637,42.208414],[24.88772,42.208449],[24.887821,42.208558],[24.887858,42.208632],[24.887875,42.208704],[24.887857,42.208925],[24.887844,42.209001],[24.887771,42.209143],[24.887598,42.209321],[24.887364,42.209512],[24.887112,42.209762],[24.886817,42.209935],[24.886642,42.209998],[24.886568,42.210009],[24.886453,42.210018],[24.885017,42.209942],[24.883014,42.211946],[24.884183,42.213507],[24.884109,42.214053],[24.884104,42.214511],[24.884109,42.214552],[24.884262,42.214615],[24.884198,42.214741],[24.884417,42.214818],[24.884742,42.215028],[24.884927,42.215028],[24.88505,42.215024],[24.885166,42.215],[24.885567,42.214853],[24.886017,42.21475],[24.886294,42.214718],[24.886332,42.214696],[24.886377,42.214617],[24.886307,42.214441],[24.88631,42.214392],[24.886404,42.214306],[24.88675,42.21412],[24.887147,42.213961],[24.88729,42.213929],[24.887364,42.213943],[24.887419,42.214101],[24.887726,42.21553],[24.88778,42.215657],[24.887705,42.216067],[24.887706,42.216265],[24.888467,42.216573],[24.888733,42.216762],[24.892729,42.21605],[24.892738,42.215923],[24.892715,42.215442],[24.892673,42.21504],[24.892572,42.21436],[24.892468,42.212763],[24.892422,42.212385],[24.892345,42.211985],[24.892135,42.211499],[24.892018,42.211154],[24.891918,42.210715],[24.891952,42.210697],[24.891947,42.210683],[24.891855,42.210588],[24.891815,42.210571],[24.891251,42.210505],[24.891162,42.210486],[24.891116,42.210433],[24.890935,42.209781],[24.890928,42.209272],[24.890861,42.208877],[24.890811,42.208822],[24.889691,42.209446],[24.889377,42.209127],[24.889332,42.209051],[24.888464,42.208032],[24.888184,42.207671],[24.888807,42.2073],[24.889263,42.207073],[24.889206,42.207047],[24.888762,42.20728]]]},"properties":{"cadreg":20}},{"type":"Feature","geometry":{"type":"Polygon","coordinates":[[[24.884413,42.223677],[24.88463,42.223691],[24.884593,42.223651],[24.884575,42.223593],[24.884497,42.221779],[24.883347,42.221888],[24.88174,42.222065],[24.881812,42.22389],[24.882147,42.223905],[24.882322,42.223927],[24.883045,42.22405],[24.883155,42.224061],[24.8833,42.22405],[24.883408,42.224023],[24.883586,42.223952],[24.883697,42.223875],[24.884245,42.223712],[24.884413,42.223677]]]},"properties":{"cadreg":30}},{"type":"Feature","geometry":{"type":"Polygon","coordinates":[[[24.886555,42.222875],[24.887039,42.222806],[24.887179,42.222763],[24.887156,42.22266],[24.887037,42.222354],[24.887081,42.22229],[24.887206,42.222234],[24.887304,42.222205],[24.887474,42.222184],[24.887551,42.222248],[24.887572,42.22231],[24.887597,42.222515],[24.887586,42.222654],[24.887621,42.222791],[24.887949,42.222777],[24.888457,42.22272],[24.888412,42.221711],[24.88709,42.221679],[24.886068,42.221688],[24.884872,42.221759],[24.884816,42.221787],[24.884863,42.223628],[24.884855,42.223664],[24.884819,42.223688],[24.885057,42.223682],[24.885167,42.223649],[24.885376,42.223544],[24.885539,42.223487],[24.885888,42.223476],[24.886075,42.223504],[24.886111,42.223344],[24.886279,42.223062],[24.886487,42.222902],[24.886555,42.222875]]]},"properties":{"cadreg":31}},{"type":"Feature","geometry":{"type":"Polygon","coordinates":[[[24.889931,42.222499],[24.890078,42.222471],[24.890153,42.222422],[24.890229,42.222268],[24.890293,42.222191],[24.890498,42.222038],[24.890615,42.221998],[24.890268,42.222039],[24.889966,42.222093],[24.889927,42.22186],[24.889933,42.221783],[24.889976,42.221665],[24.88873,42.221707],[24.888771,42.222816],[24.889041,42.22256],[24.889139,42.222523],[24.889344,42.222492],[24.889931,42.222499]]]},"properties":{"cadreg":32}},{"type":"Feature","geometry":{"type":"Polygon","coordinates":[[[24.8821,42.218957],[24.881804,42.218589],[24.881737,42.218556],[24.881645,42.21854],[24.881488,42.218559],[24.88132,42.218642],[24.881263,42.218725],[24.881263,42.218789],[24.881464,42.219125],[24.881674,42.219528],[24.881699,42.219615],[24.882171,42.21948],[24.882225,42.219551],[24.88228,42.21959],[24.882295,42.219911],[24.882284,42.220022],[24.882428,42.220235],[24.88247,42.220264],[24.882273,42.220317],[24.881917,42.220529],[24.881826,42.220603],[24.881931,42.221261],[24.882035,42.221453],[24.882061,42.221733],[24.881683,42.221815],[24.881688,42.222038],[24.883084,42.22188],[24.884498,42.221742],[24.88442,42.219005],[24.882745,42.218951],[24.88232,42.219077],[24.882284,42.219075],[24.882228,42.219065],[24.8821,42.218957]]]},"properties":{"cadreg":33}},{"type":"Feature","geometry":{"type":"Polygon","coordinates":[[[24.888053,42.220335],[24.888065,42.220402],[24.888046,42.220419],[24.887963,42.220431],[24.887927,42.220387],[24.887939,42.220351],[24.888018,42.220265],[24.888107,42.220109],[24.888203,42.220042],[24.888263,42.220019],[24.888328,42.219933],[24.888535,42.219791],[24.888527,42.219712],[24.888439,42.219538],[24.888389,42.219476],[24.888282,42.219414],[24.888172,42.219311],[24.888159,42.219224],[24.888282,42.219131],[24.888295,42.219101],[24.886669,42.219077],[24.884713,42.219014],[24.884784,42.221374],[24.884798,42.221431],[24.88484,42.221461],[24.890251,42.221406],[24.890291,42.221367],[24.890316,42.221317],[24.88989,42.220625],[24.889718,42.220518],[24.889467,42.220415],[24.889168,42.220261],[24.888986,42.220156],[24.888873,42.220065],[24.888599,42.220034],[24.888482,42.220034],[24.888344,42.220055],[24.888215,42.220137],[24.888053,42.220335]]]},"properties":{"cadreg":34}},{"type":"Feature","geometry":{"type":"Polygon","coordinates":[[[24.889263,42.207073],[24.888807,42.2073],[24.888184,42.207671],[24.888464,42.208032],[24.889332,42.209051],[24.889377,42.209127],[24.889691,42.209446],[24.890811,42.208822],[24.890523,42.208294],[24.89033,42.207986],[24.890209,42.207686],[24.889998,42.207512],[24.889962,42.207427],[24.889263,42.207073]]]},"properties":{"cadreg":35}},{"type":"Feature","geometry":{"type":"Polygon","coordinates":[[[24.868032,42.202761],[24.868302,42.20404],[24.868275,42.204097],[24.868232,42.204112],[24.865947,42.204342],[24.865861,42.204386],[24.865845,42.20444],[24.866008,42.205739],[24.868118,42.205776],[24.868178,42.205816],[24.86838,42.207436],[24.867143,42.209238],[24.867437,42.210146],[24.86907,42.210154],[24.872204,42.208898],[24.872244,42.208855],[24.872239,42.208811],[24.871934,42.20854],[24.871955,42.208498],[24.873599,42.207978],[24.874452,42.207065],[24.87478,42.206899],[24.874866,42.206871],[24.874959,42.20687],[24.875046,42.206895],[24.87512,42.206942],[24.875202,42.20688],[24.875353,42.206967],[24.877234,42.205131],[24.876264,42.205237],[24.875796,42.203903],[24.875059,42.202965],[24.875783,42.202839],[24.875904,42.203191],[24.876006,42.20317],[24.876102,42.203477],[24.876966,42.203291],[24.877128,42.203197],[24.876906,42.202985],[24.876853,42.203015],[24.876734,42.202869],[24.87665,42.202701],[24.876644,42.202684],[24.876666,42.20268],[24.876524,42.202279],[24.87652,42.202189],[24.876549,42.202103],[24.876791,42.201791],[24.874866,42.201424],[24.872834,42.201255],[24.872759,42.201198],[24.872799,42.19984],[24.869587,42.200723],[24.869506,42.20076],[24.869438,42.200833],[24.869423,42.200922],[24.869858,42.202766],[24.868032,42.202761]]]},"properties":{"cadreg":501}}]}