{"type":"FeatureCollection","features":[{"type":"Feature","geometry":{"type":"Polygon","coordinates":[[[24.720961,42.24211],[24.72044,42.242475],[24.720192,42.242558],[24.719628,42.242505],[24.718982,42.243944],[24.718886,42.243952],[24.718824,42.243923],[24.718605,42.244223],[24.717201,42.245182],[24.716487,42.245617],[24.716572,42.2456],[24.716602,42.245642],[24.71603,42.249505],[24.717577,42.249963],[24.717541,42.250018],[24.717455,42.249997],[24.714892,42.255762],[24.709144,42.257732],[24.709051,42.257927],[24.709085,42.257937],[24.706779,42.262656],[24.713122,42.264504],[24.713139,42.264397],[24.713204,42.264211],[24.713331,42.264017],[24.713442,42.263894],[24.713572,42.263659],[24.713734,42.263307],[24.71388,42.262881],[24.713959,42.262355],[24.713947,42.261814],[24.71397,42.261588],[24.713999,42.261404],[24.714131,42.260965],[24.714314,42.260541],[24.715754,42.258155],[24.715948,42.257892],[24.716488,42.257292],[24.716942,42.256895],[24.722113,42.251981],[24.722018,42.251776],[24.721956,42.251442],[24.721876,42.250881],[24.721802,42.249878],[24.722003,42.247375],[24.722613,42.240957],[24.722616,42.240869],[24.722533,42.240771],[24.722511,42.240904],[24.722436,42.241026],[24.721606,42.241556],[24.721447,42.241726],[24.720961,42.24211]]]},"properties":{"cadreg":10}},{"type":"Feature","geometry":{"type":"Polygon","coordinates":[[[24.703716,42.24807],[24.702798,42.254923],[24.70441,42.255306],[24.703937,42.256371],[24.709051,42.257927],[24.709144,42.257732],[24.714892,42.255762],[24.717455,42.249997],[24.717541,42.250018],[24.717577,42.249963],[24.71357,42.248776],[24.713505,42.248743],[24.713507,42.248667],[24.713543,42.248578],[24.713288,42.248093],[24.713686,42.247891],[24.713653,42.247747],[24.713345,42.247415],[24.713117,42.247281],[24.712883,42.247194],[24.712534,42.247175],[24.712163,42.247186],[24.711788,42.247231],[24.711089,42.24735],[24.710197,42.247404],[24.709395,42.247508],[24.70909,42.247578],[24.707883,42.247778],[24.707763,42.247746],[24.707357,42.247772],[24.703716,42.24807]]]},"properties":{"cadreg":11}},{"type":"Feature","geometry":{"type":"Polygon","coordinates":[[[24.722292,42.252485],[24.722113,42.251981],[24.716942,42.256895],[24.716488,42.257292],[24.715948,42.257892],[24.715754,42.258155],[24.714314,42.260541],[24.714131,42.260965],[24.713999,42.261404],[24.71397,42.261588],[24.713947,42.261814],[24.713959,42.262355],[24.71388,42.262881],[24.713734,42.263307],[24.713572,42.263659],[24.713442,42.263894],[24.713331,42.264017],[24.713204,42.264211],[24.71312,42.264485],[24.713122,42.264504],[24.713537,42.264693],[24.714165,42.26482],[24.714416,42.264844],[24.725702,42.262961],[24.725707,42.262888],[24.725772,42.262844],[24.725772,42.262771],[24.722453,42.253188],[24.722292,42.252485]]]},"properties":{"cadreg":20}},{"type":"Feature","geometry":{"type":"Polygon","coordinates":[[[24.722757,42.252435],[24.722562,42.25252],[24.722542,42.25246],[24.722484,42.252456],[24.722292,42.252485],[24.722453,42.253188],[24.725772,42.262771],[24.725772,42.262844],[24.725707,42.262888],[24.725702,42.262961],[24.727997,42.262591],[24.727968,42.262518],[24.728053,42.262506],[24.728066,42.262454],[24.727664,42.260188],[24.727566,42.259877],[24.726856,42.25802],[24.726824,42.257952],[24.726723,42.257975],[24.725123,42.253737],[24.724314,42.251677],[24.72426,42.251613],[24.724144,42.251657],[24.723279,42.252158],[24.722757,42.252435]]]},"properties":{"cadreg":21}},{"type":"Feature","geometry":{"type":"Polygon","coordinates":[[[24.764044,42.192281],[24.764083,42.192351],[24.764152,42.192374],[24.764119,42.192438],[24.764295,42.192451],[24.764753,42.192605],[24.76437,42.194236],[24.764455,42.19434],[24.76449,42.195113],[24.764554,42.195701],[24.764459,42.195806],[24.764489,42.195835],[24.764589,42.196369],[24.764714,42.196814],[24.765041,42.19745],[24.765162,42.19777],[24.765171,42.198217],[24.765155,42.19844],[24.765172,42.198498],[24.765209,42.198536],[24.765908,42.198865],[24.769461,42.200606],[24.769529,42.200638],[24.769586,42.200586],[24.7697,42.20066],[24.770436,42.199953],[24.770523,42.199852],[24.770565,42.199719],[24.770551,42.199595],[24.769705,42.197576],[24.768823,42.195322],[24.768075,42.193526],[24.764044,42.192281]]]},"properties":{"cadreg":25}},{"type":"Feature","geometry":{"type":"Polygon","coordinates":[[[24.704995,42.238721],[24.704141,42.238864],[24.704063,42.238814],[24.701056,42.238828],[24.699937,42.248405],[24.703719,42.248047],[24.703716,42.24807],[24.707763,42.247746],[24.707883,42.247778],[24.707711,42.247503],[24.70708,42.247575],[24.706424,42.246787],[24.705595,42.246927],[24.705314,42.247052],[24.705098,42.247101],[24.704352,42.24691],[24.704207,42.246914],[24.703979,42.246816],[24.703767,42.246667],[24.703424,42.246491],[24.70322,42.245838],[24.702843,42.245479],[24.702342,42.245596],[24.702155,42.245394],[24.703094,42.244911],[24.702951,42.244645],[24.703994,42.244087],[24.70383,42.243812],[24.704174,42.243628],[24.704803,42.243231],[24.70566,42.242774],[24.706418,42.242309],[24.706702,42.242116],[24.70683,42.242082],[24.706954,42.242164],[24.707087,42.242311],[24.707161,42.242368],[24.707263,42.242438],[24.707358,42.24245],[24.707792,42.242331],[24.707893,42.24228],[24.708502,42.242054],[24.708568,42.241989],[24.708561,42.241892],[24.708485,42.241657],[24.708395,42.241556],[24.708245,42.241444],[24.70772,42.241431],[24.705096,42.241952],[24.704801,42.242033],[24.704098,42.242276],[24.703593,42.241656],[24.70307,42.240857],[24.703256,42.240146],[24.703416,42.239965],[24.704423,42.239733],[24.704496,42.239661],[24.704596,42.239481],[24.704658,42.239433],[24.704786,42.239383],[24.705217,42.239262],[24.705268,42.239226],[24.705306,42.239183],[24.705299,42.239116],[24.705191,42.2389],[24.705128,42.23879],[24.704995,42.238721]]]},"properties":{"cadreg":30}},{"type":"Feature","geometry":{"type":"Polygon","coordinates":[[[24.715307,42.246826],[24.715396,42.247025],[24.715594,42.247068],[24.715499,42.247376],[24.715759,42.247407],[24.715722,42.247606],[24.715725,42.247782],[24.715485,42.248403],[24.715236,42.24865],[24.714299,42.24899],[24.71603,42.249505],[24.716602,42.245642],[24.716572,42.2456],[24.716487,42.245617],[24.716309,42.245714],[24.715463,42.24626],[24.715387,42.246823],[24.715307,42.246826]]]},"properties":{"cadreg":31}},{"type":"Feature","geometry":{"type":"Polygon","coordinates":[[[24.719936,42.235996],[24.719689,42.235173],[24.718006,42.236575],[24.716549,42.237519],[24.716864,42.237623],[24.717395,42.237833],[24.718234,42.239877],[24.718588,42.24096],[24.720174,42.241771],[24.719628,42.242505],[24.720192,42.242558],[24.72044,42.242475],[24.721044,42.242055],[24.721447,42.241726],[24.721606,42.241556],[24.722436,42.241026],[24.722511,42.240904],[24.722533,42.240771],[24.722616,42.240869],[24.722613,42.240957],[24.722685,42.240865],[24.722963,42.238552],[24.719993,42.238387],[24.720163,42.235986],[24.719996,42.236015],[24.719936,42.235996]]]},"properties":{"cadreg":32}},{"type":"Feature","geometry":{"type":"Polygon","coordinates":[[[24.717698,42.233806],[24.715812,42.233862],[24.715894,42.235625],[24.716834,42.236667],[24.717084,42.237181],[24.718006,42.236575],[24.719689,42.235173],[24.719253,42.233724],[24.719223,42.233683],[24.719165,42.233666],[24.718434,42.233803],[24.717698,42.233806]]]},"properties":{"cadreg":33}},{"type":"Feature","geometry":{"type":"Polygon","coordinates":[[[24.711855,42.231922],[24.709895,42.23184],[24.709638,42.231851],[24.709599,42.232006],[24.71026,42.232581],[24.710856,42.232465],[24.710955,42.232542],[24.710868,42.232615],[24.7108,42.232898],[24.71067,42.232989],[24.711407,42.233307],[24.711428,42.233439],[24.711405,42.233523],[24.711027,42.233914],[24.711366,42.234217],[24.711422,42.234304],[24.711226,42.234488],[24.711051,42.234615],[24.711058,42.234667],[24.711434,42.23437],[24.712884,42.236736],[24.713076,42.236773],[24.715579,42.236397],[24.715554,42.236314],[24.715365,42.235945],[24.715752,42.235859],[24.715991,42.235825],[24.716015,42.235767],[24.715894,42.235625],[24.715812,42.233862],[24.713313,42.23395],[24.713206,42.231985],[24.712329,42.231938],[24.71227,42.231995],[24.711855,42.231922]]]},"properties":{"cadreg":34}},{"type":"Feature","geometry":{"type":"Polygon","coordinates":[[[24.703674,42.22615],[24.703087,42.231972],[24.707205,42.23191],[24.707116,42.231842],[24.707371,42.231683],[24.707592,42.231671],[24.707902,42.231678],[24.707811,42.226921],[24.707723,42.224733],[24.707768,42.224664],[24.703674,42.22615]]]},"properties":{"cadreg":40}},{"type":"Feature","geometry":{"type":"Polygon","coordinates":[[[24.707768,42.224664],[24.707723,42.224733],[24.707811,42.226921],[24.707902,42.231678],[24.707592,42.231671],[24.707371,42.231683],[24.707116,42.231842],[24.707205,42.23191],[24.707174,42.231952],[24.707333,42.231963],[24.707903,42.231927],[24.70871,42.231917],[24.709386,42.231859],[24.709895,42.23184],[24.711635,42.231906],[24.711855,42.231922],[24.71227,42.231995],[24.712329,42.231938],[24.713206,42.231985],[24.713199,42.231887],[24.71421,42.231914],[24.715859,42.231885],[24.715729,42.230471],[24.715691,42.230469],[24.715613,42.230399],[24.712922,42.230274],[24.71334,42.22874],[24.713339,42.227541],[24.713164,42.222693],[24.711714,42.223216],[24.708088,42.224566],[24.707768,42.224664]]]},"properties":{"cadreg":41}},{"type":"Feature","geometry":{"type":"Polygon","coordinates":[[[24.719042,42.225667],[24.713276,42.225792],[24.713339,42.227541],[24.71334,42.22874],[24.712922,42.230274],[24.715613,42.230399],[24.715592,42.230315],[24.716108,42.228327],[24.718471,42.22688],[24.718976,42.225768],[24.719042,42.225667]]]},"properties":{"cadreg":42}},{"type":"Feature","geometry":{"type":"Polygon","coordinates":[[[24.716461,42.2215],[24.713164,42.222693],[24.713276,42.225792],[24.719042,42.225667],[24.719042,42.225607],[24.719168,42.225535],[24.719661,42.22519],[24.720956,42.224458],[24.721087,42.224323],[24.721091,42.22303],[24.720843,42.219923],[24.719561,42.220352],[24.718041,42.220903],[24.716461,42.2215]]]},"properties":{"cadreg":43}},{"type":"Feature","geometry":{"type":"Polygon","coordinates":[[[24.720956,42.224458],[24.719661,42.22519],[24.719168,42.225535],[24.719042,42.225607],[24.719042,42.225667],[24.718976,42.225768],[24.718471,42.22688],[24.716108,42.228327],[24.715592,42.230315],[24.715613,42.230399],[24.715691,42.230469],[24.716705,42.230517],[24.716892,42.228715],[24.717261,42.228734],[24.717272,42.228627],[24.718258,42.229123],[24.718326,42.229123],[24.719491,42.227866],[24.719907,42.227607],[24.719877,42.227331],[24.720577,42.227281],[24.720881,42.227093],[24.720747,42.226966],[24.721178,42.226903],[24.72116,42.226753],[24.721555,42.226718],[24.721604,42.226708],[24.721659,42.226669],[24.721675,42.226581],[24.721087,42.224323],[24.720956,42.224458]]]},"properties":{"cadreg":44}},{"type":"Feature","geometry":{"type":"Polygon","coordinates":[[[24.720843,42.219923],[24.721091,42.22303],[24.721087,42.224323],[24.72111,42.224432],[24.724513,42.224136],[24.724467,42.224062],[24.724619,42.222523],[24.72471,42.221984],[24.725564,42.218185],[24.720843,42.219923]]]},"properties":{"cadreg":45}},{"type":"Feature","geometry":{"type":"Polygon","coordinates":[[[24.706751,42.21772],[24.704491,42.217848],[24.704505,42.217908],[24.70369,42.225996],[24.707792,42.224483],[24.707766,42.22441],[24.707864,42.224373],[24.708035,42.222971],[24.70806,42.22289],[24.70931,42.220606],[24.710102,42.219372],[24.710178,42.219384],[24.710264,42.219378],[24.710294,42.219358],[24.710315,42.219368],[24.710923,42.218516],[24.712008,42.217263],[24.713733,42.215321],[24.713506,42.215168],[24.7136,42.215064],[24.713743,42.215161],[24.714063,42.214815],[24.715048,42.213593],[24.714995,42.213571],[24.715036,42.213461],[24.714944,42.213483],[24.708532,42.212565],[24.706885,42.217524],[24.706806,42.217682],[24.706751,42.21772]]]},"properties":{"cadreg":50}},{"type":"Feature","geometry":{"type":"Polygon","coordinates":[[[24.720416,42.219854],[24.717261,42.217695],[24.709303,42.22062],[24.70806,42.22289],[24.708035,42.222971],[24.707864,42.224373],[24.707766,42.22441],[24.707792,42.224483],[24.708412,42.224272],[24.711562,42.223104],[24.712217,42.222874],[24.7141,42.222167],[24.720416,42.219854]]]},"properties":{"cadreg":51}},{"type":"Feature","geometry":{"type":"Polygon","coordinates":[[[24.717261,42.217695],[24.713733,42.215321],[24.712008,42.217263],[24.710923,42.218516],[24.710315,42.219368],[24.710294,42.219358],[24.710264,42.219378],[24.710178,42.219384],[24.710102,42.219372],[24.709303,42.22062],[24.717261,42.217695]]]},"properties":{"cadreg":52}},{"type":"Feature","geometry":{"type":"Polygon","coordinates":[[[24.726064,42.214471],[24.72294,42.214253],[24.718986,42.213911],[24.717902,42.213797],[24.716385,42.213668],[24.715475,42.213551],[24.715036,42.213461],[24.714995,42.213571],[24.715048,42.213593],[24.714063,42.214815],[24.713743,42.215161],[24.7136,42.215064],[24.713506,42.215168],[24.717352,42.217756],[24.720416,42.219854],[24.721561,42.21944],[24.725161,42.218091],[24.725446,42.217971],[24.725626,42.217921],[24.726425,42.214331],[24.726294,42.214322],[24.726064,42.214471]]]},"properties":{"cadreg":53}},{"type":"Feature","geometry":{"type":"Polygon","coordinates":[[[24.724637,42.224126],[24.724273,42.227583],[24.724304,42.22777],[24.724131,42.22958],[24.724556,42.229601],[24.725254,42.225824],[24.725279,42.225676],[24.725256,42.225676],[24.725553,42.224064],[24.724687,42.224113],[24.724637,42.224126]]]},"properties":{"cadreg":60}},{"type":"Feature","geometry":{"type":"Polygon","coordinates":[[[24.727645,42.223868],[24.725879,42.224028],[24.725869,42.223969],[24.725694,42.224864],[24.727578,42.224656],[24.728314,42.224556],[24.729274,42.224475],[24.729244,42.224268],[24.729945,42.224201],[24.729832,42.223643],[24.727641,42.223848],[24.727645,42.223868]]]},"properties":{"cadreg":61}},{"type":"Feature","geometry":{"type":"Polygon","coordinates":[[[24.725817,42.218612],[24.725493,42.219987],[24.725246,42.22124],[24.725212,42.221271],[24.724966,42.222578],[24.724735,42.224111],[24.725553,42.224064],[24.725583,42.223973],[24.725618,42.223609],[24.725596,42.223607],[24.725904,42.221962],[24.726047,42.22139],[24.72621,42.220912],[24.72634,42.220594],[24.726516,42.220239],[24.72694,42.219509],[24.727069,42.219251],[24.727215,42.219031],[24.727489,42.218739],[24.727856,42.218266],[24.728434,42.217457],[24.728674,42.217096],[24.728869,42.216706],[24.728922,42.216309],[24.728877,42.216149],[24.728618,42.215609],[24.728482,42.215388],[24.728219,42.2151],[24.728056,42.214961],[24.727925,42.214883],[24.727513,42.214696],[24.727027,42.214616],[24.726741,42.214613],[24.72601,42.217805],[24.725922,42.218039],[24.725928,42.218087],[24.725817,42.218612]]]},"properties":{"cadreg":62}},{"type":"Feature","geometry":{"type":"Polygon","coordinates":[[[24.727565,42.21903],[24.726721,42.220365],[24.726532,42.22078],[24.726227,42.222158],[24.725909,42.223846],[24.725869,42.223969],[24.725879,42.224028],[24.727366,42.223893],[24.728182,42.219486],[24.72823,42.219491],[24.728354,42.218817],[24.727754,42.21882],[24.727565,42.21903]]]},"properties":{"cadreg":63}},{"type":"Feature","geometry":{"type":"Polygon","coordinates":[[[24.727548,42.222952],[24.727366,42.223893],[24.727645,42.223868],[24.727641,42.223848],[24.729832,42.223643],[24.7324,42.223485],[24.732406,42.223419],[24.73221,42.223438],[24.732182,42.2234],[24.732167,42.223402],[24.7323,42.222896],[24.729508,42.222813],[24.727548,42.222952]]]},"properties":{"cadreg":64}},{"type":"Feature","geometry":{"type":"Polygon","coordinates":[[[24.728345,42.218862],[24.72823,42.219491],[24.728182,42.219486],[24.727548,42.222952],[24.729508,42.222813],[24.730534,42.222843],[24.73065,42.222802],[24.731466,42.218951],[24.728345,42.218862]]]},"properties":{"cadreg":65}},{"type":"Feature","geometry":{"type":"Polygon","coordinates":[[[24.731882,42.215224],[24.731892,42.215077],[24.731588,42.215297],[24.731095,42.215584],[24.730067,42.216236],[24.729536,42.216643],[24.729299,42.216883],[24.728783,42.217511],[24.728164,42.218351],[24.727754,42.21882],[24.728354,42.218817],[24.728345,42.218862],[24.731526,42.218953],[24.731896,42.215277],[24.731882,42.215224]]]},"properties":{"cadreg":66}},{"type":"Feature","geometry":{"type":"Polygon","coordinates":[[[24.731466,42.218951],[24.73065,42.222802],[24.730534,42.222843],[24.7323,42.222896],[24.732167,42.223402],[24.732182,42.2234],[24.73221,42.223438],[24.732406,42.223419],[24.732385,42.223324],[24.732425,42.223274],[24.732678,42.222209],[24.73333,42.219139],[24.733128,42.219041],[24.731466,42.218951]]]},"properties":{"cadreg":67}},{"type":"Feature","geometry":{"type":"Polygon","coordinates":[[[24.731896,42.215277],[24.731526,42.218953],[24.733128,42.219041],[24.73333,42.219139],[24.733979,42.21611],[24.734189,42.21502],[24.734237,42.214931],[24.734289,42.214891],[24.734513,42.214833],[24.734711,42.214761],[24.734727,42.214508],[24.733867,42.214512],[24.733504,42.214551],[24.733153,42.214619],[24.732783,42.214699],[24.732497,42.214791],[24.73223,42.214901],[24.731892,42.215077],[24.731882,42.215224],[24.731896,42.215277]]]},"properties":{"cadreg":68}},{"type":"Feature","geometry":{"type":"Polygon","coordinates":[[[24.733979,42.21611],[24.732678,42.222209],[24.732425,42.223274],[24.732766,42.223257],[24.735627,42.22297],[24.737357,42.214653],[24.734711,42.214761],[24.734513,42.214833],[24.734289,42.214891],[24.734237,42.214931],[24.734189,42.21502],[24.733979,42.21611]]]},"properties":{"cadreg":69}},{"type":"Feature","geometry":{"type":"Polygon","coordinates":[[[24.730838,42.256794],[24.729424,42.257244],[24.72931,42.257268],[24.726856,42.25802],[24.727566,42.259877],[24.727664,42.260188],[24.728066,42.262454],[24.728053,42.262506],[24.727968,42.262518],[24.727997,42.262591],[24.740756,42.260718],[24.740746,42.260689],[24.740716,42.26068],[24.74061,42.260678],[24.739461,42.260851],[24.739109,42.253805],[24.738344,42.254204],[24.734882,42.255638],[24.733273,42.256052],[24.732534,42.25627],[24.73202,42.256447],[24.730999,42.256765],[24.730838,42.256794]]]},"properties":{"cadreg":70}},{"type":"Feature","geometry":{"type":"Polygon","coordinates":[[[24.739109,42.253805],[24.739461,42.260851],[24.74061,42.260678],[24.740716,42.26068],[24.740746,42.260689],[24.740756,42.260718],[24.747841,42.260091],[24.747857,42.257826],[24.747839,42.256869],[24.74787,42.253593],[24.747773,42.253484],[24.747694,42.253486],[24.747694,42.253422],[24.744999,42.25347],[24.744288,42.253462],[24.74402,42.253479],[24.74257,42.253509],[24.74066,42.253517],[24.740671,42.253621],[24.740462,42.253598],[24.739264,42.253682],[24.739121,42.25371],[24.739078,42.253732],[24.739174,42.253774],[24.739109,42.253805]]]},"properties":{"cadreg":80}},{"type":"Feature","geometry":{"type":"Polygon","coordinates":[[[24.747855,42.257865],[24.747841,42.260091],[24.750651,42.259841],[24.750602,42.259775],[24.750626,42.259668],[24.755759,42.255102],[24.755754,42.255067],[24.75504,42.253929],[24.754627,42.253311],[24.754158,42.252483],[24.754141,42.252357],[24.753964,42.252401],[24.753932,42.252429],[24.753869,42.25244],[24.753545,42.252714],[24.748173,42.257783],[24.748152,42.257836],[24.747855,42.257865]]]},"properties":{"cadreg":90}},{"type":"Feature","geometry":{"type":"Polygon","coordinates":[[[24.762216,42.256611],[24.754031,42.257407],[24.75395,42.257355],[24.753942,42.257285],[24.753276,42.257317],[24.750626,42.259668],[24.750602,42.259775],[24.750651,42.259841],[24.761457,42.258863],[24.761524,42.258823],[24.762338,42.256658],[24.762252,42.256641],[24.762216,42.256611]]]},"properties":{"cadreg":91}},{"type":"Feature","geometry":{"type":"Polygon","coordinates":[[[24.754618,42.253294],[24.75504,42.253929],[24.755754,42.255067],[24.755759,42.255102],[24.753276,42.257317],[24.753942,42.257285],[24.75395,42.257355],[24.754031,42.257407],[24.75888,42.256933],[24.758611,42.255584],[24.758434,42.254892],[24.757783,42.252082],[24.754141,42.252357],[24.754158,42.252483],[24.754618,42.253294]]]},"properties":{"cadreg":92}},{"type":"Feature","geometry":{"type":"Polygon","coordinates":[[[24.757783,42.252082],[24.758611,42.255584],[24.75888,42.256933],[24.762216,42.256611],[24.762252,42.256641],[24.762338,42.256658],[24.764098,42.251923],[24.764223,42.251656],[24.764158,42.251645],[24.764131,42.251624],[24.762112,42.251794],[24.757783,42.252082]]]},"properties":{"cadreg":93}},{"type":"Feature","geometry":{"type":"Polygon","coordinates":[[[24.757254,42.249863],[24.757347,42.250472],[24.755778,42.250598],[24.755687,42.250637],[24.753963,42.252235],[24.753937,42.252309],[24.753964,42.252401],[24.754141,42.252357],[24.757783,42.252082],[24.762112,42.251794],[24.764131,42.251624],[24.764158,42.251645],[24.764223,42.251656],[24.765885,42.249915],[24.76681,42.248974],[24.766631,42.248859],[24.765541,42.248959],[24.765159,42.248961],[24.762809,42.249192],[24.760481,42.249382],[24.759383,42.249535],[24.75888,42.249547],[24.758649,42.249516],[24.758534,42.249526],[24.758224,42.249588],[24.757603,42.249755],[24.757277,42.249798],[24.757232,42.249836],[24.757254,42.249863]]]},"properties":{"cadreg":94}},{"type":"Feature","geometry":{"type":"Polygon","coordinates":[[[24.723381,42.23987],[24.723392,42.236792],[24.723381,42.236772],[24.723314,42.236771],[24.723126,42.238561],[24.722963,42.238552],[24.722685,42.240865],[24.722613,42.240957],[24.722139,42.245894],[24.721851,42.249134],[24.721802,42.249878],[24.721876,42.250881],[24.722018,42.251776],[24.722113,42.251981],[24.722237,42.252346],[24.72247,42.25226],[24.722524,42.25223],[24.722584,42.252159],[24.722637,42.252127],[24.723973,42.251418],[24.723757,42.250856],[24.723526,42.250134],[24.723464,42.249772],[24.723423,42.249319],[24.723401,42.248347],[24.723386,42.244115],[24.72341,42.24032],[24.723404,42.239871],[24.723381,42.23987]]]},"properties":{"cadreg":100}},{"type":"Feature","geometry":{"type":"Polygon","coordinates":[[[24.724089,42.239514],[24.724079,42.239882],[24.723404,42.239871],[24.723386,42.244115],[24.723401,42.248347],[24.723423,42.249319],[24.723464,42.249772],[24.723526,42.250134],[24.723757,42.250856],[24.723973,42.251418],[24.724196,42.251266],[24.725467,42.250171],[24.725707,42.249739],[24.725758,42.249564],[24.725804,42.249044],[24.725725,42.248788],[24.725385,42.248032],[24.725125,42.247634],[24.725011,42.247357],[24.724964,42.247182],[24.724963,42.247104],[24.724978,42.246909],[24.72501,42.246831],[24.725347,42.246238],[24.725518,42.245804],[24.725777,42.245262],[24.725887,42.244943],[24.725983,42.244571],[24.726086,42.244336],[24.726113,42.24405],[24.726073,42.243822],[24.725806,42.243563],[24.725751,42.243477],[24.725683,42.243216],[24.725902,42.242731],[24.725922,42.242638],[24.726071,42.2424],[24.726361,42.241987],[24.726507,42.241812],[24.726728,42.241625],[24.726863,42.24153],[24.726966,42.241484],[24.727063,42.241451],[24.728231,42.24123],[24.729001,42.24126],[24.729092,42.241243],[24.729275,42.241168],[24.729876,42.240831],[24.730134,42.240714],[24.730663,42.24051],[24.730915,42.240296],[24.73112,42.240018],[24.731664,42.23935],[24.73159,42.239321],[24.730515,42.239359],[24.730275,42.239369],[24.730279,42.239432],[24.726601,42.239548],[24.724089,42.239514]]]},"properties":{"cadreg":101}},{"type":"Feature","geometry":{"type":"Polygon","coordinates":[[[24.733466,42.237198],[24.733457,42.237144],[24.732677,42.237054],[24.732604,42.237066],[24.732567,42.237088],[24.73209,42.238081],[24.731906,42.238976],[24.731827,42.239043],[24.731718,42.239053],[24.73159,42.239321],[24.731664,42.23935],[24.73112,42.240018],[24.730915,42.240296],[24.730663,42.24051],[24.730134,42.240714],[24.729876,42.240831],[24.729275,42.241168],[24.729092,42.241243],[24.729001,42.24126],[24.728231,42.24123],[24.727063,42.241451],[24.726966,42.241484],[24.726863,42.24153],[24.726593,42.241727],[24.726361,42.241987],[24.725922,42.242638],[24.725902,42.242731],[24.725683,42.243216],[24.725751,42.243477],[24.725806,42.243563],[24.726073,42.243822],[24.726113,42.24405],[24.726086,42.244336],[24.725983,42.244571],[24.725887,42.244943],[24.725777,42.245262],[24.725518,42.245804],[24.725389,42.246151],[24.72501,42.246831],[24.724971,42.24697],[24.724964,42.247182],[24.725011,42.247357],[24.725125,42.247634],[24.725385,42.248032],[24.725725,42.248788],[24.725804,42.249044],[24.725758,42.249564],[24.725707,42.249739],[24.725467,42.250171],[24.724196,42.251266],[24.723854,42.251488],[24.722637,42.252127],[24.722584,42.252159],[24.722524,42.25223],[24.722275,42.252341],[24.722237,42.252346],[24.722292,42.252485],[24.722484,42.252456],[24.722542,42.25246],[24.722562,42.25252],[24.722808,42.252415],[24.723878,42.251821],[24.724144,42.251657],[24.72426,42.251613],[24.724314,42.251677],[24.725123,42.253737],[24.726723,42.257975],[24.726824,42.257952],[24.726856,42.25802],[24.72931,42.257268],[24.729424,42.257244],[24.730838,42.256794],[24.730999,42.256765],[24.73202,42.256447],[24.732534,42.25627],[24.732574,42.256149],[24.732495,42.256041],[24.733075,42.249784],[24.738253,42.238141],[24.737602,42.238049],[24.733807,42.237435],[24.733743,42.237418],[24.733579,42.237323],[24.733466,42.237198]]]},"properties":{"cadreg":102}},{"type":"Feature","geometry":{"type":"Polygon","coordinates":[[[24.738572,42.238152],[24.738253,42.238141],[24.733075,42.249784],[24.732495,42.256041],[24.732574,42.256149],[24.732534,42.25627],[24.733273,42.256052],[24.734882,42.255638],[24.735208,42.255511],[24.738344,42.254204],[24.739174,42.253774],[24.739078,42.253732],[24.739121,42.25371],[24.739264,42.253682],[24.739188,42.25366],[24.739157,42.25363],[24.739158,42.253575],[24.739189,42.253544],[24.73939,42.253519],[24.740013,42.246896],[24.740124,42.246086],[24.740687,42.244863],[24.743395,42.238677],[24.743383,42.238629],[24.743132,42.238614],[24.738572,42.238152]]]},"properties":{"cadreg":110}},{"type":"Feature","geometry":{"type":"Polygon","coordinates":[[[24.740124,42.246086],[24.740013,42.246896],[24.73939,42.253519],[24.739189,42.253544],[24.739149,42.253595],[24.739188,42.25366],[24.739264,42.253682],[24.740462,42.253598],[24.740462,42.252833],[24.742987,42.250335],[24.743437,42.24966],[24.744162,42.248484],[24.745249,42.246719],[24.745576,42.246133],[24.745492,42.246154],[24.745464,42.2462],[24.740623,42.244996],[24.740124,42.246086]]]},"properties":{"cadreg":120}},{"type":"Feature","geometry":{"type":"Polygon","coordinates":[[[24.707174,42.231952],[24.704286,42.235812],[24.704063,42.238814],[24.704141,42.238864],[24.704995,42.238721],[24.705075,42.238774],[24.705129,42.238723],[24.70558,42.238491],[24.70548,42.238461],[24.70577,42.23819],[24.706311,42.237883],[24.706618,42.237735],[24.706917,42.23755],[24.708593,42.236618],[24.708722,42.236501],[24.708755,42.236442],[24.708918,42.236262],[24.709276,42.235924],[24.709718,42.235673],[24.7101,42.235492],[24.710403,42.235238],[24.710851,42.234765],[24.711058,42.234667],[24.711051,42.234615],[24.711226,42.234488],[24.711422,42.234304],[24.711366,42.234217],[24.711027,42.233914],[24.711405,42.233523],[24.711428,42.233439],[24.711407,42.233307],[24.71067,42.232989],[24.7108,42.232898],[24.710868,42.232615],[24.710955,42.232542],[24.710856,42.232465],[24.71026,42.232581],[24.709599,42.232006],[24.709638,42.231851],[24.709386,42.231859],[24.70871,42.231917],[24.707903,42.231927],[24.707333,42.231963],[24.707174,42.231952]]]},"properties":{"cadreg":720}},{"type":"Feature","geometry":{"type":"Polygon","coordinates":[[[24.718345,42.229112],[24.718306,42.229129],[24.718258,42.229123],[24.717272,42.228627],[24.717261,42.228734],[24.716892,42.228715],[24.716705,42.230517],[24.715728,42.230462],[24.715859,42.231885],[24.71421,42.231914],[24.713199,42.231887],[24.713313,42.23395],[24.715985,42.23385],[24.717698,42.233806],[24.718434,42.233803],[24.719165,42.233666],[24.71921,42.233675],[24.719253,42.233724],[24.719936,42.235996],[24.719996,42.236015],[24.720163,42.235986],[24.719993,42.238387],[24.723126,42.238561],[24.723314,42.236771],[24.723381,42.236772],[24.723393,42.236827],[24.723381,42.23987],[24.723601,42.239882],[24.724079,42.239882],[24.724089,42.239514],[24.726601,42.239548],[24.730279,42.239432],[24.730275,42.239369],[24.73159,42.239321],[24.731718,42.239053],[24.731833,42.23904],[24.73191,42.238967],[24.73209,42.238081],[24.732681,42.236849],[24.734254,42.235644],[24.734477,42.235509],[24.734673,42.23543],[24.734894,42.235372],[24.736122,42.23519],[24.736337,42.235142],[24.736504,42.235078],[24.736667,42.234986],[24.736801,42.234878],[24.736903,42.23476],[24.736973,42.23464],[24.737018,42.234514],[24.737668,42.231534],[24.737835,42.231179],[24.738343,42.23042],[24.738644,42.229728],[24.738592,42.229723],[24.738688,42.229477],[24.738647,42.228315],[24.738472,42.228291],[24.738339,42.228293],[24.738348,42.227992],[24.738331,42.227845],[24.738324,42.227316],[24.738,42.227381],[24.737872,42.22711],[24.737749,42.22697],[24.737553,42.226852],[24.737301,42.226785],[24.73714,42.226778],[24.734912,42.226886],[24.73489,42.226864],[24.734958,42.225884],[24.733419,42.225832],[24.733445,42.225443],[24.734566,42.224504],[24.734722,42.224339],[24.734812,42.2242],[24.734876,42.22405],[24.734982,42.223668],[24.734756,42.223684],[24.734716,42.223306],[24.732984,42.223445],[24.729833,42.22365],[24.729945,42.224201],[24.729244,42.224268],[24.729274,42.224475],[24.728314,42.224556],[24.727578,42.224656],[24.725694,42.224864],[24.725859,42.224015],[24.72556,42.224041],[24.725256,42.225676],[24.725279,42.225676],[24.725254,42.225824],[24.724556,42.229601],[24.724131,42.22958],[24.724304,42.22777],[24.724278,42.227522],[24.72448,42.225753],[24.724502,42.225389],[24.724637,42.224126],[24.72111,42.224432],[24.721675,42.226581],[24.721668,42.226658],[24.721604,42.226708],[24.721555,42.226718],[24.72116,42.226753],[24.721178,42.226903],[24.720747,42.226966],[24.720881,42.227093],[24.720577,42.227281],[24.719877,42.227331],[24.719907,42.227607],[24.719491,42.227866],[24.718345,42.229112]],[[24.72252,42.230358],[24.72252,42.230358],[24.722048,42.230335],[24.72252,42.230358]]]},"properties":{"cadreg":501}},{"type":"Feature","geometry":{"type":"Polygon","coordinates":[[[24.739156,42.214579],[24.737357,42.214653],[24.735627,42.22297],[24.732766,42.223257],[24.732425,42.223274],[24.732385,42.223324],[24.733117,42.223258],[24.73313,42.223335],[24.734841,42.223138],[24.738368,42.222848],[24.739076,42.222718],[24.739178,42.222615],[24.739294,42.222076],[24.739183,42.216695],[24.739156,42.214579]]]},"properties":{"cadreg":610}},{"type":"Feature","geometry":{"type":"Polygon","coordinates":[[[24.73313,42.223335],[24.733117,42.223258],[24.732385,42.223324],[24.7324,42.223485],[24.734716,42.223306],[24.734756,42.223684],[24.734982,42.223668],[24.734857,42.2241],[24.734776,42.224259],[24.734684,42.224384],[24.734566,42.224504],[24.733445,42.225443],[24.733419,42.225832],[24.734958,42.225884],[24.734898,42.226876],[24.734912,42.226886],[24.735825,42.226841],[24.735783,42.226383],[24.735524,42.226093],[24.735712,42.224881],[24.735876,42.223053],[24.734841,42.223138],[24.73313,42.223335]]]},"properties":{"cadreg":611}},{"type":"Feature","geometry":{"type":"Polygon","coordinates":[[[24.735825,42.226841],[24.737201,42.226778],[24.737338,42.226791],[24.737485,42.226826],[24.737555,42.225896],[24.737474,42.225897],[24.737648,42.224467],[24.737833,42.224173],[24.738536,42.224089],[24.739076,42.222718],[24.738368,42.222848],[24.735876,42.223053],[24.735712,42.224881],[24.735524,42.226093],[24.735783,42.226383],[24.735825,42.226841]]]},"properties":{"cadreg":612}},{"type":"Feature","geometry":{"type":"Polygon","coordinates":[[[24.739145,42.214408],[24.739294,42.222076],[24.739276,42.222192],[24.739178,42.222615],[24.739076,42.222718],[24.738536,42.224089],[24.737833,42.224173],[24.737648,42.224467],[24.737474,42.225897],[24.737555,42.225896],[24.737485,42.226826],[24.737664,42.226909],[24.737809,42.227027],[24.737889,42.227139],[24.738,42.227381],[24.738324,42.227316],[24.738331,42.227845],[24.738348,42.227992],[24.738339,42.228293],[24.738472,42.228291],[24.738647,42.228315],[24.738688,42.229477],[24.738592,42.229723],[24.738644,42.229728],[24.738343,42.23042],[24.737847,42.231159],[24.737712,42.231419],[24.737625,42.231682],[24.737396,42.23275],[24.737467,42.232812],[24.738242,42.232913],[24.738263,42.2329],[24.738384,42.232897],[24.738428,42.232869],[24.738889,42.232195],[24.738972,42.232167],[24.738625,42.231803],[24.738785,42.231739],[24.738484,42.231437],[24.739838,42.228181],[24.74007,42.22696],[24.739251,42.226108],[24.73925,42.225474],[24.740242,42.224693],[24.739935,42.223621],[24.739986,42.223116],[24.740176,42.221829],[24.74025,42.220204],[24.739942,42.21442],[24.739887,42.214419],[24.739767,42.214374],[24.739285,42.214389],[24.739145,42.214408]]]},"properties":{"cadreg":613}},{"type":"Feature","geometry":{"type":"Polygon","coordinates":[[[24.715081,42.213149],[24.712527,42.212829],[24.711303,42.212643],[24.710268,42.212511],[24.708645,42.212262],[24.708532,42.212565],[24.714944,42.213483],[24.715036,42.213461],[24.715475,42.213551],[24.716385,42.213668],[24.717902,42.213797],[24.718986,42.213911],[24.72294,42.214253],[24.725982,42.214468],[24.726064,42.214471],[24.726294,42.214322],[24.726425,42.214331],[24.725626,42.217921],[24.725446,42.217971],[24.725161,42.218091],[24.721561,42.21944],[24.7141,42.222167],[24.712217,42.222874],[24.711562,42.223104],[24.708412,42.224272],[24.707792,42.224483],[24.70369,42.225996],[24.703674,42.22615],[24.707768,42.224664],[24.708088,42.224566],[24.711714,42.223216],[24.716461,42.2215],[24.718113,42.220877],[24.719561,42.220352],[24.720943,42.219896],[24.725564,42.218185],[24.72471,42.221984],[24.724619,42.222523],[24.724467,42.224062],[24.724513,42.224136],[24.724735,42.224111],[24.724966,42.222578],[24.725212,42.221271],[24.725246,42.22124],[24.725493,42.219987],[24.725817,42.218612],[24.725928,42.218087],[24.725922,42.218039],[24.72601,42.217805],[24.726741,42.214613],[24.727027,42.214616],[24.727513,42.214696],[24.728021,42.214938],[24.728219,42.2151],[24.728482,42.215388],[24.728792,42.215946],[24.728922,42.216309],[24.728907,42.216504],[24.728869,42.216706],[24.728674,42.217096],[24.727856,42.218266],[24.727489,42.218739],[24.727215,42.219031],[24.727002,42.219361],[24.72694,42.219509],[24.726529,42.220214],[24.726329,42.220619],[24.726047,42.22139],[24.725898,42.221989],[24.725596,42.223607],[24.725618,42.223609],[24.725583,42.223973],[24.72556,42.224041],[24.725859,42.224015],[24.725909,42.223846],[24.726227,42.222158],[24.726532,42.22078],[24.726721,42.220365],[24.727565,42.21903],[24.728164,42.218351],[24.728783,42.217511],[24.729299,42.216883],[24.729536,42.216643],[24.730067,42.216236],[24.731095,42.215584],[24.731588,42.215297],[24.731892,42.215077],[24.73223,42.214901],[24.732497,42.214791],[24.732783,42.214699],[24.733504,42.214551],[24.733934,42.21451],[24.734727,42.214508],[24.734711,42.214761],[24.739156,42.214579],[24.739145,42.214408],[24.739285,42.214389],[24.739767,42.214374],[24.739887,42.214419],[24.740268,42.214424],[24.745081,42.214116],[24.747897,42.213863],[24.75758,42.212931],[24.767704,42.211869],[24.76811,42.211471],[24.757658,42.212559],[24.755843,42.21273],[24.755484,42.212779],[24.752539,42.213074],[24.750002,42.213352],[24.748916,42.213454],[24.748247,42.213503],[24.746254,42.21369],[24.744856,42.213771],[24.744248,42.213821],[24.740388,42.214068],[24.7401,42.214046],[24.739962,42.214152],[24.73983,42.214178],[24.739805,42.214238],[24.739322,42.21425],[24.73911,42.214152],[24.738989,42.214155],[24.738993,42.214127],[24.736999,42.214088],[24.734667,42.214117],[24.734717,42.214229],[24.734455,42.214237],[24.733544,42.214111],[24.733277,42.214044],[24.732919,42.213926],[24.732537,42.213741],[24.731758,42.213275],[24.731339,42.212979],[24.731249,42.212875],[24.731163,42.212892],[24.731052,42.212637],[24.731028,42.212404],[24.731292,42.211633],[24.731403,42.211505],[24.731776,42.210316],[24.732926,42.207051],[24.734005,42.203896],[24.734275,42.20315],[24.734372,42.202941],[24.734475,42.202587],[24.735455,42.199694],[24.735687,42.198908],[24.735799,42.198329],[24.735897,42.197346],[24.736137,42.195653],[24.736198,42.195349],[24.736137,42.195339],[24.736155,42.195222],[24.73603,42.195203],[24.735892,42.195208],[24.735876,42.195326],[24.735771,42.195328],[24.735436,42.198226],[24.735237,42.199051],[24.734836,42.20029],[24.734317,42.201659],[24.733142,42.20522],[24.732827,42.206069],[24.732782,42.206151],[24.732189,42.207835],[24.732187,42.20788],[24.731076,42.21096],[24.730374,42.212221],[24.729596,42.212869],[24.728807,42.213413],[24.72819,42.213772],[24.727873,42.213879],[24.727459,42.21398],[24.7271,42.214043],[24.726709,42.214056],[24.727485,42.210681],[24.72766,42.209986],[24.727695,42.209752],[24.728182,42.20769],[24.728215,42.207615],[24.728334,42.207112],[24.729482,42.202089],[24.729626,42.201519],[24.729878,42.200754],[24.730083,42.200217],[24.731389,42.19695],[24.731977,42.195427],[24.731737,42.195436],[24.729796,42.200392],[24.729535,42.201115],[24.729435,42.201452],[24.727977,42.207691],[24.727869,42.208044],[24.727739,42.208667],[24.727557,42.209389],[24.726544,42.213819],[24.723849,42.213613],[24.721414,42.213526],[24.7206,42.213477],[24.715671,42.213072],[24.715702,42.212739],[24.715631,42.212701],[24.715651,42.212818],[24.715542,42.212959],[24.715466,42.21302],[24.715374,42.213054],[24.715176,42.213064],[24.715116,42.213081],[24.715084,42.213104],[24.715081,42.213149]]]},"properties":{"cadreg":614}},{"type":"Feature","geometry":{"type":"Polygon","coordinates":[[[24.706078,42.245787],[24.705519,42.245961],[24.703572,42.246566],[24.703767,42.246667],[24.703979,42.246816],[24.704207,42.246914],[24.704352,42.24691],[24.705098,42.247101],[24.705314,42.247052],[24.705595,42.246927],[24.706424,42.246787],[24.706078,42.245787]]]},"properties":{"cadreg":700}},{"type":"Feature","geometry":{"type":"Polygon","coordinates":[[[24.70909,42.247578],[24.709114,42.247298],[24.709439,42.247266],[24.709308,42.246908],[24.709202,42.246889],[24.709063,42.246943],[24.708923,42.246956],[24.708778,42.246947],[24.708721,42.246906],[24.708736,42.246792],[24.706759,42.24719],[24.70708,42.247575],[24.707711,42.247503],[24.707883,42.247778],[24.70909,42.247578]]]},"properties":{"cadreg":701}},{"type":"Feature","geometry":{"type":"Polygon","coordinates":[[[24.709173,42.243603],[24.707603,42.243589],[24.707666,42.24434],[24.707978,42.244271],[24.707894,42.244328],[24.707878,42.244357],[24.707907,42.24463],[24.707768,42.244688],[24.707621,42.244715],[24.707556,42.244774],[24.707537,42.24482],[24.707528,42.244973],[24.707586,42.245113],[24.707643,42.245175],[24.707722,42.245214],[24.707822,42.245238],[24.7082,42.245212],[24.708321,42.245265],[24.708454,42.245669],[24.708439,42.245745],[24.708389,42.2458],[24.708384,42.245828],[24.708425,42.245973],[24.708513,42.246055],[24.708713,42.246164],[24.708806,42.246174],[24.708657,42.246616],[24.708731,42.246662],[24.708721,42.246906],[24.708778,42.246947],[24.70885,42.246956],[24.709063,42.246943],[24.709202,42.246889],[24.709308,42.246908],[24.709439,42.247266],[24.709114,42.247298],[24.70909,42.247578],[24.709395,42.247508],[24.709819,42.247451],[24.710197,42.247404],[24.71069,42.24737],[24.71061,42.247287],[24.710602,42.247185],[24.710636,42.246995],[24.710695,42.246857],[24.710728,42.246824],[24.711159,42.246753],[24.711257,42.246477],[24.711843,42.246457],[24.71199,42.246023],[24.712444,42.245938],[24.71276,42.245217],[24.713102,42.245081],[24.713057,42.244764],[24.712162,42.244853],[24.711533,42.244872],[24.711475,42.24494],[24.710324,42.244954],[24.710294,42.243559],[24.709748,42.243596],[24.709173,42.243603]]]},"properties":{"cadreg":702}},{"type":"Feature","geometry":{"type":"Polygon","coordinates":[[[24.710324,42.244954],[24.711475,42.24494],[24.711533,42.244872],[24.712162,42.244853],[24.713057,42.244764],[24.713102,42.245081],[24.71276,42.245217],[24.712444,42.245938],[24.71199,42.246023],[24.711843,42.246457],[24.711257,42.246477],[24.711159,42.246753],[24.710728,42.246824],[24.710695,42.246857],[24.710636,42.246995],[24.710602,42.247185],[24.71061,42.247287],[24.71069,42.24737],[24.711089,42.24735],[24.71198,42.247204],[24.712432,42.247177],[24.712883,42.247194],[24.713059,42.247254],[24.713191,42.247323],[24.713472,42.247171],[24.714074,42.246888],[24.71429,42.246751],[24.714935,42.24642],[24.715369,42.246222],[24.715609,42.246157],[24.716153,42.245808],[24.717201,42.245182],[24.717093,42.245162],[24.717015,42.24512],[24.716762,42.245079],[24.716259,42.245051],[24.715852,42.245094],[24.715358,42.245171],[24.714947,42.245205],[24.714621,42.245263],[24.714567,42.245237],[24.714487,42.245158],[24.714408,42.245039],[24.714324,42.244643],[24.714336,42.244377],[24.71435,42.244354],[24.714477,42.244295],[24.714489,42.244261],[24.714467,42.244231],[24.714324,42.244197],[24.714292,42.244176],[24.714142,42.243939],[24.71405,42.243865],[24.713724,42.24369],[24.712826,42.243417],[24.712416,42.243316],[24.712272,42.243345],[24.712088,42.243413],[24.711971,42.243485],[24.711264,42.243725],[24.711202,42.243709],[24.710993,42.243591],[24.710735,42.243521],[24.710535,42.243498],[24.710279,42.243515],[24.710294,42.243559],[24.710324,42.244954]]]},"properties":{"cadreg":703}},{"type":"Feature","geometry":{"type":"Polygon","coordinates":[[[24.714181,42.247133],[24.715609,42.246157],[24.715369,42.246222],[24.714935,42.24642],[24.71429,42.246751],[24.714074,42.246888],[24.713472,42.247171],[24.713191,42.247323],[24.713345,42.247415],[24.713653,42.247747],[24.713686,42.247891],[24.713288,42.248093],[24.713543,42.248578],[24.714062,42.247278],[24.714068,42.247229],[24.714181,42.247133]]]},"properties":{"cadreg":704}},{"type":"Feature","geometry":{"type":"Polygon","coordinates":[[[24.715463,42.24626],[24.714181,42.247133],[24.714068,42.247229],[24.714062,42.247278],[24.713507,42.248667],[24.713505,42.248743],[24.71357,42.248776],[24.714299,42.24899],[24.715236,42.24865],[24.715485,42.248403],[24.715725,42.247782],[24.715722,42.247606],[24.715759,42.247407],[24.715499,42.247376],[24.715594,42.247068],[24.715396,42.247025],[24.715307,42.246826],[24.715387,42.246823],[24.715463,42.24626]]]},"properties":{"cadreg":705}},{"type":"Feature","geometry":{"type":"Polygon","coordinates":[[[24.71806,42.244548],[24.715453,42.243732],[24.714813,42.243743],[24.714752,42.243764],[24.714711,42.243814],[24.714655,42.24419],[24.714629,42.244211],[24.714489,42.244261],[24.714477,42.244295],[24.71435,42.244354],[24.714336,42.244377],[24.714324,42.244643],[24.714408,42.245039],[24.714487,42.245158],[24.714567,42.245237],[24.714621,42.245263],[24.714648,42.24526],[24.714947,42.245205],[24.715358,42.245171],[24.715852,42.245094],[24.716259,42.245051],[24.716762,42.245079],[24.717015,42.24512],[24.717093,42.245162],[24.717201,42.245182],[24.718159,42.244527],[24.71806,42.244548]]]},"properties":{"cadreg":706}},{"type":"Feature","geometry":{"type":"Polygon","coordinates":[[[24.712754,42.242864],[24.711959,42.242646],[24.711708,42.24357],[24.711971,42.243485],[24.712088,42.243413],[24.712389,42.243316],[24.71266,42.243372],[24.713405,42.243589],[24.713724,42.24369],[24.713834,42.24374],[24.71405,42.243865],[24.714142,42.243939],[24.714305,42.244187],[24.714467,42.244231],[24.714489,42.244261],[24.714629,42.244211],[24.714655,42.24419],[24.714711,42.243814],[24.714752,42.243764],[24.714813,42.243743],[24.715453,42.243732],[24.712754,42.242864]]]},"properties":{"cadreg":707}},{"type":"Feature","geometry":{"type":"Polygon","coordinates":[[[24.707087,42.242311],[24.706954,42.242164],[24.70683,42.242082],[24.706702,42.242116],[24.706418,42.242309],[24.70566,42.242774],[24.704803,42.243231],[24.704174,42.243628],[24.70383,42.243812],[24.703994,42.244087],[24.703828,42.244176],[24.704059,42.244331],[24.704111,42.244388],[24.704141,42.244427],[24.704163,42.24454],[24.704221,42.244623],[24.704256,42.244635],[24.7044,42.244624],[24.704559,42.244571],[24.704854,42.244468],[24.705242,42.244287],[24.705471,42.244199],[24.70572,42.244151],[24.705904,42.244137],[24.706187,42.244068],[24.706373,42.243991],[24.706567,42.243859],[24.706664,42.243819],[24.707355,42.243597],[24.707824,42.243585],[24.708936,42.243591],[24.709173,42.243603],[24.709748,42.243596],[24.710294,42.243559],[24.710279,42.243515],[24.710535,42.243498],[24.710735,42.243521],[24.710993,42.243591],[24.711202,42.243709],[24.711264,42.243725],[24.711708,42.24357],[24.711959,42.242646],[24.711757,42.242592],[24.711311,42.242425],[24.710232,42.242077],[24.709606,42.242413],[24.708974,42.241689],[24.708313,42.241498],[24.708455,42.241616],[24.708505,42.241706],[24.708572,42.241944],[24.708568,42.241989],[24.708502,42.242054],[24.707893,42.24228],[24.707792,42.242331],[24.707358,42.24245],[24.707263,42.242438],[24.707087,42.242311]]]},"properties":{"cadreg":708}},{"type":"Feature","geometry":{"type":"Polygon","coordinates":[[[24.714882,42.240322],[24.714597,42.240236],[24.712551,42.239719],[24.712383,42.23962],[24.711475,42.239181],[24.711508,42.239143],[24.710991,42.238894],[24.710298,42.238741],[24.709949,42.238751],[24.709582,42.238739],[24.708705,42.238701],[24.70845,42.238676],[24.708377,42.238698],[24.708356,42.238765],[24.708293,42.239617],[24.708321,42.239806],[24.708218,42.240398],[24.70822,42.241108],[24.708181,42.241371],[24.708313,42.241498],[24.708974,42.241689],[24.709606,42.242413],[24.710232,42.242077],[24.711311,42.242425],[24.711757,42.242592],[24.712754,42.242864],[24.715352,42.243701],[24.71806,42.244548],[24.718159,42.244527],[24.718605,42.244223],[24.718824,42.243923],[24.718886,42.243952],[24.718982,42.243944],[24.719648,42.242461],[24.720174,42.241771],[24.718524,42.240933],[24.718381,42.241101],[24.717692,42.241129],[24.717687,42.241111],[24.717237,42.240968],[24.716754,42.240861],[24.715594,42.240554],[24.714899,42.240278],[24.714882,42.240322]]]},"properties":{"cadreg":709}},{"type":"Feature","geometry":{"type":"Polygon","coordinates":[[[24.704455,42.244604],[24.704335,42.244632],[24.704221,42.244623],[24.704163,42.24454],[24.704141,42.244427],[24.704111,42.244388],[24.704059,42.244331],[24.703828,42.244176],[24.702951,42.244645],[24.703094,42.244911],[24.702155,42.245394],[24.702342,42.245596],[24.702843,42.245479],[24.70322,42.245838],[24.703424,42.246491],[24.703521,42.246543],[24.703572,42.246566],[24.706078,42.245787],[24.706424,42.246787],[24.706759,42.24719],[24.708736,42.246792],[24.708731,42.246662],[24.708657,42.246616],[24.708806,42.246174],[24.708713,42.246164],[24.708513,42.246055],[24.708425,42.245973],[24.708384,42.245828],[24.708389,42.2458],[24.708439,42.245745],[24.708454,42.245669],[24.708321,42.245265],[24.7082,42.245212],[24.707822,42.245238],[24.707722,42.245214],[24.707643,42.245175],[24.707547,42.245047],[24.707527,42.244901],[24.707556,42.244774],[24.707621,42.244715],[24.707768,42.244688],[24.707907,42.24463],[24.707878,42.244357],[24.707894,42.244328],[24.707978,42.244271],[24.707666,42.24434],[24.707603,42.243589],[24.707355,42.243597],[24.706664,42.243819],[24.706567,42.243859],[24.706373,42.243991],[24.706187,42.244068],[24.705904,42.244137],[24.70572,42.244151],[24.705471,42.244199],[24.705242,42.244287],[24.704854,42.244468],[24.704455,42.244604]]]},"properties":{"cadreg":710}},{"type":"Feature","geometry":{"type":"Polygon","coordinates":[[[24.705488,42.239414],[24.70546,42.239277],[24.705975,42.239064],[24.70558,42.238491],[24.705129,42.238723],[24.705075,42.238774],[24.705128,42.23879],[24.705299,42.239116],[24.705306,42.239183],[24.705268,42.239226],[24.705217,42.239262],[24.704786,42.239383],[24.704658,42.239433],[24.704596,42.239481],[24.704496,42.239661],[24.704423,42.239733],[24.703416,42.239965],[24.703256,42.240146],[24.70307,42.240857],[24.703593,42.241656],[24.704098,42.242276],[24.704801,42.242033],[24.705096,42.241952],[24.70772,42.241431],[24.708245,42.241444],[24.708181,42.241371],[24.70822,42.241108],[24.708218,42.240398],[24.708321,42.239806],[24.708304,42.239653],[24.708271,42.23956],[24.708166,42.239559],[24.70797,42.239593],[24.707541,42.239704],[24.707328,42.239834],[24.707029,42.239966],[24.706804,42.240104],[24.706668,42.240169],[24.706067,42.240546],[24.705844,42.240708],[24.705296,42.239497],[24.705488,42.239414]]]},"properties":{"cadreg":711}},{"type":"Feature","geometry":{"type":"Polygon","coordinates":[[[24.706016,42.238488],[24.705663,42.238479],[24.70558,42.238491],[24.705975,42.239064],[24.70546,42.239277],[24.705488,42.239414],[24.705296,42.239497],[24.705844,42.240708],[24.706067,42.240546],[24.706668,42.240169],[24.706787,42.240112],[24.706536,42.238546],[24.706016,42.238488]]]},"properties":{"cadreg":712}},{"type":"Feature","geometry":{"type":"Polygon","coordinates":[[[24.706819,42.238588],[24.706536,42.238546],[24.706787,42.240112],[24.707029,42.239966],[24.707328,42.239834],[24.707541,42.239704],[24.70797,42.239593],[24.708166,42.239559],[24.708271,42.23956],[24.708293,42.239617],[24.708356,42.238765],[24.708377,42.238698],[24.70845,42.238676],[24.706819,42.238588]]]},"properties":{"cadreg":713}},{"type":"Feature","geometry":{"type":"Polygon","coordinates":[[[24.714043,42.236631],[24.713206,42.236753],[24.713485,42.236797],[24.712426,42.238045],[24.712191,42.238119],[24.71174,42.238291],[24.711394,42.238567],[24.711252,42.238632],[24.711012,42.238694],[24.710233,42.238738],[24.710298,42.238741],[24.710991,42.238894],[24.711508,42.239143],[24.711475,42.239181],[24.71177,42.239324],[24.712522,42.238451],[24.714043,42.236631]]]},"properties":{"cadreg":714}},{"type":"Feature","geometry":{"type":"Polygon","coordinates":[[[24.713035,42.237831],[24.71177,42.239324],[24.712503,42.23969],[24.713077,42.239303],[24.713587,42.239],[24.713645,42.238951],[24.714796,42.238526],[24.715093,42.238382],[24.715906,42.237907],[24.714951,42.237702],[24.714449,42.237633],[24.714232,42.237618],[24.713989,42.237635],[24.713136,42.237805],[24.713035,42.237831]]]},"properties":{"cadreg":715}},{"type":"Feature","geometry":{"type":"Polygon","coordinates":[[[24.714882,42.240322],[24.714967,42.240099],[24.715032,42.239763],[24.71503,42.239624],[24.714874,42.23854],[24.714804,42.238522],[24.714559,42.238623],[24.713645,42.238951],[24.713587,42.239],[24.713077,42.239303],[24.712503,42.23969],[24.712551,42.239719],[24.714597,42.240236],[24.714882,42.240322]]]},"properties":{"cadreg":716}},{"type":"Feature","geometry":{"type":"Polygon","coordinates":[[[24.716549,42.237519],[24.716119,42.237762],[24.715827,42.237956],[24.715093,42.238382],[24.714804,42.238522],[24.714874,42.23854],[24.71503,42.239624],[24.715032,42.239763],[24.714967,42.240099],[24.714899,42.240278],[24.715594,42.240554],[24.716754,42.240861],[24.717237,42.240968],[24.717687,42.241111],[24.717692,42.241129],[24.718381,42.241101],[24.718524,42.240933],[24.718588,42.24096],[24.718234,42.239877],[24.717395,42.237833],[24.716864,42.237623],[24.716549,42.237519]]]},"properties":{"cadreg":717}},{"type":"Feature","geometry":{"type":"Polygon","coordinates":[[[24.715579,42.236397],[24.714043,42.236631],[24.713035,42.237831],[24.713415,42.23774],[24.713989,42.237635],[24.714232,42.237618],[24.714449,42.237633],[24.714951,42.237702],[24.715906,42.237907],[24.716119,42.237762],[24.716655,42.237456],[24.717084,42.237181],[24.716834,42.236667],[24.716015,42.235759],[24.715991,42.235825],[24.715752,42.235859],[24.715365,42.235945],[24.715554,42.236314],[24.715579,42.236397]]]},"properties":{"cadreg":718}},{"type":"Feature","geometry":{"type":"Polygon","coordinates":[[[24.708593,42.236618],[24.706917,42.23755],[24.706618,42.237735],[24.705989,42.238058],[24.705711,42.238237],[24.70548,42.238461],[24.70558,42.238491],[24.705663,42.238479],[24.706016,42.238488],[24.706365,42.238521],[24.706964,42.238603],[24.708349,42.238666],[24.708911,42.238712],[24.709949,42.238751],[24.711012,42.238694],[24.711327,42.238605],[24.711454,42.238523],[24.71174,42.238291],[24.712191,42.238119],[24.712426,42.238045],[24.713485,42.236797],[24.713206,42.236753],[24.713076,42.236773],[24.712884,42.236736],[24.711434,42.23437],[24.711058,42.234667],[24.710851,42.234765],[24.710403,42.235238],[24.7101,42.235492],[24.709718,42.235673],[24.709332,42.235882],[24.709134,42.236044],[24.708755,42.236442],[24.708722,42.236501],[24.708593,42.236618]]]},"properties":{"cadreg":719}},{"type":"Feature","geometry":{"type":"Polygon","coordinates":[[[24.743395,42.238677],[24.740623,42.244996],[24.745464,42.2462],[24.745492,42.246154],[24.745576,42.246133],[24.745651,42.246024],[24.74858,42.241372],[24.751151,42.239776],[24.751654,42.239487],[24.751429,42.239389],[24.75109,42.239342],[24.743612,42.238395],[24.743485,42.238447],[24.743381,42.238553],[24.743395,42.238677]]]},"properties":{"cadreg":121}},{"type":"Feature","geometry":{"type":"Polygon","coordinates":[[[24.745651,42.246024],[24.745249,42.246719],[24.743437,42.24966],[24.742987,42.250335],[24.740462,42.252833],[24.740462,42.253598],[24.740671,42.253621],[24.74066,42.253517],[24.74257,42.253509],[24.744178,42.253471],[24.744425,42.253199],[24.748552,42.24799],[24.748583,42.248003],[24.749341,42.247029],[24.74946,42.246933],[24.749194,42.246835],[24.745888,42.246041],[24.745651,42.246024]]]},"properties":{"cadreg":130}},{"type":"Feature","geometry":{"type":"Polygon","coordinates":[[[24.748552,42.24799],[24.744425,42.253199],[24.744178,42.253471],[24.746062,42.253456],[24.747694,42.253422],[24.747694,42.253486],[24.747773,42.253484],[24.747773,42.253424],[24.748065,42.253166],[24.75268,42.247392],[24.752695,42.24732],[24.75247,42.247268],[24.751299,42.247155],[24.74946,42.246933],[24.749341,42.247029],[24.748583,42.248003],[24.748552,42.24799]]]},"properties":{"cadreg":131}},{"type":"Feature","geometry":{"type":"Polygon","coordinates":[[[24.751129,42.23988],[24.751096,42.239813],[24.74858,42.241372],[24.745651,42.246024],[24.745888,42.246041],[24.749194,42.246835],[24.74946,42.246933],[24.751693,42.24341],[24.753934,42.239941],[24.753682,42.239916],[24.751886,42.239668],[24.751738,42.239659],[24.751402,42.239904],[24.751328,42.239938],[24.751129,42.23988]]]},"properties":{"cadreg":132}},{"type":"Feature","geometry":{"type":"Polygon","coordinates":[[[24.753934,42.239941],[24.751675,42.243439],[24.74946,42.246933],[24.751299,42.247155],[24.75247,42.247268],[24.752695,42.24732],[24.753243,42.246476],[24.754482,42.244416],[24.754529,42.244375],[24.755637,42.2426],[24.756998,42.240398],[24.757007,42.240354],[24.753934,42.239941]]]},"properties":{"cadreg":133}},{"type":"Feature","geometry":{"type":"Polygon","coordinates":[[[24.756998,42.240398],[24.754529,42.244375],[24.754482,42.244416],[24.753243,42.246476],[24.752695,42.24732],[24.75268,42.247392],[24.752831,42.247433],[24.754899,42.248146],[24.754951,42.248086],[24.754844,42.248011],[24.757171,42.244385],[24.756211,42.244053],[24.757289,42.2423],[24.757077,42.242183],[24.758138,42.240474],[24.757264,42.240362],[24.757007,42.240354],[24.756998,42.240398]]]},"properties":{"cadreg":134}},{"type":"Feature","geometry":{"type":"Polygon","coordinates":[[[24.758827,42.246755],[24.758805,42.246797],[24.75885,42.247727],[24.758977,42.249536],[24.759383,42.249535],[24.760481,42.249382],[24.762809,42.249192],[24.765321,42.248952],[24.765222,42.247374],[24.765156,42.24558],[24.764988,42.245584],[24.764991,42.245646],[24.763463,42.245692],[24.763466,42.245718],[24.76172,42.245775],[24.761704,42.245762],[24.761604,42.244718],[24.758827,42.246755]]]},"properties":{"cadreg":140}},{"type":"Feature","geometry":{"type":"Polygon","coordinates":[[[24.761556,42.240988],[24.7617,42.243009],[24.761793,42.244649],[24.761667,42.244657],[24.761604,42.244718],[24.761704,42.245762],[24.76172,42.245775],[24.762531,42.245757],[24.763466,42.245718],[24.763463,42.245692],[24.764991,42.245646],[24.764988,42.245584],[24.765156,42.24558],[24.765001,42.242793],[24.764858,42.240709],[24.764836,42.240101],[24.764761,42.24009],[24.761515,42.240056],[24.761556,42.240988]]]},"properties":{"cadreg":141}},{"type":"Feature","geometry":{"type":"Polygon","coordinates":[[[24.774272,42.246317],[24.765156,42.245518],[24.765222,42.247374],[24.765321,42.248952],[24.765541,42.248959],[24.766631,42.248859],[24.76681,42.248974],[24.766884,42.248898],[24.766928,42.248875],[24.767079,42.248857],[24.773971,42.248544],[24.774011,42.248237],[24.773978,42.248237],[24.774272,42.246317]]]},"properties":{"cadreg":142}},{"type":"Feature","geometry":{"type":"Polygon","coordinates":[[[24.765001,42.242793],[24.765156,42.245518],[24.774272,42.246317],[24.774681,42.243659],[24.773356,42.243545],[24.773364,42.243509],[24.772417,42.243408],[24.765001,42.242793]]]},"properties":{"cadreg":143}},{"type":"Feature","geometry":{"type":"Polygon","coordinates":[[[24.764836,42.240101],[24.765001,42.242793],[24.772417,42.243408],[24.773364,42.243509],[24.773356,42.243545],[24.774681,42.243659],[24.775004,42.241555],[24.774859,42.241533],[24.774875,42.241612],[24.769257,42.240751],[24.764836,42.240101]]]},"properties":{"cadreg":144}},{"type":"Feature","geometry":{"type":"Polygon","coordinates":[[[24.737025,42.234482],[24.736956,42.234675],[24.736831,42.234848],[24.736655,42.234994],[24.73645,42.235101],[24.736164,42.235183],[24.734855,42.23538],[24.734609,42.235452],[24.734372,42.235566],[24.732681,42.236849],[24.732567,42.237088],[24.732604,42.237066],[24.732677,42.237054],[24.733457,42.237144],[24.733466,42.237198],[24.733548,42.237298],[24.733743,42.237418],[24.733807,42.237435],[24.737602,42.238049],[24.738189,42.238133],[24.738572,42.238152],[24.743132,42.238614],[24.743383,42.238629],[24.743381,42.238553],[24.743485,42.238447],[24.743612,42.238395],[24.743751,42.238136],[24.745345,42.234801],[24.745273,42.234799],[24.745597,42.23412],[24.745561,42.234119],[24.745989,42.233218],[24.746146,42.23322],[24.746708,42.231992],[24.746774,42.231992],[24.746933,42.231694],[24.74676,42.228668],[24.745997,42.228717],[24.744621,42.228769],[24.74427,42.22959],[24.744247,42.229632],[24.74418,42.229616],[24.743562,42.231038],[24.743544,42.231034],[24.743458,42.231237],[24.743389,42.231549],[24.739138,42.232175],[24.738775,42.231816],[24.738793,42.231776],[24.738763,42.231747],[24.738625,42.231803],[24.738972,42.232167],[24.738889,42.232195],[24.738428,42.232869],[24.738384,42.232897],[24.738263,42.2329],[24.738242,42.232913],[24.737467,42.232812],[24.737396,42.23275],[24.737025,42.234482]]]},"properties":{"cadreg":150}},{"type":"Feature","geometry":{"type":"Polygon","coordinates":[[[24.746146,42.23322],[24.745989,42.233218],[24.745561,42.234119],[24.745597,42.23412],[24.745273,42.234799],[24.745345,42.234801],[24.743751,42.238136],[24.743612,42.238395],[24.75109,42.239342],[24.751429,42.239389],[24.751654,42.239487],[24.75781,42.235684],[24.758875,42.233407],[24.758785,42.233419],[24.756081,42.233118],[24.746774,42.231992],[24.746708,42.231992],[24.746146,42.23322]]]},"properties":{"cadreg":151}},{"type":"Feature","geometry":{"type":"Polygon","coordinates":[[[24.755009,42.239966],[24.757382,42.23738],[24.75786,42.236714],[24.759648,42.233756],[24.759778,42.2337],[24.758898,42.233564],[24.758926,42.233472],[24.758853,42.233464],[24.75781,42.235684],[24.751571,42.239539],[24.751096,42.239813],[24.751129,42.23988],[24.751328,42.239938],[24.751402,42.239904],[24.751738,42.239659],[24.751886,42.239668],[24.755021,42.240089],[24.755009,42.239966]]]},"properties":{"cadreg":152}},{"type":"Feature","geometry":{"type":"Polygon","coordinates":[[[24.757382,42.23738],[24.755009,42.239966],[24.755021,42.240089],[24.757007,42.240354],[24.757264,42.240362],[24.75827,42.240491],[24.758387,42.240483],[24.75848,42.240409],[24.758816,42.23892],[24.758858,42.238839],[24.75896,42.238786],[24.760636,42.238236],[24.760718,42.238153],[24.76161,42.235269],[24.761537,42.235261],[24.759837,42.233658],[24.758926,42.233472],[24.758898,42.233564],[24.759778,42.2337],[24.759648,42.233756],[24.75786,42.236714],[24.757382,42.23738]]]},"properties":{"cadreg":153}},{"type":"Feature","geometry":{"type":"Polygon","coordinates":[[[24.770565,42.229509],[24.770152,42.229614],[24.770052,42.229659],[24.769837,42.22982],[24.769704,42.229881],[24.769342,42.229981],[24.768436,42.230005],[24.76804,42.230539],[24.767874,42.231249],[24.7678,42.23149],[24.766923,42.232355],[24.76669,42.232642],[24.766543,42.232874],[24.766181,42.233752],[24.76633,42.234016],[24.766342,42.234102],[24.76632,42.234186],[24.766216,42.234268],[24.76598,42.234399],[24.765816,42.234524],[24.765443,42.234721],[24.765171,42.234818],[24.765101,42.234874],[24.76496,42.235245],[24.764962,42.235336],[24.765094,42.235502],[24.765146,42.23563],[24.765161,42.235782],[24.765235,42.236084],[24.765264,42.236319],[24.765137,42.236617],[24.764841,42.236952],[24.764569,42.237012],[24.763871,42.237066],[24.763738,42.23709],[24.763657,42.237121],[24.763401,42.237313],[24.763223,42.237504],[24.763016,42.237849],[24.762801,42.238013],[24.762655,42.238148],[24.762322,42.238632],[24.762244,42.238793],[24.76218,42.239057],[24.762047,42.239426],[24.761776,42.239723],[24.761526,42.239781],[24.761311,42.239962],[24.761297,42.240019],[24.761448,42.240057],[24.764761,42.24009],[24.769257,42.240751],[24.774875,42.241612],[24.774859,42.241533],[24.775004,42.241555],[24.775874,42.235893],[24.775927,42.235783],[24.775991,42.235748],[24.778894,42.234993],[24.779071,42.235051],[24.777847,42.23136],[24.777474,42.231426],[24.776332,42.2318],[24.777068,42.233947],[24.77712,42.23413],[24.777116,42.23418],[24.775111,42.23488],[24.775021,42.234882],[24.7749,42.234864],[24.774753,42.234814],[24.774658,42.234651],[24.77344,42.23158],[24.773398,42.231418],[24.773329,42.231314],[24.773379,42.231209],[24.773348,42.231128],[24.773237,42.230994],[24.772567,42.229234],[24.771426,42.229373],[24.770565,42.229509]]]},"properties":{"cadreg":160}},{"type":"Feature","geometry":{"type":"Polygon","coordinates":[[[24.775017,42.228567],[24.774943,42.228545],[24.774839,42.228541],[24.774588,42.228587],[24.773044,42.228965],[24.772556,42.2292],[24.773237,42.230994],[24.773348,42.231128],[24.773379,42.231209],[24.773329,42.231314],[24.773398,42.231418],[24.77344,42.23158],[24.774658,42.234651],[24.774753,42.234814],[24.7749,42.234864],[24.775021,42.234882],[24.775111,42.23488],[24.777116,42.23418],[24.77712,42.23413],[24.777068,42.233947],[24.776332,42.2318],[24.777474,42.231426],[24.777473,42.231385],[24.77734,42.231249],[24.777082,42.230865],[24.77688,42.230352],[24.776683,42.230056],[24.776443,42.229636],[24.776434,42.229577],[24.776329,42.229514],[24.776253,42.229499],[24.776117,42.229517],[24.775944,42.229505],[24.775862,42.229469],[24.775385,42.229161],[24.775263,42.229044],[24.775119,42.228678],[24.775017,42.228567]]]},"properties":{"cadreg":161}},{"type":"Feature","geometry":{"type":"Polygon","coordinates":[[[24.77521,42.223399],[24.775184,42.223448],[24.775094,42.223525],[24.77501,42.223572],[24.77491,42.223582],[24.774781,42.223621],[24.774314,42.224046],[24.774178,42.224211],[24.77397,42.224375],[24.773899,42.224487],[24.773785,42.224783],[24.773361,42.22533],[24.772322,42.225869],[24.772259,42.225972],[24.772336,42.226634],[24.772311,42.226813],[24.772507,42.226801],[24.772415,42.22696],[24.772111,42.22777],[24.772183,42.227988],[24.772042,42.22822],[24.771224,42.228495],[24.771158,42.22856],[24.77078,42.229433],[24.77083,42.229469],[24.771426,42.229373],[24.772567,42.229234],[24.772556,42.2292],[24.773044,42.228965],[24.774588,42.228587],[24.774839,42.228541],[24.774943,42.228545],[24.775017,42.228567],[24.775119,42.228678],[24.775263,42.229044],[24.775385,42.229161],[24.775862,42.229469],[24.775944,42.229505],[24.776117,42.229517],[24.776253,42.229499],[24.776329,42.229514],[24.776434,42.229577],[24.776443,42.229636],[24.776683,42.230056],[24.77688,42.230352],[24.777082,42.230865],[24.77734,42.231249],[24.777473,42.231385],[24.777474,42.231426],[24.777847,42.23136],[24.77521,42.223399]]]},"properties":{"cadreg":162}},{"type":"Feature","geometry":{"type":"Polygon","coordinates":[[[24.771158,42.22856],[24.771224,42.228495],[24.772042,42.22822],[24.772183,42.227988],[24.772111,42.22777],[24.772415,42.22696],[24.772507,42.226801],[24.772311,42.226813],[24.772336,42.226634],[24.772259,42.225972],[24.772322,42.225869],[24.773361,42.22533],[24.773785,42.224783],[24.773899,42.224487],[24.77397,42.224375],[24.772501,42.225043],[24.772184,42.225922],[24.772011,42.226309],[24.771949,42.226526],[24.771573,42.227216],[24.770931,42.22738],[24.770083,42.22778],[24.769639,42.228668],[24.769595,42.228809],[24.769538,42.228877],[24.769449,42.2289],[24.769202,42.228872],[24.769048,42.228821],[24.768943,42.228768],[24.768864,42.228751],[24.768627,42.228805],[24.768441,42.228872],[24.768069,42.229055],[24.767932,42.229148],[24.767562,42.229722],[24.76736,42.229856],[24.767318,42.229927],[24.767315,42.229971],[24.767252,42.230051],[24.767294,42.230068],[24.767359,42.230012],[24.767531,42.229991],[24.768366,42.230007],[24.769342,42.229981],[24.769704,42.229881],[24.769837,42.22982],[24.770052,42.229659],[24.770152,42.229614],[24.770565,42.229509],[24.77083,42.229469],[24.77078,42.229433],[24.771158,42.22856]]]},"properties":{"cadreg":163}},{"type":"Feature","geometry":{"type":"Polygon","coordinates":[[[24.76161,42.235269],[24.760718,42.238153],[24.760636,42.238236],[24.75896,42.238786],[24.758858,42.238839],[24.758816,42.23892],[24.758561,42.240056],[24.758635,42.239983],[24.758704,42.239953],[24.758785,42.239948],[24.761297,42.240019],[24.761311,42.239962],[24.761526,42.239781],[24.761776,42.239723],[24.762047,42.239426],[24.76218,42.239057],[24.762244,42.238793],[24.762322,42.238632],[24.762655,42.238148],[24.762801,42.238013],[24.763016,42.237849],[24.763223,42.237504],[24.763401,42.237313],[24.763657,42.237121],[24.763738,42.23709],[24.763871,42.237066],[24.764569,42.237012],[24.764841,42.236952],[24.765137,42.236617],[24.765264,42.236319],[24.765146,42.23563],[24.765094,42.235502],[24.764962,42.235336],[24.76496,42.235245],[24.765101,42.234874],[24.765171,42.234818],[24.765443,42.234721],[24.765816,42.234524],[24.76598,42.234399],[24.766216,42.234268],[24.76632,42.234186],[24.766342,42.234102],[24.76633,42.234016],[24.766181,42.233752],[24.766543,42.232874],[24.76669,42.232642],[24.766923,42.232355],[24.7678,42.23149],[24.767874,42.231249],[24.76804,42.230539],[24.768436,42.230005],[24.767531,42.229991],[24.767359,42.230012],[24.767294,42.230068],[24.767252,42.230051],[24.767241,42.229949],[24.76721,42.229986],[24.767018,42.23062],[24.7669,42.23082],[24.766783,42.230931],[24.766663,42.231013],[24.76623,42.231238],[24.765551,42.231182],[24.765509,42.231176],[24.765491,42.231146],[24.76546,42.23117],[24.765243,42.231136],[24.765003,42.231067],[24.764537,42.23102],[24.764454,42.23098],[24.764426,42.231007],[24.764233,42.230981],[24.764029,42.230904],[24.763615,42.230893],[24.763285,42.230984],[24.763,42.231197],[24.762824,42.231456],[24.762758,42.23168],[24.762682,42.232335],[24.762603,42.232741],[24.762351,42.233799],[24.762203,42.234713],[24.762137,42.234858],[24.76205,42.234932],[24.761667,42.235151],[24.761575,42.235184],[24.761537,42.235261],[24.76161,42.235269]]]},"properties":{"cadreg":164}},{"type":"Feature","geometry":{"type":"Polygon","coordinates":[[[24.75268,42.247392],[24.748065,42.253166],[24.747773,42.253424],[24.747773,42.253484],[24.74787,42.253593],[24.747839,42.256869],[24.747855,42.257865],[24.748152,42.257836],[24.748173,42.257783],[24.753364,42.252883],[24.753805,42.252489],[24.753869,42.25244],[24.753932,42.252429],[24.753964,42.252401],[24.753937,42.252309],[24.753963,42.252235],[24.755687,42.250637],[24.755778,42.250598],[24.757347,42.250472],[24.757265,42.249919],[24.757232,42.249836],[24.757277,42.249798],[24.757603,42.249755],[24.758224,42.249588],[24.758534,42.249526],[24.758649,42.249516],[24.75888,42.249547],[24.758977,42.249536],[24.75885,42.247727],[24.758811,42.246778],[24.761604,42.244718],[24.761667,42.244657],[24.761793,42.244649],[24.7617,42.243009],[24.761556,42.240988],[24.761515,42.240056],[24.761448,42.240057],[24.761297,42.240019],[24.758704,42.239953],[24.758635,42.239983],[24.758561,42.240056],[24.75848,42.240409],[24.758454,42.240435],[24.758387,42.240483],[24.758319,42.240492],[24.758138,42.240474],[24.757077,42.242183],[24.757289,42.2423],[24.756211,42.244053],[24.757171,42.244385],[24.754844,42.248011],[24.754951,42.248086],[24.754899,42.248146],[24.752831,42.247433],[24.75268,42.247392]]]},"properties":{"cadreg":165}},{"type":"Feature","geometry":{"type":"Polygon","coordinates":[[[24.738776,42.230705],[24.738484,42.231437],[24.738785,42.231739],[24.738763,42.231747],[24.738793,42.231776],[24.738775,42.231816],[24.739138,42.232175],[24.743389,42.231549],[24.743458,42.231237],[24.743544,42.231034],[24.743562,42.231038],[24.743965,42.230111],[24.741541,42.230487],[24.741468,42.230311],[24.739444,42.230378],[24.738776,42.230705]]]},"properties":{"cadreg":170}},{"type":"Feature","geometry":{"type":"Polygon","coordinates":[[[24.739573,42.228812],[24.739205,42.229679],[24.738776,42.230705],[24.739163,42.230515],[24.739169,42.23046],[24.739296,42.230253],[24.739612,42.22994],[24.740014,42.229502],[24.740195,42.229224],[24.740299,42.228915],[24.739573,42.228812]]]},"properties":{"cadreg":171}},{"type":"Feature","geometry":{"type":"Polygon","coordinates":[[[24.739935,42.223621],[24.740242,42.224693],[24.73925,42.225474],[24.739251,42.226108],[24.74007,42.22696],[24.739838,42.228181],[24.739573,42.228812],[24.740299,42.228915],[24.740195,42.229224],[24.740089,42.229398],[24.740014,42.229502],[24.739612,42.22994],[24.739296,42.230253],[24.739169,42.23046],[24.739163,42.230515],[24.739444,42.230378],[24.741468,42.230311],[24.741541,42.230487],[24.743821,42.230133],[24.746559,42.223548],[24.747337,42.221434],[24.740451,42.221773],[24.740176,42.221829],[24.739986,42.223116],[24.739935,42.223621]]]},"properties":{"cadreg":172}},{"type":"Feature","geometry":{"type":"Polygon","coordinates":[[[24.746527,42.226166],[24.746657,42.226172],[24.746518,42.224046],[24.746716,42.223581],[24.747043,42.222721],[24.747097,42.222692],[24.747558,42.222249],[24.748549,42.2216],[24.748604,42.221533],[24.74931,42.221323],[24.75082,42.221051],[24.751109,42.221053],[24.753981,42.221236],[24.75488,42.221257],[24.75786,42.22122],[24.758907,42.221251],[24.761078,42.221235],[24.761119,42.221138],[24.7606,42.221126],[24.758895,42.221159],[24.757812,42.221121],[24.757277,42.221133],[24.756627,42.221011],[24.755703,42.221046],[24.754833,42.221053],[24.753177,42.221025],[24.751978,42.220969],[24.751437,42.220936],[24.751018,42.220888],[24.749837,42.220701],[24.747794,42.22035],[24.747337,42.221434],[24.746559,42.223548],[24.743821,42.230133],[24.743965,42.230111],[24.74418,42.229616],[24.744247,42.229632],[24.744621,42.228769],[24.745997,42.228717],[24.74676,42.228668],[24.746662,42.22703],[24.7464,42.227045],[24.746439,42.226827],[24.746375,42.226783],[24.746332,42.226698],[24.746346,42.226547],[24.746492,42.226592],[24.746527,42.226166]]]},"properties":{"cadreg":180}},{"type":"Feature","geometry":{"type":"Polygon","coordinates":[[[24.748549,42.2216],[24.747558,42.222249],[24.747097,42.222692],[24.747043,42.222721],[24.746716,42.223581],[24.746518,42.224046],[24.746657,42.226172],[24.746527,42.226166],[24.746492,42.226592],[24.746346,42.226547],[24.746332,42.226698],[24.746375,42.226783],[24.746439,42.226827],[24.7464,42.227045],[24.746662,42.22703],[24.746933,42.231694],[24.746774,42.231992],[24.751727,42.232586],[24.75108,42.221053],[24.75082,42.221051],[24.74931,42.221323],[24.748604,42.221533],[24.748549,42.2216]]]},"properties":{"cadreg":181}},{"type":"Feature","geometry":{"type":"Polygon","coordinates":[[[24.752335,42.221126],[24.75108,42.221053],[24.751727,42.232586],[24.753004,42.23274],[24.753239,42.231739],[24.753154,42.231381],[24.753731,42.231271],[24.753582,42.230672],[24.754162,42.23056],[24.752335,42.221126]]]},"properties":{"cadreg":182}},{"type":"Feature","geometry":{"type":"Polygon","coordinates":[[[24.754778,42.221255],[24.753981,42.221236],[24.752335,42.221126],[24.754162,42.23056],[24.753582,42.230672],[24.753731,42.231271],[24.753154,42.231381],[24.753239,42.231739],[24.753004,42.23274],[24.755909,42.233092],[24.756139,42.232524],[24.756066,42.232341],[24.75749,42.229235],[24.757442,42.229215],[24.757459,42.229176],[24.756168,42.228621],[24.755479,42.224325],[24.755771,42.223679],[24.756012,42.223461],[24.756227,42.223391],[24.757062,42.22278],[24.757589,42.222466],[24.757514,42.22247],[24.75751,42.222434],[24.75753,42.221525],[24.75757,42.221435],[24.75786,42.22122],[24.754778,42.221255]]]},"properties":{"cadreg":183}},{"type":"Feature","geometry":{"type":"Polygon","coordinates":[[[24.756227,42.223391],[24.756012,42.223461],[24.755771,42.223679],[24.755479,42.224325],[24.756168,42.228621],[24.757459,42.229176],[24.757442,42.229215],[24.75749,42.229235],[24.758394,42.227263],[24.761078,42.221235],[24.758907,42.221251],[24.75786,42.22122],[24.75757,42.221435],[24.75753,42.221525],[24.75751,42.222434],[24.757514,42.22247],[24.757589,42.222466],[24.757062,42.22278],[24.756227,42.223391]]]},"properties":{"cadreg":184}},{"type":"Feature","geometry":{"type":"Polygon","coordinates":[[[24.757488,42.213478],[24.758418,42.213991],[24.762455,42.216128],[24.762948,42.216569],[24.763021,42.216588],[24.761064,42.221269],[24.758394,42.227263],[24.756066,42.232341],[24.756139,42.232524],[24.755909,42.233092],[24.758785,42.233419],[24.758875,42.233407],[24.766415,42.218],[24.763233,42.216247],[24.763253,42.216227],[24.758251,42.213603],[24.757751,42.213389],[24.757488,42.213478]]]},"properties":{"cadreg":190}},{"type":"Feature","geometry":{"type":"Polygon","coordinates":[[[24.774953,42.222619],[24.766415,42.218],[24.758853,42.233464],[24.759837,42.233658],[24.761537,42.235261],[24.761575,42.235184],[24.761667,42.235151],[24.76205,42.234932],[24.762137,42.234858],[24.762203,42.234713],[24.762351,42.233799],[24.762603,42.232741],[24.762682,42.232335],[24.762758,42.23168],[24.762824,42.231456],[24.763,42.231197],[24.763285,42.230984],[24.763615,42.230893],[24.764029,42.230904],[24.764233,42.230981],[24.764426,42.231007],[24.764454,42.23098],[24.764537,42.23102],[24.765003,42.231067],[24.765243,42.231136],[24.76546,42.23117],[24.765491,42.231146],[24.765509,42.231176],[24.766201,42.231238],[24.766279,42.231219],[24.766663,42.231013],[24.766871,42.230853],[24.766995,42.230674],[24.76721,42.229986],[24.767241,42.229949],[24.767252,42.230051],[24.767315,42.229971],[24.767318,42.229927],[24.76736,42.229856],[24.767562,42.229722],[24.767932,42.229148],[24.768245,42.228958],[24.768441,42.228872],[24.768766,42.228766],[24.768864,42.228751],[24.768943,42.228768],[24.769048,42.228821],[24.769202,42.228872],[24.769354,42.228894],[24.769449,42.2289],[24.769538,42.228877],[24.769595,42.228809],[24.769639,42.228668],[24.770083,42.22778],[24.770931,42.22738],[24.771573,42.227216],[24.771949,42.226526],[24.772011,42.226309],[24.772184,42.225922],[24.772501,42.225043],[24.77397,42.224375],[24.774178,42.224211],[24.774314,42.224046],[24.774781,42.223621],[24.77491,42.223582],[24.77501,42.223572],[24.775094,42.223525],[24.775184,42.223448],[24.77521,42.223399],[24.774953,42.222619]]]},"properties":{"cadreg":191}},{"type":"Feature","geometry":{"type":"Polygon","coordinates":[[[24.739942,42.21442],[24.74025,42.220204],[24.740176,42.221829],[24.740451,42.221773],[24.747337,42.221434],[24.747794,42.22035],[24.749837,42.220701],[24.75121,42.220914],[24.751978,42.220969],[24.753053,42.22102],[24.754032,42.221036],[24.75748,42.213983],[24.757538,42.213665],[24.757537,42.213508],[24.757488,42.213478],[24.757616,42.213435],[24.756893,42.212993],[24.748871,42.213773],[24.745081,42.214116],[24.740268,42.214424],[24.739942,42.21442]]]},"properties":{"cadreg":200}},{"type":"Feature","geometry":{"type":"Polygon","coordinates":[[[24.757538,42.213665],[24.75748,42.213983],[24.754032,42.221036],[24.755138,42.221055],[24.756627,42.221011],[24.757277,42.221133],[24.757812,42.221121],[24.758895,42.221159],[24.7606,42.221126],[24.761119,42.221138],[24.763021,42.216588],[24.762948,42.216569],[24.762455,42.216128],[24.758418,42.213991],[24.757537,42.213508],[24.757538,42.213665]]]},"properties":{"cadreg":201}},{"type":"Feature","geometry":{"type":"Polygon","coordinates":[[[24.758251,42.213603],[24.763253,42.216227],[24.767704,42.211869],[24.764166,42.212247],[24.756893,42.212993],[24.757616,42.213435],[24.757751,42.213389],[24.758251,42.213603]]]},"properties":{"cadreg":202}},{"type":"Feature","geometry":{"type":"Polygon","coordinates":[[[24.708953,42.210218],[24.708858,42.210204],[24.708727,42.210207],[24.708794,42.211876],[24.708645,42.212262],[24.709872,42.212455],[24.711303,42.212643],[24.712527,42.212829],[24.715081,42.213149],[24.715084,42.213104],[24.715116,42.213081],[24.715176,42.213064],[24.715374,42.213054],[24.715466,42.21302],[24.715542,42.212959],[24.715651,42.212818],[24.715631,42.212701],[24.715397,42.212562],[24.714506,42.212189],[24.714065,42.211872],[24.713598,42.211657],[24.713255,42.21152],[24.710469,42.210637],[24.710119,42.210365],[24.709897,42.210315],[24.708956,42.210263],[24.708953,42.210218]]]},"properties":{"cadreg":210}},{"type":"Feature","geometry":{"type":"Polygon","coordinates":[[[24.709551,42.20397],[24.709283,42.203932],[24.70865,42.208271],[24.708727,42.210207],[24.709887,42.210258],[24.710123,42.210323],[24.710334,42.209832],[24.71039,42.209661],[24.711073,42.208657],[24.711261,42.208309],[24.711709,42.207708],[24.711655,42.207697],[24.712798,42.206932],[24.713227,42.207328],[24.713371,42.20782],[24.713834,42.208026],[24.713882,42.207867],[24.713413,42.207344],[24.713276,42.206935],[24.713419,42.206512],[24.713423,42.206312],[24.713496,42.206083],[24.714671,42.204318],[24.714639,42.204086],[24.714163,42.203829],[24.713901,42.20387],[24.709551,42.20397]]]},"properties":{"cadreg":211}},{"type":"Feature","geometry":{"type":"Polygon","coordinates":[[[24.711261,42.208309],[24.711073,42.208657],[24.71039,42.209661],[24.710334,42.209832],[24.710123,42.210323],[24.709887,42.210258],[24.708953,42.210218],[24.708956,42.210263],[24.709897,42.210315],[24.710119,42.210365],[24.710469,42.210637],[24.713255,42.21152],[24.713598,42.211657],[24.714065,42.211872],[24.714506,42.212189],[24.715397,42.212562],[24.715702,42.212739],[24.71575,42.212558],[24.716202,42.207734],[24.71651,42.203651],[24.714163,42.203829],[24.714639,42.204086],[24.714671,42.204318],[24.713496,42.206083],[24.713423,42.206312],[24.713419,42.206512],[24.713276,42.206935],[24.713413,42.207344],[24.713882,42.207867],[24.713834,42.208026],[24.713371,42.20782],[24.713227,42.207328],[24.712798,42.206932],[24.711655,42.207697],[24.711709,42.207708],[24.711261,42.208309]]]},"properties":{"cadreg":212}},{"type":"Feature","geometry":{"type":"Polygon","coordinates":[[[24.71651,42.203651],[24.716202,42.207734],[24.71575,42.212558],[24.715702,42.212739],[24.715671,42.213072],[24.7206,42.213477],[24.720532,42.212766],[24.720685,42.212746],[24.720689,42.21271],[24.720602,42.212703],[24.72157,42.203038],[24.721407,42.203099],[24.720919,42.203195],[24.71651,42.203651]]]},"properties":{"cadreg":213}},{"type":"Feature","geometry":{"type":"Polygon","coordinates":[[[24.722205,42.203257],[24.721692,42.2032],[24.721557,42.203143],[24.720602,42.212703],[24.720689,42.21271],[24.720685,42.212746],[24.720532,42.212766],[24.7206,42.213477],[24.721414,42.213526],[24.723667,42.213609],[24.725392,42.20458],[24.72545,42.204156],[24.72558,42.203469],[24.722205,42.203257]]]},"properties":{"cadreg":214}},{"type":"Feature","geometry":{"type":"Polygon","coordinates":[[[24.72558,42.203469],[24.72545,42.204156],[24.725392,42.20458],[24.723667,42.213609],[24.723849,42.213613],[24.726544,42.213819],[24.727557,42.209389],[24.727739,42.208667],[24.727869,42.208044],[24.727977,42.207691],[24.728903,42.203743],[24.728662,42.203704],[24.725768,42.203468],[24.72558,42.203469]]]},"properties":{"cadreg":215}},{"type":"Feature","geometry":{"type":"Polygon","coordinates":[[[24.722268,42.197646],[24.722517,42.195724],[24.711939,42.196124],[24.711945,42.196169],[24.711218,42.196239],[24.710993,42.196282],[24.710828,42.196328],[24.710701,42.196397],[24.710482,42.196614],[24.710288,42.19696],[24.709865,42.200098],[24.709283,42.203932],[24.709551,42.20397],[24.713901,42.20387],[24.714163,42.203829],[24.716451,42.203663],[24.720919,42.203195],[24.721407,42.203099],[24.72157,42.203038],[24.721565,42.202933],[24.721668,42.202278],[24.722116,42.198818],[24.722214,42.197785],[24.722268,42.197646]]]},"properties":{"cadreg":216}},{"type":"Feature","geometry":{"type":"Polygon","coordinates":[[[24.721673,42.202238],[24.721565,42.202933],[24.721577,42.202978],[24.721557,42.203143],[24.721692,42.2032],[24.722256,42.203263],[24.72558,42.203469],[24.725768,42.203468],[24.728662,42.203704],[24.728903,42.203743],[24.729286,42.20206],[24.729535,42.201115],[24.729796,42.200392],[24.731508,42.196045],[24.731752,42.195374],[24.722517,42.195724],[24.722268,42.197646],[24.722214,42.197785],[24.722116,42.198818],[24.721673,42.202238]]]},"properties":{"cadreg":217}},{"type":"Feature","geometry":{"type":"Polygon","coordinates":[[[24.732189,42.207835],[24.732782,42.206151],[24.732827,42.206069],[24.733142,42.20522],[24.733375,42.204503],[24.73273,42.204312],[24.732714,42.204443],[24.729358,42.203838],[24.729117,42.203725],[24.728334,42.207112],[24.728215,42.207615],[24.728182,42.20769],[24.727695,42.209752],[24.72766,42.209986],[24.727485,42.210681],[24.726709,42.214056],[24.7271,42.214043],[24.727459,42.21398],[24.727873,42.213879],[24.72819,42.213772],[24.728807,42.213413],[24.729421,42.212998],[24.730136,42.212433],[24.730374,42.212221],[24.731076,42.21096],[24.732187,42.20788],[24.732189,42.207835]]]},"properties":{"cadreg":220}},{"type":"Feature","geometry":{"type":"Polygon","coordinates":[[[24.731977,42.195427],[24.730083,42.200217],[24.729764,42.20108],[24.729548,42.201805],[24.729117,42.203725],[24.729358,42.203838],[24.732714,42.204443],[24.73273,42.204312],[24.733375,42.204503],[24.734317,42.201659],[24.734836,42.20029],[24.735237,42.199051],[24.735436,42.198226],[24.735771,42.195328],[24.735876,42.195326],[24.735892,42.195208],[24.731752,42.195374],[24.731737,42.195436],[24.731977,42.195427]]]},"properties":{"cadreg":221}},{"type":"Feature","geometry":{"type":"Polygon","coordinates":[[[24.735212,42.211428],[24.734889,42.211308],[24.73136,42.211657],[24.731292,42.211633],[24.731028,42.212404],[24.731052,42.212637],[24.731163,42.212892],[24.731249,42.212875],[24.731339,42.212979],[24.731758,42.213275],[24.732537,42.213741],[24.732919,42.213926],[24.733121,42.213999],[24.733544,42.214111],[24.734455,42.214237],[24.734717,42.214229],[24.734667,42.214117],[24.736999,42.214088],[24.738993,42.214127],[24.738989,42.214155],[24.73911,42.214152],[24.739191,42.214186],[24.739356,42.213036],[24.740293,42.211536],[24.740512,42.21126],[24.740712,42.211074],[24.740648,42.211047],[24.737789,42.211524],[24.735735,42.211822],[24.73574,42.211701],[24.735663,42.211704],[24.735212,42.211428]]]},"properties":{"cadreg":222}},{"type":"Feature","geometry":{"type":"Polygon","coordinates":[[[24.734005,42.203896],[24.732926,42.207051],[24.731776,42.210316],[24.731403,42.211505],[24.731292,42.211633],[24.73136,42.211657],[24.734889,42.211308],[24.735212,42.211428],[24.735663,42.211704],[24.73574,42.211701],[24.735735,42.211822],[24.737789,42.211524],[24.737711,42.211452],[24.73772,42.211312],[24.738734,42.208438],[24.739022,42.207564],[24.739296,42.206826],[24.74024,42.204063],[24.740165,42.204066],[24.739977,42.204028],[24.739964,42.20406],[24.7343,42.203102],[24.734005,42.203896]]]},"properties":{"cadreg":223}},{"type":"Feature","geometry":{"type":"Polygon","coordinates":[[[24.736137,42.195653],[24.735897,42.197346],[24.735799,42.198329],[24.735687,42.198908],[24.735455,42.199694],[24.734475,42.202587],[24.734372,42.202941],[24.7343,42.203102],[24.739964,42.20406],[24.739977,42.204028],[24.740165,42.204066],[24.740258,42.204066],[24.742958,42.196351],[24.742909,42.196339],[24.742927,42.196274],[24.736155,42.195222],[24.736137,42.195339],[24.736198,42.195349],[24.736137,42.195653]]]},"properties":{"cadreg":224}},{"type":"Feature","geometry":{"type":"Polygon","coordinates":[[[24.742958,42.196351],[24.740258,42.204066],[24.74024,42.204063],[24.740222,42.204114],[24.739296,42.206826],[24.739022,42.207564],[24.738734,42.208438],[24.73772,42.211312],[24.737711,42.211452],[24.737789,42.211524],[24.740648,42.211047],[24.740712,42.211074],[24.740512,42.21126],[24.740293,42.211536],[24.739356,42.213036],[24.739191,42.214186],[24.739322,42.21425],[24.739805,42.214238],[24.73983,42.214178],[24.739962,42.214152],[24.7401,42.214046],[24.740286,42.213581],[24.740466,42.213055],[24.74082,42.212165],[24.740951,42.212059],[24.741737,42.211206],[24.742225,42.21081],[24.743045,42.210196],[24.744566,42.209192],[24.746714,42.207825],[24.746844,42.207757],[24.746878,42.20772],[24.750769,42.205118],[24.754156,42.202941],[24.754346,42.202797],[24.75558,42.202003],[24.755963,42.201719],[24.756896,42.20085],[24.757101,42.200634],[24.757287,42.200483],[24.758525,42.199269],[24.75977,42.197933],[24.75975,42.197811],[24.759866,42.197686],[24.762271,42.195369],[24.762724,42.194908],[24.762954,42.194627],[24.763054,42.194473],[24.763182,42.19419],[24.763262,42.194119],[24.764152,42.192374],[24.764083,42.192351],[24.764044,42.192281],[24.763776,42.192207],[24.763424,42.192829],[24.763245,42.192897],[24.761145,42.19382],[24.760942,42.193951],[24.758717,42.19611],[24.757005,42.197835],[24.7568,42.198004],[24.756588,42.198109],[24.7563,42.198185],[24.755925,42.198233],[24.755452,42.198218],[24.742927,42.196274],[24.742909,42.196339],[24.742958,42.196351]]]},"properties":{"cadreg":225}},{"type":"Feature","geometry":{"type":"Polygon","coordinates":[[[24.746714,42.207825],[24.744566,42.209192],[24.743006,42.210222],[24.742225,42.21081],[24.741737,42.211206],[24.740951,42.212059],[24.74082,42.212165],[24.740466,42.213055],[24.740286,42.213581],[24.7401,42.214046],[24.740388,42.214068],[24.744248,42.213821],[24.744856,42.213771],[24.746254,42.21369],[24.750002,42.213352],[24.752539,42.213074],[24.755484,42.212779],[24.755843,42.21273],[24.755855,42.212598],[24.746714,42.207825]]]},"properties":{"cadreg":230}},{"type":"Feature","geometry":{"type":"Polygon","coordinates":[[[24.750361,42.205391],[24.746878,42.20772],[24.746844,42.207757],[24.746714,42.207825],[24.755855,42.212598],[24.755843,42.21273],[24.757386,42.212585],[24.762286,42.207567],[24.762532,42.207365],[24.762651,42.207302],[24.762596,42.207273],[24.762666,42.207214],[24.761062,42.206351],[24.761095,42.206302],[24.760542,42.205985],[24.758776,42.205124],[24.758611,42.205025],[24.754346,42.202797],[24.754156,42.202941],[24.750361,42.205391]]]},"properties":{"cadreg":231}},{"type":"Feature","geometry":{"type":"Polygon","coordinates":[[[24.757386,42.212585],[24.76933,42.211343],[24.770306,42.211243],[24.769819,42.210988],[24.769847,42.210959],[24.763647,42.207698],[24.762989,42.207309],[24.762876,42.207423],[24.762651,42.207302],[24.762532,42.207365],[24.762286,42.207567],[24.757386,42.212585]]]},"properties":{"cadreg":232}},{"type":"Feature","geometry":{"type":"Polygon","coordinates":[[[24.757287,42.200483],[24.757101,42.200634],[24.756896,42.20085],[24.755963,42.201719],[24.75558,42.202003],[24.754346,42.202797],[24.758611,42.205025],[24.761064,42.202649],[24.763843,42.199873],[24.759701,42.198002],[24.758525,42.199269],[24.757287,42.200483]]]},"properties":{"cadreg":241}},{"type":"Feature","geometry":{"type":"Polygon","coordinates":[[[24.758776,42.205124],[24.760542,42.205985],[24.761095,42.206302],[24.761062,42.206351],[24.762666,42.207214],[24.769529,42.200638],[24.765195,42.198522],[24.76481,42.198423],[24.764698,42.198437],[24.764631,42.198503],[24.764578,42.198596],[24.764557,42.198723],[24.764587,42.19881],[24.764564,42.19888],[24.764468,42.198966],[24.76456,42.199103],[24.764158,42.199563],[24.761064,42.202649],[24.758611,42.205025],[24.758776,42.205124]]]},"properties":{"cadreg":242}},{"type":"Feature","geometry":{"type":"Polygon","coordinates":[[[24.769586,42.200586],[24.762596,42.207273],[24.762876,42.207423],[24.762989,42.207309],[24.763647,42.207698],[24.769847,42.210959],[24.774823,42.205895],[24.772943,42.203692],[24.772276,42.202878],[24.771981,42.202439],[24.771531,42.201865],[24.771236,42.201561],[24.770754,42.201314],[24.769667,42.200693],[24.7697,42.20066],[24.769586,42.200586]]]},"properties":{"cadreg":243}},{"type":"Feature","geometry":{"type":"Polygon","coordinates":[[[24.762622,42.195018],[24.759866,42.197686],[24.75975,42.197811],[24.75977,42.197933],[24.759701,42.198002],[24.763843,42.199873],[24.764158,42.199563],[24.76456,42.199103],[24.764468,42.198966],[24.764564,42.19888],[24.764587,42.19881],[24.764557,42.198723],[24.764578,42.198596],[24.764631,42.198503],[24.764698,42.198437],[24.76481,42.198423],[24.765195,42.198522],[24.765155,42.19844],[24.765171,42.198217],[24.765162,42.19777],[24.765041,42.19745],[24.764714,42.196814],[24.764589,42.196369],[24.764489,42.195835],[24.764459,42.195806],[24.764554,42.195701],[24.76449,42.195113],[24.764455,42.19434],[24.76437,42.194236],[24.764753,42.192605],[24.764295,42.192451],[24.764119,42.192438],[24.763262,42.194119],[24.763182,42.19419],[24.763054,42.194473],[24.762954,42.194627],[24.762622,42.195018]]]},"properties":{"cadreg":244}}]}