{"type":"FeatureCollection","features":[{"type":"Feature","geometry":{"type":"Polygon","coordinates":[[[24.686981,42.216531],[24.679542,42.216791],[24.680129,42.218574],[24.680091,42.218611],[24.680101,42.218667],[24.680015,42.218676],[24.680036,42.218743],[24.687039,42.218464],[24.687009,42.218121],[24.686981,42.216531]]]},"properties":{"cadreg":1}},{"type":"Feature","geometry":{"type":"Polygon","coordinates":[[[24.678916,42.214891],[24.679542,42.216791],[24.686981,42.216531],[24.686964,42.215589],[24.686899,42.214593],[24.678916,42.214891]]]},"properties":{"cadreg":2}},{"type":"Feature","geometry":{"type":"Polygon","coordinates":[[[24.686779,42.212749],[24.678315,42.213066],[24.678916,42.214891],[24.686899,42.214593],[24.686779,42.212749]]]},"properties":{"cadreg":3}},{"type":"Feature","geometry":{"type":"Polygon","coordinates":[[[24.686673,42.210804],[24.677681,42.211138],[24.678315,42.213066],[24.686779,42.212749],[24.686673,42.210804]]]},"properties":{"cadreg":4}},{"type":"Feature","geometry":{"type":"Polygon","coordinates":[[[24.677918,42.209235],[24.677376,42.210214],[24.677681,42.211138],[24.680232,42.211035],[24.681136,42.211011],[24.681306,42.210993],[24.686673,42.210804],[24.686633,42.209644],[24.686584,42.209643],[24.6866,42.209314],[24.686774,42.208908],[24.681069,42.209109],[24.680906,42.209126],[24.680271,42.209139],[24.677918,42.209235]]]},"properties":{"cadreg":5}},{"type":"Feature","geometry":{"type":"Polygon","coordinates":[[[24.678943,42.207384],[24.677918,42.209235],[24.682008,42.209076],[24.681956,42.208256],[24.678943,42.207384]]]},"properties":{"cadreg":6}},{"type":"Feature","geometry":{"type":"Polygon","coordinates":[[[24.675471,42.204363],[24.676484,42.207455],[24.676438,42.2075],[24.678943,42.207384],[24.681956,42.208256],[24.682008,42.209076],[24.686774,42.208908],[24.687244,42.207813],[24.68656,42.207598],[24.68654,42.207549],[24.683021,42.206513],[24.67552,42.204356],[24.675471,42.204363]]]},"properties":{"cadreg":7}},{"type":"Feature","geometry":{"type":"Polygon","coordinates":[[[24.694962,42.216227],[24.687174,42.216523],[24.687194,42.218461],[24.691676,42.218331],[24.691675,42.218261],[24.694572,42.218155],[24.694603,42.21809],[24.694549,42.218056],[24.694962,42.216227]]]},"properties":{"cadreg":8}},{"type":"Feature","geometry":{"type":"Polygon","coordinates":[[[24.695405,42.214268],[24.687068,42.214592],[24.687174,42.216523],[24.694962,42.216227],[24.695405,42.214268]]]},"properties":{"cadreg":9}},{"type":"Feature","geometry":{"type":"Polygon","coordinates":[[[24.695688,42.212411],[24.686956,42.212748],[24.687068,42.214592],[24.695405,42.214268],[24.695803,42.212507],[24.695688,42.212411]]]},"properties":{"cadreg":10}},{"type":"Feature","geometry":{"type":"Polygon","coordinates":[[[24.686837,42.210508],[24.686956,42.212748],[24.695888,42.212404],[24.695898,42.212358],[24.695836,42.212361],[24.695906,42.212015],[24.686843,42.209597],[24.686837,42.210508]]]},"properties":{"cadreg":11}},{"type":"Feature","geometry":{"type":"Polygon","coordinates":[[[24.692104,42.209135],[24.688072,42.207998],[24.687817,42.207962],[24.687191,42.208958],[24.686977,42.209359],[24.686901,42.209613],[24.695906,42.212015],[24.696309,42.210211],[24.693873,42.209601],[24.692104,42.209135]]]},"properties":{"cadreg":12}},{"type":"Feature","geometry":{"type":"Polygon","coordinates":[[[24.707327,42.215731],[24.69518,42.216219],[24.694755,42.218071],[24.694683,42.218115],[24.69468,42.21815],[24.700471,42.217894],[24.702373,42.217882],[24.704528,42.217848],[24.706751,42.21772],[24.706655,42.217626],[24.707327,42.215731]]]},"properties":{"cadreg":13}},{"type":"Feature","geometry":{"type":"Polygon","coordinates":[[[24.699858,42.214103],[24.69563,42.21426],[24.69518,42.216219],[24.707327,42.215731],[24.707998,42.213853],[24.704208,42.21397],[24.703831,42.214181],[24.703744,42.214583],[24.703212,42.214932],[24.703057,42.214917],[24.70329,42.213998],[24.699858,42.214103]]]},"properties":{"cadreg":14}},{"type":"Feature","geometry":{"type":"Polygon","coordinates":[[[24.696057,42.212398],[24.69563,42.21426],[24.699858,42.214103],[24.70329,42.213998],[24.703625,42.212673],[24.703501,42.212645],[24.703639,42.212095],[24.700008,42.212206],[24.696392,42.212341],[24.69626,42.212327],[24.696008,42.212344],[24.696057,42.212398]]]},"properties":{"cadreg":15}},{"type":"Feature","geometry":{"type":"Polygon","coordinates":[[[24.696527,42.210311],[24.696163,42.21189],[24.696392,42.212341],[24.700008,42.212206],[24.703639,42.212095],[24.703709,42.211819],[24.700442,42.211163],[24.696595,42.21028],[24.696527,42.210311]]]},"properties":{"cadreg":16}},{"type":"Feature","geometry":{"type":"Polygon","coordinates":[[[24.70781,42.212543],[24.706254,42.212791],[24.705922,42.213025],[24.705324,42.21349],[24.704769,42.213794],[24.704647,42.213723],[24.704208,42.21397],[24.707998,42.213853],[24.708433,42.212636],[24.70781,42.212543]]]},"properties":{"cadreg":17}},{"type":"Feature","geometry":{"type":"Polygon","coordinates":[[[24.696627,42.209757],[24.700629,42.210651],[24.701557,42.210847],[24.706392,42.211767],[24.708489,42.212107],[24.708666,42.211814],[24.705741,42.209972],[24.705588,42.210384],[24.696862,42.208591],[24.696627,42.209757]]]},"properties":{"cadreg":18}},{"type":"Feature","geometry":{"type":"Polygon","coordinates":[[[24.697287,42.20682],[24.697404,42.20711],[24.697157,42.207133],[24.696862,42.208591],[24.705588,42.210384],[24.705741,42.209972],[24.704692,42.209664],[24.704251,42.209424],[24.702444,42.208533],[24.702483,42.208493],[24.699956,42.20715],[24.697476,42.205874],[24.697287,42.20682]]]},"properties":{"cadreg":19}},{"type":"Feature","geometry":{"type":"Polygon","coordinates":[[[24.679868,42.195346],[24.675987,42.19778],[24.67802,42.198376],[24.681034,42.196493],[24.680825,42.196324],[24.679868,42.195346]]]},"properties":{"cadreg":20}},{"type":"Feature","geometry":{"type":"Polygon","coordinates":[[[24.690921,42.206887],[24.688312,42.207022],[24.688111,42.207487],[24.690501,42.20818],[24.692704,42.20879],[24.696404,42.209739],[24.696706,42.208254],[24.691693,42.206869],[24.691471,42.206856],[24.691138,42.206887],[24.691086,42.207009],[24.690926,42.207003],[24.690921,42.206887]]]},"properties":{"cadreg":21}},{"type":"Feature","geometry":{"type":"Polygon","coordinates":[[[24.694847,42.204482],[24.694038,42.207517],[24.696706,42.208254],[24.697217,42.205747],[24.696403,42.205352],[24.694847,42.204482]]]},"properties":{"cadreg":22}},{"type":"Feature","geometry":{"type":"Polygon","coordinates":[[[24.692634,42.203338],[24.691693,42.206869],[24.694038,42.207517],[24.694847,42.204482],[24.694199,42.20413],[24.692634,42.203338]]]},"properties":{"cadreg":23}},{"type":"Feature","geometry":{"type":"Polygon","coordinates":[[[24.678509,42.204685],[24.681611,42.205594],[24.682061,42.204544],[24.682116,42.204512],[24.679205,42.203658],[24.678509,42.204685]]]},"properties":{"cadreg":24}},{"type":"Feature","geometry":{"type":"Polygon","coordinates":[[[24.681529,42.202075],[24.679747,42.202859],[24.679205,42.203658],[24.682116,42.204512],[24.682174,42.204429],[24.682375,42.203702],[24.68224,42.203678],[24.682328,42.203108],[24.682777,42.201484],[24.681516,42.202039],[24.681529,42.202075]]]},"properties":{"cadreg":25}},{"type":"Feature","geometry":{"type":"Polygon","coordinates":[[[24.678951,42.203747],[24.677919,42.203444],[24.674876,42.202552],[24.675274,42.203752],[24.678351,42.204638],[24.678951,42.203747]]]},"properties":{"cadreg":26}},{"type":"Feature","geometry":{"type":"Polygon","coordinates":[[[24.681256,42.201767],[24.674787,42.199871],[24.6739,42.199611],[24.674876,42.202552],[24.678951,42.203747],[24.679586,42.202784],[24.680141,42.202318],[24.681256,42.201767]]]},"properties":{"cadreg":27}},{"type":"Feature","geometry":{"type":"Polygon","coordinates":[[[24.673761,42.199193],[24.6739,42.199611],[24.681256,42.201767],[24.681899,42.201449],[24.682797,42.201189],[24.683159,42.199882],[24.675987,42.19778],[24.673761,42.199193]]]},"properties":{"cadreg":28}},{"type":"Feature","geometry":{"type":"Polygon","coordinates":[[[24.681204,42.196629],[24.681034,42.196493],[24.67802,42.198376],[24.683159,42.199882],[24.683378,42.199089],[24.68179,42.198213],[24.681287,42.19662],[24.681204,42.196629]]]},"properties":{"cadreg":29}},{"type":"Feature","geometry":{"type":"Polygon","coordinates":[[[24.685033,42.194521],[24.684459,42.194512],[24.683584,42.194426],[24.683579,42.194453],[24.684441,42.194537],[24.684465,42.194556],[24.681278,42.196565],[24.68179,42.198213],[24.683378,42.199089],[24.683407,42.199049],[24.684834,42.195288],[24.685045,42.194592],[24.685101,42.194587],[24.685033,42.194521]]]},"properties":{"cadreg":30}},{"type":"Feature","geometry":{"type":"Polygon","coordinates":[[[24.67977,42.195246],[24.680825,42.196324],[24.681204,42.196629],[24.681287,42.19662],[24.681278,42.196565],[24.684465,42.194556],[24.684441,42.194537],[24.683579,42.194453],[24.683584,42.194426],[24.683119,42.194381],[24.68317,42.19414],[24.683451,42.193486],[24.684595,42.193599],[24.685224,42.19355],[24.68523,42.191917],[24.685176,42.191815],[24.67977,42.195246]]]},"properties":{"cadreg":31}},{"type":"Feature","geometry":{"type":"Polygon","coordinates":[[[24.69372,42.198311],[24.693544,42.198318],[24.693333,42.199221],[24.693205,42.200028],[24.692363,42.203092],[24.692613,42.203218],[24.692637,42.20313],[24.694676,42.20417],[24.696468,42.198376],[24.693773,42.198357],[24.69372,42.198311]]]},"properties":{"cadreg":32}},{"type":"Feature","geometry":{"type":"Polygon","coordinates":[[[24.699023,42.198425],[24.696468,42.198376],[24.694676,42.20417],[24.69686,42.205304],[24.696898,42.205378],[24.697402,42.203867],[24.699098,42.198381],[24.699023,42.198425]]]},"properties":{"cadreg":33}},{"type":"Feature","geometry":{"type":"Polygon","coordinates":[[[24.699171,42.198385],[24.699098,42.198381],[24.697402,42.203867],[24.696898,42.205378],[24.697021,42.205422],[24.697529,42.205756],[24.697597,42.205736],[24.698873,42.206401],[24.70145,42.198472],[24.699213,42.19843],[24.699171,42.198385]]]},"properties":{"cadreg":34}},{"type":"Feature","geometry":{"type":"Polygon","coordinates":[[[24.70145,42.198472],[24.698873,42.206401],[24.701058,42.207538],[24.701136,42.207694],[24.70119,42.207721],[24.704178,42.198489],[24.704059,42.198481],[24.703983,42.198524],[24.70145,42.198472]]]},"properties":{"cadreg":35}},{"type":"Feature","geometry":{"type":"Polygon","coordinates":[[[24.701683,42.206197],[24.70119,42.207721],[24.703696,42.209027],[24.705392,42.206861],[24.701683,42.206197]]]},"properties":{"cadreg":36}},{"type":"Feature","geometry":{"type":"Polygon","coordinates":[[[24.69686,42.205304],[24.692637,42.20313],[24.692613,42.203218],[24.692,42.202908],[24.691974,42.203004],[24.694478,42.204276],[24.696403,42.205352],[24.69742,42.205846],[24.699956,42.20715],[24.702483,42.208493],[24.702444,42.208533],[24.704251,42.209424],[24.704692,42.209664],[24.705741,42.209972],[24.708666,42.211814],[24.708489,42.212107],[24.708517,42.212148],[24.708508,42.21218],[24.708667,42.212206],[24.708794,42.211876],[24.70865,42.208271],[24.709865,42.200098],[24.710064,42.198619],[24.709975,42.198618],[24.708951,42.20551],[24.707909,42.205255],[24.70688,42.204961],[24.703696,42.209027],[24.701136,42.207694],[24.701058,42.207538],[24.697597,42.205736],[24.697529,42.205756],[24.697021,42.205422],[24.696898,42.205378],[24.69686,42.205304]]]},"properties":{"cadreg":37}},{"type":"Feature","geometry":{"type":"Polygon","coordinates":[[[24.702374,42.204062],[24.701683,42.206197],[24.705392,42.206861],[24.70688,42.204961],[24.707909,42.205255],[24.708951,42.20551],[24.708956,42.205473],[24.70759,42.205125],[24.706373,42.204777],[24.702374,42.204062]]]},"properties":{"cadreg":38}},{"type":"Feature","geometry":{"type":"Polygon","coordinates":[[[24.704178,42.198489],[24.702374,42.204062],[24.706095,42.204727],[24.707013,42.198552],[24.704178,42.198489]]]},"properties":{"cadreg":39}},{"type":"Feature","geometry":{"type":"Polygon","coordinates":[[[24.707013,42.198552],[24.706095,42.204727],[24.706373,42.204777],[24.70759,42.205125],[24.708956,42.205473],[24.709975,42.198618],[24.707013,42.198552]]]},"properties":{"cadreg":40}},{"type":"Feature","geometry":{"type":"Polygon","coordinates":[[[24.710038,42.197216],[24.704402,42.197143],[24.704229,42.198277],[24.704624,42.198349],[24.709945,42.198468],[24.710038,42.197216]]]},"properties":{"cadreg":41}},{"type":"Feature","geometry":{"type":"Polygon","coordinates":[[[24.704675,42.195347],[24.704402,42.197143],[24.710038,42.197216],[24.710058,42.196951],[24.710296,42.196497],[24.710833,42.196083],[24.711232,42.196025],[24.711893,42.196003],[24.711949,42.195441],[24.704675,42.195347]]]},"properties":{"cadreg":42}},{"type":"Feature","geometry":{"type":"Polygon","coordinates":[[[24.704675,42.195347],[24.711949,42.195441],[24.712127,42.193643],[24.704949,42.19355],[24.704675,42.195347]]]},"properties":{"cadreg":43}},{"type":"Feature","geometry":{"type":"Polygon","coordinates":[[[24.704441,42.195879],[24.702077,42.195835],[24.701889,42.197023],[24.704263,42.197067],[24.704441,42.195879]]]},"properties":{"cadreg":44}},{"type":"Feature","geometry":{"type":"Polygon","coordinates":[[[24.704607,42.194704],[24.702264,42.194655],[24.702077,42.195835],[24.704441,42.195879],[24.704607,42.194704]]]},"properties":{"cadreg":45}},{"type":"Feature","geometry":{"type":"Polygon","coordinates":[[[24.70245,42.19348],[24.702264,42.194655],[24.704607,42.194704],[24.704793,42.193542],[24.70245,42.19348]]]},"properties":{"cadreg":46}},{"type":"Feature","geometry":{"type":"Polygon","coordinates":[[[24.70239,42.193478],[24.697807,42.193416],[24.69759,42.194556],[24.702203,42.194653],[24.70239,42.193478]]]},"properties":{"cadreg":47}},{"type":"Feature","geometry":{"type":"Polygon","coordinates":[[[24.702203,42.194653],[24.69759,42.194556],[24.697335,42.195745],[24.702016,42.195833],[24.702203,42.194653]]]},"properties":{"cadreg":48}},{"type":"Feature","geometry":{"type":"Polygon","coordinates":[[[24.702016,42.195833],[24.697335,42.195745],[24.697143,42.196934],[24.701828,42.197021],[24.702016,42.195833]]]},"properties":{"cadreg":49}},{"type":"Feature","geometry":{"type":"Polygon","coordinates":[[[24.694607,42.193352],[24.69381,42.198154],[24.696621,42.198258],[24.696956,42.196924],[24.697613,42.193415],[24.694607,42.193352]]]},"properties":{"cadreg":50}},{"type":"Feature","geometry":{"type":"Polygon","coordinates":[[[24.692158,42.187555],[24.689996,42.18894],[24.689956,42.188905],[24.689271,42.189345],[24.689277,42.191904],[24.69011,42.191886],[24.690108,42.191834],[24.692024,42.19179],[24.692673,42.188001],[24.692158,42.187555]]]},"properties":{"cadreg":51}},{"type":"Feature","geometry":{"type":"Polygon","coordinates":[[[24.69525,42.185575],[24.692158,42.187555],[24.692673,42.188001],[24.692024,42.19179],[24.69325,42.191762],[24.693975,42.187523],[24.695293,42.187648],[24.695555,42.186095],[24.695371,42.185962],[24.69544,42.185715],[24.69525,42.185575]]]},"properties":{"cadreg":52}},{"type":"Feature","geometry":{"type":"Polygon","coordinates":[[[24.693007,42.193129],[24.694366,42.193147],[24.695293,42.187648],[24.693975,42.187523],[24.693007,42.193129]]]},"properties":{"cadreg":53}},{"type":"Feature","geometry":{"type":"Polygon","coordinates":[[[24.697362,42.192385],[24.694759,42.192495],[24.694652,42.193084],[24.697207,42.193147],[24.697326,42.192422],[24.697362,42.192385]]]},"properties":{"cadreg":54}},{"type":"Feature","geometry":{"type":"Polygon","coordinates":[[[24.698595,42.193177],[24.703718,42.1933],[24.703702,42.193132],[24.703782,42.192797],[24.703751,42.192326],[24.703509,42.192124],[24.698735,42.192326],[24.698595,42.193177]]]},"properties":{"cadreg":55}},{"type":"Feature","geometry":{"type":"Polygon","coordinates":[[[24.701828,42.197021],[24.697143,42.196934],[24.696816,42.198257],[24.700039,42.198272],[24.701624,42.198308],[24.701828,42.197021]]]},"properties":{"cadreg":56}},{"type":"Feature","geometry":{"type":"Polygon","coordinates":[[[24.701685,42.19831],[24.704051,42.198349],[24.704263,42.197067],[24.701889,42.197023],[24.701685,42.19831]]]},"properties":{"cadreg":57}},{"type":"Feature","geometry":{"type":"Polygon","coordinates":[[[24.69304,42.195729],[24.692985,42.19642],[24.692927,42.196625],[24.692133,42.197939],[24.692156,42.198014],[24.693334,42.198131],[24.693421,42.198153],[24.693852,42.195736],[24.69304,42.195729]]]},"properties":{"cadreg":58}},{"type":"Feature","geometry":{"type":"Polygon","coordinates":[[[24.692479,42.193231],[24.692496,42.194517],[24.69294,42.194518],[24.693061,42.194579],[24.69311,42.194663],[24.693045,42.195662],[24.693863,42.195671],[24.694286,42.193239],[24.693216,42.193219],[24.692479,42.193231]]]},"properties":{"cadreg":59}},{"type":"Feature","geometry":{"type":"Polygon","coordinates":[[[24.705682,42.186223],[24.703539,42.186185],[24.703506,42.187406],[24.705525,42.187441],[24.705682,42.186223]]]},"properties":{"cadreg":60}},{"type":"Feature","geometry":{"type":"Polygon","coordinates":[[[24.705848,42.185058],[24.705914,42.184954],[24.705854,42.184956],[24.705821,42.185047],[24.705788,42.185047],[24.705682,42.186223],[24.705393,42.188649],[24.704773,42.193399],[24.704834,42.193402],[24.704846,42.193304],[24.706839,42.193307],[24.70805,42.184894],[24.705848,42.185058]]]},"properties":{"cadreg":61}},{"type":"Feature","geometry":{"type":"Polygon","coordinates":[[[24.710703,42.184697],[24.70805,42.184894],[24.706839,42.193307],[24.709494,42.193312],[24.710703,42.184697]]]},"properties":{"cadreg":62}},{"type":"Feature","geometry":{"type":"Polygon","coordinates":[[[24.713332,42.184511],[24.710703,42.184697],[24.709494,42.193312],[24.712047,42.193316],[24.713332,42.184511]]]},"properties":{"cadreg":63}},{"type":"Feature","geometry":{"type":"Polygon","coordinates":[[[24.708576,42.179884],[24.709245,42.184383],[24.711118,42.184293],[24.711123,42.184195],[24.711438,42.184158],[24.711682,42.183376],[24.711691,42.182555],[24.711833,42.181635],[24.712047,42.180926],[24.712556,42.180863],[24.712529,42.179559],[24.708576,42.179884]]]},"properties":{"cadreg":64}},{"type":"Feature","geometry":{"type":"Polygon","coordinates":[[[24.712472,42.176762],[24.708353,42.178381],[24.708576,42.179884],[24.712529,42.179559],[24.712437,42.179527],[24.712274,42.179431],[24.712226,42.179338],[24.712233,42.179223],[24.712283,42.179135],[24.712402,42.179049],[24.712518,42.17903],[24.712472,42.176762]]]},"properties":{"cadreg":65}},{"type":"Feature","geometry":{"type":"Polygon","coordinates":[[[24.704469,42.180166],[24.704752,42.180404],[24.705474,42.181152],[24.705577,42.181417],[24.706014,42.184358],[24.706236,42.18432],[24.706257,42.184526],[24.709245,42.184383],[24.708353,42.178381],[24.706918,42.178945],[24.705298,42.179844],[24.704469,42.180166]]]},"properties":{"cadreg":66}},{"type":"Feature","geometry":{"type":"Polygon","coordinates":[[[24.704355,42.180269],[24.703321,42.180653],[24.702852,42.180798],[24.703445,42.184693],[24.704779,42.1846],[24.705009,42.1844],[24.705948,42.184324],[24.705955,42.184368],[24.706014,42.184358],[24.705577,42.181417],[24.705474,42.181152],[24.704752,42.180404],[24.704469,42.180166],[24.704368,42.180214],[24.704355,42.180269]]]},"properties":{"cadreg":67}},{"type":"Feature","geometry":{"type":"Polygon","coordinates":[[[24.702439,42.180886],[24.70055,42.182085],[24.700974,42.184865],[24.703445,42.184693],[24.702852,42.180798],[24.702439,42.180886]]]},"properties":{"cadreg":68}},{"type":"Feature","geometry":{"type":"Polygon","coordinates":[[[24.70055,42.182085],[24.696209,42.184828],[24.696277,42.184892],[24.697718,42.185091],[24.700974,42.184865],[24.70055,42.182085]]]},"properties":{"cadreg":69}},{"type":"Feature","geometry":{"type":"Polygon","coordinates":[[[24.691631,42.185918],[24.690783,42.186457],[24.68822,42.188086],[24.68923,42.188366],[24.689616,42.188679],[24.689611,42.188742],[24.692693,42.186782],[24.692739,42.186749],[24.691403,42.184995],[24.691348,42.185015],[24.691892,42.185728],[24.691631,42.185918]]]},"properties":{"cadreg":70}},{"type":"Feature","geometry":{"type":"Polygon","coordinates":[[[24.694372,42.184972],[24.694057,42.184847],[24.691936,42.185695],[24.692739,42.186749],[24.694932,42.185362],[24.694372,42.184972]]]},"properties":{"cadreg":71}},{"type":"Feature","geometry":{"type":"Polygon","coordinates":[[[24.692908,42.184393],[24.691403,42.184995],[24.691936,42.185695],[24.694057,42.184847],[24.692908,42.184393]]]},"properties":{"cadreg":72}},{"type":"Feature","geometry":{"type":"Polygon","coordinates":[[[24.691348,42.185015],[24.68804,42.186237],[24.688002,42.186819],[24.68807,42.186825],[24.688175,42.186868],[24.688187,42.188077],[24.68822,42.188086],[24.691631,42.185918],[24.691892,42.185728],[24.691348,42.185015]]]},"properties":{"cadreg":73}},{"type":"Feature","geometry":{"type":"Polygon","coordinates":[[[24.683447,42.190525],[24.682301,42.190759],[24.682348,42.190836],[24.682327,42.19084],[24.682336,42.190858],[24.682851,42.190742],[24.682861,42.190784],[24.682903,42.190837],[24.682381,42.190958],[24.682386,42.190969],[24.681448,42.191206],[24.68139,42.191151],[24.681368,42.191164],[24.683225,42.192741],[24.685231,42.191455],[24.68502,42.191204],[24.684519,42.190853],[24.683885,42.190371],[24.68367,42.190458],[24.683447,42.190525]]]},"properties":{"cadreg":74}},{"type":"Feature","geometry":{"type":"Polygon","coordinates":[[[24.682013,42.188665],[24.68206,42.188733],[24.681214,42.189049],[24.681176,42.188996],[24.679684,42.189583],[24.679908,42.189908],[24.680235,42.190213],[24.681368,42.191164],[24.68139,42.191151],[24.681448,42.191206],[24.682386,42.190969],[24.682381,42.190958],[24.682903,42.190837],[24.682861,42.190784],[24.682851,42.190742],[24.682336,42.190858],[24.682327,42.19084],[24.682348,42.190836],[24.682301,42.190759],[24.683447,42.190525],[24.68367,42.190458],[24.683885,42.190371],[24.683301,42.18984],[24.683215,42.189711],[24.682287,42.188557],[24.682013,42.188665]]]},"properties":{"cadreg":75}},{"type":"Feature","geometry":{"type":"Polygon","coordinates":[[[24.676645,42.194396],[24.676589,42.195966],[24.676397,42.196716],[24.676438,42.196703],[24.676677,42.196814],[24.676882,42.196779],[24.679701,42.195009],[24.67974,42.194951],[24.679895,42.194853],[24.67668,42.193845],[24.676637,42.193916],[24.676645,42.194396]]]},"properties":{"cadreg":76}},{"type":"Feature","geometry":{"type":"Polygon","coordinates":[[[24.67418,42.196183],[24.674056,42.196156],[24.673915,42.196153],[24.673036,42.196307],[24.672838,42.196299],[24.673636,42.198724],[24.674804,42.197989],[24.675127,42.197732],[24.675436,42.19742],[24.675721,42.197],[24.675896,42.196678],[24.675301,42.196556],[24.67418,42.196183]]]},"properties":{"cadreg":77}},{"type":"Feature","geometry":{"type":"Polygon","coordinates":[[[24.67618,42.1909],[24.671658,42.192633],[24.671593,42.192608],[24.671903,42.193647],[24.672775,42.196295],[24.672834,42.196284],[24.672838,42.196299],[24.672896,42.196309],[24.673024,42.196309],[24.673871,42.196158],[24.674067,42.196157],[24.67419,42.196186],[24.675301,42.196556],[24.675896,42.196678],[24.676009,42.19647],[24.676082,42.196465],[24.676243,42.195974],[24.676277,42.195523],[24.676307,42.193068],[24.676271,42.192173],[24.67618,42.1909]]]},"properties":{"cadreg":79}},{"type":"Feature","geometry":{"type":"Polygon","coordinates":[[[24.670646,42.187062],[24.676238,42.177758],[24.676177,42.17775],[24.676349,42.177463],[24.676335,42.177328],[24.676138,42.177585],[24.672617,42.183476],[24.67061,42.186881],[24.67,42.187863],[24.669943,42.188004],[24.66995,42.188107],[24.670871,42.190939],[24.671272,42.192004],[24.671381,42.191916],[24.671333,42.191778],[24.672629,42.190665],[24.673591,42.189728],[24.674448,42.188481],[24.674518,42.188349],[24.670646,42.187062]]]},"properties":{"cadreg":80}},{"type":"Feature","geometry":{"type":"Polygon","coordinates":[[[24.671856,42.185048],[24.670646,42.187062],[24.674518,42.188349],[24.675052,42.187351],[24.675144,42.187336],[24.675678,42.186319],[24.671856,42.185048]]]},"properties":{"cadreg":81}},{"type":"Feature","geometry":{"type":"Polygon","coordinates":[[[24.676227,42.184055],[24.673082,42.18301],[24.671856,42.185048],[24.675678,42.186319],[24.675803,42.18608],[24.676201,42.184734],[24.676227,42.184055]]]},"properties":{"cadreg":82}},{"type":"Feature","geometry":{"type":"Polygon","coordinates":[[[24.674845,42.180076],[24.673082,42.18301],[24.676227,42.184055],[24.676279,42.180087],[24.676437,42.180087],[24.676437,42.180047],[24.674845,42.180076]]]},"properties":{"cadreg":83}},{"type":"Feature","geometry":{"type":"Polygon","coordinates":[[[24.67918,42.18571],[24.678777,42.185684],[24.677512,42.185649],[24.676707,42.185773],[24.676672,42.187367],[24.67662,42.187398],[24.67673,42.189047],[24.679171,42.188202],[24.679719,42.188079],[24.679475,42.187008],[24.679337,42.186513],[24.67918,42.18571]]]},"properties":{"cadreg":84}},{"type":"Feature","geometry":{"type":"Polygon","coordinates":[[[24.681612,42.18573],[24.677528,42.18558],[24.676707,42.18571],[24.676707,42.185773],[24.677512,42.185649],[24.678777,42.185684],[24.67918,42.18571],[24.679337,42.186513],[24.679475,42.187008],[24.679729,42.188124],[24.679788,42.188111],[24.679777,42.188066],[24.680826,42.18802],[24.682215,42.187833],[24.682211,42.185835],[24.681718,42.185812],[24.681612,42.18573]]]},"properties":{"cadreg":85}},{"type":"Feature","geometry":{"type":"Polygon","coordinates":[[[24.682122,42.179184],[24.679893,42.178109],[24.679572,42.177971],[24.679447,42.177894],[24.679431,42.185646],[24.681612,42.18573],[24.681718,42.185812],[24.682211,42.185835],[24.682122,42.179184]]]},"properties":{"cadreg":86}},{"type":"Feature","geometry":{"type":"Polygon","coordinates":[[[24.676682,42.180052],[24.676682,42.180092],[24.676779,42.180088],[24.676768,42.185701],[24.677528,42.18558],[24.679431,42.185646],[24.679446,42.17994],[24.676682,42.180052]]]},"properties":{"cadreg":87}},{"type":"Feature","geometry":{"type":"Polygon","coordinates":[[[24.682484,42.187017],[24.682536,42.187851],[24.684388,42.187311],[24.691456,42.184542],[24.691376,42.183804],[24.691327,42.183593],[24.691047,42.183428],[24.690108,42.18298],[24.682466,42.185822],[24.682484,42.187017]]]},"properties":{"cadreg":88}},{"type":"Feature","geometry":{"type":"Polygon","coordinates":[[[24.687679,42.18182],[24.682437,42.183769],[24.682466,42.185822],[24.690108,42.18298],[24.687679,42.18182]]]},"properties":{"cadreg":89}},{"type":"Feature","geometry":{"type":"Polygon","coordinates":[[[24.684216,42.181222],[24.68241,42.181893],[24.682437,42.183769],[24.687679,42.18182],[24.6842,42.180158],[24.684216,42.181222]]]},"properties":{"cadreg":90}},{"type":"Feature","geometry":{"type":"Polygon","coordinates":[[[24.682324,42.179262],[24.682344,42.18025],[24.682386,42.18025],[24.68241,42.181893],[24.684216,42.181222],[24.6842,42.180158],[24.682324,42.179262]]]},"properties":{"cadreg":91}},{"type":"Feature","geometry":{"type":"Polygon","coordinates":[[[24.679063,42.189759],[24.676828,42.190634],[24.676685,42.192052],[24.680498,42.190436],[24.679908,42.189908],[24.679684,42.189583],[24.679576,42.189624],[24.679063,42.189759]]]},"properties":{"cadreg":92}},{"type":"Feature","geometry":{"type":"Polygon","coordinates":[[[24.676161,42.190062],[24.675995,42.18987],[24.675609,42.189665],[24.675157,42.189641],[24.674689,42.189807],[24.673523,42.190552],[24.67138,42.192305],[24.671409,42.192396],[24.671795,42.192223],[24.675299,42.190867],[24.676242,42.190522],[24.676161,42.190062]]]},"properties":{"cadreg":93}},{"type":"Feature","geometry":{"type":"MultiPolygon","coordinates":[[[[24.676728,42.176551],[24.677154,42.176621],[24.677244,42.176235],[24.676913,42.176056],[24.676894,42.175745],[24.676895,42.174367],[24.676566,42.174282],[24.676552,42.177069],[24.676335,42.177328],[24.676349,42.177463],[24.676177,42.17775],[24.676288,42.177766],[24.676279,42.180049],[24.676437,42.180047],[24.676437,42.180087],[24.676279,42.180087],[24.676227,42.184055],[24.676201,42.184734],[24.675803,42.18608],[24.675144,42.187336],[24.675052,42.187351],[24.674448,42.188481],[24.673591,42.189728],[24.672629,42.190665],[24.671333,42.191778],[24.671381,42.191916],[24.671272,42.192004],[24.671347,42.192205],[24.671685,42.191932],[24.671347,42.192205],[24.67138,42.192305],[24.673523,42.190552],[24.674689,42.189807],[24.675157,42.189641],[24.675609,42.189665],[24.675995,42.18987],[24.676161,42.190062],[24.676242,42.190522],[24.675299,42.190867],[24.671795,42.192223],[24.671409,42.192396],[24.671527,42.192633],[24.671593,42.192608],[24.671658,42.192633],[24.67618,42.1909],[24.676236,42.190828],[24.676834,42.190581],[24.676828,42.190634],[24.679063,42.189759],[24.679576,42.189624],[24.681176,42.188996],[24.681214,42.189049],[24.68206,42.188733],[24.682013,42.188665],[24.682287,42.188557],[24.682491,42.188499],[24.682819,42.188366],[24.683073,42.188291],[24.68347,42.188128],[24.684243,42.187863],[24.684333,42.187773],[24.684464,42.187935],[24.684962,42.18773],[24.685101,42.187633],[24.685081,42.187478],[24.685838,42.1872],[24.686556,42.186883],[24.68662,42.18688],[24.68804,42.186237],[24.691403,42.184995],[24.693116,42.184304],[24.692705,42.184099],[24.69152,42.184568],[24.691515,42.184519],[24.684388,42.187311],[24.682536,42.187851],[24.682487,42.187244],[24.682386,42.18025],[24.682344,42.18025],[24.682324,42.179262],[24.682262,42.179179],[24.682183,42.17916],[24.682122,42.179184],[24.682211,42.185835],[24.682215,42.187833],[24.680826,42.18802],[24.679777,42.188066],[24.679788,42.188111],[24.679729,42.188124],[24.679719,42.188079],[24.679171,42.188202],[24.67673,42.189047],[24.67662,42.187398],[24.676672,42.187367],[24.676707,42.18571],[24.676768,42.185701],[24.676779,42.180088],[24.676682,42.180092],[24.676682,42.180052],[24.676781,42.180048],[24.676784,42.178741],[24.676745,42.178742],[24.676742,42.176962],[24.676681,42.176908],[24.676681,42.176526],[24.676728,42.176551]]],[[[24.698945,42.174624],[24.696139,42.182539],[24.69599,42.182664],[24.693079,42.183811],[24.692847,42.183783],[24.693166,42.183917],[24.692988,42.183987],[24.693321,42.184154],[24.699306,42.181832],[24.69971,42.182303],[24.695825,42.184776],[24.695741,42.184706],[24.695287,42.184968],[24.6956,42.185154],[24.696003,42.184899],[24.696079,42.18491],[24.702439,42.180886],[24.702852,42.180798],[24.703321,42.180653],[24.704355,42.180269],[24.704368,42.180214],[24.704414,42.180187],[24.705298,42.179844],[24.706918,42.178945],[24.712472,42.176762],[24.712521,42.176692],[24.712517,42.176485],[24.712031,42.176768],[24.711601,42.176975],[24.705417,42.179402],[24.70519,42.178936],[24.710162,42.175793],[24.709966,42.175626],[24.709881,42.175621],[24.703742,42.179497],[24.702754,42.179989],[24.701175,42.180632],[24.701092,42.180546],[24.701997,42.178211],[24.702744,42.175479],[24.70314,42.174816],[24.706486,42.172699],[24.70649,42.172637],[24.706435,42.17259],[24.703035,42.17474],[24.702892,42.174911],[24.702668,42.174891],[24.701188,42.179514],[24.700822,42.180506],[24.700698,42.180617],[24.700635,42.180864],[24.696352,42.182541],[24.6975,42.179248],[24.697964,42.178178],[24.69826,42.177094],[24.698661,42.175979],[24.6991,42.174642],[24.698945,42.174624]]]]},"properties":{"cadreg":94}},{"type":"Feature","geometry":{"type":"Polygon","coordinates":[[[24.676288,42.177766],[24.676238,42.177758],[24.674845,42.180076],[24.676279,42.180049],[24.676288,42.177766]]]},"properties":{"cadreg":95}},{"type":"Feature","geometry":{"type":"Polygon","coordinates":[[[24.676742,42.176962],[24.676745,42.178742],[24.676784,42.178741],[24.676781,42.180048],[24.679446,42.17994],[24.679447,42.177894],[24.678722,42.177544],[24.678073,42.17727],[24.677449,42.177056],[24.676742,42.176962]]]},"properties":{"cadreg":96}},{"type":"Feature","geometry":{"type":"Polygon","coordinates":[[[24.677162,42.176585],[24.678381,42.176881],[24.679144,42.177217],[24.681452,42.178342],[24.681789,42.178475],[24.682323,42.177087],[24.676894,42.175692],[24.676913,42.176056],[24.677244,42.176235],[24.677162,42.176585]]]},"properties":{"cadreg":97}},{"type":"Feature","geometry":{"type":"Polygon","coordinates":[[[24.686371,42.177611],[24.683121,42.176081],[24.682175,42.178631],[24.690565,42.182658],[24.690541,42.182683],[24.691766,42.183241],[24.692657,42.180604],[24.689807,42.179264],[24.686371,42.177611]]]},"properties":{"cadreg":98}},{"type":"Feature","geometry":{"type":"Polygon","coordinates":[[[24.684133,42.173326],[24.683121,42.176081],[24.686371,42.177611],[24.689807,42.179264],[24.692657,42.180604],[24.693599,42.177775],[24.691794,42.176929],[24.684309,42.173353],[24.684133,42.173326]]]},"properties":{"cadreg":99}},{"type":"Feature","geometry":{"type":"Polygon","coordinates":[[[24.684776,42.171667],[24.684227,42.17314],[24.68415,42.173165],[24.684099,42.17322],[24.684094,42.17327],[24.684133,42.173326],[24.684309,42.173353],[24.691794,42.176929],[24.693599,42.177775],[24.694533,42.174994],[24.68526,42.170471],[24.684776,42.171667]]]},"properties":{"cadreg":100}},{"type":"Feature","geometry":{"type":"Polygon","coordinates":[[[24.692045,42.183347],[24.692847,42.183783],[24.693079,42.183811],[24.696005,42.182651],[24.692349,42.182521],[24.692045,42.183347]]]},"properties":{"cadreg":101}},{"type":"Feature","geometry":{"type":"Polygon","coordinates":[[[24.697955,42.181326],[24.698087,42.180444],[24.69728,42.180381],[24.697153,42.181233],[24.697121,42.18123],[24.697117,42.181257],[24.696803,42.181231],[24.696352,42.182541],[24.698022,42.181888],[24.698104,42.181339],[24.697955,42.181326]]]},"properties":{"cadreg":102}},{"type":"Feature","geometry":{"type":"Polygon","coordinates":[[[24.701997,42.178211],[24.701092,42.180546],[24.701175,42.180632],[24.702754,42.179989],[24.703742,42.179497],[24.705005,42.178708],[24.703315,42.177231],[24.703259,42.177207],[24.702311,42.177064],[24.701997,42.178211]]]},"properties":{"cadreg":103}},{"type":"Feature","geometry":{"type":"Polygon","coordinates":[[[24.703259,42.177207],[24.706634,42.175074],[24.704981,42.173652],[24.70314,42.174816],[24.702744,42.175479],[24.702311,42.177064],[24.703259,42.177207]]]},"properties":{"cadreg":104}},{"type":"Feature","geometry":{"type":"Polygon","coordinates":[[[24.706634,42.175074],[24.703259,42.177207],[24.703315,42.177231],[24.705005,42.178708],[24.709881,42.175621],[24.709966,42.175626],[24.70649,42.172637],[24.706486,42.172699],[24.704981,42.173652],[24.706634,42.175074]]]},"properties":{"cadreg":105}},{"type":"Feature","geometry":{"type":"Polygon","coordinates":[[[24.69971,42.182303],[24.699306,42.181832],[24.693433,42.18411],[24.693521,42.184254],[24.694773,42.184671],[24.695033,42.184791],[24.695287,42.184968],[24.695741,42.184706],[24.695825,42.184776],[24.69971,42.182303]]]},"properties":{"cadreg":106}},{"type":"Feature","geometry":{"type":"Polygon","coordinates":[[[24.703583,42.18862],[24.70397,42.192803],[24.703882,42.193315],[24.70478,42.193347],[24.705393,42.188649],[24.703583,42.18862]]]},"properties":{"cadreg":107}},{"type":"Feature","geometry":{"type":"Polygon","coordinates":[[[24.703506,42.187406],[24.703481,42.188341],[24.703545,42.188416],[24.703583,42.18862],[24.705393,42.188649],[24.705525,42.187441],[24.703506,42.187406]]]},"properties":{"cadreg":108}},{"type":"Feature","geometry":{"type":"Polygon","coordinates":[[[24.682096,42.204579],[24.681648,42.205629],[24.687677,42.207383],[24.687659,42.207267],[24.687809,42.206961],[24.687714,42.206742],[24.68717,42.206504],[24.686722,42.206515],[24.686524,42.206477],[24.684361,42.205904],[24.683201,42.205568],[24.683135,42.205473],[24.6833,42.204927],[24.683254,42.204883],[24.682096,42.204579]]]},"properties":{"cadreg":109}},{"type":"Feature","geometry":{"type":"Polygon","coordinates":[[[24.685224,42.19355],[24.684595,42.193599],[24.683451,42.193486],[24.68317,42.19414],[24.683119,42.194381],[24.684459,42.194512],[24.685033,42.194521],[24.685101,42.194587],[24.68522,42.194237],[24.685224,42.19355]]]},"properties":{"cadreg":110}},{"type":"Feature","geometry":{"type":"Polygon","coordinates":[[[24.686978,42.189396],[24.686832,42.18941],[24.686546,42.189465],[24.685502,42.189829],[24.685291,42.189969],[24.684786,42.19016],[24.684063,42.190358],[24.684538,42.190746],[24.68539,42.191354],[24.687869,42.189803],[24.688926,42.18915],[24.688948,42.189163],[24.689611,42.188742],[24.689242,42.188442],[24.688603,42.188843],[24.68796,42.189106],[24.687583,42.189231],[24.686978,42.189396]]]},"properties":{"cadreg":111}},{"type":"Feature","geometry":{"type":"Polygon","coordinates":[[[24.682287,42.188557],[24.683215,42.189711],[24.683301,42.18984],[24.683885,42.190371],[24.684519,42.190853],[24.68502,42.191204],[24.685231,42.191455],[24.68539,42.191354],[24.684538,42.190746],[24.684063,42.190358],[24.684786,42.19016],[24.685291,42.189969],[24.685502,42.189829],[24.686546,42.189465],[24.686832,42.18941],[24.686978,42.189396],[24.687583,42.189231],[24.68796,42.189106],[24.688603,42.188843],[24.689242,42.188442],[24.689611,42.188742],[24.689616,42.188679],[24.68923,42.188366],[24.688187,42.188077],[24.688175,42.186868],[24.68807,42.186825],[24.688002,42.186819],[24.68804,42.186237],[24.68662,42.18688],[24.686556,42.186883],[24.685838,42.1872],[24.685081,42.187478],[24.685101,42.187633],[24.684962,42.18773],[24.684464,42.187935],[24.684333,42.187773],[24.684243,42.187863],[24.68347,42.188128],[24.683073,42.188291],[24.682819,42.188366],[24.682491,42.188499],[24.682287,42.188557]]]},"properties":{"cadreg":112}},{"type":"Feature","geometry":{"type":"Polygon","coordinates":[[[24.685452,42.195589],[24.685349,42.191774],[24.685306,42.191739],[24.685176,42.191815],[24.68523,42.191917],[24.68522,42.194237],[24.685101,42.194587],[24.685045,42.194592],[24.684834,42.195288],[24.683407,42.199049],[24.683378,42.199089],[24.682797,42.201189],[24.682849,42.201222],[24.682328,42.203108],[24.68224,42.203678],[24.682375,42.203702],[24.682741,42.202393],[24.682789,42.202325],[24.682872,42.20228],[24.682831,42.202199],[24.684209,42.198263],[24.684628,42.19834],[24.684669,42.198321],[24.685452,42.195589]]]},"properties":{"cadreg":113}},{"type":"Feature","geometry":{"type":"Polygon","coordinates":[[[24.682797,42.175903],[24.676902,42.174369],[24.676895,42.174367],[24.676894,42.175692],[24.682323,42.177087],[24.682797,42.175903]]]},"properties":{"cadreg":114}},{"type":"Feature","geometry":{"type":"Polygon","coordinates":[[[24.691,42.19271],[24.690997,42.193165],[24.693007,42.193129],[24.69325,42.191762],[24.692881,42.191771],[24.692873,42.192675],[24.691,42.19271]]]},"properties":{"cadreg":115}},{"type":"Feature","geometry":{"type":"Polygon","coordinates":[[[24.697511,42.179222],[24.696803,42.181231],[24.697117,42.181257],[24.697121,42.18123],[24.697153,42.181233],[24.69728,42.180381],[24.698087,42.180444],[24.697955,42.181326],[24.698104,42.181339],[24.698022,42.181888],[24.700635,42.180864],[24.700698,42.180617],[24.700822,42.180506],[24.701188,42.179514],[24.697511,42.179222]]]},"properties":{"cadreg":116}},{"type":"Feature","geometry":{"type":"Polygon","coordinates":[[[24.697511,42.179222],[24.701188,42.179514],[24.701874,42.177394],[24.69826,42.177094],[24.697964,42.178178],[24.697511,42.179222]]]},"properties":{"cadreg":117}},{"type":"Feature","geometry":{"type":"Polygon","coordinates":[[[24.698661,42.175979],[24.69826,42.177094],[24.701874,42.177394],[24.702649,42.174953],[24.6991,42.174642],[24.698661,42.175979]]]},"properties":{"cadreg":118}},{"type":"Feature","geometry":{"type":"Polygon","coordinates":[[[24.697316,42.179202],[24.693564,42.178863],[24.692818,42.18104],[24.696606,42.181196],[24.697316,42.179202]]]},"properties":{"cadreg":119}},{"type":"Feature","geometry":{"type":"Polygon","coordinates":[[[24.694265,42.176765],[24.693564,42.178863],[24.697316,42.179202],[24.698065,42.177086],[24.694265,42.176765]]]},"properties":{"cadreg":120}},{"type":"Feature","geometry":{"type":"Polygon","coordinates":[[[24.695101,42.174276],[24.694265,42.176765],[24.698065,42.177086],[24.698945,42.174624],[24.702649,42.174953],[24.702668,42.174891],[24.695056,42.174223],[24.69504,42.174271],[24.695101,42.174276]]]},"properties":{"cadreg":121}},{"type":"Feature","geometry":{"type":"Polygon","coordinates":[[[24.6989,42.190949],[24.694985,42.191119],[24.694759,42.192495],[24.697362,42.192385],[24.697326,42.192422],[24.697207,42.193147],[24.698534,42.193176],[24.6989,42.190949]]]},"properties":{"cadreg":122}},{"type":"Feature","geometry":{"type":"Polygon","coordinates":[[[24.694985,42.191119],[24.6989,42.190949],[24.699134,42.189529],[24.695221,42.189704],[24.694985,42.191119]]]},"properties":{"cadreg":123}},{"type":"Feature","geometry":{"type":"Polygon","coordinates":[[[24.695221,42.189704],[24.699134,42.189529],[24.699354,42.188187],[24.695446,42.188362],[24.695221,42.189704]]]},"properties":{"cadreg":124}},{"type":"Feature","geometry":{"type":"Polygon","coordinates":[[[24.699581,42.18681],[24.695686,42.186987],[24.695446,42.188362],[24.699354,42.188187],[24.699581,42.18681]]]},"properties":{"cadreg":125}},{"type":"Feature","geometry":{"type":"Polygon","coordinates":[[[24.699814,42.185395],[24.695922,42.185634],[24.695686,42.186987],[24.699581,42.18681],[24.699814,42.185395]]]},"properties":{"cadreg":126}},{"type":"Feature","geometry":{"type":"Polygon","coordinates":[[[24.698735,42.192326],[24.703509,42.192124],[24.703328,42.190756],[24.698962,42.190946],[24.698735,42.192326]]]},"properties":{"cadreg":127}},{"type":"Feature","geometry":{"type":"Polygon","coordinates":[[[24.698962,42.190946],[24.703328,42.190756],[24.703316,42.190551],[24.703196,42.189913],[24.703142,42.18935],[24.699195,42.189526],[24.698962,42.190946]]]},"properties":{"cadreg":128}},{"type":"Feature","geometry":{"type":"Polygon","coordinates":[[[24.699195,42.189526],[24.703142,42.18935],[24.703066,42.188427],[24.703111,42.188018],[24.699416,42.188184],[24.699195,42.189526]]]},"properties":{"cadreg":129}},{"type":"Feature","geometry":{"type":"Polygon","coordinates":[[[24.699416,42.188184],[24.703111,42.188018],[24.703294,42.186641],[24.699642,42.186807],[24.699416,42.188184]]]},"properties":{"cadreg":130}},{"type":"Feature","geometry":{"type":"Polygon","coordinates":[[[24.703333,42.185175],[24.699875,42.185391],[24.699642,42.186807],[24.703294,42.186641],[24.703333,42.185175]]]},"properties":{"cadreg":131}},{"type":"Feature","geometry":{"type":"Polygon","coordinates":[[[24.705784,42.185091],[24.705687,42.185063],[24.703527,42.185164],[24.703539,42.186185],[24.705682,42.186223],[24.705784,42.185091]]]},"properties":{"cadreg":132}},{"type":"Feature","geometry":{"type":"Polygon","coordinates":[[[24.692818,42.18104],[24.692349,42.182521],[24.696005,42.182651],[24.696139,42.182539],[24.696606,42.181196],[24.692818,42.18104]]]},"properties":{"cadreg":133}},{"type":"Feature","geometry":{"type":"Polygon","coordinates":[[[24.68526,42.170471],[24.685062,42.170374],[24.682918,42.175935],[24.682797,42.175903],[24.681789,42.178475],[24.681452,42.178342],[24.679144,42.177217],[24.678381,42.176881],[24.677162,42.176585],[24.677154,42.176621],[24.676728,42.176551],[24.676681,42.176526],[24.676681,42.176908],[24.676742,42.176962],[24.677449,42.177056],[24.678073,42.17727],[24.678722,42.177544],[24.679447,42.177894],[24.679572,42.177971],[24.679893,42.178109],[24.682122,42.179184],[24.682183,42.17916],[24.682262,42.179179],[24.682324,42.179262],[24.691047,42.183428],[24.691327,42.183593],[24.691376,42.183804],[24.691456,42.184542],[24.691515,42.184519],[24.69152,42.184568],[24.692705,42.184099],[24.693038,42.184265],[24.693321,42.184154],[24.692988,42.183987],[24.693166,42.183917],[24.692893,42.18381],[24.692045,42.183347],[24.69234,42.182548],[24.692818,42.18104],[24.695101,42.174276],[24.69504,42.174271],[24.695056,42.174223],[24.694949,42.174213],[24.694667,42.17506],[24.694533,42.174994],[24.691766,42.183241],[24.690541,42.182683],[24.690565,42.182658],[24.682175,42.178631],[24.684133,42.173326],[24.684094,42.17327],[24.684099,42.17322],[24.68415,42.173165],[24.684227,42.17314],[24.684765,42.171694],[24.68526,42.170471]]]},"properties":{"cadreg":134}},{"type":"Feature","geometry":{"type":"Polygon","coordinates":[[[24.691508,42.206655],[24.691726,42.2057],[24.691665,42.205864],[24.691588,42.205987],[24.691241,42.206432],[24.691151,42.206488],[24.69107,42.206504],[24.689413,42.20643],[24.689388,42.206711],[24.688355,42.206616],[24.688241,42.206569],[24.687367,42.206344],[24.687907,42.206588],[24.688073,42.20669],[24.688152,42.206865],[24.691427,42.206689],[24.691484,42.206678],[24.691508,42.206655]]]},"properties":{"cadreg":135}},{"type":"Feature","geometry":{"type":"Polygon","coordinates":[[[24.692363,42.203092],[24.69295,42.200951],[24.693205,42.200028],[24.692,42.202908],[24.692363,42.203092]]]},"properties":{"cadreg":136}},{"type":"Feature","geometry":{"type":"Polygon","coordinates":[[[24.705948,42.184324],[24.705009,42.1844],[24.704779,42.1846],[24.697718,42.185091],[24.696277,42.184892],[24.696209,42.184828],[24.696079,42.18491],[24.696003,42.184899],[24.6956,42.185154],[24.695287,42.184968],[24.695033,42.184791],[24.694773,42.184671],[24.693521,42.184254],[24.693433,42.18411],[24.693038,42.184265],[24.693116,42.184304],[24.692908,42.184393],[24.694372,42.184972],[24.694932,42.185362],[24.689094,42.189071],[24.689271,42.189225],[24.689271,42.189345],[24.689956,42.188905],[24.689996,42.18894],[24.69525,42.185575],[24.695253,42.185513],[24.695168,42.185449],[24.6953,42.185365],[24.695721,42.18561],[24.695878,42.185601],[24.695922,42.185634],[24.703467,42.185168],[24.705687,42.185063],[24.705784,42.185091],[24.705788,42.185047],[24.705821,42.185047],[24.705854,42.184956],[24.705914,42.184954],[24.705848,42.185058],[24.713332,42.184511],[24.713387,42.184462],[24.713395,42.184407],[24.713435,42.184404],[24.713452,42.184288],[24.712677,42.184314],[24.712521,42.176692],[24.712472,42.176762],[24.712518,42.17903],[24.712402,42.179049],[24.712283,42.179135],[24.712233,42.179223],[24.712226,42.179338],[24.712274,42.179431],[24.712437,42.179527],[24.712529,42.179559],[24.712556,42.180863],[24.712047,42.180926],[24.711833,42.181635],[24.711691,42.182555],[24.711682,42.183376],[24.711438,42.184158],[24.711123,42.184195],[24.711118,42.184293],[24.706257,42.184526],[24.706236,42.18432],[24.705955,42.184368],[24.705948,42.184324]]]},"properties":{"cadreg":137}},{"type":"Feature","geometry":{"type":"Polygon","coordinates":[[[24.677376,42.210214],[24.677892,42.209281],[24.678943,42.207384],[24.676438,42.2075],[24.677326,42.210211],[24.677376,42.210214]]]},"properties":{"cadreg":138}},{"type":"Feature","geometry":{"type":"Polygon","coordinates":[[[24.703764,42.211792],[24.703709,42.211819],[24.703501,42.212645],[24.703625,42.212673],[24.703057,42.214917],[24.703212,42.214932],[24.703744,42.214583],[24.703831,42.214181],[24.704647,42.213723],[24.704769,42.213794],[24.705324,42.21349],[24.705922,42.213025],[24.706254,42.212791],[24.70781,42.212543],[24.708433,42.212636],[24.708493,42.212608],[24.70781,42.212507],[24.703764,42.211792]]]},"properties":{"cadreg":139}},{"type":"Feature","geometry":{"type":"Polygon","coordinates":[[[24.673633,42.199115],[24.675129,42.203772],[24.675277,42.204137],[24.680015,42.218676],[24.680101,42.218667],[24.680091,42.218611],[24.680129,42.218574],[24.677376,42.210214],[24.677326,42.210211],[24.676438,42.2075],[24.676484,42.207455],[24.675471,42.204363],[24.67552,42.204356],[24.683021,42.206513],[24.68654,42.207549],[24.68656,42.207598],[24.687244,42.207813],[24.6866,42.209314],[24.686584,42.209643],[24.686633,42.209644],[24.686714,42.211753],[24.686964,42.215589],[24.687009,42.218121],[24.687039,42.218464],[24.687194,42.218461],[24.687172,42.216304],[24.686895,42.211743],[24.686837,42.210508],[24.686837,42.209643],[24.686843,42.209597],[24.686901,42.209613],[24.686977,42.209359],[24.687191,42.208958],[24.687817,42.207962],[24.688072,42.207998],[24.691113,42.208863],[24.692867,42.209338],[24.696309,42.210211],[24.695836,42.212361],[24.695898,42.212358],[24.695888,42.212404],[24.695688,42.212411],[24.695803,42.212507],[24.694549,42.218056],[24.694603,42.21809],[24.694572,42.218155],[24.69468,42.21815],[24.694683,42.218115],[24.694755,42.218071],[24.696057,42.212398],[24.696008,42.212344],[24.69626,42.212327],[24.696392,42.212341],[24.696163,42.21189],[24.696527,42.210311],[24.696595,42.21028],[24.700442,42.211163],[24.703709,42.211819],[24.703764,42.211792],[24.70781,42.212507],[24.708493,42.212608],[24.708433,42.212636],[24.706655,42.217626],[24.706751,42.21772],[24.706806,42.217682],[24.706885,42.217524],[24.708532,42.212565],[24.708667,42.212206],[24.708508,42.21218],[24.708517,42.212148],[24.708489,42.212107],[24.705967,42.21169],[24.701557,42.210847],[24.700629,42.210651],[24.696627,42.209757],[24.697157,42.207133],[24.697404,42.20711],[24.697287,42.20682],[24.697476,42.205874],[24.697217,42.205747],[24.696404,42.209739],[24.692704,42.20879],[24.690501,42.20818],[24.688111,42.207487],[24.688312,42.207022],[24.690921,42.206887],[24.690926,42.207003],[24.691086,42.207009],[24.691138,42.206887],[24.691471,42.206856],[24.691693,42.206869],[24.692634,42.203338],[24.692333,42.203185],[24.691508,42.206655],[24.691484,42.206678],[24.688152,42.206865],[24.688073,42.20669],[24.687907,42.206588],[24.687367,42.206344],[24.687166,42.206289],[24.686848,42.206235],[24.686842,42.20633],[24.686798,42.206405],[24.686717,42.206459],[24.686596,42.206483],[24.686722,42.206515],[24.68717,42.206504],[24.687714,42.206742],[24.687809,42.206961],[24.687659,42.207267],[24.687677,42.207383],[24.681648,42.205629],[24.682096,42.204579],[24.682351,42.204641],[24.682255,42.204602],[24.6822,42.204553],[24.682172,42.204493],[24.682174,42.204429],[24.682116,42.204512],[24.682061,42.204544],[24.681611,42.205594],[24.678509,42.204685],[24.679747,42.202859],[24.681529,42.202075],[24.681516,42.202039],[24.682777,42.201484],[24.682849,42.201222],[24.682797,42.201189],[24.681899,42.201449],[24.680141,42.202318],[24.679586,42.202784],[24.678351,42.204638],[24.675274,42.203752],[24.673761,42.199193],[24.673704,42.199171],[24.673676,42.199088],[24.673633,42.199115]]]},"properties":{"cadreg":140}},{"type":"Feature","geometry":{"type":"Polygon","coordinates":[[[24.676397,42.196716],[24.676589,42.195966],[24.676645,42.194396],[24.676637,42.193916],[24.67668,42.193845],[24.676685,42.192052],[24.676834,42.190581],[24.676236,42.190828],[24.67618,42.1909],[24.676271,42.192173],[24.676307,42.193068],[24.676277,42.195523],[24.676243,42.195974],[24.676082,42.196465],[24.676009,42.19647],[24.675721,42.197],[24.675436,42.19742],[24.675127,42.197732],[24.674804,42.197989],[24.673636,42.198724],[24.672834,42.196284],[24.672775,42.196295],[24.671903,42.193647],[24.671593,42.192608],[24.671527,42.192633],[24.671558,42.192687],[24.673508,42.198834],[24.673633,42.199115],[24.673676,42.199088],[24.673704,42.199171],[24.673761,42.199193],[24.676907,42.197197],[24.679868,42.195346],[24.67977,42.195246],[24.680106,42.195037],[24.679895,42.194853],[24.67974,42.194951],[24.679701,42.195009],[24.676882,42.196779],[24.676677,42.196814],[24.676438,42.196703],[24.676397,42.196716]]]},"properties":{"cadreg":141}},{"type":"Feature","geometry":{"type":"Polygon","coordinates":[[[24.694286,42.193239],[24.693863,42.195671],[24.693045,42.195662],[24.69304,42.195729],[24.693852,42.195736],[24.693421,42.198153],[24.693512,42.198219],[24.693544,42.198318],[24.69372,42.198311],[24.693773,42.198357],[24.696468,42.198376],[24.699023,42.198425],[24.699098,42.198381],[24.699171,42.198385],[24.699213,42.19843],[24.703983,42.198524],[24.704059,42.198481],[24.710064,42.198619],[24.710288,42.19696],[24.710482,42.196614],[24.710701,42.196397],[24.710828,42.196328],[24.711218,42.196239],[24.711945,42.196169],[24.711933,42.196028],[24.712184,42.193599],[24.712127,42.193643],[24.711893,42.196003],[24.711232,42.196025],[24.710833,42.196083],[24.710296,42.196497],[24.710058,42.196951],[24.709945,42.198468],[24.704624,42.198349],[24.704229,42.198277],[24.704949,42.19355],[24.704895,42.193504],[24.704859,42.193506],[24.704793,42.193542],[24.704263,42.197067],[24.704051,42.198349],[24.701685,42.19831],[24.70245,42.19348],[24.70239,42.193478],[24.701624,42.198308],[24.700039,42.198272],[24.696816,42.198257],[24.697143,42.196934],[24.697335,42.195745],[24.69759,42.194556],[24.697807,42.193416],[24.697755,42.193371],[24.697682,42.193371],[24.697613,42.193415],[24.696956,42.196924],[24.696621,42.198258],[24.69381,42.198154],[24.694625,42.193245],[24.694286,42.193239]]]},"properties":{"cadreg":142}},{"type":"Feature","geometry":{"type":"Polygon","coordinates":[[[24.695168,42.185449],[24.695253,42.185513],[24.69525,42.185575],[24.69544,42.185715],[24.695371,42.185962],[24.695555,42.186095],[24.694366,42.193147],[24.693216,42.193126],[24.692472,42.193139],[24.692473,42.193231],[24.693216,42.193219],[24.694625,42.193245],[24.694607,42.193352],[24.697613,42.193415],[24.697682,42.193371],[24.697755,42.193371],[24.697807,42.193416],[24.70239,42.193478],[24.704793,42.193542],[24.704859,42.193506],[24.704895,42.193504],[24.704949,42.19355],[24.712127,42.193643],[24.712184,42.193599],[24.712197,42.193464],[24.712162,42.193291],[24.713435,42.184404],[24.713395,42.184407],[24.713387,42.184462],[24.713332,42.184511],[24.712047,42.193316],[24.704846,42.193304],[24.704834,42.193402],[24.704773,42.193399],[24.70478,42.193347],[24.703882,42.193315],[24.70397,42.192803],[24.703583,42.18862],[24.703545,42.188416],[24.703481,42.188341],[24.703539,42.186185],[24.703527,42.185164],[24.703333,42.185175],[24.703294,42.186641],[24.703066,42.188427],[24.703196,42.189913],[24.703316,42.190551],[24.703328,42.190756],[24.703511,42.192138],[24.703751,42.192326],[24.703782,42.192797],[24.703702,42.193132],[24.703718,42.1933],[24.698595,42.193177],[24.699875,42.185391],[24.699814,42.185395],[24.698534,42.193176],[24.694652,42.193084],[24.695922,42.185634],[24.695878,42.185601],[24.695721,42.18561],[24.6953,42.185365],[24.695168,42.185449]]]},"properties":{"cadreg":143}},{"type":"Feature","geometry":{"type":"Polygon","coordinates":[[[24.688957,42.190994],[24.688195,42.191092],[24.688204,42.191406],[24.688963,42.191396],[24.688957,42.190994]]]},"properties":{"cadreg":144}},{"type":"Feature","geometry":{"type":"Polygon","coordinates":[[[24.692333,42.203185],[24.691974,42.203004],[24.692171,42.203653],[24.692183,42.203834],[24.692333,42.203185]]]},"properties":{"cadreg":145}},{"type":"Feature","geometry":{"type":"Polygon","coordinates":[[[24.683911,42.199144],[24.683508,42.200233],[24.683303,42.200874],[24.682831,42.202199],[24.682872,42.20228],[24.682789,42.202325],[24.682741,42.202393],[24.68217,42.204445],[24.68219,42.204539],[24.68229,42.204621],[24.683254,42.204883],[24.6833,42.204927],[24.683135,42.205473],[24.683201,42.205568],[24.684361,42.205904],[24.686545,42.20648],[24.686676,42.206473],[24.686785,42.206418],[24.686837,42.206346],[24.686848,42.206235],[24.687166,42.206289],[24.688241,42.206569],[24.688355,42.206616],[24.689388,42.206711],[24.689413,42.20643],[24.69107,42.206504],[24.691192,42.20647],[24.691252,42.206418],[24.691588,42.205987],[24.691665,42.205864],[24.691717,42.205733],[24.692183,42.203834],[24.692171,42.203653],[24.691977,42.203041],[24.691979,42.202953],[24.693205,42.200028],[24.693333,42.199221],[24.693545,42.198304],[24.693499,42.198204],[24.693447,42.198166],[24.693374,42.198138],[24.692156,42.198014],[24.692133,42.197939],[24.692877,42.196723],[24.692939,42.196597],[24.692985,42.19642],[24.693042,42.195695],[24.69311,42.194663],[24.693061,42.194579],[24.69294,42.194518],[24.692496,42.194517],[24.692472,42.193139],[24.690997,42.193165],[24.691,42.19271],[24.692873,42.192675],[24.692881,42.191771],[24.690108,42.191834],[24.69011,42.191886],[24.689277,42.191904],[24.689271,42.189296],[24.686792,42.190911],[24.685548,42.191691],[24.68549,42.191695],[24.685349,42.191774],[24.685452,42.195589],[24.684669,42.198321],[24.684628,42.19834],[24.684209,42.198263],[24.683911,42.199144]],[[24.688195,42.191092],[24.688957,42.190994],[24.688963,42.191396],[24.688204,42.191406],[24.688195,42.191092]],[[24.689411,42.2061],[24.689416,42.206054],[24.689408,42.206126],[24.689411,42.2061]]]},"properties":{"cadreg":501}},{"type":"Feature","geometry":{"type":"Polygon","coordinates":[[[24.680498,42.190436],[24.676685,42.192052],[24.67668,42.193845],[24.679895,42.194853],[24.680106,42.195037],[24.685293,42.191741],[24.685328,42.191745],[24.685349,42.191774],[24.68549,42.191695],[24.685548,42.191691],[24.686792,42.190911],[24.689271,42.189296],[24.689271,42.189225],[24.689094,42.189071],[24.688948,42.189163],[24.688926,42.18915],[24.685944,42.190999],[24.683225,42.192741],[24.680498,42.190436]]]},"properties":{"cadreg":502}}]}