{"type":"FeatureCollection","features":[{"type":"Feature","geometry":{"type":"Polygon","coordinates":[[[24.668377,42.350677],[24.664906,42.351894],[24.664619,42.351935],[24.665064,42.352057],[24.665296,42.352135],[24.665434,42.352343],[24.665437,42.352514],[24.665352,42.352783],[24.665172,42.353213],[24.665146,42.353409],[24.665367,42.354592],[24.665564,42.354944],[24.665662,42.355168],[24.665742,42.355633],[24.665759,42.355908],[24.665611,42.35638],[24.665316,42.357108],[24.665304,42.357144],[24.665322,42.35721],[24.670115,42.356842],[24.675598,42.356444],[24.675652,42.356374],[24.675384,42.355686],[24.67498,42.354731],[24.674546,42.353851],[24.673116,42.350725],[24.672385,42.349171],[24.672336,42.349185],[24.672367,42.349252],[24.671627,42.349512],[24.671301,42.349612],[24.671229,42.349658],[24.669996,42.350083],[24.668377,42.350677]]]},"properties":{"cadreg":1}},{"type":"Feature","geometry":{"type":"Polygon","coordinates":[[[24.678103,42.34984],[24.676773,42.350713],[24.676274,42.351237],[24.675896,42.351674],[24.675603,42.352165],[24.675271,42.3529],[24.674626,42.353828],[24.674584,42.353927],[24.67498,42.354731],[24.675384,42.355686],[24.675652,42.356374],[24.675598,42.356444],[24.675689,42.356426],[24.675707,42.356398],[24.676179,42.356136],[24.679474,42.354439],[24.679641,42.354403],[24.683164,42.352606],[24.682681,42.351968],[24.682294,42.351236],[24.682078,42.350751],[24.681974,42.350644],[24.681914,42.350621],[24.681619,42.350033],[24.681329,42.349304],[24.680945,42.3485],[24.680679,42.347729],[24.68061,42.347752],[24.680037,42.348108],[24.679642,42.348503],[24.678621,42.349433],[24.678103,42.34984]]]},"properties":{"cadreg":2}},{"type":"Feature","geometry":{"type":"Polygon","coordinates":[[[24.680439,42.347288],[24.680055,42.346448],[24.679574,42.345576],[24.676655,42.346993],[24.672385,42.349171],[24.674584,42.353927],[24.674626,42.353828],[24.675271,42.3529],[24.675603,42.352165],[24.675896,42.351674],[24.676274,42.351237],[24.676773,42.350713],[24.678103,42.34984],[24.678621,42.349433],[24.679642,42.348503],[24.680037,42.348108],[24.68061,42.347752],[24.680439,42.347288]]]},"properties":{"cadreg":3}},{"type":"Feature","geometry":{"type":"Polygon","coordinates":[[[24.670278,42.345139],[24.670309,42.345349],[24.670123,42.345643],[24.669663,42.345855],[24.669287,42.345978],[24.66896,42.346023],[24.668693,42.346226],[24.66854,42.346464],[24.668414,42.346621],[24.668223,42.346962],[24.668173,42.347348],[24.668298,42.347716],[24.668437,42.348007],[24.668645,42.348362],[24.668508,42.348483],[24.668094,42.348429],[24.667721,42.348407],[24.667442,42.348318],[24.667092,42.348274],[24.666871,42.348294],[24.666465,42.348742],[24.665964,42.349162],[24.665425,42.349755],[24.664824,42.350014],[24.664651,42.350068],[24.663244,42.350368],[24.662557,42.350631],[24.661951,42.351001],[24.661641,42.35131],[24.66169,42.35134],[24.661738,42.351906],[24.661695,42.352037],[24.662051,42.352044],[24.663351,42.351954],[24.663793,42.351911],[24.664619,42.351935],[24.664906,42.351894],[24.668377,42.350677],[24.669996,42.350083],[24.671229,42.349658],[24.671301,42.349612],[24.671627,42.349512],[24.672367,42.349252],[24.672081,42.348559],[24.671278,42.346793],[24.670851,42.345886],[24.670372,42.344994],[24.670326,42.345135],[24.670278,42.345139]]]},"properties":{"cadreg":4}},{"type":"Feature","geometry":{"type":"Polygon","coordinates":[[[24.669489,42.340606],[24.668885,42.340988],[24.6685,42.341188],[24.66897,42.342239],[24.6695,42.343264],[24.670255,42.344794],[24.670851,42.345886],[24.672081,42.348559],[24.672336,42.349185],[24.676655,42.346993],[24.679574,42.345576],[24.679166,42.344599],[24.678543,42.343201],[24.67814,42.342355],[24.677499,42.340867],[24.677386,42.34056],[24.677313,42.340532],[24.676259,42.338085],[24.675853,42.337313],[24.673233,42.338693],[24.669489,42.340606]]]},"properties":{"cadreg":5}},{"type":"Feature","geometry":{"type":"Polygon","coordinates":[[[24.680302,42.339828],[24.678019,42.340648],[24.677686,42.340661],[24.677386,42.34056],[24.677499,42.340867],[24.67814,42.342355],[24.678543,42.343201],[24.679166,42.344599],[24.679555,42.345538],[24.680055,42.346448],[24.680439,42.347288],[24.68061,42.347752],[24.680679,42.347729],[24.680945,42.3485],[24.681329,42.349304],[24.681619,42.350033],[24.681914,42.350621],[24.686225,42.343685],[24.686211,42.343657],[24.686176,42.343722],[24.685955,42.343327],[24.685568,42.34248],[24.684682,42.340649],[24.684338,42.339698],[24.683938,42.338759],[24.682255,42.339314],[24.680344,42.339902],[24.680302,42.339828]]]},"properties":{"cadreg":6}},{"type":"Feature","geometry":{"type":"Polygon","coordinates":[[[24.685822,42.338518],[24.683823,42.338376],[24.683753,42.33839],[24.683938,42.338759],[24.684338,42.339698],[24.684682,42.340649],[24.685568,42.34248],[24.685955,42.343327],[24.686176,42.343722],[24.686211,42.343657],[24.686225,42.343685],[24.689439,42.338514],[24.689345,42.338479],[24.689158,42.338452],[24.688316,42.338509],[24.687964,42.338474],[24.687096,42.33849],[24.686312,42.338537],[24.685822,42.338518]]]},"properties":{"cadreg":7}},{"type":"Feature","geometry":{"type":"Polygon","coordinates":[[[24.682016,42.337808],[24.680071,42.339009],[24.679646,42.339156],[24.679775,42.339359],[24.680009,42.339285],[24.680344,42.339902],[24.682255,42.339314],[24.683938,42.338759],[24.683753,42.33839],[24.683578,42.337953],[24.683436,42.337727],[24.683173,42.337737],[24.683155,42.337611],[24.682544,42.337645],[24.682016,42.337808]]]},"properties":{"cadreg":8}},{"type":"Feature","geometry":{"type":"Polygon","coordinates":[[[24.678336,42.336158],[24.678238,42.336402],[24.67833,42.336446],[24.678469,42.336544],[24.678457,42.337035],[24.678272,42.337224],[24.678242,42.337327],[24.678435,42.337292],[24.678658,42.33728],[24.678544,42.33745],[24.678421,42.337546],[24.678041,42.337593],[24.677935,42.337672],[24.677893,42.337968],[24.677699,42.338083],[24.677262,42.337854],[24.67698,42.337821],[24.67658,42.337567],[24.676647,42.337444],[24.676666,42.337314],[24.676493,42.33729],[24.676142,42.337328],[24.676037,42.337293],[24.675935,42.337287],[24.675843,42.337101],[24.675727,42.337096],[24.676259,42.338085],[24.677313,42.340532],[24.677686,42.340661],[24.678019,42.340648],[24.680302,42.339828],[24.680009,42.339285],[24.679775,42.339359],[24.679646,42.339156],[24.680071,42.339009],[24.682016,42.337808],[24.682544,42.337645],[24.682595,42.337642],[24.683155,42.337611],[24.683173,42.337737],[24.683436,42.337727],[24.683141,42.337174],[24.682956,42.336774],[24.682512,42.335749],[24.681847,42.334285],[24.68185,42.33424],[24.67824,42.336042],[24.678336,42.336158]]]},"properties":{"cadreg":9}},{"type":"Feature","geometry":{"type":"Polygon","coordinates":[[[24.685582,42.332303],[24.68185,42.33424],[24.681847,42.334285],[24.683141,42.337174],[24.683436,42.337727],[24.683578,42.337953],[24.683753,42.33839],[24.683823,42.338376],[24.684129,42.338393],[24.685822,42.338518],[24.686312,42.338537],[24.687096,42.33849],[24.687964,42.338474],[24.688316,42.338509],[24.689158,42.338452],[24.689345,42.338479],[24.689381,42.338348],[24.688069,42.336479],[24.686325,42.334123],[24.685667,42.332296],[24.685582,42.332303]]]},"properties":{"cadreg":10}},{"type":"Feature","geometry":{"type":"Polygon","coordinates":[[[24.68725,42.331474],[24.686494,42.331897],[24.685667,42.332296],[24.686325,42.334123],[24.688069,42.336479],[24.689381,42.338348],[24.689345,42.338479],[24.689439,42.338514],[24.691514,42.335181],[24.693903,42.331643],[24.690998,42.331548],[24.68725,42.331474]]]},"properties":{"cadreg":11}},{"type":"Feature","geometry":{"type":"Polygon","coordinates":[[[24.662115,42.34219],[24.662357,42.342698],[24.662659,42.343223],[24.662979,42.343668],[24.663311,42.344083],[24.663604,42.344589],[24.663724,42.345048],[24.66439,42.346165],[24.664501,42.346402],[24.664663,42.346968],[24.664983,42.347642],[24.665113,42.347873],[24.66627,42.347463],[24.665924,42.346751],[24.665923,42.346265],[24.666111,42.346049],[24.666821,42.345767],[24.66709,42.345746],[24.66737,42.345795],[24.667475,42.34569],[24.667662,42.345636],[24.667849,42.345673],[24.668658,42.345243],[24.669816,42.344701],[24.66991,42.344543],[24.669792,42.344253],[24.669359,42.34336],[24.668786,42.342298],[24.668493,42.3416],[24.668431,42.341358],[24.6685,42.341188],[24.668885,42.340988],[24.669489,42.340606],[24.673233,42.338693],[24.675853,42.337313],[24.675727,42.337096],[24.674076,42.337967],[24.674086,42.337843],[24.67397,42.337316],[24.66988,42.3389],[24.667592,42.339811],[24.663437,42.34143],[24.662176,42.341903],[24.662189,42.342171],[24.662115,42.34219]]]},"properties":{"cadreg":12}},{"type":"Feature","geometry":{"type":"Polygon","coordinates":[[[24.660377,42.334697],[24.659597,42.335273],[24.658285,42.336165],[24.657867,42.336503],[24.658491,42.337218],[24.659445,42.338374],[24.659464,42.33899],[24.659459,42.340323],[24.659475,42.340544],[24.65959,42.341162],[24.659957,42.341394],[24.660297,42.341581],[24.66059,42.3417],[24.660989,42.341738],[24.661221,42.341693],[24.661479,42.341681],[24.661947,42.341412],[24.661687,42.339261],[24.661497,42.338075],[24.661425,42.33748],[24.661329,42.336947],[24.661119,42.335369],[24.661055,42.33511],[24.660942,42.3344],[24.66108,42.334341],[24.660948,42.334244],[24.660377,42.334697]]]},"properties":{"cadreg":13}},{"type":"Feature","geometry":{"type":"Polygon","coordinates":[[[24.660942,42.3344],[24.661055,42.33511],[24.661119,42.335369],[24.661329,42.336947],[24.661425,42.33748],[24.661497,42.338075],[24.661687,42.339261],[24.661947,42.341412],[24.662045,42.342029],[24.662115,42.34219],[24.662189,42.342171],[24.662176,42.341903],[24.663437,42.34143],[24.667592,42.339811],[24.66988,42.3389],[24.67397,42.337316],[24.674086,42.337843],[24.674076,42.337967],[24.675727,42.337096],[24.675549,42.33678],[24.675292,42.33666],[24.674184,42.336476],[24.673966,42.336401],[24.673803,42.336154],[24.673331,42.33486],[24.673273,42.33448],[24.673146,42.332992],[24.67291,42.332423],[24.672421,42.331949],[24.672234,42.3318],[24.671277,42.330635],[24.671402,42.330586],[24.672617,42.330287],[24.672597,42.33024],[24.671369,42.330548],[24.670215,42.33104],[24.668987,42.329928],[24.668153,42.33116],[24.664384,42.33175],[24.663462,42.332371],[24.660948,42.334244],[24.66108,42.334341],[24.660942,42.3344]]]},"properties":{"cadreg":14}},{"type":"Feature","geometry":{"type":"Polygon","coordinates":[[[24.657017,42.333842],[24.656171,42.334311],[24.65646,42.334674],[24.657029,42.335467],[24.657529,42.336115],[24.657867,42.336503],[24.658285,42.336165],[24.659107,42.335616],[24.660064,42.334939],[24.660948,42.334244],[24.663462,42.332371],[24.664384,42.33175],[24.664588,42.331716],[24.664763,42.330658],[24.665066,42.329262],[24.665198,42.328844],[24.665009,42.328986],[24.663613,42.329863],[24.662587,42.330428],[24.661194,42.331299],[24.659831,42.332089],[24.657017,42.333842]]]},"properties":{"cadreg":15}},{"type":"Feature","geometry":{"type":"Polygon","coordinates":[[[24.663948,42.326553],[24.663584,42.326553],[24.663286,42.326614],[24.663162,42.326678],[24.661637,42.327808],[24.660813,42.328336],[24.658999,42.329712],[24.658864,42.329793],[24.657584,42.330383],[24.655955,42.331207],[24.654447,42.332026],[24.656171,42.334311],[24.657017,42.333842],[24.659831,42.332089],[24.661194,42.331299],[24.662587,42.330428],[24.663613,42.329863],[24.665009,42.328986],[24.665084,42.328584],[24.66506,42.328485],[24.66398,42.326758],[24.663948,42.326553]]]},"properties":{"cadreg":16}},{"type":"Feature","geometry":{"type":"Polygon","coordinates":[[[24.666611,42.327757],[24.665953,42.326885],[24.666289,42.326908],[24.666279,42.326815],[24.665947,42.326795],[24.664662,42.326622],[24.663948,42.326553],[24.66398,42.326758],[24.66506,42.328485],[24.665084,42.328584],[24.665009,42.328986],[24.66587,42.328331],[24.666541,42.32779],[24.666611,42.327757]]]},"properties":{"cadreg":17}},{"type":"Feature","geometry":{"type":"Polygon","coordinates":[[[24.666611,42.327757],[24.666541,42.32779],[24.66587,42.328331],[24.665198,42.328844],[24.665066,42.329262],[24.664763,42.330658],[24.664588,42.331716],[24.668153,42.33116],[24.668987,42.329928],[24.666661,42.327822],[24.666611,42.327757]]]},"properties":{"cadreg":18}},{"type":"Feature","geometry":{"type":"Polygon","coordinates":[[[24.67362,42.329983],[24.67433,42.331525],[24.672348,42.331785],[24.672281,42.331702],[24.672753,42.330625],[24.672617,42.330287],[24.671402,42.330586],[24.671277,42.330635],[24.672234,42.3318],[24.672421,42.331949],[24.67291,42.332423],[24.673146,42.332992],[24.673241,42.333993],[24.674595,42.333251],[24.675772,42.332492],[24.678577,42.330573],[24.680353,42.329413],[24.682149,42.32819],[24.68193,42.328054],[24.680642,42.328437],[24.679425,42.328678],[24.679091,42.328824],[24.67909,42.328776],[24.678996,42.328871],[24.674916,42.329658],[24.67362,42.329983]]]},"properties":{"cadreg":19}},{"type":"Feature","geometry":{"type":"Polygon","coordinates":[[[24.682149,42.32819],[24.680353,42.329413],[24.678577,42.330573],[24.675772,42.332492],[24.674595,42.333251],[24.673241,42.333993],[24.673273,42.33448],[24.673331,42.33486],[24.673803,42.336154],[24.673966,42.336401],[24.674184,42.336476],[24.675292,42.33666],[24.675549,42.33678],[24.675727,42.337096],[24.675843,42.337101],[24.675864,42.337137],[24.677193,42.336429],[24.676401,42.335465],[24.676147,42.335609],[24.676046,42.335739],[24.67594,42.33568],[24.675961,42.335549],[24.675842,42.33556],[24.67583,42.335544],[24.675987,42.33536],[24.676112,42.335089],[24.675999,42.33477],[24.676,42.334425],[24.676326,42.334222],[24.676848,42.334128],[24.677296,42.334216],[24.677893,42.334227],[24.680485,42.33335],[24.682213,42.33261],[24.682873,42.332453],[24.68344,42.33226],[24.683418,42.332183],[24.683481,42.332077],[24.683776,42.332062],[24.68475,42.332063],[24.685187,42.332046],[24.685492,42.331895],[24.685804,42.331241],[24.685676,42.330788],[24.685615,42.330769],[24.685062,42.330274],[24.683425,42.328897],[24.682435,42.328139],[24.682443,42.328093],[24.682204,42.328096],[24.682041,42.328131],[24.682149,42.32819]]]},"properties":{"cadreg":20}},{"type":"Feature","geometry":{"type":"Polygon","coordinates":[[[24.68946,42.328988],[24.689252,42.329038],[24.68663,42.330097],[24.686335,42.330197],[24.686221,42.330249],[24.685689,42.330663],[24.685615,42.330769],[24.685676,42.330788],[24.685804,42.331241],[24.685492,42.331895],[24.685475,42.332088],[24.685582,42.332303],[24.685667,42.332296],[24.686494,42.331897],[24.68725,42.331474],[24.690998,42.331548],[24.693903,42.331643],[24.694035,42.331446],[24.694967,42.330401],[24.69506,42.329163],[24.695214,42.329126],[24.694855,42.329092],[24.692925,42.32904],[24.692812,42.329025],[24.690428,42.328984],[24.690282,42.32897],[24.690199,42.328942],[24.690206,42.329007],[24.68946,42.328988]]]},"properties":{"cadreg":21}},{"type":"Feature","geometry":{"type":"Polygon","coordinates":[[[24.682443,42.328093],[24.682435,42.328139],[24.683425,42.328897],[24.685062,42.330274],[24.685615,42.330769],[24.685689,42.330663],[24.686221,42.330249],[24.68663,42.330097],[24.689252,42.329038],[24.68946,42.328988],[24.690206,42.329007],[24.689986,42.32812],[24.688365,42.328118],[24.686596,42.32809],[24.684885,42.328091],[24.683476,42.328025],[24.68193,42.328054],[24.682041,42.328131],[24.682204,42.328096],[24.682443,42.328093]]]},"properties":{"cadreg":22}},{"type":"Feature","geometry":{"type":"Polygon","coordinates":[[[24.681259,42.323526],[24.680824,42.32359],[24.680802,42.324066],[24.681022,42.32416],[24.680962,42.325913],[24.680871,42.325925],[24.680868,42.326232],[24.678954,42.326341],[24.678996,42.328871],[24.67909,42.328776],[24.679091,42.328824],[24.679425,42.328678],[24.680642,42.328437],[24.68193,42.328054],[24.683476,42.328025],[24.684812,42.328087],[24.684797,42.32795],[24.684704,42.327814],[24.684556,42.32621],[24.68439,42.3261],[24.684373,42.325832],[24.684405,42.325122],[24.684701,42.324951],[24.684723,42.324818],[24.684727,42.324759],[24.684586,42.324661],[24.684565,42.324424],[24.684566,42.323953],[24.684629,42.323802],[24.684634,42.323256],[24.684675,42.322742],[24.682084,42.323346],[24.681259,42.323526]]]},"properties":{"cadreg":23}},{"type":"Feature","geometry":{"type":"Polygon","coordinates":[[[24.684634,42.323256],[24.684629,42.323802],[24.684566,42.323953],[24.684565,42.324424],[24.684586,42.324661],[24.684727,42.324759],[24.684723,42.324818],[24.684701,42.324951],[24.684405,42.325122],[24.684373,42.325832],[24.68439,42.3261],[24.684556,42.32621],[24.684704,42.327814],[24.684797,42.32795],[24.684812,42.328087],[24.689986,42.32812],[24.688372,42.321852],[24.687501,42.322079],[24.686075,42.322388],[24.684675,42.322742],[24.684634,42.323256]]]},"properties":{"cadreg":24}},{"type":"Feature","geometry":{"type":"Polygon","coordinates":[[[24.688372,42.321852],[24.690199,42.328942],[24.690282,42.32897],[24.690428,42.328984],[24.692812,42.329025],[24.692925,42.32904],[24.692502,42.327514],[24.691094,42.322674],[24.69073,42.321324],[24.688372,42.321852]]]},"properties":{"cadreg":25}},{"type":"Feature","geometry":{"type":"Polygon","coordinates":[[[24.69073,42.321324],[24.691094,42.322674],[24.692502,42.327514],[24.692925,42.32904],[24.694309,42.329071],[24.694855,42.329092],[24.695214,42.329126],[24.69681,42.328748],[24.696286,42.326917],[24.694975,42.322084],[24.69449,42.320437],[24.69073,42.321324]]]},"properties":{"cadreg":26}},{"type":"Feature","geometry":{"type":"Polygon","coordinates":[[[24.694829,42.321594],[24.696445,42.327495],[24.69681,42.328748],[24.699919,42.328012],[24.698873,42.324555],[24.698316,42.322823],[24.697391,42.319807],[24.696021,42.320148],[24.694508,42.3205],[24.694829,42.321594]]]},"properties":{"cadreg":27}},{"type":"Feature","geometry":{"type":"Polygon","coordinates":[[[24.697391,42.319807],[24.698316,42.322823],[24.698873,42.324555],[24.699919,42.328012],[24.701807,42.327565],[24.703187,42.327142],[24.700854,42.318921],[24.700656,42.318962],[24.700678,42.319038],[24.697391,42.319807]]]},"properties":{"cadreg":28}},{"type":"Feature","geometry":{"type":"Polygon","coordinates":[[[24.645964,42.321697],[24.644572,42.32123],[24.644359,42.321142],[24.644248,42.321119],[24.643633,42.321648],[24.642963,42.322284],[24.640389,42.324571],[24.639874,42.325054],[24.639695,42.3252],[24.638394,42.32643],[24.636731,42.327921],[24.643807,42.329972],[24.643853,42.329929],[24.644148,42.329768],[24.646839,42.328367],[24.646754,42.32829],[24.648046,42.327594],[24.648999,42.327122],[24.64923,42.326987],[24.649388,42.326737],[24.650452,42.326183],[24.650845,42.325808],[24.65204,42.324604],[24.652858,42.323848],[24.649879,42.322912],[24.646039,42.321738],[24.645985,42.32172],[24.645964,42.321697]]]},"properties":{"cadreg":29}},{"type":"Feature","geometry":{"type":"Polygon","coordinates":[[[24.649197,42.327003],[24.648999,42.327122],[24.648046,42.327594],[24.646754,42.32829],[24.652196,42.333096],[24.654401,42.331964],[24.654447,42.332026],[24.655955,42.331207],[24.656303,42.331038],[24.655279,42.330296],[24.654131,42.329588],[24.653261,42.328951],[24.652538,42.328464],[24.651572,42.329021],[24.651441,42.328725],[24.651204,42.328417],[24.651156,42.328242],[24.651235,42.328127],[24.651477,42.32789],[24.651462,42.327726],[24.650201,42.326728],[24.650115,42.326682],[24.649747,42.326745],[24.649197,42.327003]]]},"properties":{"cadreg":30}},{"type":"Feature","geometry":{"type":"Polygon","coordinates":[[[24.655377,42.326099],[24.655107,42.326156],[24.654662,42.326176],[24.654039,42.326293],[24.653152,42.326513],[24.652576,42.326802],[24.65161,42.327864],[24.652347,42.328335],[24.653261,42.328951],[24.654131,42.329588],[24.655279,42.330296],[24.656303,42.331038],[24.657584,42.330383],[24.658864,42.329793],[24.658999,42.329712],[24.660813,42.328336],[24.661637,42.327808],[24.66295,42.326826],[24.66283,42.326695],[24.662699,42.326648],[24.661706,42.326532],[24.66133,42.326505],[24.66095,42.326448],[24.659664,42.326307],[24.65929,42.326293],[24.658168,42.326296],[24.65757,42.326212],[24.657385,42.326181],[24.656862,42.326042],[24.656639,42.32596],[24.656309,42.325805],[24.656269,42.325801],[24.655957,42.325858],[24.655377,42.326099]]]},"properties":{"cadreg":31}},{"type":"Feature","geometry":{"type":"Polygon","coordinates":[[[24.656441,42.325646],[24.656401,42.325629],[24.656262,42.325635],[24.656716,42.325855],[24.656928,42.325932],[24.657373,42.326052],[24.657603,42.326091],[24.658072,42.326138],[24.659042,42.326139],[24.659775,42.32619],[24.662723,42.326527],[24.662915,42.326559],[24.663165,42.326677],[24.663286,42.326614],[24.663584,42.326553],[24.663948,42.326553],[24.663996,42.325447],[24.664009,42.324382],[24.662598,42.323891],[24.662427,42.323859],[24.662287,42.32385],[24.660968,42.32401],[24.658939,42.324588],[24.656439,42.325379],[24.656441,42.325646]]]},"properties":{"cadreg":32}},{"type":"Feature","geometry":{"type":"Polygon","coordinates":[[[24.666124,42.324608],[24.664653,42.324571],[24.664105,42.324485],[24.664009,42.324382],[24.663996,42.325447],[24.663948,42.326553],[24.664662,42.326622],[24.665947,42.326795],[24.666279,42.326815],[24.666215,42.326029],[24.66638,42.325952],[24.666124,42.324608]]]},"properties":{"cadreg":33}},{"type":"Feature","geometry":{"type":"Polygon","coordinates":[[[24.652874,42.31348],[24.652791,42.313407],[24.651464,42.314599],[24.650735,42.315289],[24.649726,42.316188],[24.64863,42.317219],[24.648062,42.317698],[24.646338,42.319278],[24.644361,42.321019],[24.651803,42.323292],[24.65184,42.323305],[24.651833,42.32333],[24.653065,42.32375],[24.653601,42.323908],[24.653976,42.324063],[24.654709,42.322239],[24.65477,42.322252],[24.65491,42.321971],[24.654887,42.321926],[24.654948,42.320699],[24.655389,42.315551],[24.655468,42.315125],[24.655002,42.314592],[24.654806,42.31467],[24.654647,42.314578],[24.653699,42.314121],[24.653463,42.313857],[24.652874,42.31348]]]},"properties":{"cadreg":34}},{"type":"Feature","geometry":{"type":"Polygon","coordinates":[[[24.653976,42.324063],[24.653601,42.323908],[24.653065,42.32375],[24.651833,42.32333],[24.65184,42.323305],[24.651803,42.323292],[24.644361,42.321019],[24.644248,42.321119],[24.644359,42.321142],[24.644572,42.32123],[24.645964,42.321697],[24.645985,42.32172],[24.646039,42.321738],[24.649879,42.322912],[24.652858,42.323848],[24.65204,42.324604],[24.650845,42.325808],[24.650452,42.326183],[24.649388,42.326737],[24.64923,42.326987],[24.649747,42.326745],[24.650115,42.326682],[24.650201,42.326728],[24.651462,42.327726],[24.651477,42.32789],[24.651235,42.328127],[24.651156,42.328242],[24.651204,42.328417],[24.651441,42.328725],[24.651572,42.329021],[24.652538,42.328464],[24.65161,42.327864],[24.652576,42.326802],[24.653152,42.326513],[24.654039,42.326293],[24.654662,42.326176],[24.655107,42.326156],[24.655377,42.326099],[24.655957,42.325858],[24.656269,42.325801],[24.656309,42.325805],[24.656639,42.32596],[24.657094,42.326109],[24.657385,42.326181],[24.658168,42.326296],[24.65929,42.326293],[24.659664,42.326307],[24.66047,42.326393],[24.66133,42.326505],[24.661706,42.326532],[24.662699,42.326648],[24.66283,42.326695],[24.66295,42.326826],[24.663165,42.326677],[24.662915,42.326559],[24.662723,42.326527],[24.659775,42.32619],[24.659042,42.326139],[24.658072,42.326138],[24.657603,42.326091],[24.657373,42.326052],[24.656928,42.325932],[24.656716,42.325855],[24.656262,42.325635],[24.656401,42.325629],[24.656441,42.325646],[24.656439,42.325379],[24.658939,42.324588],[24.660968,42.32401],[24.662287,42.32385],[24.662427,42.323859],[24.662598,42.323891],[24.660296,42.323014],[24.660224,42.322893],[24.660226,42.322787],[24.660416,42.322467],[24.660345,42.322459],[24.660204,42.322495],[24.658297,42.322389],[24.656791,42.322289],[24.655057,42.322039],[24.654931,42.321921],[24.65477,42.322252],[24.654709,42.322239],[24.653976,42.324063]]]},"properties":{"cadreg":35}},{"type":"Feature","geometry":{"type":"Polygon","coordinates":[[[24.664328,42.321482],[24.663566,42.322541],[24.663438,42.322611],[24.663289,42.32265],[24.662784,42.32269],[24.662322,42.322627],[24.661228,42.322531],[24.660528,42.322588],[24.66032,42.32262],[24.660226,42.322787],[24.660224,42.322893],[24.660296,42.323014],[24.662598,42.323891],[24.664009,42.324382],[24.664105,42.324485],[24.664653,42.324571],[24.665823,42.324595],[24.665159,42.32457],[24.665166,42.323674],[24.664576,42.323328],[24.664853,42.322956],[24.664669,42.322916],[24.66463,42.322688],[24.664253,42.322599],[24.664095,42.322628],[24.664682,42.321595],[24.664328,42.321482]]]},"properties":{"cadreg":36}},{"type":"Feature","geometry":{"type":"Polygon","coordinates":[[[24.653478,42.312771],[24.652791,42.313407],[24.652874,42.31348],[24.653463,42.313857],[24.653699,42.314121],[24.654647,42.314578],[24.654806,42.31467],[24.655002,42.314592],[24.655468,42.315125],[24.655506,42.314296],[24.655473,42.314267],[24.656174,42.313899],[24.653557,42.312829],[24.653478,42.312771]]]},"properties":{"cadreg":37}},{"type":"Feature","geometry":{"type":"Polygon","coordinates":[[[24.660651,42.315591],[24.657107,42.314263],[24.656259,42.313907],[24.656221,42.31392],[24.656174,42.313899],[24.655473,42.314267],[24.655506,42.314296],[24.655468,42.315125],[24.655389,42.315551],[24.654948,42.320699],[24.654887,42.321926],[24.65491,42.321971],[24.654931,42.321921],[24.655057,42.322039],[24.656791,42.322289],[24.658297,42.322389],[24.660204,42.322495],[24.660345,42.322459],[24.660416,42.322467],[24.661172,42.321303],[24.661754,42.320477],[24.663041,42.31836],[24.663998,42.316842],[24.662795,42.316378],[24.660651,42.315591]]]},"properties":{"cadreg":38}},{"type":"Feature","geometry":{"type":"Polygon","coordinates":[[[24.664131,42.316902],[24.663998,42.316842],[24.663041,42.31836],[24.661754,42.320477],[24.661172,42.321303],[24.66032,42.32262],[24.660528,42.322588],[24.661228,42.322531],[24.662322,42.322627],[24.662784,42.32269],[24.663289,42.32265],[24.663438,42.322611],[24.663566,42.322541],[24.664328,42.321482],[24.664682,42.321595],[24.664778,42.321421],[24.668133,42.317871],[24.664131,42.316902]]]},"properties":{"cadreg":39}},{"type":"Feature","geometry":{"type":"Polygon","coordinates":[[[24.66483,42.321496],[24.665537,42.321293],[24.666436,42.320724],[24.666428,42.320329],[24.667557,42.31973],[24.668338,42.317657],[24.664778,42.321421],[24.664095,42.322628],[24.664253,42.322599],[24.66463,42.322688],[24.664885,42.322363],[24.665117,42.322126],[24.664987,42.322082],[24.66483,42.321496]]]},"properties":{"cadreg":40}},{"type":"Feature","geometry":{"type":"Polygon","coordinates":[[[24.659107,42.309073],[24.658176,42.308768],[24.657998,42.308658],[24.657302,42.309309],[24.65579,42.310632],[24.6553,42.311122],[24.655023,42.311357],[24.654897,42.311487],[24.653478,42.312771],[24.653557,42.312829],[24.656221,42.31392],[24.656259,42.313907],[24.657107,42.314263],[24.660651,42.315591],[24.662795,42.316378],[24.663954,42.316818],[24.664085,42.31689],[24.664484,42.316175],[24.668823,42.314116],[24.669753,42.313641],[24.670073,42.313388],[24.670214,42.313092],[24.670067,42.313049],[24.668328,42.312395],[24.666022,42.311572],[24.662995,42.310512],[24.660232,42.309519],[24.659121,42.309143],[24.659107,42.309073]]]},"properties":{"cadreg":41}},{"type":"Feature","geometry":{"type":"Polygon","coordinates":[[[24.670073,42.313388],[24.669753,42.313641],[24.668823,42.314116],[24.664484,42.316175],[24.664085,42.31689],[24.668133,42.317871],[24.668338,42.317657],[24.668354,42.317612],[24.668382,42.317609],[24.67023,42.315647],[24.670134,42.315573],[24.6701,42.315096],[24.670073,42.313388]]]},"properties":{"cadreg":42}},{"type":"Feature","geometry":{"type":"Polygon","coordinates":[[[24.670738,42.315484],[24.670337,42.31556],[24.67023,42.315647],[24.668382,42.317609],[24.67007,42.317553],[24.670099,42.317663],[24.671029,42.317462],[24.671085,42.317292],[24.670682,42.315608],[24.674437,42.314905],[24.674421,42.314863],[24.670748,42.315529],[24.670738,42.315484]]]},"properties":{"cadreg":43}},{"type":"Feature","geometry":{"type":"Polygon","coordinates":[[[24.665254,42.30204],[24.664188,42.303016],[24.664061,42.303162],[24.660895,42.306034],[24.660528,42.306349],[24.659639,42.30718],[24.657998,42.308658],[24.658176,42.308768],[24.659107,42.309073],[24.659121,42.309143],[24.660232,42.309519],[24.662995,42.310512],[24.666022,42.311572],[24.668328,42.312395],[24.670067,42.313049],[24.670214,42.313092],[24.67032,42.312866],[24.671404,42.310137],[24.672134,42.308384],[24.672719,42.307078],[24.673391,42.305513],[24.673244,42.305563],[24.673183,42.305548],[24.673156,42.305405],[24.673054,42.305129],[24.672766,42.304824],[24.672612,42.304726],[24.6717,42.304273],[24.670625,42.303764],[24.67046,42.303696],[24.670388,42.303739],[24.669874,42.3035],[24.668719,42.303037],[24.665687,42.301734],[24.665622,42.301726],[24.665254,42.30204]]]},"properties":{"cadreg":44}},{"type":"Feature","geometry":{"type":"Polygon","coordinates":[[[24.673391,42.305513],[24.672719,42.307078],[24.672134,42.308384],[24.671404,42.310137],[24.67032,42.312866],[24.670073,42.313388],[24.6701,42.315096],[24.670134,42.315573],[24.67023,42.315647],[24.670337,42.31556],[24.670738,42.315484],[24.670432,42.314214],[24.67127,42.314255],[24.675424,42.31439],[24.675399,42.314593],[24.676422,42.31439],[24.676354,42.313707],[24.677134,42.312996],[24.677282,42.312799],[24.677681,42.312096],[24.67874,42.309985],[24.679194,42.309228],[24.679765,42.308038],[24.679736,42.307984],[24.680127,42.307178],[24.680325,42.306562],[24.676265,42.306067],[24.676287,42.30596],[24.673802,42.305665],[24.673602,42.305571],[24.673391,42.305513]]]},"properties":{"cadreg":45}},{"type":"Feature","geometry":{"type":"Polygon","coordinates":[[[24.680112,42.307204],[24.679736,42.307984],[24.679765,42.308038],[24.679226,42.309165],[24.680726,42.309382],[24.682047,42.309626],[24.682788,42.309589],[24.683543,42.309527],[24.683922,42.309515],[24.68553,42.310009],[24.686146,42.310184],[24.686537,42.310227],[24.686863,42.310371],[24.686803,42.310405],[24.686832,42.310418],[24.686896,42.310383],[24.687005,42.310184],[24.686968,42.310162],[24.686687,42.309803],[24.686587,42.309788],[24.686482,42.309703],[24.686431,42.309565],[24.686265,42.30948],[24.686138,42.309473],[24.685961,42.309424],[24.685262,42.308912],[24.684689,42.30842],[24.684406,42.308113],[24.683893,42.307425],[24.683793,42.307318],[24.683679,42.307229],[24.683608,42.307142],[24.683669,42.306941],[24.680992,42.306629],[24.680325,42.306562],[24.680112,42.307204]]]},"properties":{"cadreg":46}},{"type":"Feature","geometry":{"type":"Polygon","coordinates":[[[24.67874,42.309985],[24.677681,42.312096],[24.677303,42.312763],[24.681865,42.312692],[24.684825,42.312785],[24.685577,42.311933],[24.686832,42.310418],[24.686803,42.310405],[24.686863,42.310371],[24.686537,42.310227],[24.686146,42.310184],[24.68553,42.310009],[24.683922,42.309515],[24.683543,42.309527],[24.682788,42.309589],[24.682047,42.309626],[24.680726,42.309382],[24.679226,42.309165],[24.67874,42.309985]]]},"properties":{"cadreg":47}},{"type":"Feature","geometry":{"type":"Polygon","coordinates":[[[24.677047,42.313761],[24.677256,42.313781],[24.677304,42.313777],[24.6773,42.313735],[24.678844,42.31366],[24.678822,42.312881],[24.67754,42.312834],[24.67755,42.312763],[24.677303,42.312763],[24.677134,42.312996],[24.676354,42.313707],[24.676422,42.31439],[24.675399,42.314593],[24.675424,42.31439],[24.67127,42.314255],[24.670432,42.314214],[24.670748,42.315529],[24.674421,42.314863],[24.674644,42.315491],[24.674908,42.316459],[24.675233,42.316418],[24.675303,42.316724],[24.675509,42.317129],[24.676639,42.316809],[24.676019,42.314691],[24.675969,42.314666],[24.675929,42.31458],[24.676627,42.314397],[24.676739,42.314347],[24.677047,42.313761]]]},"properties":{"cadreg":48}},{"type":"Feature","geometry":{"type":"Polygon","coordinates":[[[24.676019,42.314691],[24.676639,42.316809],[24.675509,42.317129],[24.675564,42.317242],[24.676837,42.317065],[24.677286,42.317954],[24.680562,42.31807],[24.680587,42.318041],[24.680389,42.318034],[24.683761,42.313929],[24.684453,42.313161],[24.684825,42.312785],[24.681865,42.312692],[24.67755,42.312763],[24.67754,42.312834],[24.678822,42.312881],[24.678844,42.31366],[24.6773,42.313735],[24.677304,42.313777],[24.677256,42.313781],[24.677047,42.313761],[24.676739,42.314347],[24.676627,42.314397],[24.675929,42.31458],[24.675969,42.314666],[24.676019,42.314691]]]},"properties":{"cadreg":49}},{"type":"Feature","geometry":{"type":"Polygon","coordinates":[[[24.686896,42.310383],[24.686832,42.310418],[24.685577,42.311933],[24.684825,42.312785],[24.684453,42.313161],[24.683761,42.313929],[24.680389,42.318034],[24.680587,42.318041],[24.679571,42.319242],[24.680104,42.319232],[24.680172,42.320404],[24.679906,42.320422],[24.680039,42.32116],[24.679647,42.321496],[24.680184,42.321912],[24.680513,42.32177],[24.680914,42.32155],[24.680908,42.322162],[24.681506,42.32204],[24.681637,42.3222],[24.682356,42.322057],[24.682501,42.322412],[24.682529,42.322414],[24.682705,42.322967],[24.681152,42.323322],[24.680896,42.323362],[24.680894,42.32358],[24.681259,42.323526],[24.682084,42.323346],[24.684506,42.322777],[24.684741,42.322733],[24.686075,42.322388],[24.687501,42.322079],[24.688319,42.321863],[24.690287,42.321425],[24.689765,42.320181],[24.691789,42.319644],[24.692341,42.32095],[24.694422,42.320454],[24.694261,42.320289],[24.693603,42.31846],[24.693201,42.317883],[24.692759,42.31753],[24.691772,42.316547],[24.689355,42.31726],[24.68925,42.316773],[24.689488,42.316241],[24.688322,42.312843],[24.688261,42.312844],[24.688261,42.312797],[24.688084,42.312358],[24.687098,42.310377],[24.687095,42.310334],[24.687005,42.310184],[24.686896,42.310383]]]},"properties":{"cadreg":50}},{"type":"Feature","geometry":{"type":"Polygon","coordinates":[[[24.689765,42.320181],[24.690287,42.321425],[24.692341,42.32095],[24.691789,42.319644],[24.689765,42.320181]]]},"properties":{"cadreg":52}},{"type":"Feature","geometry":{"type":"Polygon","coordinates":[[[24.694261,42.320289],[24.694422,42.320454],[24.69449,42.320437],[24.694508,42.3205],[24.696021,42.320148],[24.697391,42.319807],[24.700678,42.319038],[24.700656,42.318962],[24.700854,42.318921],[24.700817,42.318759],[24.710929,42.316407],[24.712277,42.311966],[24.712111,42.311977],[24.712177,42.311819],[24.708455,42.312495],[24.703758,42.313588],[24.699348,42.314683],[24.69678,42.315259],[24.694931,42.315719],[24.694616,42.315878],[24.694406,42.315864],[24.693657,42.315992],[24.691772,42.316547],[24.692759,42.31753],[24.693201,42.317883],[24.693603,42.31846],[24.694261,42.320289]]]},"properties":{"cadreg":53}},{"type":"Feature","geometry":{"type":"Polygon","coordinates":[[[24.690712,42.312826],[24.688322,42.312843],[24.689488,42.316241],[24.68925,42.316773],[24.689355,42.31726],[24.693657,42.315992],[24.694406,42.315864],[24.694616,42.315878],[24.694931,42.315719],[24.69678,42.315259],[24.699267,42.314702],[24.698968,42.313898],[24.6983,42.312568],[24.6961,42.313081],[24.695906,42.312829],[24.694363,42.312837],[24.690712,42.312826]]]},"properties":{"cadreg":54}},{"type":"Feature","geometry":{"type":"Polygon","coordinates":[[[24.701024,42.307791],[24.701072,42.308369],[24.701033,42.308542],[24.701048,42.30897],[24.700985,42.309864],[24.700568,42.311951],[24.7006,42.312031],[24.6983,42.312568],[24.698968,42.313898],[24.699267,42.314702],[24.703758,42.313588],[24.701208,42.307741],[24.701066,42.307767],[24.701024,42.307791]]]},"properties":{"cadreg":55}},{"type":"Feature","geometry":{"type":"Polygon","coordinates":[[[24.701208,42.307741],[24.703758,42.313588],[24.708455,42.312495],[24.712117,42.311828],[24.712143,42.311765],[24.711644,42.311853],[24.711463,42.31143],[24.711297,42.311461],[24.710617,42.309911],[24.710492,42.309882],[24.710343,42.309118],[24.709963,42.308643],[24.709362,42.308442],[24.705319,42.308274],[24.702549,42.307931],[24.701208,42.307741]]]},"properties":{"cadreg":56}},{"type":"Feature","geometry":{"type":"Polygon","coordinates":[[[24.666654,42.296497],[24.666283,42.29825],[24.666096,42.299332],[24.666053,42.299506],[24.6659,42.29991],[24.665903,42.300087],[24.665866,42.300291],[24.665806,42.300492],[24.665793,42.300636],[24.665751,42.300703],[24.665601,42.301433],[24.665595,42.301561],[24.665623,42.301653],[24.665622,42.301726],[24.666014,42.301809],[24.666163,42.301695],[24.666973,42.30075],[24.66744,42.30044],[24.668059,42.30022],[24.669161,42.299935],[24.66979,42.299667],[24.670355,42.2992],[24.671256,42.298367],[24.673663,42.297614],[24.673788,42.297528],[24.673811,42.297468],[24.669962,42.296927],[24.666654,42.296497]]]},"properties":{"cadreg":57}},{"type":"Feature","geometry":{"type":"Polygon","coordinates":[[[24.671256,42.298367],[24.670355,42.2992],[24.66979,42.299667],[24.669161,42.299935],[24.668059,42.30022],[24.66744,42.30044],[24.666973,42.30075],[24.666163,42.301695],[24.666014,42.301809],[24.665687,42.301734],[24.668719,42.303037],[24.669874,42.3035],[24.670388,42.303739],[24.67046,42.303696],[24.670625,42.303764],[24.6717,42.304273],[24.672612,42.304726],[24.672766,42.304824],[24.673054,42.305129],[24.673156,42.305405],[24.673183,42.305548],[24.673244,42.305563],[24.673391,42.305513],[24.673899,42.304447],[24.674538,42.303015],[24.675052,42.301935],[24.675731,42.29995],[24.676726,42.297969],[24.676881,42.298003],[24.676895,42.297951],[24.674989,42.297628],[24.673811,42.297468],[24.673788,42.297528],[24.673663,42.297614],[24.671256,42.298367]]]},"properties":{"cadreg":58}},{"type":"Feature","geometry":{"type":"Polygon","coordinates":[[[24.676726,42.297969],[24.675731,42.29995],[24.675052,42.301935],[24.674538,42.303015],[24.673899,42.304447],[24.673391,42.305513],[24.673602,42.305571],[24.673802,42.305665],[24.676287,42.30596],[24.676265,42.306067],[24.680095,42.306539],[24.680992,42.306629],[24.683813,42.306953],[24.68395,42.306821],[24.687266,42.302429],[24.689396,42.299714],[24.683736,42.298974],[24.676895,42.297951],[24.676881,42.298003],[24.676726,42.297969]]]},"properties":{"cadreg":59}},{"type":"Feature","geometry":{"type":"Polygon","coordinates":[[[24.67007,42.317553],[24.668354,42.317612],[24.667557,42.31973],[24.666428,42.320329],[24.666436,42.320724],[24.665537,42.321293],[24.66483,42.321496],[24.664987,42.322082],[24.665117,42.322126],[24.664885,42.322363],[24.66463,42.322688],[24.664669,42.322916],[24.664853,42.322956],[24.664576,42.323328],[24.665166,42.323674],[24.665159,42.32457],[24.666124,42.324608],[24.66638,42.325952],[24.666215,42.326029],[24.666289,42.326908],[24.665953,42.326885],[24.666661,42.327822],[24.670215,42.33104],[24.671369,42.330548],[24.672597,42.33024],[24.672753,42.330625],[24.672281,42.331702],[24.672348,42.331785],[24.67433,42.331525],[24.67362,42.329983],[24.674916,42.329658],[24.678996,42.328871],[24.678954,42.326341],[24.680868,42.326232],[24.680871,42.325925],[24.680962,42.325913],[24.681022,42.32416],[24.680802,42.324066],[24.680824,42.32359],[24.680894,42.32358],[24.680896,42.323362],[24.680412,42.323455],[24.679848,42.322384],[24.680908,42.322162],[24.680914,42.32155],[24.680513,42.32177],[24.680184,42.321912],[24.679647,42.321496],[24.680039,42.32116],[24.679906,42.320422],[24.680172,42.320404],[24.680104,42.319232],[24.679571,42.319242],[24.680562,42.31807],[24.677286,42.317954],[24.676837,42.317065],[24.675564,42.317242],[24.675303,42.316724],[24.675233,42.316418],[24.674908,42.316459],[24.674644,42.315491],[24.674437,42.314905],[24.670682,42.315608],[24.671085,42.317292],[24.671029,42.317462],[24.670099,42.317663],[24.67007,42.317553]]]},"properties":{"cadreg":501}},{"type":"Feature","geometry":{"type":"Polygon","coordinates":[[[24.687266,42.302429],[24.68395,42.306821],[24.683813,42.306953],[24.683669,42.306941],[24.683608,42.307142],[24.683679,42.307229],[24.683793,42.307318],[24.683893,42.307425],[24.684406,42.308113],[24.684689,42.30842],[24.685262,42.308912],[24.685961,42.309424],[24.686138,42.309473],[24.686265,42.30948],[24.686431,42.309565],[24.686482,42.309703],[24.686587,42.309788],[24.686687,42.309803],[24.686968,42.310162],[24.687005,42.310184],[24.687095,42.310334],[24.687313,42.309856],[24.688343,42.307383],[24.69024,42.30297],[24.691536,42.300058],[24.691386,42.300038],[24.691396,42.29997],[24.689396,42.299714],[24.687266,42.302429]]]},"properties":{"cadreg":60}},{"type":"Feature","geometry":{"type":"Polygon","coordinates":[[[24.688343,42.307383],[24.687313,42.309856],[24.687095,42.310334],[24.687098,42.310377],[24.688084,42.312358],[24.688261,42.312797],[24.688261,42.312844],[24.690712,42.312826],[24.694363,42.312837],[24.695906,42.312829],[24.6961,42.313081],[24.7006,42.312031],[24.700568,42.311951],[24.700985,42.309864],[24.701048,42.30897],[24.701033,42.308542],[24.701072,42.308369],[24.701024,42.307791],[24.701066,42.307767],[24.701038,42.307705],[24.70059,42.307908],[24.698208,42.307888],[24.696019,42.307734],[24.695119,42.307591],[24.694533,42.307559],[24.6909,42.307412],[24.688343,42.307383]]]},"properties":{"cadreg":61}},{"type":"Feature","geometry":{"type":"Polygon","coordinates":[[[24.712432,42.301283],[24.704552,42.300729],[24.701131,42.300515],[24.696076,42.300242],[24.691556,42.299957],[24.691536,42.300058],[24.69024,42.30297],[24.688343,42.307383],[24.6909,42.307412],[24.694533,42.307559],[24.695119,42.307591],[24.696019,42.307734],[24.698208,42.307888],[24.70059,42.307908],[24.701038,42.307705],[24.701066,42.307767],[24.701208,42.307741],[24.702549,42.307931],[24.705319,42.308274],[24.709362,42.308442],[24.709754,42.307922],[24.710346,42.306622],[24.711046,42.304672],[24.711712,42.303304],[24.712432,42.301283]]]},"properties":{"cadreg":62}},{"type":"Feature","geometry":{"type":"Polygon","coordinates":[[[24.710346,42.306622],[24.709754,42.307922],[24.710136,42.308227],[24.710392,42.308152],[24.710584,42.308183],[24.710871,42.308272],[24.711143,42.308104],[24.711173,42.307902],[24.711546,42.307742],[24.711545,42.307605],[24.71196,42.307373],[24.711984,42.30753],[24.711943,42.307705],[24.712219,42.307597],[24.712616,42.307575],[24.712526,42.307749],[24.71276,42.307798],[24.712881,42.307937],[24.713083,42.307902],[24.71307,42.307842],[24.713368,42.307581],[24.714426,42.305157],[24.714375,42.305077],[24.714524,42.304963],[24.714474,42.304894],[24.714286,42.304713],[24.714331,42.304695],[24.71452,42.304796],[24.714597,42.304795],[24.716001,42.301552],[24.712419,42.301349],[24.711712,42.303304],[24.711046,42.304672],[24.710346,42.306622]]]},"properties":{"cadreg":63}},{"type":"Feature","geometry":{"type":"Polygon","coordinates":[[[24.712219,42.307597],[24.711943,42.307705],[24.711984,42.30753],[24.71196,42.307373],[24.711545,42.307605],[24.711546,42.307742],[24.711173,42.307902],[24.711143,42.308104],[24.710871,42.308272],[24.710584,42.308183],[24.710392,42.308152],[24.710136,42.308227],[24.709754,42.307922],[24.709362,42.308442],[24.709963,42.308643],[24.710221,42.308952],[24.710343,42.309118],[24.710492,42.309882],[24.710617,42.309911],[24.711297,42.311461],[24.711463,42.31143],[24.711644,42.311853],[24.712143,42.311765],[24.712117,42.311828],[24.712177,42.311819],[24.712111,42.311977],[24.712277,42.311966],[24.712396,42.311582],[24.713307,42.309058],[24.715625,42.306566],[24.717085,42.305046],[24.720636,42.301963],[24.720823,42.301885],[24.720788,42.301818],[24.720717,42.301802],[24.716001,42.301552],[24.714597,42.304795],[24.71452,42.304796],[24.714331,42.304695],[24.714286,42.304713],[24.714474,42.304894],[24.714524,42.304963],[24.714375,42.305077],[24.714426,42.305157],[24.713368,42.307581],[24.71307,42.307842],[24.713083,42.307902],[24.712881,42.307937],[24.71276,42.307798],[24.712526,42.307749],[24.712616,42.307575],[24.712219,42.307597]]]},"properties":{"cadreg":64}},{"type":"Feature","geometry":{"type":"Polygon","coordinates":[[[24.667598,42.291109],[24.667426,42.292038],[24.667481,42.292201],[24.667538,42.292295],[24.66764,42.292538],[24.667765,42.292909],[24.667792,42.293113],[24.667772,42.293371],[24.667095,42.294593],[24.666946,42.294816],[24.66683,42.295401],[24.666654,42.296497],[24.669962,42.296927],[24.674989,42.297628],[24.676741,42.297928],[24.67734,42.293894],[24.677487,42.292322],[24.674037,42.291853],[24.667598,42.291109]]]},"properties":{"cadreg":65}},{"type":"Feature","geometry":{"type":"Polygon","coordinates":[[[24.668031,42.28868],[24.667598,42.291109],[24.674037,42.291853],[24.677487,42.292322],[24.677596,42.290811],[24.677746,42.289485],[24.678139,42.287734],[24.678264,42.287312],[24.678568,42.286514],[24.678665,42.286155],[24.678846,42.285876],[24.679219,42.285545],[24.679322,42.285524],[24.679311,42.285445],[24.679591,42.284709],[24.679952,42.284264],[24.680775,42.28287],[24.680921,42.282411],[24.681335,42.281615],[24.681909,42.281012],[24.682228,42.280449],[24.683401,42.27971],[24.683827,42.279465],[24.684504,42.27919],[24.68559,42.278701],[24.686171,42.278458],[24.686644,42.278293],[24.687402,42.277991],[24.687929,42.277799],[24.687419,42.277383],[24.684377,42.27868],[24.68238,42.279877],[24.680989,42.281212],[24.680006,42.28264],[24.678185,42.285558],[24.677746,42.285857],[24.675963,42.286565],[24.674471,42.287013],[24.672105,42.287566],[24.668952,42.288037],[24.668862,42.288065],[24.668793,42.288174],[24.66873,42.288225],[24.668567,42.288314],[24.668422,42.288354],[24.668359,42.288395],[24.668211,42.288579],[24.668142,42.288633],[24.668031,42.28868]]]},"properties":{"cadreg":66}},{"type":"Feature","geometry":{"type":"Polygon","coordinates":[[[24.680864,42.292593],[24.677234,42.294628],[24.676741,42.297928],[24.683736,42.298974],[24.69001,42.29979],[24.690577,42.297582],[24.691281,42.296656],[24.693024,42.294234],[24.685889,42.29324],[24.680864,42.292593]]]},"properties":{"cadreg":67}},{"type":"Feature","geometry":{"type":"Polygon","coordinates":[[[24.69001,42.29979],[24.691396,42.29997],[24.691359,42.299931],[24.691303,42.299924],[24.69202,42.297988],[24.692418,42.297479],[24.693548,42.295145],[24.694166,42.293581],[24.693958,42.293486],[24.694336,42.292869],[24.694058,42.292785],[24.691281,42.296656],[24.690577,42.297582],[24.69001,42.29979]]]},"properties":{"cadreg":68}},{"type":"Feature","geometry":{"type":"Polygon","coordinates":[[[24.693958,42.293486],[24.694166,42.293581],[24.693548,42.295145],[24.692923,42.29645],[24.692418,42.297479],[24.69202,42.297988],[24.691303,42.299924],[24.691359,42.299931],[24.691396,42.29997],[24.691386,42.300038],[24.691536,42.300058],[24.691572,42.299847],[24.691515,42.299842],[24.692256,42.298079],[24.692471,42.297824],[24.692725,42.297648],[24.694896,42.296677],[24.695515,42.296309],[24.697941,42.294927],[24.698041,42.294852],[24.698824,42.294386],[24.700726,42.293872],[24.701719,42.293628],[24.696513,42.292977],[24.694484,42.292707],[24.694479,42.292758],[24.694133,42.292717],[24.694058,42.292785],[24.694336,42.292869],[24.693958,42.293486]]]},"properties":{"cadreg":69}},{"type":"Feature","geometry":{"type":"Polygon","coordinates":[[[24.697941,42.294927],[24.694896,42.296677],[24.692725,42.297648],[24.692471,42.297824],[24.692256,42.298079],[24.691515,42.299842],[24.691572,42.299847],[24.691556,42.299957],[24.696076,42.300242],[24.701131,42.300515],[24.704552,42.300729],[24.712432,42.301283],[24.712939,42.300668],[24.713388,42.299663],[24.714338,42.296927],[24.714463,42.296329],[24.711454,42.296016],[24.709598,42.295853],[24.708304,42.29571],[24.705394,42.295427],[24.704389,42.295346],[24.700974,42.295008],[24.69988,42.294851],[24.699204,42.294794],[24.698041,42.294852],[24.697941,42.294927]]]},"properties":{"cadreg":70}},{"type":"Feature","geometry":{"type":"Polygon","coordinates":[[[24.700726,42.293872],[24.698824,42.294386],[24.698041,42.294852],[24.699204,42.294794],[24.69988,42.294851],[24.700974,42.295008],[24.704389,42.295346],[24.705394,42.295427],[24.708304,42.29571],[24.709598,42.295853],[24.711454,42.296016],[24.714463,42.296329],[24.714689,42.295248],[24.701719,42.293628],[24.700726,42.293872]]]},"properties":{"cadreg":71}},{"type":"Feature","geometry":{"type":"Polygon","coordinates":[[[24.714689,42.295248],[24.714338,42.296927],[24.713388,42.299663],[24.712939,42.300668],[24.712432,42.301283],[24.712419,42.301349],[24.720717,42.301802],[24.720788,42.301818],[24.720341,42.300143],[24.719565,42.298875],[24.718149,42.295679],[24.714689,42.295248]]]},"properties":{"cadreg":72}},{"type":"Feature","geometry":{"type":"Polygon","coordinates":[[[24.679219,42.285545],[24.678846,42.285876],[24.678665,42.286155],[24.678568,42.286514],[24.678264,42.287312],[24.678139,42.287734],[24.677942,42.288565],[24.677746,42.289485],[24.677646,42.290288],[24.6775,42.292182],[24.67734,42.293894],[24.677234,42.294628],[24.680822,42.292619],[24.684769,42.290367],[24.685202,42.286378],[24.685153,42.286374],[24.685066,42.286096],[24.684241,42.285958],[24.682635,42.285772],[24.679322,42.285524],[24.679219,42.285545]]]},"properties":{"cadreg":73}},{"type":"Feature","geometry":{"type":"Polygon","coordinates":[[[24.68509,42.287451],[24.684769,42.290367],[24.680864,42.292593],[24.685889,42.29324],[24.693024,42.294234],[24.694058,42.292785],[24.694133,42.292717],[24.694479,42.292758],[24.694484,42.292707],[24.696513,42.292977],[24.696641,42.292535],[24.696979,42.292088],[24.697373,42.291996],[24.698025,42.291436],[24.698138,42.291014],[24.698025,42.290823],[24.697803,42.290744],[24.695467,42.29019],[24.695575,42.289792],[24.693798,42.28952],[24.69401,42.288746],[24.686648,42.288053],[24.686308,42.287545],[24.68509,42.287451]]]},"properties":{"cadreg":74}},{"type":"Feature","geometry":{"type":"Polygon","coordinates":[[[24.69499,42.286082],[24.694965,42.285874],[24.694158,42.285842],[24.693695,42.285586],[24.692898,42.285406],[24.692277,42.285624],[24.691843,42.286474],[24.691402,42.286551],[24.688524,42.286952],[24.686591,42.286433],[24.685224,42.28598],[24.684856,42.285788],[24.681332,42.285489],[24.679332,42.285412],[24.679311,42.285445],[24.679322,42.285524],[24.682635,42.285772],[24.684241,42.285958],[24.685066,42.286096],[24.685153,42.286374],[24.685202,42.286378],[24.68509,42.287451],[24.686308,42.287545],[24.686648,42.288053],[24.69401,42.288746],[24.694328,42.287577],[24.697589,42.28786],[24.697432,42.28574],[24.69499,42.286082]]]},"properties":{"cadreg":75}},{"type":"Feature","geometry":{"type":"Polygon","coordinates":[[[24.681909,42.281012],[24.681335,42.281615],[24.680921,42.282411],[24.680775,42.28287],[24.679952,42.284264],[24.679591,42.284709],[24.679332,42.285412],[24.681332,42.285489],[24.684856,42.285788],[24.685224,42.28598],[24.685716,42.282091],[24.688777,42.280074],[24.689723,42.279482],[24.687929,42.277799],[24.687402,42.277991],[24.686644,42.278293],[24.686171,42.278458],[24.68559,42.278701],[24.684504,42.27919],[24.683827,42.279465],[24.683401,42.27971],[24.682228,42.280449],[24.681909,42.281012]]]},"properties":{"cadreg":76}},{"type":"Feature","geometry":{"type":"Polygon","coordinates":[[[24.688777,42.280074],[24.685716,42.282091],[24.685224,42.28598],[24.686591,42.286433],[24.688524,42.286952],[24.691402,42.286551],[24.691832,42.28414],[24.691961,42.283325],[24.69224,42.28189],[24.689723,42.279482],[24.688777,42.280074]]]},"properties":{"cadreg":77}},{"type":"Feature","geometry":{"type":"Polygon","coordinates":[[[24.691832,42.28414],[24.691402,42.286551],[24.691843,42.286474],[24.692277,42.285624],[24.692898,42.285406],[24.693695,42.285586],[24.694158,42.285842],[24.694965,42.285874],[24.69499,42.286082],[24.697432,42.28574],[24.69735,42.284635],[24.691832,42.28414]]]},"properties":{"cadreg":78}},{"type":"Feature","geometry":{"type":"Polygon","coordinates":[[[24.670255,42.344794],[24.6695,42.343264],[24.66897,42.342239],[24.6685,42.341188],[24.668431,42.341358],[24.668493,42.3416],[24.668786,42.342298],[24.669359,42.34336],[24.669792,42.344253],[24.66991,42.344543],[24.669816,42.344701],[24.668658,42.345243],[24.667849,42.345673],[24.667662,42.345636],[24.667475,42.34569],[24.66737,42.345795],[24.66709,42.345746],[24.666821,42.345767],[24.666681,42.345908],[24.666695,42.34603],[24.66682,42.346299],[24.666797,42.346393],[24.666203,42.346557],[24.66609,42.346706],[24.666161,42.346884],[24.666456,42.347056],[24.666552,42.347195],[24.666555,42.347359],[24.666524,42.347447],[24.666628,42.347532],[24.666936,42.347582],[24.667369,42.347584],[24.667455,42.347723],[24.667459,42.347932],[24.667532,42.34808],[24.667357,42.348176],[24.666711,42.348062],[24.666384,42.348214],[24.666178,42.348347],[24.6662,42.348612],[24.666052,42.348702],[24.66564,42.348645],[24.665416,42.348655],[24.665255,42.348786],[24.665105,42.348876],[24.665119,42.349016],[24.6653,42.349232],[24.665278,42.349353],[24.66534,42.349423],[24.665172,42.349407],[24.66501,42.349417],[24.664978,42.349512],[24.665075,42.34966],[24.664923,42.349706],[24.664832,42.349829],[24.66467,42.3499],[24.664512,42.349889],[24.664424,42.349656],[24.663934,42.349634],[24.663525,42.34969],[24.663244,42.349747],[24.66319,42.349955],[24.66311,42.350104],[24.663005,42.350141],[24.662979,42.350011],[24.662812,42.349891],[24.662661,42.349889],[24.66256,42.349921],[24.662431,42.350139],[24.662293,42.350509],[24.661702,42.350685],[24.661459,42.350799],[24.661295,42.350792],[24.661304,42.350628],[24.661113,42.350515],[24.660563,42.350451],[24.660201,42.350525],[24.660063,42.350709],[24.659441,42.350644],[24.658979,42.350732],[24.658652,42.350778],[24.658054,42.350812],[24.65771,42.350795],[24.657381,42.350715],[24.656732,42.350448],[24.656684,42.350453],[24.656604,42.35051],[24.656431,42.350664],[24.656393,42.350733],[24.656538,42.350852],[24.656921,42.351022],[24.657875,42.351383],[24.659809,42.351761],[24.659816,42.351815],[24.660312,42.352066],[24.660452,42.352096],[24.660625,42.352105],[24.660701,42.352098],[24.660983,42.352023],[24.661457,42.352067],[24.661599,42.352097],[24.661695,42.352037],[24.661738,42.351906],[24.66169,42.35134],[24.661641,42.35131],[24.661951,42.351001],[24.662557,42.350631],[24.663244,42.350368],[24.664651,42.350068],[24.664824,42.350014],[24.665425,42.349755],[24.665964,42.349162],[24.666465,42.348742],[24.666871,42.348294],[24.667092,42.348274],[24.667442,42.348318],[24.667721,42.348407],[24.668094,42.348429],[24.668508,42.348483],[24.668645,42.348362],[24.668437,42.348007],[24.668298,42.347716],[24.668173,42.347348],[24.668223,42.346962],[24.668414,42.346621],[24.66854,42.346464],[24.668693,42.346226],[24.66896,42.346023],[24.669287,42.345978],[24.669663,42.345855],[24.670123,42.345643],[24.670309,42.345349],[24.670278,42.345139],[24.670326,42.345135],[24.670372,42.344994],[24.670255,42.344794]]]},"properties":{"cadreg":79}},{"type":"Feature","geometry":{"type":"Polygon","coordinates":[[[24.665924,42.346751],[24.66627,42.347463],[24.665113,42.347873],[24.665176,42.348],[24.665179,42.348045],[24.665049,42.348314],[24.664852,42.348681],[24.664587,42.349109],[24.664404,42.349338],[24.66432,42.349391],[24.664266,42.349412],[24.664136,42.349429],[24.663944,42.349404],[24.663871,42.349419],[24.66348,42.349574],[24.663257,42.349643],[24.659727,42.350506],[24.65944,42.350594],[24.659067,42.35067],[24.658632,42.350733],[24.658266,42.350762],[24.657904,42.350766],[24.657731,42.350749],[24.657429,42.350683],[24.65678,42.350409],[24.656705,42.350403],[24.656623,42.350426],[24.65632,42.350704],[24.656393,42.350733],[24.656431,42.350664],[24.656604,42.35051],[24.656684,42.350453],[24.656732,42.350448],[24.657381,42.350715],[24.65771,42.350795],[24.658054,42.350812],[24.658652,42.350778],[24.658979,42.350732],[24.659441,42.350644],[24.660063,42.350709],[24.660201,42.350525],[24.660563,42.350451],[24.661113,42.350515],[24.661304,42.350628],[24.661295,42.350792],[24.661459,42.350799],[24.661702,42.350685],[24.662293,42.350509],[24.662431,42.350139],[24.66256,42.349921],[24.662661,42.349889],[24.662812,42.349891],[24.662979,42.350011],[24.663005,42.350141],[24.66311,42.350104],[24.66319,42.349955],[24.663244,42.349747],[24.663525,42.34969],[24.663934,42.349634],[24.664424,42.349656],[24.664512,42.349889],[24.66467,42.3499],[24.664832,42.349829],[24.664923,42.349706],[24.665075,42.34966],[24.664978,42.349512],[24.66501,42.349417],[24.665172,42.349407],[24.66534,42.349423],[24.665278,42.349353],[24.6653,42.349232],[24.665119,42.349016],[24.665105,42.348876],[24.665255,42.348786],[24.665416,42.348655],[24.66564,42.348645],[24.666052,42.348702],[24.6662,42.348612],[24.666178,42.348347],[24.666384,42.348214],[24.666711,42.348062],[24.667357,42.348176],[24.667532,42.34808],[24.667459,42.347932],[24.667455,42.347723],[24.667369,42.347584],[24.666936,42.347582],[24.666628,42.347532],[24.666524,42.347447],[24.666555,42.347359],[24.666552,42.347195],[24.666456,42.347056],[24.666161,42.346884],[24.66609,42.346706],[24.666203,42.346557],[24.666797,42.346393],[24.66682,42.346299],[24.666695,42.34603],[24.666681,42.345908],[24.666821,42.345767],[24.666111,42.346049],[24.665923,42.346265],[24.665924,42.346751]]]},"properties":{"cadreg":80}},{"type":"Feature","geometry":{"type":"Polygon","coordinates":[[[24.659786,42.342383],[24.660448,42.343236],[24.660613,42.343337],[24.663008,42.343909],[24.663062,42.343953],[24.663724,42.345048],[24.663604,42.344589],[24.663311,42.344083],[24.662979,42.343668],[24.662659,42.343223],[24.662357,42.342698],[24.662045,42.342029],[24.661947,42.341412],[24.661479,42.341681],[24.661221,42.341693],[24.660989,42.341738],[24.66059,42.3417],[24.660297,42.341581],[24.659957,42.341394],[24.65959,42.341162],[24.659786,42.342383]]]},"properties":{"cadreg":81}},{"type":"Feature","geometry":{"type":"Polygon","coordinates":[[[24.685187,42.332046],[24.68475,42.332063],[24.683776,42.332062],[24.683481,42.332077],[24.683418,42.332183],[24.68344,42.33226],[24.682873,42.332453],[24.682213,42.33261],[24.680485,42.33335],[24.677893,42.334227],[24.677296,42.334216],[24.676848,42.334128],[24.676326,42.334222],[24.676,42.334425],[24.675999,42.33477],[24.676112,42.335089],[24.675987,42.33536],[24.67583,42.335544],[24.675842,42.33556],[24.675961,42.335549],[24.67594,42.33568],[24.676046,42.335739],[24.676147,42.335609],[24.676401,42.335465],[24.677193,42.336429],[24.675864,42.337137],[24.675935,42.337287],[24.67824,42.336042],[24.681934,42.334198],[24.685582,42.332303],[24.685475,42.332088],[24.685492,42.331895],[24.685187,42.332046]]]},"properties":{"cadreg":83}},{"type":"Feature","geometry":{"type":"Polygon","coordinates":[[[24.67824,42.336042],[24.675935,42.337287],[24.676037,42.337293],[24.676142,42.337328],[24.676493,42.33729],[24.676666,42.337314],[24.676647,42.337444],[24.67658,42.337567],[24.67698,42.337821],[24.677262,42.337854],[24.677699,42.338083],[24.677893,42.337968],[24.677935,42.337672],[24.678041,42.337593],[24.678421,42.337546],[24.678544,42.33745],[24.678658,42.33728],[24.678435,42.337292],[24.678242,42.337327],[24.678272,42.337224],[24.678457,42.337035],[24.678469,42.336544],[24.67833,42.336446],[24.678238,42.336402],[24.678336,42.336158],[24.67824,42.336042]]]},"properties":{"cadreg":84}},{"type":"Feature","geometry":{"type":"Polygon","coordinates":[[[24.665611,42.35638],[24.665759,42.355908],[24.665742,42.355633],[24.665662,42.355168],[24.665564,42.354944],[24.665367,42.354592],[24.665146,42.353409],[24.665172,42.353213],[24.665352,42.352783],[24.665437,42.352514],[24.665434,42.352343],[24.665296,42.352135],[24.665064,42.352057],[24.664619,42.351935],[24.663793,42.351911],[24.663351,42.351954],[24.662051,42.352044],[24.661695,42.352037],[24.661599,42.352097],[24.661592,42.352137],[24.661595,42.352277],[24.661563,42.352426],[24.661595,42.352652],[24.661726,42.352798],[24.661771,42.35282],[24.661911,42.352834],[24.661992,42.352906],[24.662378,42.353433],[24.662423,42.353533],[24.6627,42.353737],[24.662954,42.354009],[24.663116,42.354325],[24.663206,42.354578],[24.663257,42.354893],[24.663255,42.355001],[24.663342,42.355229],[24.663431,42.355312],[24.663484,42.355331],[24.663682,42.35534],[24.663747,42.355571],[24.663748,42.355954],[24.663687,42.356101],[24.663638,42.356162],[24.66359,42.356212],[24.663442,42.356304],[24.663051,42.356442],[24.662778,42.356475],[24.662411,42.356491],[24.661976,42.356601],[24.661787,42.356673],[24.66127,42.356953],[24.660944,42.357029],[24.66073,42.357101],[24.660438,42.357228],[24.66036,42.357278],[24.660337,42.357321],[24.661249,42.35728],[24.661341,42.357263],[24.66135,42.35729],[24.661423,42.357307],[24.662204,42.357148],[24.663119,42.357079],[24.664016,42.356949],[24.664329,42.356916],[24.664597,42.356936],[24.664746,42.356974],[24.664848,42.357026],[24.665021,42.357174],[24.665131,42.357222],[24.665322,42.35721],[24.665304,42.357144],[24.665316,42.357108],[24.665611,42.35638]]]},"properties":{"cadreg":85}},{"type":"Feature","geometry":{"type":"Polygon","coordinates":[[[24.681152,42.323322],[24.682705,42.322967],[24.682529,42.322414],[24.682501,42.322412],[24.682356,42.322057],[24.681637,42.3222],[24.681506,42.32204],[24.679848,42.322384],[24.680412,42.323455],[24.681152,42.323322]]]},"properties":{"cadreg":200}}]}