{"type":"FeatureCollection","features":[{"type":"Feature","geometry":{"type":"Polygon","coordinates":[[[24.706847,42.029745],[24.706803,42.029734],[24.706769,42.029811],[24.706813,42.029822],[24.706847,42.029745]]]},"properties":{"num":1}},{"type":"Feature","geometry":{"type":"Polygon","coordinates":[[[24.704813,42.022193],[24.704812,42.022151],[24.704792,42.022151],[24.704792,42.022125],[24.704693,42.022127],[24.704671,42.022148],[24.704648,42.022134],[24.704586,42.022191],[24.704667,42.02224],[24.704691,42.022239],[24.70474,42.022194],[24.704813,42.022193]]]},"properties":{"num":1}},{"type":"Feature","geometry":{"type":"Polygon","coordinates":[[[24.696784,42.024058],[24.696796,42.024034],[24.69677,42.023978],[24.696678,42.023999],[24.696686,42.024014],[24.696676,42.024017],[24.696692,42.024047],[24.696705,42.024043],[24.696711,42.024054],[24.6967,42.024057],[24.69669,42.024075],[24.696701,42.024095],[24.696764,42.024076],[24.696759,42.024066],[24.696784,42.024058]]]},"properties":{"num":1}},{"type":"Feature","geometry":{"type":"Polygon","coordinates":[[[24.696888,42.024046],[24.696937,42.024035],[24.696943,42.024028],[24.696984,42.024043],[24.697011,42.023996],[24.696954,42.023975],[24.696951,42.023968],[24.696967,42.023939],[24.696932,42.023928],[24.696867,42.023952],[24.696862,42.023943],[24.696801,42.023961],[24.696837,42.024025],[24.696886,42.024042],[24.696888,42.024046]]]},"properties":{"num":1}},{"type":"Feature","geometry":{"type":"Polygon","coordinates":[[[24.7034,42.021549],[24.703411,42.02152],[24.703349,42.021507],[24.703338,42.021536],[24.7034,42.021549]]]},"properties":{"num":1}},{"type":"Feature","geometry":{"type":"Polygon","coordinates":[[[24.703294,42.021414],[24.70326,42.021412],[24.703258,42.021427],[24.703291,42.02143],[24.703294,42.021414]]]},"properties":{"num":2}},{"type":"Feature","geometry":{"type":"Polygon","coordinates":[[[24.686358,41.997546],[24.686343,41.997522],[24.68631,41.997534],[24.686326,41.997558],[24.686358,41.997546]]]},"properties":{"num":1}},{"type":"Feature","geometry":{"type":"Polygon","coordinates":[[[24.687704,41.996556],[24.687671,41.996449],[24.687575,41.996465],[24.687608,41.996572],[24.687704,41.996556]]]},"properties":{"num":3}},{"type":"Feature","geometry":{"type":"Polygon","coordinates":[[[24.687308,41.997203],[24.687298,41.997183],[24.687388,41.997158],[24.687333,41.997046],[24.687156,41.997094],[24.68721,41.997206],[24.687269,41.997191],[24.687279,41.997211],[24.687308,41.997203]]]},"properties":{"num":4}},{"type":"Feature","geometry":{"type":"Polygon","coordinates":[[[24.687853,41.997125],[24.687861,41.997075],[24.687852,41.997025],[24.687752,41.997044],[24.687756,41.997084],[24.687746,41.99711],[24.687752,41.997079],[24.687746,41.997045],[24.687713,41.997051],[24.687704,41.997021],[24.687674,41.997027],[24.68767,41.997013],[24.687587,41.997025],[24.687589,41.997048],[24.687566,41.997119],[24.687626,41.99713],[24.68763,41.99712],[24.687687,41.997132],[24.687606,41.997359],[24.687665,41.997371],[24.687856,41.997162],[24.687839,41.997158],[24.687853,41.997125]]]},"properties":{"num":7}},{"type":"Feature","geometry":{"type":"Polygon","coordinates":[[[24.687713,41.997051],[24.68786,41.997024],[24.687831,41.99693],[24.687812,41.996933],[24.687743,41.99671],[24.687749,41.996708],[24.687734,41.99666],[24.6876,41.996684],[24.687614,41.996731],[24.687601,41.996733],[24.687611,41.996765],[24.687624,41.996763],[24.687713,41.997051]]]},"properties":{"num":9}},{"type":"Feature","geometry":{"type":"Polygon","coordinates":[[[24.687606,41.997359],[24.687687,41.997132],[24.68763,41.99712],[24.687626,41.99713],[24.687497,41.997106],[24.6875,41.997097],[24.687468,41.997091],[24.687463,41.997099],[24.687486,41.997258],[24.687543,41.997265],[24.687546,41.997257],[24.687592,41.997265],[24.687586,41.997281],[24.687486,41.997268],[24.687498,41.997365],[24.687522,41.997369],[24.687522,41.997387],[24.687648,41.997411],[24.687665,41.997371],[24.687606,41.997359]]]},"properties":{"num":16}}]}