{"type":"FeatureCollection","features":[{"type":"Feature","geometry":{"type":"Polygon","coordinates":[[[24.700954,42.023283],[24.700671,42.023535],[24.700845,42.023646],[24.701039,42.023735],[24.701231,42.023931],[24.702415,42.025298],[24.702481,42.025427],[24.702404,42.025447],[24.702449,42.025599],[24.702584,42.025781],[24.703213,42.02571],[24.703726,42.025696],[24.703821,42.025668],[24.704206,42.02539],[24.704434,42.025272],[24.704341,42.02516],[24.704378,42.025142],[24.704275,42.025008],[24.704282,42.024954],[24.704333,42.024919],[24.705693,42.024722],[24.70569,42.02469],[24.705873,42.02468],[24.705918,42.023974],[24.706058,42.02399],[24.70624,42.023599],[24.706351,42.023541],[24.706781,42.023014],[24.706588,42.022958],[24.706603,42.022927],[24.705606,42.02262],[24.705535,42.022821],[24.705053,42.022351],[24.704717,42.022463],[24.704706,42.022429],[24.703442,42.022782],[24.703077,42.02283],[24.70282,42.022856],[24.70261,42.022853],[24.702115,42.022826],[24.701662,42.022778],[24.701289,42.022774],[24.700817,42.023188],[24.700954,42.023283]]]},"properties":{"cadreg":888}},{"type":"Feature","geometry":{"type":"Polygon","coordinates":[[[24.695834,42.039859],[24.696061,42.03991],[24.695844,42.040486],[24.69515,42.040331],[24.69472,42.041472],[24.695413,42.041629],[24.694984,42.042768],[24.696204,42.043031],[24.696489,42.042768],[24.696796,42.042536],[24.697198,42.04232],[24.698199,42.042006],[24.698525,42.042058],[24.699115,42.042219],[24.699336,42.042203],[24.699647,42.042226],[24.700127,42.042314],[24.700418,42.041987],[24.70126,42.040912],[24.701602,42.040305],[24.702273,42.039542],[24.702265,42.039404],[24.702095,42.038765],[24.702122,42.038346],[24.702115,42.038067],[24.702245,42.037733],[24.702403,42.037563],[24.702564,42.037328],[24.702729,42.037231],[24.703071,42.037076],[24.703469,42.036817],[24.703666,42.036613],[24.703849,42.036021],[24.704538,42.035467],[24.703826,42.035908],[24.703766,42.03604],[24.70365,42.036491],[24.703577,42.036668],[24.703162,42.036928],[24.703088,42.036857],[24.702943,42.036895],[24.702946,42.037021],[24.702899,42.037076],[24.702611,42.037224],[24.702254,42.037533],[24.701474,42.037377],[24.701238,42.037636],[24.700974,42.037748],[24.70049,42.037807],[24.700492,42.038019],[24.700543,42.03822],[24.699961,42.038493],[24.699168,42.038582],[24.698583,42.038742],[24.697814,42.038984],[24.697467,42.039077],[24.697362,42.039134],[24.697273,42.03922],[24.697063,42.039646],[24.69699,42.039674],[24.696624,42.039742],[24.69628,42.039833],[24.695949,42.039867],[24.695834,42.039859]]]},"properties":{"cadreg":1}},{"type":"Feature","geometry":{"type":"Polygon","coordinates":[[[24.704917,42.03457],[24.704538,42.035467],[24.703849,42.036021],[24.703666,42.036613],[24.703469,42.036817],[24.703071,42.037076],[24.702729,42.037231],[24.702564,42.037328],[24.702403,42.037563],[24.702245,42.037733],[24.702115,42.038067],[24.702122,42.038346],[24.702095,42.038765],[24.702265,42.039404],[24.702273,42.039542],[24.701602,42.040305],[24.70126,42.040912],[24.700418,42.041987],[24.700127,42.042314],[24.699647,42.042226],[24.699336,42.042203],[24.699176,42.042209],[24.6985,42.042302],[24.698145,42.042433],[24.697766,42.042491],[24.697408,42.042566],[24.697176,42.042651],[24.697006,42.042781],[24.696891,42.042904],[24.6968,42.043329],[24.696752,42.043473],[24.696431,42.043752],[24.696305,42.044082],[24.696399,42.044101],[24.696513,42.043793],[24.696781,42.043572],[24.696844,42.0435],[24.69691,42.043281],[24.696967,42.04296],[24.697001,42.042897],[24.697241,42.042719],[24.697352,42.042661],[24.697738,42.042573],[24.698166,42.042505],[24.698525,42.042371],[24.6992,42.042278],[24.699347,42.042269],[24.699739,42.042315],[24.700306,42.042425],[24.700618,42.042457],[24.700906,42.042424],[24.70111,42.042325],[24.70166,42.041945],[24.702662,42.041448],[24.703371,42.041139],[24.703626,42.041003],[24.703799,42.040875],[24.70401,42.040572],[24.704178,42.040124],[24.704315,42.039861],[24.704535,42.039505],[24.704816,42.039179],[24.70501,42.039004],[24.705216,42.038746],[24.7054,42.038622],[24.705637,42.038401],[24.705766,42.038347],[24.705854,42.038261],[24.706169,42.038037],[24.706515,42.037695],[24.706581,42.037572],[24.706703,42.037182],[24.707055,42.036677],[24.707434,42.036469],[24.707588,42.036405],[24.708033,42.036304],[24.708564,42.036226],[24.709465,42.036024],[24.709617,42.035971],[24.709716,42.035918],[24.709913,42.035752],[24.709982,42.03561],[24.709983,42.035523],[24.709955,42.035411],[24.709897,42.035335],[24.709692,42.035227],[24.709863,42.035436],[24.709891,42.035606],[24.709831,42.035711],[24.7097,42.035836],[24.709568,42.035909],[24.70944,42.035953],[24.708972,42.036047],[24.708537,42.036156],[24.70787,42.036259],[24.707576,42.036331],[24.707454,42.036372],[24.707,42.036617],[24.706625,42.037138],[24.706578,42.03723],[24.706481,42.037565],[24.706431,42.037657],[24.706099,42.037986],[24.705781,42.038214],[24.705701,42.038292],[24.705513,42.038382],[24.705318,42.03857],[24.705133,42.038716],[24.704939,42.038943],[24.704588,42.039305],[24.704795,42.038908],[24.705138,42.038458],[24.705312,42.037939],[24.705356,42.037737],[24.705772,42.037084],[24.705882,42.036302],[24.705958,42.036017],[24.706192,42.035482],[24.706137,42.035179],[24.705934,42.03453],[24.705896,42.034213],[24.705911,42.033918],[24.705846,42.033934],[24.705587,42.034064],[24.704917,42.03457]]]},"properties":{"cadreg":2}},{"type":"Feature","geometry":{"type":"Polygon","coordinates":[[[24.697076,42.036383],[24.697066,42.036425],[24.697445,42.036457],[24.697245,42.037106],[24.69692,42.037186],[24.695589,42.03785],[24.695526,42.038713],[24.695498,42.038821],[24.695246,42.039058],[24.695077,42.03911],[24.694819,42.039131],[24.6946,42.039112],[24.694326,42.039043],[24.69415,42.038929],[24.693655,42.038952],[24.694375,42.039411],[24.694706,42.039547],[24.694804,42.039628],[24.695834,42.039859],[24.695949,42.039867],[24.69628,42.039833],[24.696624,42.039742],[24.69699,42.039674],[24.697063,42.039646],[24.697273,42.03922],[24.697362,42.039134],[24.697467,42.039077],[24.697814,42.038984],[24.698583,42.038742],[24.699168,42.038582],[24.699961,42.038493],[24.700543,42.03822],[24.700492,42.038019],[24.70049,42.037807],[24.700974,42.037748],[24.701238,42.037636],[24.701474,42.037377],[24.702254,42.037533],[24.702611,42.037224],[24.702899,42.037076],[24.702946,42.037021],[24.702943,42.036895],[24.703088,42.036857],[24.703162,42.036928],[24.703577,42.036668],[24.70365,42.036491],[24.703766,42.03604],[24.703826,42.035908],[24.704538,42.035467],[24.704917,42.03457],[24.703916,42.035372],[24.7037,42.035574],[24.703453,42.035759],[24.703339,42.035789],[24.703167,42.035769],[24.70294,42.035674],[24.702736,42.035531],[24.702672,42.03553],[24.702571,42.035558],[24.702518,42.035579],[24.701713,42.036219],[24.701589,42.03627],[24.701156,42.036535],[24.700973,42.036613],[24.700672,42.036825],[24.700072,42.037024],[24.700048,42.036982],[24.700637,42.036787],[24.700937,42.036576],[24.701121,42.036498],[24.701708,42.036138],[24.7022,42.035741],[24.701804,42.035835],[24.701243,42.035922],[24.701048,42.035918],[24.701054,42.035874],[24.701202,42.035875],[24.70186,42.035774],[24.70203,42.035733],[24.702229,42.035672],[24.702506,42.035504],[24.702587,42.035479],[24.702692,42.03547],[24.702752,42.035481],[24.702901,42.035568],[24.703187,42.035178],[24.703369,42.035026],[24.704011,42.034633],[24.704266,42.034397],[24.704455,42.034338],[24.705172,42.03389],[24.705564,42.033731],[24.705767,42.033511],[24.705799,42.033],[24.70573,42.032615],[24.705616,42.031453],[24.705517,42.031112],[24.705255,42.030717],[24.704893,42.030363],[24.704631,42.02992],[24.704426,42.029184],[24.704295,42.028842],[24.704052,42.028902],[24.703123,42.030081],[24.702699,42.030202],[24.70228,42.030276],[24.701391,42.030564],[24.701099,42.030644],[24.700778,42.030658],[24.700047,42.03056],[24.699592,42.030471],[24.699108,42.030298],[24.698527,42.030239],[24.698514,42.030212],[24.698204,42.030284],[24.6979,42.030214],[24.697935,42.030272],[24.698109,42.030315],[24.698215,42.030319],[24.698572,42.03027],[24.699117,42.030337],[24.699609,42.030508],[24.700046,42.030596],[24.700452,42.030651],[24.700549,42.030692],[24.700544,42.030732],[24.69997,42.031013],[24.699645,42.031303],[24.699322,42.031649],[24.698109,42.033125],[24.697794,42.034217],[24.697447,42.034898],[24.697134,42.035097],[24.696917,42.035271],[24.69651,42.035865],[24.696441,42.036289],[24.696522,42.036336],[24.697076,42.036383]]]},"properties":{"cadreg":3}},{"type":"Feature","geometry":{"type":"Polygon","coordinates":[[[24.705918,42.023974],[24.705873,42.02468],[24.70569,42.02469],[24.705693,42.024722],[24.704333,42.024919],[24.704282,42.024954],[24.704275,42.025008],[24.704378,42.025142],[24.704341,42.02516],[24.704434,42.025272],[24.704206,42.02539],[24.703821,42.025668],[24.703726,42.025696],[24.703467,42.025705],[24.703152,42.026119],[24.703069,42.02644],[24.702989,42.026613],[24.703003,42.02673],[24.703101,42.026787],[24.703199,42.026871],[24.703614,42.027393],[24.70375,42.027522],[24.703757,42.027603],[24.70394,42.02789],[24.704426,42.029184],[24.704631,42.02992],[24.704893,42.030363],[24.705255,42.030717],[24.705498,42.031067],[24.705616,42.031453],[24.70573,42.032615],[24.705799,42.033],[24.705767,42.033511],[24.705564,42.033731],[24.705172,42.03389],[24.704455,42.034338],[24.704266,42.034397],[24.704011,42.034633],[24.703369,42.035026],[24.703187,42.035178],[24.702901,42.035568],[24.703097,42.035685],[24.703234,42.035732],[24.703375,42.035726],[24.703541,42.035623],[24.704848,42.034554],[24.705539,42.034033],[24.70582,42.033893],[24.705937,42.033864],[24.706161,42.033762],[24.706985,42.033334],[24.707151,42.03323],[24.707299,42.033088],[24.707459,42.032834],[24.707521,42.032778],[24.707389,42.032678],[24.707442,42.03243],[24.707466,42.032182],[24.707604,42.03197],[24.707966,42.03172],[24.708264,42.031421],[24.708109,42.031332],[24.708599,42.030891],[24.708854,42.031035],[24.708929,42.03106],[24.709543,42.030707],[24.709313,42.03051],[24.708973,42.030631],[24.70867,42.030589],[24.708482,42.030476],[24.708335,42.030331],[24.708298,42.03015],[24.708237,42.029992],[24.707745,42.029715],[24.707526,42.029619],[24.707447,42.029448],[24.707555,42.029403],[24.707944,42.029661],[24.708121,42.029743],[24.708284,42.029793],[24.708241,42.029653],[24.708403,42.029378],[24.708572,42.029274],[24.708456,42.02903],[24.708443,42.028881],[24.708618,42.028813],[24.708612,42.028719],[24.708319,42.028334],[24.708258,42.028166],[24.708205,42.027844],[24.70821,42.027537],[24.708146,42.027362],[24.708089,42.027027],[24.708083,42.0268],[24.708325,42.026669],[24.708584,42.026651],[24.708631,42.026618],[24.70876,42.026192],[24.708663,42.025846],[24.708791,42.025594],[24.708623,42.024735],[24.70864,42.024469],[24.708082,42.02444],[24.707064,42.02413],[24.706704,42.024105],[24.705918,42.023974]]]},"properties":{"cadreg":4}},{"type":"Feature","geometry":{"type":"MultiPolygon","coordinates":[[[[24.697895,42.030207],[24.698204,42.030284],[24.698514,42.030212],[24.698527,42.030239],[24.699108,42.030298],[24.699592,42.030471],[24.700047,42.03056],[24.700778,42.030658],[24.701099,42.030644],[24.701391,42.030564],[24.70228,42.030276],[24.702699,42.030202],[24.703123,42.030081],[24.704052,42.028902],[24.704295,42.028842],[24.70394,42.02789],[24.703757,42.027603],[24.70375,42.027522],[24.703614,42.027393],[24.703199,42.026871],[24.703101,42.026787],[24.703003,42.02673],[24.702989,42.026613],[24.703069,42.02644],[24.703152,42.026119],[24.703467,42.025705],[24.703397,42.025707],[24.703095,42.026103],[24.703011,42.026426],[24.702966,42.026498],[24.702928,42.026609],[24.702946,42.026753],[24.702933,42.0269],[24.702866,42.026986],[24.702725,42.027275],[24.702738,42.027627],[24.702655,42.027794],[24.702223,42.027855],[24.701955,42.027834],[24.701713,42.027837],[24.700927,42.027977],[24.700225,42.028065],[24.699261,42.028631],[24.698511,42.028982],[24.697368,42.029338],[24.697895,42.030207]]],[[[24.699609,42.030508],[24.699117,42.030337],[24.698572,42.03027],[24.698215,42.030319],[24.698109,42.030315],[24.698342,42.030953],[24.699106,42.031594],[24.699241,42.031681],[24.698391,42.032725],[24.698109,42.033125],[24.699322,42.031649],[24.699645,42.031303],[24.69997,42.031013],[24.700544,42.030732],[24.700549,42.030692],[24.700452,42.030651],[24.700046,42.030596],[24.699609,42.030508]]]]},"properties":{"cadreg":5}},{"type":"Feature","geometry":{"type":"Polygon","coordinates":[[[24.696799,42.024442],[24.696372,42.024356],[24.696172,42.024295],[24.69604,42.02423],[24.695715,42.024116],[24.695577,42.024118],[24.695407,42.024058],[24.695234,42.024078],[24.694897,42.024174],[24.694156,42.024173],[24.693621,42.023894],[24.693454,42.023788],[24.69334,42.023697],[24.693292,42.023629],[24.693205,42.023619],[24.693077,42.023665],[24.692986,42.023741],[24.692934,42.023839],[24.693098,42.023792],[24.694112,42.024196],[24.694503,42.024309],[24.694446,42.024388],[24.694289,42.024353],[24.694146,42.024359],[24.694317,42.024478],[24.69472,42.024645],[24.695138,42.024733],[24.695294,42.024788],[24.695365,42.024877],[24.695692,42.02517],[24.695686,42.02542],[24.695721,42.025544],[24.695748,42.025814],[24.695899,42.025811],[24.696,42.025773],[24.696018,42.025677],[24.69612,42.025684],[24.69615,42.025755],[24.696136,42.025828],[24.695993,42.026006],[24.695971,42.026127],[24.695976,42.026227],[24.696058,42.026484],[24.695987,42.026767],[24.696046,42.027087],[24.695912,42.027145],[24.695652,42.027202],[24.695491,42.027434],[24.695151,42.027463],[24.695098,42.027571],[24.695013,42.027638],[24.695056,42.027657],[24.695117,42.027751],[24.694888,42.028111],[24.694881,42.028206],[24.694948,42.028362],[24.695034,42.028482],[24.695069,42.028818],[24.695017,42.029121],[24.694962,42.029183],[24.695012,42.029249],[24.696511,42.029216],[24.697319,42.029258],[24.697368,42.029338],[24.698511,42.028982],[24.699261,42.028631],[24.700225,42.028065],[24.700927,42.027977],[24.701713,42.027837],[24.701955,42.027834],[24.702223,42.027855],[24.702655,42.027794],[24.702738,42.027627],[24.702725,42.027275],[24.702866,42.026986],[24.702933,42.0269],[24.702946,42.026753],[24.702928,42.026609],[24.702966,42.026498],[24.703011,42.026426],[24.703095,42.026103],[24.703397,42.025707],[24.703213,42.02571],[24.702584,42.025781],[24.702449,42.025599],[24.702404,42.025447],[24.702481,42.025427],[24.702415,42.025298],[24.701783,42.024569],[24.701193,42.024824],[24.701043,42.024996],[24.700946,42.024953],[24.700239,42.025199],[24.699595,42.02489],[24.698532,42.024899],[24.697612,42.024521],[24.696799,42.024442]]]},"properties":{"cadreg":6}},{"type":"Feature","geometry":{"type":"MultiPolygon","coordinates":[[[[24.691276,42.019813],[24.690835,42.020529],[24.690908,42.020837],[24.690981,42.02092],[24.691463,42.020645],[24.691418,42.020151],[24.691595,42.019749],[24.691276,42.019813]]],[[[24.690574,42.025238],[24.690552,42.025657],[24.690455,42.025837],[24.690228,42.025898],[24.689994,42.026056],[24.689818,42.026142],[24.689737,42.026253],[24.689719,42.026394],[24.689736,42.026516],[24.689823,42.026626],[24.68993,42.02669],[24.690073,42.026737],[24.690153,42.026733],[24.692,42.026328],[24.692086,42.026562],[24.692114,42.026737],[24.692179,42.026938],[24.69282,42.027578],[24.693162,42.027753],[24.69354,42.027812],[24.694422,42.027503],[24.694668,42.027513],[24.694811,42.02755],[24.695013,42.027638],[24.695098,42.027571],[24.695151,42.027463],[24.695491,42.027434],[24.695652,42.027202],[24.695912,42.027145],[24.696046,42.027087],[24.695987,42.026767],[24.696058,42.026484],[24.695976,42.026227],[24.695971,42.026127],[24.695993,42.026006],[24.696136,42.025828],[24.69615,42.025755],[24.69612,42.025684],[24.696018,42.025677],[24.696,42.025773],[24.695899,42.025811],[24.695748,42.025814],[24.695721,42.025544],[24.695686,42.02542],[24.695692,42.02517],[24.695365,42.024877],[24.695294,42.024788],[24.695138,42.024733],[24.69472,42.024645],[24.694317,42.024478],[24.694146,42.024359],[24.694289,42.024353],[24.694446,42.024388],[24.694503,42.024309],[24.694112,42.024196],[24.693098,42.023792],[24.692934,42.023839],[24.692906,42.023718],[24.692548,42.024163],[24.692473,42.024216],[24.69234,42.024249],[24.691891,42.024245],[24.691415,42.024216],[24.691354,42.024374],[24.691192,42.024396],[24.691025,42.024388],[24.690778,42.024291],[24.690605,42.02419],[24.690345,42.024189],[24.690227,42.024246],[24.689878,42.024314],[24.689935,42.024699],[24.690008,42.024883],[24.690016,42.025068],[24.690117,42.025128],[24.690255,42.025121],[24.690414,42.025005],[24.690574,42.025238]]]]},"properties":{"cadreg":7}},{"type":"Feature","geometry":{"type":"Polygon","coordinates":[[[24.705934,42.03453],[24.706137,42.035179],[24.706192,42.035482],[24.705958,42.036017],[24.705882,42.036302],[24.705772,42.037084],[24.705356,42.037737],[24.705312,42.037939],[24.705138,42.038458],[24.704795,42.038908],[24.704588,42.039305],[24.704939,42.038943],[24.705133,42.038716],[24.705318,42.03857],[24.705513,42.038382],[24.705701,42.038292],[24.705781,42.038214],[24.706099,42.037986],[24.706431,42.037657],[24.706481,42.037565],[24.706578,42.03723],[24.706625,42.037138],[24.707,42.036617],[24.707454,42.036372],[24.707576,42.036331],[24.70787,42.036259],[24.708537,42.036156],[24.708972,42.036047],[24.70944,42.035953],[24.709568,42.035909],[24.7097,42.035836],[24.709831,42.035711],[24.709891,42.035606],[24.709863,42.035436],[24.709692,42.035227],[24.708962,42.034807],[24.708699,42.034623],[24.707462,42.033945],[24.707649,42.033782],[24.707346,42.033447],[24.707292,42.033179],[24.707125,42.033307],[24.706516,42.033638],[24.706195,42.0338],[24.705911,42.033918],[24.705896,42.034213],[24.705934,42.03453]]]},"properties":{"cadreg":8}},{"type":"Feature","geometry":{"type":"Polygon","coordinates":[[[24.694375,42.039411],[24.693655,42.038952],[24.693449,42.039472],[24.693725,42.039931],[24.694458,42.040176],[24.693558,42.042454],[24.694984,42.042768],[24.695413,42.041629],[24.69472,42.041472],[24.695044,42.040611],[24.69515,42.040331],[24.695844,42.040486],[24.696061,42.03991],[24.694804,42.039628],[24.694706,42.039547],[24.694375,42.039411]]]},"properties":{"cadreg":9}},{"type":"Feature","geometry":{"type":"MultiPolygon","coordinates":[[[[24.696796,42.042536],[24.696489,42.042768],[24.696335,42.042923],[24.696147,42.043078],[24.695828,42.043069],[24.695638,42.043159],[24.695597,42.043822],[24.695853,42.043991],[24.696305,42.044082],[24.696431,42.043752],[24.696752,42.043473],[24.6968,42.043329],[24.696891,42.042904],[24.697006,42.042781],[24.697176,42.042651],[24.697408,42.042566],[24.697766,42.042491],[24.698145,42.042433],[24.6985,42.042302],[24.699115,42.042219],[24.698525,42.042058],[24.698199,42.042006],[24.697198,42.04232],[24.696796,42.042536]]],[[[24.697389,42.042647],[24.697241,42.042719],[24.697001,42.042897],[24.696967,42.04296],[24.69691,42.043281],[24.696844,42.0435],[24.696781,42.043572],[24.696513,42.043793],[24.696399,42.044101],[24.696629,42.044148],[24.697667,42.044115],[24.698089,42.044271],[24.698599,42.044257],[24.698716,42.044302],[24.698899,42.044409],[24.69902,42.044455],[24.699268,42.044584],[24.699549,42.044673],[24.699912,42.044673],[24.700188,42.044719],[24.700322,42.044721],[24.70054,42.044782],[24.700646,42.044793],[24.700887,42.044786],[24.700977,42.044732],[24.701181,42.044718],[24.701408,42.044666],[24.701605,42.044687],[24.701735,42.044787],[24.70175,42.044934],[24.701732,42.045026],[24.702785,42.04436],[24.703432,42.04389],[24.703793,42.043654],[24.704035,42.043517],[24.704591,42.043301],[24.704655,42.043243],[24.704775,42.04305],[24.704807,42.042929],[24.704792,42.042834],[24.704712,42.042704],[24.704675,42.042687],[24.704647,42.042635],[24.704653,42.042557],[24.704861,42.042158],[24.705053,42.041888],[24.70528,42.04166],[24.70536,42.041603],[24.705494,42.041558],[24.705582,42.041544],[24.706014,42.041554],[24.70639,42.041531],[24.706786,42.041467],[24.706891,42.041391],[24.706943,42.041316],[24.706963,42.041223],[24.706953,42.041058],[24.706897,42.040968],[24.706763,42.040897],[24.706674,42.040872],[24.705328,42.040777],[24.704278,42.040509],[24.704197,42.040443],[24.704148,42.040354],[24.704178,42.040124],[24.70401,42.040572],[24.703799,42.040875],[24.703626,42.041003],[24.703371,42.041139],[24.702662,42.041448],[24.70166,42.041945],[24.70111,42.042325],[24.700906,42.042424],[24.700618,42.042457],[24.700306,42.042425],[24.699739,42.042315],[24.699347,42.042269],[24.698525,42.042371],[24.698166,42.042505],[24.697738,42.042573],[24.697389,42.042647]]]]},"properties":{"cadreg":10}},{"type":"Feature","geometry":{"type":"Polygon","coordinates":[[[24.704639,42.022103],[24.704424,42.022299],[24.704079,42.022484],[24.704114,42.022595],[24.704706,42.022429],[24.704717,42.022463],[24.705053,42.022351],[24.705535,42.022821],[24.705606,42.02262],[24.706603,42.022927],[24.706588,42.022958],[24.706781,42.023014],[24.706351,42.023541],[24.70624,42.023599],[24.706076,42.023952],[24.707189,42.024113],[24.707814,42.024287],[24.708107,42.024384],[24.708578,42.024415],[24.709203,42.024533],[24.70939,42.024547],[24.709741,42.024541],[24.710438,42.024557],[24.71047,42.02455],[24.71047,42.024533],[24.710553,42.024517],[24.710631,42.024559],[24.710805,42.02457],[24.711241,42.024509],[24.711954,42.02437],[24.712167,42.024408],[24.712153,42.024266],[24.711931,42.023873],[24.711523,42.023401],[24.711202,42.023123],[24.711173,42.022806],[24.710904,42.022636],[24.710891,42.022497],[24.710909,42.022307],[24.710874,42.022192],[24.7105,42.021831],[24.709948,42.020853],[24.709757,42.020754],[24.709741,42.020884],[24.709821,42.021225],[24.709811,42.021319],[24.709748,42.021431],[24.709594,42.021477],[24.709321,42.021506],[24.709089,42.021594],[24.70887,42.021735],[24.708745,42.021795],[24.707652,42.0219],[24.707524,42.021901],[24.707295,42.021873],[24.707141,42.021827],[24.707007,42.021749],[24.706447,42.021314],[24.706289,42.021292],[24.706071,42.021398],[24.705865,42.021439],[24.705709,42.021437],[24.705247,42.021391],[24.704968,42.021397],[24.70488,42.021426],[24.704805,42.021466],[24.704719,42.021642],[24.704639,42.022103]]]},"properties":{"cadreg":11}},{"type":"Feature","geometry":{"type":"MultiPolygon","coordinates":[[[[24.710631,42.024559],[24.710553,42.024517],[24.71047,42.024533],[24.71047,42.02455],[24.710438,42.024557],[24.709741,42.024541],[24.70939,42.024547],[24.709203,42.024533],[24.708578,42.024415],[24.708107,42.024384],[24.707814,42.024287],[24.707189,42.024113],[24.706076,42.023952],[24.706058,42.02399],[24.706071,42.024008],[24.706704,42.024105],[24.707064,42.02413],[24.708082,42.02444],[24.70864,42.024469],[24.708623,42.024735],[24.708791,42.025594],[24.708663,42.025846],[24.70876,42.026192],[24.708631,42.026618],[24.708584,42.026651],[24.708325,42.026669],[24.708083,42.0268],[24.708089,42.027027],[24.708146,42.027362],[24.70821,42.027537],[24.708205,42.027844],[24.708258,42.028166],[24.708319,42.028334],[24.708612,42.028719],[24.708618,42.028813],[24.708443,42.028881],[24.708456,42.02903],[24.708572,42.029274],[24.708403,42.029378],[24.708241,42.029653],[24.708284,42.029793],[24.708121,42.029743],[24.707944,42.029661],[24.707555,42.029403],[24.707447,42.029448],[24.707526,42.029619],[24.707745,42.029715],[24.708237,42.029992],[24.708298,42.03015],[24.708335,42.030331],[24.708482,42.030476],[24.70867,42.030589],[24.708973,42.030631],[24.709313,42.03051],[24.709543,42.030707],[24.710123,42.030439],[24.710309,42.030338],[24.711079,42.030036],[24.711433,42.029917],[24.712091,42.029726],[24.712495,42.029666],[24.712489,42.029537],[24.712302,42.029051],[24.712267,42.028916],[24.712258,42.028786],[24.712292,42.028645],[24.712375,42.028497],[24.712675,42.028123],[24.712729,42.027942],[24.712674,42.027741],[24.712632,42.02771],[24.712477,42.027092],[24.712167,42.024408],[24.711954,42.02437],[24.711241,42.024509],[24.710805,42.02457],[24.710631,42.024559]]],[[[24.707299,42.033088],[24.707151,42.03323],[24.706985,42.033334],[24.706161,42.033762],[24.705937,42.033864],[24.70582,42.033893],[24.705539,42.034033],[24.704848,42.034554],[24.703422,42.035708],[24.703292,42.035739],[24.703177,42.035715],[24.703053,42.035663],[24.702752,42.035481],[24.702692,42.03547],[24.702587,42.035479],[24.702506,42.035504],[24.702229,42.035672],[24.70203,42.035733],[24.70186,42.035774],[24.701202,42.035875],[24.701054,42.035874],[24.701048,42.035918],[24.701243,42.035922],[24.701804,42.035835],[24.7022,42.035741],[24.701708,42.036138],[24.701398,42.036337],[24.701121,42.036498],[24.700937,42.036576],[24.700637,42.036787],[24.700048,42.036982],[24.700072,42.037024],[24.700672,42.036825],[24.700973,42.036613],[24.701156,42.036535],[24.701589,42.03627],[24.701713,42.036219],[24.702518,42.035579],[24.702571,42.035558],[24.702672,42.03553],[24.702736,42.035531],[24.70294,42.035674],[24.703167,42.035769],[24.703339,42.035789],[24.703453,42.035759],[24.7037,42.035574],[24.703916,42.035372],[24.704917,42.03457],[24.705587,42.034064],[24.705846,42.033934],[24.706195,42.0338],[24.707194,42.033262],[24.707351,42.033111],[24.707504,42.032871],[24.707563,42.03281],[24.707521,42.032778],[24.707459,42.032834],[24.707299,42.033088]]]]},"properties":{"cadreg":12}},{"type":"Feature","geometry":{"type":"Polygon","coordinates":[[[24.702039,42.02215],[24.700884,42.022017],[24.700741,42.022026],[24.699118,42.022784],[24.69878,42.022928],[24.698096,42.023303],[24.697846,42.023388],[24.69636,42.023528],[24.695882,42.023538],[24.694711,42.02362],[24.694153,42.023564],[24.693518,42.02334],[24.693078,42.023336],[24.692735,42.023374],[24.692442,42.023444],[24.692298,42.023511],[24.692229,42.023572],[24.692166,42.023699],[24.692108,42.02375],[24.692038,42.023791],[24.691919,42.02379],[24.691931,42.024006],[24.692023,42.024187],[24.69211,42.024252],[24.69234,42.024249],[24.692473,42.024216],[24.692548,42.024163],[24.692906,42.023718],[24.692934,42.023839],[24.692986,42.023741],[24.693077,42.023665],[24.693205,42.023619],[24.693292,42.023629],[24.69334,42.023697],[24.693454,42.023788],[24.693621,42.023894],[24.694156,42.024173],[24.694897,42.024174],[24.695234,42.024078],[24.695407,42.024058],[24.695577,42.024118],[24.695715,42.024116],[24.69604,42.02423],[24.696172,42.024295],[24.696372,42.024356],[24.696799,42.024442],[24.697612,42.024521],[24.698532,42.024899],[24.699595,42.02489],[24.700239,42.025199],[24.700946,42.024953],[24.701043,42.024996],[24.701193,42.024824],[24.701783,42.024569],[24.701231,42.023931],[24.701039,42.023735],[24.700845,42.023646],[24.700671,42.023535],[24.700954,42.023283],[24.700817,42.023188],[24.701289,42.022774],[24.701662,42.022778],[24.702115,42.022826],[24.70282,42.022856],[24.703442,42.022782],[24.704114,42.022595],[24.704079,42.022484],[24.704424,42.022299],[24.704639,42.022103],[24.704719,42.021642],[24.704805,42.021466],[24.704968,42.021397],[24.705247,42.021391],[24.705709,42.021437],[24.705865,42.021439],[24.706071,42.021398],[24.706289,42.021292],[24.705904,42.021273],[24.70456,42.021091],[24.704155,42.021142],[24.704044,42.021179],[24.703827,42.0213],[24.703753,42.021381],[24.703331,42.022012],[24.703215,42.022097],[24.703055,42.022157],[24.702843,42.022197],[24.702039,42.02215]]]},"properties":{"cadreg":13}},{"type":"Feature","geometry":{"type":"Polygon","coordinates":[[[24.690835,42.020529],[24.691276,42.019813],[24.691595,42.019749],[24.691418,42.020151],[24.691463,42.020645],[24.690981,42.02092],[24.691142,42.021062],[24.691236,42.021173],[24.691254,42.021411],[24.691355,42.021652],[24.69134,42.021918],[24.691534,42.022271],[24.691742,42.022229],[24.69176,42.02228],[24.691746,42.022381],[24.691671,42.022472],[24.691431,42.022618],[24.691339,42.022789],[24.691086,42.022847],[24.690863,42.022829],[24.690677,42.022837],[24.690541,42.022873],[24.690435,42.023006],[24.690381,42.023114],[24.690378,42.023184],[24.690319,42.023294],[24.690132,42.023308],[24.689852,42.023423],[24.689793,42.023497],[24.689845,42.023864],[24.689828,42.023995],[24.689878,42.024314],[24.690227,42.024246],[24.690345,42.024189],[24.690605,42.02419],[24.690778,42.024291],[24.691025,42.024388],[24.691192,42.024396],[24.691354,42.024374],[24.691415,42.024216],[24.69211,42.024252],[24.692023,42.024187],[24.691931,42.024006],[24.691919,42.02379],[24.691793,42.023753],[24.691704,42.02366],[24.691687,42.023584],[24.691737,42.023407],[24.691788,42.023346],[24.691982,42.023149],[24.692174,42.023005],[24.692265,42.022972],[24.692809,42.022884],[24.692909,42.022834],[24.69289,42.022813],[24.693067,42.022728],[24.693093,42.022679],[24.693146,42.022664],[24.693182,42.022696],[24.693288,42.022695],[24.693371,42.022604],[24.69363,42.022612],[24.69361,42.022714],[24.693803,42.022751],[24.694482,42.02278],[24.695504,42.022449],[24.695574,42.022411],[24.695752,42.022232],[24.696811,42.020785],[24.696618,42.020493],[24.696206,42.02052],[24.695614,42.020632],[24.695586,42.020917],[24.695317,42.021177],[24.695573,42.021505],[24.695409,42.021818],[24.695228,42.021897],[24.695068,42.021579],[24.695062,42.021432],[24.695109,42.021351],[24.695146,42.021004],[24.695112,42.020844],[24.695088,42.020405],[24.694934,42.020228],[24.694448,42.020024],[24.694171,42.019843],[24.694089,42.019819],[24.693253,42.019416],[24.692726,42.019236],[24.692343,42.019009],[24.692001,42.018943],[24.691255,42.018731],[24.691031,42.01857],[24.691046,42.018535],[24.690983,42.018454],[24.690887,42.018256],[24.690891,42.018589],[24.690865,42.018741],[24.690724,42.019074],[24.690644,42.019344],[24.690627,42.019519],[24.690586,42.019687],[24.690506,42.019888],[24.690648,42.020101],[24.69071,42.02024],[24.690797,42.020369],[24.690835,42.020529]]]},"properties":{"cadreg":14}},{"type":"Feature","geometry":{"type":"Polygon","coordinates":[[[24.692038,42.023791],[24.692166,42.023699],[24.692229,42.023572],[24.692298,42.023511],[24.692442,42.023444],[24.692862,42.023351],[24.693078,42.023336],[24.693518,42.02334],[24.694153,42.023564],[24.694711,42.02362],[24.695882,42.023538],[24.69636,42.023528],[24.697846,42.023388],[24.698096,42.023303],[24.69878,42.022928],[24.699118,42.022784],[24.700741,42.022026],[24.700884,42.022017],[24.702071,42.022153],[24.702843,42.022197],[24.703055,42.022157],[24.703215,42.022097],[24.703331,42.022012],[24.703753,42.021381],[24.703827,42.0213],[24.704044,42.021179],[24.704246,42.021125],[24.70456,42.021091],[24.705904,42.021273],[24.706382,42.021298],[24.706447,42.021314],[24.706956,42.021715],[24.707141,42.021827],[24.707295,42.021873],[24.707524,42.021901],[24.707966,42.021875],[24.708745,42.021795],[24.70887,42.021735],[24.709089,42.021594],[24.709321,42.021506],[24.709594,42.021477],[24.709748,42.021431],[24.709811,42.021319],[24.709821,42.021225],[24.709741,42.020884],[24.709757,42.020754],[24.709434,42.020587],[24.707845,42.020019],[24.707332,42.019234],[24.706738,42.018798],[24.706754,42.018378],[24.706659,42.01807],[24.706387,42.017699],[24.706358,42.017279],[24.70606,42.017171],[24.705375,42.016455],[24.705171,42.015686],[24.70504,42.015572],[24.704889,42.014917],[24.705312,42.014118],[24.704919,42.013461],[24.704894,42.013027],[24.704429,42.012555],[24.704359,42.011922],[24.704306,42.011832],[24.704019,42.011999],[24.703789,42.012219],[24.703605,42.012562],[24.703571,42.012927],[24.703633,42.013331],[24.70367,42.013725],[24.703614,42.014222],[24.703533,42.014346],[24.702508,42.014765],[24.702435,42.014809],[24.7024,42.014868],[24.702387,42.014998],[24.70242,42.01508],[24.702641,42.015451],[24.702543,42.015692],[24.702542,42.015804],[24.702622,42.015974],[24.702828,42.016316],[24.702923,42.016532],[24.702901,42.016601],[24.702556,42.017126],[24.702551,42.017242],[24.7027,42.017626],[24.702709,42.017702],[24.70263,42.017797],[24.702564,42.017852],[24.702521,42.017861],[24.702395,42.017876],[24.702253,42.017852],[24.702104,42.017801],[24.701783,42.017618],[24.701692,42.017607],[24.701615,42.017616],[24.701583,42.017664],[24.701574,42.017731],[24.701582,42.018144],[24.701511,42.018302],[24.701392,42.018417],[24.700941,42.018659],[24.700352,42.018947],[24.699544,42.019288],[24.699367,42.019391],[24.698976,42.019582],[24.697461,42.020118],[24.697278,42.020195],[24.697215,42.020244],[24.695752,42.022232],[24.695574,42.022411],[24.695418,42.022485],[24.694482,42.02278],[24.693803,42.022751],[24.69361,42.022714],[24.69363,42.022612],[24.693371,42.022604],[24.693288,42.022695],[24.693182,42.022696],[24.693146,42.022664],[24.693093,42.022679],[24.693067,42.022728],[24.69289,42.022813],[24.692909,42.022834],[24.692809,42.022884],[24.692265,42.022972],[24.692174,42.023005],[24.691982,42.023149],[24.691788,42.023346],[24.691737,42.023407],[24.691687,42.023584],[24.691704,42.02366],[24.691829,42.023772],[24.691919,42.02379],[24.692038,42.023791]],[[24.699926,42.021295],[24.700083,42.021192],[24.699945,42.021193],[24.699892,42.02114],[24.69957,42.021041],[24.699379,42.021089],[24.69953,42.021251],[24.699636,42.021265],[24.699479,42.021344],[24.699161,42.021251],[24.698941,42.021116],[24.6989,42.021119],[24.698282,42.020866],[24.697236,42.0204],[24.697328,42.020279],[24.697374,42.020248],[24.698813,42.019754],[24.698993,42.01968],[24.69957,42.019388],[24.699941,42.020092],[24.699892,42.020452],[24.699983,42.020639],[24.700171,42.020825],[24.700119,42.021086],[24.700207,42.021256],[24.69993,42.021333],[24.699926,42.021295]]]},"properties":{"cadreg":15}},{"type":"Feature","geometry":{"type":"MultiPolygon","coordinates":[[[[24.694617,42.014664],[24.694917,42.014427],[24.695117,42.014196],[24.695389,42.013991],[24.696162,42.013128],[24.696366,42.013069],[24.696652,42.013016],[24.697007,42.012832],[24.697195,42.01261],[24.697148,42.012504],[24.697076,42.012416],[24.697025,42.012312],[24.696747,42.012061],[24.696278,42.011475],[24.696191,42.0114],[24.695869,42.011256],[24.695945,42.011088],[24.69596,42.010879],[24.695845,42.011057],[24.695687,42.011193],[24.695437,42.011347],[24.69523,42.011524],[24.69478,42.012106],[24.694657,42.012222],[24.694285,42.012429],[24.693396,42.012776],[24.693132,42.012916],[24.692534,42.013078],[24.692124,42.013245],[24.691799,42.013421],[24.691169,42.013819],[24.691038,42.014149],[24.69101,42.014557],[24.691095,42.01495],[24.69099,42.01523],[24.690812,42.015521],[24.690853,42.015696],[24.690808,42.015886],[24.690836,42.016238],[24.690905,42.016561],[24.6908,42.017687],[24.690887,42.018256],[24.690983,42.018454],[24.69107,42.018565],[24.691159,42.018646],[24.691269,42.018611],[24.691667,42.018251],[24.691706,42.018057],[24.691859,42.017837],[24.69198,42.017738],[24.692193,42.017612],[24.69249,42.01748],[24.692758,42.017203],[24.692765,42.01706],[24.69273,42.016985],[24.692534,42.016779],[24.692844,42.01652],[24.69313,42.01638],[24.69339,42.016178],[24.693587,42.015905],[24.693798,42.015686],[24.694059,42.015492],[24.694357,42.015352],[24.69467,42.015275],[24.694863,42.015254],[24.694971,42.015216],[24.695039,42.015089],[24.694998,42.014937],[24.694836,42.014796],[24.694617,42.014664]]],[[[24.701783,42.017618],[24.702104,42.017801],[24.702253,42.017852],[24.702395,42.017876],[24.702564,42.017852],[24.702709,42.017702],[24.702667,42.01752],[24.702551,42.017242],[24.702556,42.017126],[24.702508,42.017028],[24.70222,42.017114],[24.701817,42.017031],[24.701678,42.017591],[24.701692,42.017607],[24.701783,42.017618]]],[[[24.695591,42.020868],[24.695614,42.020632],[24.696206,42.02052],[24.696618,42.020493],[24.696811,42.020785],[24.697008,42.020514],[24.696936,42.020494],[24.696759,42.020641],[24.696519,42.020351],[24.696063,42.020482],[24.695725,42.020515],[24.695521,42.02059],[24.695563,42.020742],[24.695567,42.020868],[24.695591,42.020868]]]]},"properties":{"cadreg":16}},{"type":"Feature","geometry":{"type":"Polygon","coordinates":[[[24.69007,42.007717],[24.689775,42.007866],[24.689681,42.007943],[24.689386,42.008116],[24.688803,42.008162],[24.688052,42.008392],[24.687821,42.008424],[24.687566,42.008505],[24.687439,42.008575],[24.686931,42.008774],[24.686672,42.008842],[24.686549,42.008854],[24.686339,42.008914],[24.685919,42.009102],[24.685788,42.009188],[24.685539,42.009273],[24.685316,42.009373],[24.68494,42.009493],[24.684472,42.009621],[24.683584,42.009833],[24.682925,42.010195],[24.68268,42.010288],[24.682462,42.010398],[24.682213,42.010464],[24.681986,42.010597],[24.681716,42.010723],[24.681492,42.010868],[24.681119,42.010907],[24.680813,42.011013],[24.680564,42.01114],[24.680373,42.011177],[24.680308,42.010957],[24.679979,42.010949],[24.679517,42.010849],[24.679411,42.010931],[24.679232,42.011204],[24.679034,42.011132],[24.678882,42.011116],[24.678718,42.011133],[24.678681,42.011437],[24.679864,42.011651],[24.681437,42.011912],[24.681851,42.012051],[24.682135,42.012167],[24.682293,42.012283],[24.683281,42.012752],[24.683984,42.012982],[24.684144,42.01302],[24.684373,42.013055],[24.684512,42.013057],[24.684626,42.013082],[24.684545,42.01317],[24.684544,42.013262],[24.684579,42.013317],[24.684583,42.013476],[24.684623,42.01366],[24.684568,42.013723],[24.684609,42.01379],[24.684697,42.013838],[24.685393,42.013942],[24.685816,42.013973],[24.686044,42.013982],[24.686521,42.013965],[24.686679,42.014055],[24.686762,42.014504],[24.686851,42.014656],[24.687017,42.015026],[24.687121,42.015176],[24.687215,42.015272],[24.687443,42.015336],[24.687718,42.015451],[24.68781,42.015544],[24.687916,42.015717],[24.687939,42.015831],[24.687946,42.016094],[24.688011,42.016262],[24.688028,42.016386],[24.688117,42.016507],[24.688185,42.016677],[24.688134,42.016808],[24.688117,42.016952],[24.688154,42.017121],[24.688285,42.017258],[24.688327,42.017332],[24.688277,42.017378],[24.688269,42.017455],[24.688449,42.017527],[24.688516,42.017694],[24.688639,42.017745],[24.688775,42.017762],[24.68895,42.017738],[24.689276,42.017719],[24.689375,42.01764],[24.689682,42.017515],[24.690048,42.017317],[24.690404,42.017446],[24.690172,42.017937],[24.690129,42.018169],[24.690154,42.018329],[24.690011,42.018727],[24.68991,42.018838],[24.689822,42.019163],[24.689753,42.01931],[24.689664,42.019381],[24.689619,42.019494],[24.690057,42.019679],[24.690229,42.019701],[24.690485,42.019861],[24.690506,42.019888],[24.690586,42.019687],[24.690627,42.019519],[24.690644,42.019344],[24.690724,42.019074],[24.690828,42.018858],[24.690891,42.018589],[24.690897,42.018343],[24.6908,42.017687],[24.690905,42.016561],[24.690836,42.016238],[24.690808,42.015886],[24.690853,42.015696],[24.690812,42.015521],[24.69099,42.01523],[24.691095,42.01495],[24.69101,42.014557],[24.691038,42.014149],[24.691169,42.013819],[24.691799,42.013421],[24.692124,42.013245],[24.69308,42.012842],[24.693977,42.012289],[24.694307,42.01205],[24.694489,42.011818],[24.694702,42.01146],[24.694767,42.011166],[24.694709,42.010839],[24.694341,42.010314],[24.694123,42.010058],[24.69384,42.009789],[24.693445,42.009555],[24.693144,42.009322],[24.692713,42.009195],[24.691541,42.008422],[24.691233,42.007718],[24.691049,42.007483],[24.690512,42.007144],[24.690477,42.007229],[24.69018,42.007561],[24.69007,42.007717]]]},"properties":{"cadreg":17}},{"type":"Feature","geometry":{"type":"Polygon","coordinates":[[[24.678681,42.011437],[24.6785,42.012898],[24.680292,42.016055],[24.680145,42.016319],[24.680198,42.016464],[24.680698,42.016387],[24.680886,42.016434],[24.682289,42.016641],[24.68392,42.016969],[24.684179,42.016894],[24.684729,42.01678],[24.685316,42.01678],[24.685702,42.016829],[24.686093,42.016835],[24.686247,42.016869],[24.686395,42.017025],[24.68654,42.017254],[24.686805,42.01755],[24.68693,42.017754],[24.686999,42.017972],[24.687052,42.018024],[24.68721,42.018374],[24.687342,42.018541],[24.687515,42.018849],[24.687608,42.018974],[24.687709,42.019012],[24.68803,42.018947],[24.688312,42.01898],[24.688526,42.019044],[24.689619,42.019494],[24.689664,42.019381],[24.689753,42.01931],[24.689822,42.019163],[24.68991,42.018838],[24.690011,42.018727],[24.690154,42.018329],[24.690129,42.018169],[24.690172,42.017937],[24.690404,42.017446],[24.690048,42.017317],[24.689682,42.017515],[24.689375,42.01764],[24.689276,42.017719],[24.68895,42.017738],[24.688775,42.017762],[24.688639,42.017745],[24.688516,42.017694],[24.688449,42.017527],[24.688269,42.017455],[24.688277,42.017378],[24.688327,42.017332],[24.688285,42.017258],[24.688154,42.017121],[24.688117,42.016952],[24.688134,42.016808],[24.688185,42.016677],[24.688117,42.016507],[24.688028,42.016386],[24.688011,42.016262],[24.687946,42.016094],[24.687939,42.015831],[24.687916,42.015717],[24.68781,42.015544],[24.687718,42.015451],[24.687443,42.015336],[24.687215,42.015272],[24.687121,42.015176],[24.687017,42.015026],[24.686851,42.014656],[24.686762,42.014504],[24.686679,42.014055],[24.686521,42.013965],[24.686044,42.013982],[24.685816,42.013973],[24.685393,42.013942],[24.684697,42.013838],[24.684609,42.01379],[24.684568,42.013723],[24.684623,42.01366],[24.684583,42.013476],[24.684579,42.013317],[24.684544,42.013262],[24.684545,42.01317],[24.684626,42.013082],[24.684512,42.013057],[24.684373,42.013055],[24.684144,42.01302],[24.683984,42.012982],[24.683281,42.012752],[24.682293,42.012283],[24.682135,42.012167],[24.681851,42.012051],[24.681437,42.011912],[24.679864,42.011651],[24.678681,42.011437]]]},"properties":{"cadreg":18}},{"type":"Feature","geometry":{"type":"Polygon","coordinates":[[[24.681061,41.989904],[24.680979,41.989589],[24.680796,41.989203],[24.680403,41.988677],[24.680278,41.988381],[24.680321,41.98751],[24.680227,41.986978],[24.680011,41.986207],[24.680516,41.98202],[24.680329,41.98163],[24.67979,41.980168],[24.680207,41.98312],[24.68018,41.983509],[24.680191,41.983651],[24.680101,41.98396],[24.679327,41.987328],[24.679495,41.988767],[24.681529,41.993497],[24.682783,41.996584],[24.683893,41.997259],[24.684781,41.999468],[24.68487,41.999825],[24.684712,42.000389],[24.684549,42.000731],[24.684288,42.001173],[24.684237,42.001313],[24.684065,42.002221],[24.683962,42.002555],[24.683634,42.00291],[24.683091,42.003425],[24.682832,42.003554],[24.68218,42.003736],[24.68228,42.004267],[24.682346,42.006267],[24.682187,42.00642],[24.681972,42.006566],[24.681744,42.006958],[24.681153,42.00757],[24.680609,42.008249],[24.680328,42.00848],[24.68002,42.008593],[24.679608,42.008856],[24.679076,42.009099],[24.678493,42.009451],[24.678289,42.009689],[24.678398,42.009969],[24.678533,42.010164],[24.67863,42.010347],[24.678651,42.010806],[24.678703,42.010847],[24.678718,42.011133],[24.678882,42.011116],[24.679034,42.011132],[24.679232,42.011204],[24.679411,42.010931],[24.679517,42.010849],[24.679979,42.010949],[24.680308,42.010957],[24.680373,42.011177],[24.680564,42.01114],[24.680813,42.011013],[24.681119,42.010907],[24.681492,42.010868],[24.681716,42.010723],[24.681986,42.010597],[24.682213,42.010464],[24.682462,42.010398],[24.68268,42.010288],[24.682925,42.010195],[24.683584,42.009833],[24.684472,42.009621],[24.68494,42.009493],[24.685316,42.009373],[24.685539,42.009273],[24.685788,42.009188],[24.685919,42.009102],[24.686339,42.008914],[24.686549,42.008854],[24.686672,42.008842],[24.686931,42.008774],[24.687439,42.008575],[24.687566,42.008505],[24.687821,42.008424],[24.688052,42.008392],[24.688803,42.008162],[24.689386,42.008116],[24.689681,42.007943],[24.689775,42.007866],[24.69007,42.007717],[24.69018,42.007561],[24.690477,42.007229],[24.690512,42.007144],[24.691049,42.007483],[24.691233,42.007718],[24.691541,42.008422],[24.692713,42.009195],[24.693144,42.009322],[24.693445,42.009555],[24.69384,42.009789],[24.694123,42.010058],[24.694341,42.010314],[24.694709,42.010839],[24.694767,42.011166],[24.694702,42.01146],[24.694489,42.011818],[24.694307,42.01205],[24.693977,42.012289],[24.69308,42.012842],[24.692534,42.013078],[24.693132,42.012916],[24.693396,42.012776],[24.694285,42.012429],[24.694657,42.012222],[24.69478,42.012106],[24.69523,42.011524],[24.695437,42.011347],[24.695687,42.011193],[24.695845,42.011057],[24.69596,42.010879],[24.695945,42.011088],[24.695869,42.011256],[24.696191,42.0114],[24.696278,42.011475],[24.696747,42.012061],[24.697025,42.012312],[24.697076,42.012416],[24.697148,42.012504],[24.697183,42.012596],[24.697342,42.012764],[24.697449,42.012926],[24.697438,42.013003],[24.697402,42.013076],[24.697322,42.013212],[24.697151,42.013436],[24.697122,42.013542],[24.697059,42.013616],[24.697001,42.013733],[24.696996,42.013899],[24.696958,42.013953],[24.696883,42.014004],[24.696932,42.014052],[24.697051,42.014077],[24.697217,42.014164],[24.69733,42.014191],[24.697399,42.014257],[24.697454,42.014416],[24.69742,42.014511],[24.697747,42.014657],[24.698259,42.014971],[24.698641,42.015153],[24.70037,42.015384],[24.700843,42.015412],[24.70108,42.015453],[24.698121,42.014205],[24.698487,42.013763],[24.698494,42.013628],[24.698712,42.013624],[24.699018,42.0137],[24.69937,42.01373],[24.699476,42.013629],[24.699601,42.01341],[24.699972,42.013603],[24.700376,42.01373],[24.700687,42.013959],[24.701033,42.014178],[24.70165,42.014508],[24.702117,42.014716],[24.7024,42.014868],[24.702435,42.014809],[24.702508,42.014765],[24.703533,42.014346],[24.703614,42.014222],[24.70367,42.013725],[24.703633,42.013331],[24.703571,42.012927],[24.703605,42.012562],[24.703789,42.012219],[24.704019,42.011999],[24.704306,42.011832],[24.70411,42.011457],[24.704087,42.010837],[24.700153,42.007143],[24.699161,42.006392],[24.69809,42.005689],[24.697734,42.005238],[24.697647,42.005064],[24.697394,42.004869],[24.697043,42.00423],[24.696632,42.003405],[24.696359,42.002986],[24.695738,42.002116],[24.694854,42.00185],[24.693176,42.00155],[24.69229,42.00129],[24.691377,42.000868],[24.691034,42.000573],[24.690564,42.000062],[24.690516,41.999865],[24.687343,41.997725],[24.687893,41.997121],[24.687364,41.995487],[24.686893,41.994762],[24.685365,41.994307],[24.684166,41.994181],[24.682877,41.993668],[24.682706,41.993232],[24.682836,41.99243],[24.682792,41.991865],[24.682497,41.991706],[24.681565,41.991459],[24.681177,41.991252],[24.680994,41.990768],[24.681,41.990426],[24.681087,41.990162],[24.681061,41.989904]]]},"properties":{"cadreg":19}},{"type":"Feature","geometry":{"type":"MultiPolygon","coordinates":[[[[24.697747,42.014657],[24.69742,42.014511],[24.697454,42.014416],[24.697446,42.014363],[24.697399,42.014257],[24.69733,42.014191],[24.697217,42.014164],[24.697051,42.014077],[24.696932,42.014052],[24.696883,42.014004],[24.696958,42.013953],[24.696996,42.013899],[24.697001,42.013733],[24.697059,42.013616],[24.697122,42.013542],[24.697151,42.013436],[24.697322,42.013212],[24.697438,42.013003],[24.697449,42.012926],[24.697415,42.012854],[24.697195,42.01261],[24.697007,42.012832],[24.696652,42.013016],[24.696366,42.013069],[24.696162,42.013128],[24.695389,42.013991],[24.695117,42.014196],[24.694917,42.014427],[24.694617,42.014664],[24.694836,42.014796],[24.694998,42.014937],[24.695039,42.015089],[24.694971,42.015216],[24.694863,42.015254],[24.69467,42.015275],[24.694357,42.015352],[24.694059,42.015492],[24.693798,42.015686],[24.693587,42.015905],[24.69339,42.016178],[24.69313,42.01638],[24.692844,42.01652],[24.692534,42.016779],[24.69273,42.016985],[24.692765,42.01706],[24.692758,42.017203],[24.69249,42.01748],[24.692193,42.017612],[24.69198,42.017738],[24.691859,42.017837],[24.691706,42.018057],[24.691667,42.018251],[24.691269,42.018611],[24.691159,42.018646],[24.691046,42.018535],[24.691031,42.01857],[24.691255,42.018731],[24.692001,42.018943],[24.692343,42.019009],[24.692726,42.019236],[24.693253,42.019416],[24.694089,42.019819],[24.694171,42.019843],[24.694448,42.020024],[24.694934,42.020228],[24.695088,42.020405],[24.695112,42.020844],[24.695146,42.021004],[24.695109,42.021351],[24.695062,42.021432],[24.695068,42.021579],[24.695228,42.021897],[24.695409,42.021818],[24.695573,42.021505],[24.695317,42.021177],[24.695586,42.020917],[24.695591,42.020868],[24.695567,42.020868],[24.695563,42.020742],[24.695521,42.02059],[24.695725,42.020515],[24.696063,42.020482],[24.696519,42.020351],[24.696759,42.020641],[24.696936,42.020494],[24.697008,42.020514],[24.697168,42.020293],[24.697278,42.020195],[24.697461,42.020118],[24.698976,42.019582],[24.699367,42.019391],[24.699544,42.019288],[24.700352,42.018947],[24.700941,42.018659],[24.701392,42.018417],[24.701511,42.018302],[24.701582,42.018144],[24.701583,42.017664],[24.701615,42.017616],[24.701692,42.017607],[24.701678,42.017591],[24.701817,42.017031],[24.70222,42.017114],[24.702508,42.017028],[24.702556,42.017126],[24.702901,42.016601],[24.702923,42.016532],[24.702828,42.016316],[24.702622,42.015974],[24.702542,42.015804],[24.702543,42.015692],[24.702641,42.015451],[24.70242,42.01508],[24.702387,42.014998],[24.7024,42.014868],[24.702117,42.014716],[24.70165,42.014508],[24.701033,42.014178],[24.700687,42.013959],[24.700376,42.01373],[24.699972,42.013603],[24.699601,42.01341],[24.699476,42.013629],[24.69937,42.01373],[24.699018,42.0137],[24.698712,42.013624],[24.698494,42.013628],[24.698487,42.013763],[24.698121,42.014205],[24.70108,42.015453],[24.700843,42.015412],[24.70037,42.015384],[24.698641,42.015153],[24.698259,42.014971],[24.697747,42.014657]]],[[[24.699636,42.021265],[24.69953,42.021251],[24.699379,42.021089],[24.69957,42.021041],[24.699892,42.02114],[24.699945,42.021193],[24.700083,42.021192],[24.699926,42.021295],[24.69993,42.021333],[24.700207,42.021256],[24.700119,42.021086],[24.700171,42.020825],[24.699983,42.020639],[24.699892,42.020452],[24.699941,42.020092],[24.69957,42.019388],[24.698993,42.01968],[24.698813,42.019754],[24.697374,42.020248],[24.697328,42.020279],[24.697236,42.0204],[24.698282,42.020866],[24.6989,42.021119],[24.698941,42.021116],[24.699161,42.021251],[24.699479,42.021344],[24.699636,42.021265]]]]},"properties":{"cadreg":20}}]}