{"type":"FeatureCollection","features":[{"type":"Feature","geometry":{"type":"Polygon","coordinates":[[[25.003518,42.160291],[25.003297,42.160053],[25.003224,42.160091],[25.003439,42.16033],[25.003518,42.160291]]]},"properties":{"num":1}},{"type":"Feature","geometry":{"type":"Polygon","coordinates":[[[25.005523,42.160563],[25.005549,42.160594],[25.005616,42.160565],[25.005589,42.160535],[25.005523,42.160563]]]},"properties":{"num":1}},{"type":"Feature","geometry":{"type":"Polygon","coordinates":[[[25.006695,42.160131],[25.006774,42.160099],[25.006744,42.160064],[25.006667,42.160096],[25.006695,42.160131]]]},"properties":{"num":2}},{"type":"Feature","geometry":{"type":"Polygon","coordinates":[[[25.005721,42.160204],[25.005519,42.160306],[25.005584,42.16038],[25.005789,42.160277],[25.005721,42.160204]]]},"properties":{"num":3}},{"type":"Feature","geometry":{"type":"Polygon","coordinates":[[[25.006022,42.160158],[25.005956,42.160086],[25.005721,42.160204],[25.005789,42.160277],[25.006022,42.160158]]]},"properties":{"num":4}},{"type":"Feature","geometry":{"type":"Polygon","coordinates":[[[25.006268,42.159619],[25.006365,42.159572],[25.006313,42.15951],[25.006215,42.159553],[25.006268,42.159619]]]},"properties":{"num":5}},{"type":"Feature","geometry":{"type":"Polygon","coordinates":[[[25.005686,42.159789],[25.005663,42.159761],[25.005617,42.159783],[25.005641,42.159811],[25.00525,42.160008],[25.005314,42.160082],[25.005786,42.159846],[25.005721,42.159771],[25.005686,42.159789]]]},"properties":{"num":6}},{"type":"Feature","geometry":{"type":"Polygon","coordinates":[[[25.005925,42.159127],[25.005828,42.159176],[25.005995,42.159361],[25.006092,42.159312],[25.005925,42.159127]]]},"properties":{"num":7}},{"type":"Feature","geometry":{"type":"Polygon","coordinates":[[[25.006093,42.159469],[25.00619,42.159422],[25.006186,42.159418],[25.006174,42.159424],[25.006149,42.159397],[25.006162,42.15939],[25.006092,42.159312],[25.005995,42.159361],[25.006093,42.159469]]]},"properties":{"num":8}},{"type":"Feature","geometry":{"type":"Polygon","coordinates":[[[25.004528,42.159681],[25.004553,42.15971],[25.004633,42.159671],[25.004608,42.159642],[25.004528,42.159681]]]},"properties":{"num":9}},{"type":"Feature","geometry":{"type":"Polygon","coordinates":[[[25.005596,42.159395],[25.005531,42.159326],[25.005279,42.159453],[25.005342,42.159523],[25.005596,42.159395]]]},"properties":{"num":10}},{"type":"Feature","geometry":{"type":"Polygon","coordinates":[[[25.005753,42.159213],[25.005531,42.159326],[25.005596,42.159395],[25.005816,42.159284],[25.005753,42.159213]]]},"properties":{"num":11}},{"type":"Feature","geometry":{"type":"Polygon","coordinates":[[[25.005279,42.159453],[25.004918,42.159637],[25.004981,42.159707],[25.005342,42.159523],[25.005279,42.159453]]]},"properties":{"num":12}},{"type":"Feature","geometry":{"type":"Polygon","coordinates":[[[25.00267,42.159608],[25.002495,42.159409],[25.002411,42.159446],[25.002629,42.159711],[25.003065,42.159514],[25.003011,42.159455],[25.00267,42.159608]]]},"properties":{"num":1}},{"type":"Feature","geometry":{"type":"Polygon","coordinates":[[[25.003067,42.159516],[25.00325,42.15943],[25.003252,42.159433],[25.003253,42.159429],[25.003318,42.159403],[25.003316,42.159401],[25.003389,42.159366],[25.003391,42.15937],[25.003397,42.159367],[25.003122,42.159056],[25.003039,42.159093],[25.003259,42.159344],[25.003011,42.159455],[25.003067,42.159516]]]},"properties":{"num":2}},{"type":"Feature","geometry":{"type":"Polygon","coordinates":[[[25.002474,42.159778],[25.002582,42.15973],[25.002396,42.159498],[25.002289,42.159546],[25.002474,42.159778]]]},"properties":{"num":3}},{"type":"Feature","geometry":{"type":"Polygon","coordinates":[[[25.002465,42.159296],[25.002433,42.159263],[25.002388,42.159287],[25.002421,42.159319],[25.002465,42.159296]]]},"properties":{"num":4}},{"type":"Feature","geometry":{"type":"Polygon","coordinates":[[[25.003557,42.159208],[25.003178,42.158772],[25.003093,42.15881],[25.003528,42.159306],[25.00386,42.159154],[25.003806,42.159093],[25.003557,42.159208]]]},"properties":{"num":1}},{"type":"Feature","geometry":{"type":"Polygon","coordinates":[[[25.004271,42.158967],[25.003881,42.158491],[25.003788,42.158533],[25.004126,42.158948],[25.003806,42.159093],[25.00386,42.159154],[25.004271,42.158967]]]},"properties":{"num":2}},{"type":"Feature","geometry":{"type":"Polygon","coordinates":[[[25.003383,42.158562],[25.003345,42.158527],[25.003295,42.158554],[25.003333,42.158589],[25.003383,42.158562]]]},"properties":{"num":3}},{"type":"Feature","geometry":{"type":"Polygon","coordinates":[[[25.003759,42.159115],[25.003806,42.159093],[25.003789,42.159074],[25.003742,42.159095],[25.003759,42.159115]]]},"properties":{"num":4}},{"type":"Feature","geometry":{"type":"Polygon","coordinates":[[[25.003599,42.159759],[25.003478,42.159822],[25.003889,42.160267],[25.004011,42.160205],[25.003599,42.159759]]]},"properties":{"num":1}},{"type":"Feature","geometry":{"type":"Polygon","coordinates":[[[25.004278,42.160068],[25.003866,42.159621],[25.003743,42.159684],[25.004155,42.160131],[25.004278,42.160068]]]},"properties":{"num":1}},{"type":"Feature","geometry":{"type":"Polygon","coordinates":[[[25.00731,42.159885],[25.007526,42.159798],[25.007455,42.159699],[25.007239,42.159787],[25.00731,42.159885]]]},"properties":{"num":1}},{"type":"Feature","geometry":{"type":"Polygon","coordinates":[[[25.007244,42.159795],[25.007233,42.159799],[25.00725,42.159822],[25.007261,42.159818],[25.007244,42.159795]]]},"properties":{"num":2}},{"type":"Feature","geometry":{"type":"Polygon","coordinates":[[[25.007261,42.159818],[25.006951,42.159941],[25.007,42.16001],[25.00731,42.159885],[25.007261,42.159818]]]},"properties":{"num":3}},{"type":"Feature","geometry":{"type":"Polygon","coordinates":[[[25.003123,42.157993],[25.003032,42.157862],[25.002939,42.157902],[25.003075,42.158101],[25.003648,42.157875],[25.003468,42.15763],[25.003375,42.157669],[25.003502,42.157843],[25.003123,42.157993]]]},"properties":{"num":1}},{"type":"Feature","geometry":{"type":"Polygon","coordinates":[[[25.004584,42.159263],[25.00465,42.159336],[25.005156,42.159078],[25.005089,42.159005],[25.004584,42.159263]]]},"properties":{"num":1}},{"type":"Feature","geometry":{"type":"Polygon","coordinates":[[[25.003613,42.159409],[25.003717,42.159528],[25.003772,42.159501],[25.003668,42.159382],[25.003613,42.159409]]]},"properties":{"num":1}}]}