{"type":"FeatureCollection","features":[{"type":"Feature","geometry":{"type":"Polygon","coordinates":[[[25.020248,42.160319],[25.025835,42.158589],[25.0282,42.15777],[25.025788,42.155158],[25.02377,42.156019],[25.020766,42.156318],[25.017949,42.156371],[25.016278,42.156335],[25.01539,42.156231],[25.014622,42.155899],[25.01454,42.156801],[25.007948,42.160609],[25.00875,42.161448],[25.003993,42.163953],[25.004662,42.164624],[25.004602,42.165304],[25.008038,42.165142],[25.010995,42.163933],[25.012681,42.163344],[25.012857,42.163576],[25.013633,42.163213],[25.013465,42.163072],[25.015335,42.162341],[25.017716,42.161079],[25.020248,42.160319]]]},"properties":{"cadreg":888}},{"type":"Feature","geometry":{"type":"Polygon","coordinates":[[[24.97775,42.1735],[24.979227,42.170409],[24.979098,42.170231],[24.978766,42.169594],[24.978297,42.168503],[24.977829,42.167607],[24.977651,42.167114],[24.976437,42.164604],[24.97638,42.164619],[24.976453,42.16443],[24.977673,42.164331],[24.977591,42.164136],[24.976084,42.164324],[24.979011,42.170373],[24.977544,42.173649],[24.977711,42.174446],[24.97844,42.175256],[24.981794,42.178817],[24.98353,42.178589],[24.98528,42.180281],[24.985433,42.180454],[24.985597,42.180508],[24.985594,42.180448],[24.989182,42.179064],[24.98912,42.178977],[24.988983,42.17808],[24.987938,42.176431],[24.987268,42.175458],[24.987219,42.175481],[24.987298,42.175596],[24.985177,42.176373],[24.984229,42.1767],[24.982704,42.176807],[24.980168,42.176879],[24.980067,42.176715],[24.978673,42.175298],[24.977924,42.174507],[24.977788,42.173951],[24.97775,42.1735]]]},"properties":{"cadreg":3}},{"type":"Feature","geometry":{"type":"Polygon","coordinates":[[[24.993674,42.175049],[24.988983,42.17808],[24.98912,42.178977],[24.989182,42.179064],[24.990307,42.178635],[24.990648,42.178591],[24.992182,42.178695],[24.995616,42.178562],[24.995921,42.178412],[24.997238,42.177677],[24.994212,42.174721],[24.993674,42.175049]]]},"properties":{"cadreg":4}},{"type":"Feature","geometry":{"type":"Polygon","coordinates":[[[24.987938,42.176431],[24.988983,42.17808],[24.991283,42.17661],[24.993674,42.175049],[24.994172,42.174743],[24.995291,42.174097],[24.993863,42.172272],[24.993655,42.172183],[24.993111,42.172441],[24.987101,42.175493],[24.986337,42.175772],[24.983967,42.176545],[24.983812,42.176627],[24.980067,42.176715],[24.980168,42.176879],[24.982704,42.176807],[24.984229,42.1767],[24.985177,42.176373],[24.987298,42.175596],[24.987219,42.175481],[24.987268,42.175458],[24.987938,42.176431]]]},"properties":{"cadreg":5}},{"type":"Feature","geometry":{"type":"Polygon","coordinates":[[[24.995306,42.174133],[24.995291,42.174097],[24.994212,42.174721],[24.997238,42.177677],[24.999546,42.17639],[24.999428,42.17628],[24.995306,42.174133]]]},"properties":{"cadreg":6}},{"type":"Feature","geometry":{"type":"Polygon","coordinates":[[[24.993869,42.170703],[24.993828,42.170703],[24.993899,42.172019],[24.993949,42.172247],[24.993863,42.172272],[24.994662,42.173303],[24.994917,42.173606],[24.995306,42.174133],[24.999428,42.17628],[24.999546,42.17639],[24.999915,42.176184],[25.000859,42.175887],[25.001264,42.175802],[25.001483,42.175669],[25.003157,42.175221],[24.999194,42.173173],[24.995286,42.171185],[24.99425,42.170673],[24.993999,42.17065],[24.993869,42.170703]]]},"properties":{"cadreg":7}},{"type":"Feature","geometry":{"type":"Polygon","coordinates":[[[24.991589,42.169297],[24.990293,42.169315],[24.990515,42.173764],[24.993111,42.172441],[24.993655,42.172183],[24.993863,42.172272],[24.993949,42.172247],[24.993899,42.172019],[24.993817,42.170505],[24.993792,42.169237],[24.991589,42.169297]]]},"properties":{"cadreg":8}},{"type":"Feature","geometry":{"type":"Polygon","coordinates":[[[24.990131,42.169338],[24.98686,42.169444],[24.986856,42.169745],[24.986949,42.172289],[24.987101,42.175493],[24.990515,42.173764],[24.990293,42.169315],[24.990131,42.169338]]]},"properties":{"cadreg":9}},{"type":"Feature","geometry":{"type":"Polygon","coordinates":[[[24.983658,42.169517],[24.983547,42.169541],[24.98373,42.174281],[24.983814,42.17557],[24.983848,42.176608],[24.983967,42.176545],[24.986337,42.175772],[24.987101,42.175493],[24.986949,42.172289],[24.986856,42.169745],[24.98686,42.169444],[24.983658,42.169517]]]},"properties":{"cadreg":10}},{"type":"Feature","geometry":{"type":"Polygon","coordinates":[[[24.983705,42.173629],[24.9778,42.173987],[24.977924,42.174507],[24.978673,42.175298],[24.980067,42.176715],[24.983812,42.176627],[24.983848,42.176608],[24.983814,42.17557],[24.983746,42.174649],[24.983705,42.173629]]]},"properties":{"cadreg":11}},{"type":"Feature","geometry":{"type":"Polygon","coordinates":[[[24.983547,42.169541],[24.979342,42.17036],[24.979227,42.170409],[24.97775,42.1735],[24.9778,42.173987],[24.981974,42.173724],[24.983705,42.173629],[24.983547,42.169541]]]},"properties":{"cadreg":12}},{"type":"Feature","geometry":{"type":"Polygon","coordinates":[[[24.978297,42.168503],[24.978766,42.169594],[24.979098,42.170231],[24.979227,42.170409],[24.979342,42.17036],[24.983658,42.169517],[24.985589,42.169473],[24.985588,42.169428],[24.985885,42.168557],[24.986002,42.16813],[24.98147,42.167843],[24.981386,42.167804],[24.977829,42.167607],[24.978297,42.168503]]]},"properties":{"cadreg":13}},{"type":"Feature","geometry":{"type":"Polygon","coordinates":[[[24.992348,42.167705],[24.986077,42.16811],[24.986002,42.16813],[24.985885,42.168557],[24.985588,42.169428],[24.985589,42.169473],[24.990131,42.169338],[24.990293,42.169315],[24.991589,42.169297],[24.993792,42.169237],[24.99374,42.169134],[24.993611,42.169073],[24.993158,42.169062],[24.992716,42.168328],[24.992643,42.168141],[24.992348,42.167705]]]},"properties":{"cadreg":14}},{"type":"Feature","geometry":{"type":"Polygon","coordinates":[[[24.990849,42.16521],[24.987294,42.166063],[24.987256,42.165994],[24.985442,42.166446],[24.986077,42.16811],[24.992348,42.167705],[24.990849,42.16521]]]},"properties":{"cadreg":15}},{"type":"Feature","geometry":{"type":"Polygon","coordinates":[[[24.985926,42.165121],[24.98502,42.165364],[24.985221,42.165916],[24.985442,42.166446],[24.987256,42.165994],[24.987294,42.166063],[24.990849,42.16521],[24.99007,42.16391],[24.989415,42.162706],[24.989227,42.162565],[24.989111,42.16258],[24.98846,42.163539],[24.988006,42.163908],[24.987392,42.16424],[24.985926,42.165121]]]},"properties":{"cadreg":16}},{"type":"Feature","geometry":{"type":"Polygon","coordinates":[[[24.976437,42.164604],[24.977651,42.167114],[24.977829,42.167607],[24.981386,42.167804],[24.98147,42.167843],[24.986002,42.16813],[24.986077,42.16811],[24.98502,42.165364],[24.982897,42.165081],[24.981384,42.16482],[24.980198,42.16474],[24.979066,42.164684],[24.978441,42.164599],[24.977683,42.164402],[24.976514,42.164497],[24.976437,42.164604]]]},"properties":{"cadreg":17}},{"type":"Feature","geometry":{"type":"Polygon","coordinates":[[[24.976993,42.160557],[24.976798,42.15945],[24.976799,42.159378],[24.976547,42.158496],[24.97638,42.1575],[24.977629,42.157311],[24.978054,42.157266],[24.978513,42.15644],[24.978643,42.156177],[24.978419,42.15615],[24.978268,42.156515],[24.977941,42.157202],[24.977191,42.157333],[24.976348,42.157458],[24.976178,42.157528],[24.976139,42.157571],[24.976594,42.159777],[24.977567,42.16403],[24.977924,42.164032],[24.979146,42.164335],[24.980343,42.164431],[24.981618,42.164488],[24.982829,42.164724],[24.984115,42.164932],[24.984685,42.165006],[24.985315,42.164961],[24.985677,42.164871],[24.986407,42.164422],[24.987538,42.163856],[24.988084,42.163504],[24.98834,42.163174],[24.988732,42.162562],[24.98905,42.161885],[24.989123,42.161197],[24.988953,42.160615],[24.977353,42.161748],[24.976993,42.160557]]]},"properties":{"cadreg":18}},{"type":"Feature","geometry":{"type":"Polygon","coordinates":[[[24.98158,42.159136],[24.976798,42.15945],[24.976993,42.160557],[24.977353,42.161748],[24.988953,42.160615],[24.988848,42.160192],[24.988875,42.15996],[24.989017,42.159725],[24.988969,42.15948],[24.989394,42.159231],[24.991668,42.158735],[24.991572,42.158387],[24.98158,42.159136]]]},"properties":{"cadreg":19}},{"type":"Feature","geometry":{"type":"Polygon","coordinates":[[[24.979254,42.156319],[24.979505,42.156325],[24.980499,42.156395],[24.980552,42.156806],[24.979381,42.156976],[24.97857,42.157212],[24.977629,42.157311],[24.97638,42.1575],[24.976547,42.158496],[24.976799,42.159378],[24.976798,42.15945],[24.98158,42.159136],[24.991572,42.158387],[24.991668,42.158735],[24.991826,42.158703],[24.991577,42.157532],[24.991424,42.156478],[24.991561,42.156467],[24.99155,42.156367],[24.991516,42.156369],[24.991478,42.156294],[24.991442,42.156261],[24.991063,42.156021],[24.990855,42.155949],[24.99044,42.155961],[24.990215,42.155898],[24.989952,42.155758],[24.989761,42.155702],[24.98938,42.155642],[24.988843,42.15563],[24.988159,42.155404],[24.987604,42.155175],[24.987352,42.155121],[24.986562,42.155202],[24.985858,42.155183],[24.985227,42.155197],[24.984775,42.155292],[24.984296,42.155336],[24.984142,42.155383],[24.983798,42.155575],[24.983234,42.155634],[24.982527,42.155771],[24.98147,42.155795],[24.981022,42.155786],[24.980144,42.155731],[24.979537,42.155721],[24.979231,42.155733],[24.978904,42.155712],[24.978636,42.155612],[24.978419,42.15615],[24.978643,42.156177],[24.978513,42.15644],[24.979061,42.156431],[24.979118,42.156355],[24.979254,42.156319]]]},"properties":{"cadreg":20}},{"type":"Feature","geometry":{"type":"Polygon","coordinates":[[[24.989225,42.159976],[24.989202,42.160185],[24.989385,42.160929],[24.98941,42.161247],[24.989383,42.161807],[24.989327,42.162079],[24.989147,42.162484],[24.989286,42.162511],[24.989416,42.162602],[24.990076,42.163731],[24.990184,42.163824],[24.99021,42.163807],[24.99026,42.16389],[24.990314,42.163871],[24.990292,42.16383],[24.991358,42.163459],[24.992508,42.163094],[24.994171,42.162697],[24.994796,42.162591],[24.995466,42.162603],[24.995995,42.162501],[24.995776,42.162477],[24.995643,42.16059],[24.99584,42.158287],[24.991355,42.159114],[24.989893,42.159419],[24.989674,42.159502],[24.989515,42.159619],[24.989225,42.159976]]]},"properties":{"cadreg":21}},{"type":"Feature","geometry":{"type":"Polygon","coordinates":[[[24.99026,42.16389],[24.99021,42.163807],[24.990184,42.163824],[24.990076,42.163731],[24.989416,42.162602],[24.989286,42.162511],[24.989147,42.162484],[24.989111,42.16258],[24.989227,42.162565],[24.989415,42.162706],[24.99007,42.16391],[24.992259,42.167568],[24.992396,42.167528],[24.993488,42.167038],[24.995338,42.166162],[24.995466,42.162603],[24.994796,42.162591],[24.994171,42.162697],[24.992508,42.163094],[24.991358,42.163459],[24.990292,42.16383],[24.990314,42.163871],[24.99026,42.16389]]]},"properties":{"cadreg":22}},{"type":"Feature","geometry":{"type":"Polygon","coordinates":[[[24.995643,42.16059],[24.995776,42.162477],[25.001825,42.160517],[25.000688,42.15886],[24.999891,42.15743],[24.99584,42.158287],[24.995643,42.16059]]]},"properties":{"cadreg":23}},{"type":"Feature","geometry":{"type":"Polygon","coordinates":[[[25.002612,42.162785],[25.001893,42.163144],[24.995338,42.166162],[24.993488,42.167038],[24.992396,42.167528],[24.992259,42.167568],[24.992643,42.168141],[24.992716,42.168328],[24.993158,42.169062],[24.993611,42.169073],[24.99374,42.169134],[24.993767,42.16918],[24.993792,42.169237],[24.993817,42.170505],[24.993883,42.170499],[24.99389,42.170542],[24.994819,42.17046],[24.995246,42.169806],[24.995666,42.16936],[24.995881,42.169246],[25.003536,42.166721],[25.006285,42.1658],[25.008239,42.165215],[25.008509,42.165097],[25.008427,42.164983],[25.008038,42.165142],[25.004602,42.165304],[25.004662,42.164624],[25.003993,42.163953],[25.00875,42.161448],[25.007948,42.160609],[25.008013,42.160571],[25.007667,42.160429],[25.006119,42.161245],[25.004281,42.162134],[25.002727,42.16295],[25.002612,42.162785]]]},"properties":{"cadreg":24}},{"type":"Feature","geometry":{"type":"Polygon","coordinates":[[[25.006428,42.165757],[24.995881,42.169246],[24.995666,42.16936],[24.995246,42.169806],[24.994819,42.17046],[24.99389,42.170542],[24.993883,42.170499],[24.993817,42.170505],[24.993828,42.170703],[24.993869,42.170703],[24.993999,42.17065],[24.99425,42.170673],[24.995286,42.171185],[24.997215,42.17217],[24.997342,42.172169],[24.9999,42.17174],[25.000663,42.172175],[25.001374,42.172431],[25.002009,42.172615],[25.002219,42.173086],[25.001978,42.173355],[25.000884,42.173712],[25.001684,42.17446],[25.002867,42.174305],[25.003528,42.173804],[25.004118,42.173206],[25.00421,42.172605],[25.003958,42.172175],[25.004239,42.171725],[25.005772,42.170112],[25.006424,42.170026],[25.007137,42.170421],[25.007664,42.170453],[25.008008,42.168982],[25.008572,42.16862],[25.008714,42.168506],[25.009336,42.167362],[25.010149,42.167266],[25.010138,42.167213],[25.008509,42.165097],[25.008239,42.165215],[25.006428,42.165757]]]},"properties":{"cadreg":25}},{"type":"Feature","geometry":{"type":"Polygon","coordinates":[[[25.012681,42.163344],[25.010995,42.163933],[25.008427,42.164983],[25.010138,42.167213],[25.010149,42.167266],[25.010823,42.167386],[25.014272,42.166299],[25.014847,42.166173],[25.016276,42.165649],[25.013483,42.163283],[25.012857,42.163576],[25.012681,42.163344]]]},"properties":{"cadreg":26}},{"type":"Feature","geometry":{"type":"Polygon","coordinates":[[[25.020248,42.160319],[25.017716,42.161079],[25.015335,42.162341],[25.013465,42.163072],[25.013633,42.163213],[25.013483,42.163283],[25.016954,42.166223],[25.018372,42.165318],[25.022826,42.164293],[25.026838,42.164017],[25.027135,42.164108],[25.028894,42.165044],[25.031166,42.165307],[25.031476,42.165403],[25.033228,42.165417],[25.035309,42.16503],[25.036249,42.165087],[25.037362,42.1653],[25.039773,42.165276],[25.042901,42.165436],[25.043752,42.165587],[25.044667,42.16595],[25.047561,42.167299],[25.048855,42.167091],[25.049294,42.167115],[25.049434,42.166963],[25.048703,42.166947],[25.047614,42.167123],[25.046911,42.166806],[25.044736,42.16567],[25.043876,42.165319],[25.043792,42.165302],[25.04365,42.165325],[25.043633,42.165273],[25.042814,42.16516],[25.039621,42.165047],[25.038464,42.165059],[25.037884,42.165122],[25.036938,42.165052],[25.036297,42.1649],[25.035764,42.164844],[25.035158,42.164809],[25.035162,42.164843],[25.035009,42.164872],[25.03499,42.164839],[25.033336,42.16522],[25.031593,42.165224],[25.031171,42.165103],[25.028924,42.164864],[25.027141,42.163882],[25.026391,42.160873],[25.02651,42.159798],[25.026519,42.158828],[25.026384,42.158399],[25.025835,42.158589],[25.020248,42.160319]]]},"properties":{"cadreg":27}},{"type":"Feature","geometry":{"type":"Polygon","coordinates":[[[25.033242,42.159281],[25.030974,42.15969],[25.028649,42.160233],[25.028315,42.160402],[25.027251,42.161164],[25.026483,42.161233],[25.027141,42.163882],[25.028924,42.164864],[25.031171,42.165103],[25.031593,42.165224],[25.033336,42.16522],[25.03499,42.164839],[25.033473,42.159344],[25.033394,42.159353],[25.033242,42.159281]]]},"properties":{"cadreg":28}},{"type":"Feature","geometry":{"type":"Polygon","coordinates":[[[25.02811,42.157801],[25.026384,42.158399],[25.026519,42.158828],[25.02651,42.159798],[25.026391,42.160873],[25.026483,42.161233],[25.027251,42.161164],[25.028315,42.160402],[25.028649,42.160233],[25.030974,42.15969],[25.033242,42.159281],[25.033231,42.159244],[25.03047,42.158203],[25.029407,42.157964],[25.02812,42.157815],[25.02811,42.157801]]]},"properties":{"cadreg":29}},{"type":"Feature","geometry":{"type":"Polygon","coordinates":[[[25.027389,42.153731],[25.027397,42.153771],[25.0273,42.153794],[25.0272,42.15398],[25.027132,42.154228],[25.026848,42.154949],[25.026678,42.155439],[25.026738,42.156186],[25.0282,42.15777],[25.02811,42.157801],[25.02812,42.157815],[25.029407,42.157964],[25.03047,42.158203],[25.033231,42.159244],[25.033242,42.159281],[25.033394,42.159353],[25.033473,42.159344],[25.032903,42.157123],[25.031961,42.154591],[25.032077,42.154504],[25.032166,42.154498],[25.032155,42.154448],[25.032569,42.153834],[25.027744,42.152568],[25.027389,42.153731]]]},"properties":{"cadreg":30}},{"type":"Feature","geometry":{"type":"Polygon","coordinates":[[[25.032166,42.154498],[25.032077,42.154504],[25.031961,42.154591],[25.032903,42.157123],[25.033473,42.159344],[25.035009,42.164872],[25.035162,42.164843],[25.035158,42.164809],[25.035764,42.164844],[25.036297,42.1649],[25.036938,42.165052],[25.037884,42.165122],[25.038464,42.165059],[25.039621,42.165047],[25.040923,42.165086],[25.042814,42.16516],[25.043633,42.165273],[25.04365,42.165325],[25.043792,42.165302],[25.04361,42.164622],[25.043249,42.163709],[25.043113,42.162906],[25.041279,42.156157],[25.041332,42.156066],[25.036967,42.154787],[25.036893,42.154753],[25.034764,42.154149],[25.033021,42.153813],[25.032567,42.153702],[25.032499,42.153817],[25.032569,42.153834],[25.032155,42.154448],[25.032166,42.154498]]]},"properties":{"cadreg":31}},{"type":"Feature","geometry":{"type":"Polygon","coordinates":[[[25.045988,42.157486],[25.045825,42.157418],[25.041332,42.156066],[25.041279,42.156157],[25.043113,42.162906],[25.043249,42.163709],[25.04361,42.164622],[25.043792,42.165302],[25.043876,42.165319],[25.044736,42.16567],[25.046911,42.166806],[25.047614,42.167123],[25.048703,42.166947],[25.049343,42.166961],[25.050312,42.165932],[25.049579,42.165759],[25.049146,42.164928],[25.045937,42.157559],[25.045988,42.157486]]]},"properties":{"cadreg":32}},{"type":"Feature","geometry":{"type":"Polygon","coordinates":[[[25.048987,42.15887],[25.045937,42.157559],[25.049146,42.164928],[25.051368,42.164229],[25.04908,42.158928],[25.048987,42.15887]]]},"properties":{"cadreg":33}},{"type":"Feature","geometry":{"type":"Polygon","coordinates":[[[25.048177,42.154341],[25.047836,42.154758],[25.045825,42.157418],[25.045988,42.157486],[25.045937,42.157559],[25.048987,42.15887],[25.04908,42.158928],[25.049265,42.159355],[25.052077,42.161221],[25.052571,42.16141],[25.053064,42.161506],[25.05347,42.161526],[25.053693,42.161553],[25.053886,42.161602],[25.054102,42.161714],[25.055085,42.160597],[25.053243,42.158053],[25.05263,42.15735],[25.052348,42.157075],[25.051953,42.156719],[25.051201,42.156125],[25.050262,42.155494],[25.048177,42.154341]]]},"properties":{"cadreg":34}},{"type":"Feature","geometry":{"type":"Polygon","coordinates":[[[25.02903,42.143115],[25.029072,42.143156],[25.029112,42.143274],[25.029139,42.143469],[25.029221,42.143702],[25.029816,42.143848],[25.030364,42.144412],[25.030747,42.145037],[25.031447,42.146103],[25.032758,42.147679],[25.033649,42.148306],[25.034668,42.148914],[25.034418,42.14912],[25.034848,42.149243],[25.03482,42.149315],[25.036785,42.149844],[25.034764,42.154149],[25.036893,42.154753],[25.036967,42.154787],[25.041163,42.156015],[25.045825,42.157418],[25.047836,42.154758],[25.048177,42.154341],[25.050262,42.155494],[25.050813,42.155855],[25.051583,42.156415],[25.051953,42.156719],[25.052348,42.157075],[25.05263,42.15735],[25.053243,42.158053],[25.055085,42.160597],[25.05653,42.158954],[25.053252,42.155516],[25.05143,42.153345],[25.048481,42.15204],[25.045204,42.149359],[25.043547,42.149148],[25.035936,42.146316],[25.034207,42.146138],[25.033422,42.145951],[25.033041,42.145709],[25.032459,42.144947],[25.031923,42.144324],[25.030957,42.143469],[25.03022,42.142336],[25.028474,42.141212],[25.027494,42.140254],[25.026827,42.139732],[25.026261,42.1396],[25.025438,42.139594],[25.023966,42.139754],[25.023015,42.139943],[25.022135,42.140284],[25.021329,42.140718],[25.019891,42.141752],[25.017937,42.142936],[25.017292,42.143508],[25.015904,42.145337],[25.015509,42.145743],[25.012795,42.147762],[25.010138,42.148186],[25.007026,42.149062],[25.004124,42.15012],[25.001768,42.150738],[24.999288,42.151983],[24.998156,42.152683],[24.997646,42.15288],[24.99545,42.153347],[24.991495,42.153946],[24.990803,42.15409],[24.989436,42.154096],[24.989009,42.154075],[24.987349,42.153916],[24.985624,42.154104],[24.982391,42.154732],[24.981314,42.15483],[24.978997,42.154826],[24.978683,42.155516],[24.978937,42.155566],[24.979493,42.155628],[24.980312,42.155686],[24.980784,42.155702],[24.981042,42.155687],[24.981325,42.155693],[24.981535,42.155688],[24.981784,42.155659],[24.982354,42.15565],[24.982838,42.155564],[24.983136,42.155547],[24.983617,42.155365],[24.984206,42.155233],[24.985187,42.155093],[24.985404,42.155045],[24.985581,42.155025],[24.986389,42.155011],[24.98693,42.154974],[24.987424,42.15504],[24.987664,42.155089],[24.988141,42.15535],[24.988416,42.155434],[24.988792,42.155488],[24.989751,42.155491],[24.990512,42.155614],[24.990822,42.155644],[24.991051,42.155623],[24.991384,42.155562],[24.992685,42.155512],[24.993132,42.155446],[24.993739,42.155393],[24.994361,42.155316],[24.994528,42.155175],[24.994752,42.155047],[24.99502,42.15493],[24.995152,42.15484],[24.995324,42.15478],[24.995691,42.154765],[24.996379,42.154578],[24.996892,42.154399],[24.997064,42.15428],[24.997321,42.154162],[24.997816,42.153999],[24.998087,42.153879],[24.999093,42.153329],[24.999422,42.153129],[25.000046,42.152918],[25.00029,42.152871],[25.001216,42.152486],[25.001377,42.152406],[25.002338,42.152045],[25.002656,42.151943],[25.003138,42.151813],[25.003339,42.151692],[25.003532,42.151479],[25.003785,42.151102],[25.003938,42.151007],[25.004174,42.150907],[25.004428,42.150856],[25.004666,42.150788],[25.004764,42.15064],[25.004855,42.150566],[25.005044,42.150492],[25.005238,42.150435],[25.005934,42.150343],[25.006732,42.150309],[25.007011,42.15032],[25.007666,42.150262],[25.007881,42.15022],[25.00845,42.150154],[25.009001,42.150123],[25.009464,42.150027],[25.009763,42.150077],[25.00995,42.150039],[25.010682,42.149753],[25.011277,42.149661],[25.011885,42.149503],[25.012058,42.149477],[25.012291,42.149466],[25.012355,42.149499],[25.012485,42.149528],[25.012878,42.149524],[25.013092,42.149417],[25.013426,42.149216],[25.01353,42.149126],[25.013938,42.148886],[25.014097,42.14877],[25.01425,42.148632],[25.014369,42.14843],[25.014538,42.148238],[25.014846,42.148019],[25.015004,42.147883],[25.015405,42.147409],[25.015568,42.147188],[25.015765,42.146775],[25.016029,42.146398],[25.016135,42.146288],[25.016401,42.146048],[25.016648,42.145872],[25.017119,42.145541],[25.017353,42.145427],[25.017549,42.145253],[25.017804,42.144981],[25.017883,42.144865],[25.018053,42.14467],[25.0181,42.144572],[25.018106,42.144495],[25.018078,42.144411],[25.018077,42.144321],[25.018133,42.144217],[25.018328,42.144014],[25.018424,42.143828],[25.018746,42.143482],[25.018958,42.143355],[25.019367,42.143067],[25.019651,42.143002],[25.02011,42.14248],[25.02086,42.141829],[25.021019,42.14159],[25.021385,42.141238],[25.02221,42.140913],[25.022642,42.140632],[25.022937,42.14046],[25.023014,42.140436],[25.023506,42.140347],[25.023786,42.140343],[25.024564,42.140474],[25.024876,42.140481],[25.025187,42.14046],[25.025468,42.140461],[25.025628,42.140487],[25.02582,42.140541],[25.02595,42.140596],[25.026331,42.140819],[25.027467,42.141557],[25.02778,42.141739],[25.0279,42.141851],[25.028122,42.142343],[25.028339,42.142644],[25.02853,42.142833],[25.028802,42.142972],[25.02903,42.143115]]]},"properties":{"cadreg":35}},{"type":"Feature","geometry":{"type":"Polygon","coordinates":[[[25.033269,42.151951],[25.032567,42.153702],[25.033021,42.153813],[25.034764,42.154149],[25.036785,42.149844],[25.03482,42.149315],[25.034848,42.149243],[25.034418,42.14912],[25.034383,42.149148],[25.033764,42.150624],[25.033269,42.151951]]]},"properties":{"cadreg":36}},{"type":"Feature","geometry":{"type":"Polygon","coordinates":[[[25.034367,42.149186],[25.031177,42.148362],[25.02895,42.147816],[25.028912,42.149098],[25.028865,42.149484],[25.028099,42.151647],[25.027744,42.152568],[25.032499,42.153817],[25.032555,42.153731],[25.033269,42.151951],[25.033764,42.150624],[25.034367,42.149186]]]},"properties":{"cadreg":37}},{"type":"Feature","geometry":{"type":"Polygon","coordinates":[[[25.029221,42.143702],[25.02895,42.147816],[25.031177,42.148362],[25.034367,42.149186],[25.034383,42.149148],[25.034668,42.148914],[25.033649,42.148306],[25.032758,42.147679],[25.031447,42.146103],[25.030747,42.145037],[25.030364,42.144412],[25.029816,42.143848],[25.029221,42.143702]]]},"properties":{"cadreg":38}},{"type":"Feature","geometry":{"type":"Polygon","coordinates":[[[25.02912,42.14337],[25.029112,42.143274],[25.029072,42.143156],[25.02903,42.143115],[25.028802,42.142972],[25.02853,42.142833],[25.028339,42.142644],[25.028122,42.142343],[25.0279,42.141851],[25.02778,42.141739],[25.027467,42.141557],[25.026331,42.140819],[25.02595,42.140596],[25.02582,42.140541],[25.025628,42.140487],[25.025468,42.140461],[25.025187,42.14046],[25.024876,42.140481],[25.024564,42.140474],[25.023786,42.140343],[25.023506,42.140347],[25.023175,42.140404],[25.022937,42.14046],[25.022642,42.140632],[25.02221,42.140913],[25.021385,42.141238],[25.021019,42.14159],[25.02086,42.141829],[25.02011,42.14248],[25.019651,42.143002],[25.019592,42.143842],[25.019569,42.146567],[25.019519,42.146691],[25.01937,42.146944],[25.018992,42.147512],[25.020205,42.145945],[25.020304,42.145966],[25.020227,42.146056],[25.023954,42.146859],[25.028707,42.147848],[25.028949,42.147854],[25.029221,42.143702],[25.02912,42.14337]]]},"properties":{"cadreg":39}},{"type":"Feature","geometry":{"type":"Polygon","coordinates":[[[25.023296,42.148238],[25.022824,42.149522],[25.022777,42.149512],[25.022757,42.149561],[25.022803,42.149572],[25.022121,42.151351],[25.023795,42.151667],[25.027645,42.152486],[25.027765,42.152491],[25.028099,42.151647],[25.028865,42.149484],[25.028912,42.149098],[25.028949,42.147854],[25.028707,42.147848],[25.023851,42.146834],[25.023296,42.148238]]]},"properties":{"cadreg":40}},{"type":"Feature","geometry":{"type":"Polygon","coordinates":[[[25.023851,42.146834],[25.020227,42.146056],[25.018873,42.147816],[25.018147,42.149112],[25.018004,42.149155],[25.016023,42.150257],[25.016981,42.150246],[25.017995,42.150578],[25.019228,42.15089],[25.020226,42.150933],[25.022121,42.151351],[25.022803,42.149572],[25.022757,42.149561],[25.022777,42.149512],[25.022824,42.149522],[25.023296,42.148238],[25.023851,42.146834]]]},"properties":{"cadreg":41}},{"type":"Feature","geometry":{"type":"Polygon","coordinates":[[[25.013911,42.150806],[25.013663,42.150939],[25.01345,42.151107],[25.013499,42.151141],[25.013158,42.151634],[25.012756,42.151566],[25.01276,42.151929],[25.012632,42.152371],[25.012531,42.152606],[25.012513,42.152806],[25.012792,42.153565],[25.012927,42.15426],[25.013258,42.155047],[25.01334,42.155164],[25.013516,42.155293],[25.014186,42.15564],[25.014614,42.155816],[25.014622,42.155899],[25.01539,42.156231],[25.016278,42.156335],[25.017949,42.156371],[25.020766,42.156318],[25.02377,42.156019],[25.025788,42.155158],[25.026738,42.156186],[25.026678,42.155439],[25.026848,42.154949],[25.027132,42.154228],[25.0272,42.15398],[25.0273,42.153794],[25.027397,42.153771],[25.027389,42.153731],[25.027765,42.152491],[25.027645,42.152486],[25.023795,42.151667],[25.022074,42.151342],[25.020226,42.150933],[25.019228,42.15089],[25.017995,42.150578],[25.016981,42.150246],[25.016023,42.150257],[25.014606,42.150569],[25.01464,42.150631],[25.013911,42.150806]]]},"properties":{"cadreg":42}},{"type":"Feature","geometry":{"type":"Polygon","coordinates":[[[25.012627,42.151451],[25.012269,42.151762],[25.010923,42.152674],[25.0102,42.153097],[25.008275,42.154093],[25.008525,42.156161],[25.008621,42.156181],[25.008708,42.156253],[25.009922,42.157578],[25.010954,42.158646],[25.011906,42.15815],[25.01199,42.158243],[25.012541,42.157926],[25.012486,42.157862],[25.013396,42.157411],[25.014546,42.156733],[25.014622,42.155899],[25.014614,42.155816],[25.014186,42.15564],[25.013516,42.155293],[25.01334,42.155164],[25.013258,42.155047],[25.012927,42.15426],[25.012792,42.153565],[25.012513,42.152806],[25.012531,42.152606],[25.012632,42.152371],[25.01276,42.151929],[25.012756,42.151566],[25.012627,42.151451]]]},"properties":{"cadreg":43}},{"type":"Feature","geometry":{"type":"Polygon","coordinates":[[[25.008275,42.154093],[25.0102,42.153097],[25.010923,42.152674],[25.012269,42.151762],[25.012627,42.151451],[25.012517,42.151385],[25.012439,42.151315],[25.012193,42.151463],[25.011804,42.151663],[25.011165,42.15213],[25.010673,42.152467],[25.009977,42.152873],[25.007989,42.153911],[25.002722,42.155964],[25.000969,42.156704],[24.999952,42.157037],[24.998373,42.157405],[24.993194,42.158452],[24.991668,42.158735],[24.989394,42.159231],[24.988969,42.15948],[24.989017,42.159725],[24.988875,42.15996],[24.988848,42.160192],[24.988943,42.160591],[24.989123,42.161197],[24.98905,42.161885],[24.988732,42.162562],[24.98834,42.163174],[24.988084,42.163504],[24.987538,42.163856],[24.986407,42.164422],[24.985677,42.164871],[24.985315,42.164961],[24.984685,42.165006],[24.984115,42.164932],[24.982829,42.164724],[24.981618,42.164488],[24.980343,42.164431],[24.979146,42.164335],[24.977924,42.164032],[24.977567,42.16403],[24.977591,42.164136],[24.977673,42.164331],[24.976453,42.16443],[24.97638,42.164619],[24.976437,42.164604],[24.976514,42.164497],[24.977683,42.164402],[24.978441,42.164599],[24.979066,42.164684],[24.980198,42.16474],[24.981384,42.16482],[24.982897,42.165081],[24.984969,42.165365],[24.98502,42.165364],[24.985926,42.165121],[24.987392,42.16424],[24.988006,42.163908],[24.98846,42.163539],[24.989002,42.162757],[24.989111,42.16258],[24.989327,42.162079],[24.989383,42.161807],[24.98941,42.161247],[24.989385,42.160929],[24.989202,42.160185],[24.989225,42.159976],[24.989515,42.159619],[24.989674,42.159502],[24.989893,42.159419],[24.991355,42.159114],[24.993169,42.158771],[24.995719,42.158312],[24.999891,42.15743],[25.000688,42.15886],[25.001825,42.160517],[25.001937,42.160481],[25.002401,42.161491],[25.00258,42.162025],[25.002634,42.162425],[25.002612,42.162785],[25.002727,42.16295],[25.004281,42.162134],[25.006119,42.161245],[25.007667,42.160429],[25.008013,42.160571],[25.01454,42.156801],[25.014546,42.156733],[25.013396,42.157411],[25.012486,42.157862],[25.012541,42.157926],[25.01199,42.158243],[25.011906,42.15815],[25.010954,42.158646],[25.009922,42.157578],[25.008708,42.156253],[25.008621,42.156181],[25.008525,42.156161],[25.008275,42.154093]]]},"properties":{"cadreg":44}},{"type":"Feature","geometry":{"type":"Polygon","coordinates":[[[25.019367,42.143067],[25.018958,42.143355],[25.018746,42.143482],[25.018424,42.143828],[25.018328,42.144014],[25.018133,42.144217],[25.018077,42.144321],[25.018078,42.144411],[25.018106,42.144495],[25.0181,42.144572],[25.018053,42.14467],[25.017883,42.144865],[25.017804,42.144981],[25.017549,42.145253],[25.017353,42.145427],[25.017119,42.145541],[25.016401,42.146048],[25.016029,42.146398],[25.015765,42.146775],[25.015568,42.147188],[25.015405,42.147409],[25.015004,42.147883],[25.014846,42.148019],[25.014538,42.148238],[25.014369,42.14843],[25.01425,42.148632],[25.014097,42.14877],[25.013938,42.148886],[25.01353,42.149126],[25.013426,42.149216],[25.01296,42.14949],[25.012878,42.149524],[25.012827,42.149525],[25.012485,42.149528],[25.012355,42.149499],[25.012291,42.149466],[25.012058,42.149477],[25.011885,42.149503],[25.011277,42.149661],[25.010682,42.149753],[25.00995,42.150039],[25.009763,42.150077],[25.009464,42.150027],[25.009001,42.150123],[25.00845,42.150154],[25.007881,42.15022],[25.007666,42.150262],[25.007011,42.15032],[25.006732,42.150309],[25.005934,42.150343],[25.005238,42.150435],[25.005044,42.150492],[25.004855,42.150566],[25.004764,42.15064],[25.004666,42.150788],[25.004428,42.150856],[25.004174,42.150907],[25.003938,42.151007],[25.003785,42.151102],[25.003532,42.151479],[25.003339,42.151692],[25.003138,42.151813],[25.002656,42.151943],[25.002338,42.152045],[25.001377,42.152406],[25.001216,42.152486],[25.00029,42.152871],[25.000046,42.152918],[24.999422,42.153129],[24.999093,42.153329],[24.998087,42.153879],[24.997816,42.153999],[24.997321,42.154162],[24.997064,42.15428],[24.996892,42.154399],[24.996379,42.154578],[24.995691,42.154765],[24.995324,42.15478],[24.995152,42.15484],[24.99502,42.15493],[24.994752,42.155047],[24.994528,42.155175],[24.994361,42.155316],[24.993739,42.155393],[24.993132,42.155446],[24.992685,42.155512],[24.991384,42.155562],[24.991051,42.155623],[24.990822,42.155644],[24.990512,42.155614],[24.989751,42.155491],[24.988792,42.155488],[24.988416,42.155434],[24.988141,42.15535],[24.987664,42.155089],[24.987424,42.15504],[24.98693,42.154974],[24.986389,42.155011],[24.985581,42.155025],[24.985404,42.155045],[24.985187,42.155093],[24.984206,42.155233],[24.983617,42.155365],[24.983136,42.155547],[24.982838,42.155564],[24.982354,42.15565],[24.981784,42.155659],[24.981535,42.155688],[24.981325,42.155693],[24.981042,42.155687],[24.980784,42.155702],[24.980312,42.155686],[24.979493,42.155628],[24.978937,42.155566],[24.978683,42.155516],[24.978636,42.155612],[24.978904,42.155712],[24.979231,42.155733],[24.979537,42.155721],[24.980144,42.155731],[24.981022,42.155786],[24.98147,42.155795],[24.982527,42.155771],[24.983234,42.155634],[24.983798,42.155575],[24.984142,42.155383],[24.984296,42.155336],[24.984775,42.155292],[24.985227,42.155197],[24.985858,42.155183],[24.986562,42.155202],[24.987352,42.155121],[24.987604,42.155175],[24.988159,42.155404],[24.988843,42.15563],[24.98938,42.155642],[24.989761,42.155702],[24.989952,42.155758],[24.990215,42.155898],[24.99044,42.155961],[24.990855,42.155949],[24.991063,42.156021],[24.991442,42.156261],[24.991478,42.156294],[24.991516,42.156369],[24.99155,42.156367],[24.991561,42.156467],[24.991424,42.156478],[24.991577,42.157532],[24.991826,42.158703],[24.993194,42.158452],[24.998373,42.157405],[24.999952,42.157037],[25.000969,42.156704],[25.002722,42.155964],[25.007989,42.153911],[25.009977,42.152873],[25.010673,42.152467],[25.011165,42.15213],[25.011804,42.151663],[25.012193,42.151463],[25.012703,42.151169],[25.012848,42.15103],[25.012845,42.150874],[25.012784,42.150781],[25.012746,42.150678],[25.012802,42.150447],[25.012871,42.150353],[25.013054,42.150183],[25.013413,42.149935],[25.013619,42.149769],[25.013776,42.149678],[25.014145,42.149362],[25.014474,42.149124],[25.014828,42.148822],[25.015172,42.148499],[25.015401,42.14821],[25.01554,42.14798],[25.015948,42.147424],[25.016116,42.147236],[25.0168,42.146502],[25.01795,42.14539],[25.018093,42.145331],[25.018288,42.145289],[25.018508,42.145253],[25.018655,42.145251],[25.018853,42.145292],[25.019276,42.145461],[25.019296,42.144059],[25.019287,42.143678],[25.019339,42.143344],[25.019263,42.143233],[25.019367,42.143067]]]},"properties":{"cadreg":45}},{"type":"Feature","geometry":{"type":"Polygon","coordinates":[[[25.020205,42.145945],[25.018992,42.147512],[25.018766,42.147711],[25.018468,42.147927],[25.016556,42.149101],[25.014191,42.150504],[25.013293,42.150987],[25.01345,42.151107],[25.013663,42.150939],[25.013911,42.150806],[25.01464,42.150631],[25.014606,42.150569],[25.016023,42.150257],[25.018004,42.149155],[25.018147,42.149112],[25.018873,42.147816],[25.020304,42.145966],[25.020205,42.145945]]]},"properties":{"cadreg":46}},{"type":"Feature","geometry":{"type":"Polygon","coordinates":[[[25.013205,42.150916],[25.013293,42.150987],[25.014191,42.150504],[25.016556,42.149101],[25.018468,42.147927],[25.018766,42.147711],[25.018992,42.147512],[25.01937,42.146944],[25.019519,42.146691],[25.019569,42.146567],[25.019592,42.143842],[25.019651,42.143002],[25.019367,42.143067],[25.019263,42.143233],[25.019339,42.143344],[25.019287,42.143678],[25.019296,42.144059],[25.019276,42.145461],[25.018853,42.145292],[25.018655,42.145251],[25.018508,42.145253],[25.018288,42.145289],[25.018093,42.145331],[25.01795,42.14539],[25.0168,42.146502],[25.015948,42.147424],[25.015865,42.147537],[25.015847,42.147658],[25.015321,42.148499],[25.014654,42.149103],[25.013735,42.149842],[25.014171,42.150157],[25.013965,42.150305],[25.014088,42.150404],[25.013205,42.150916]]]},"properties":{"cadreg":47}},{"type":"Feature","geometry":{"type":"Polygon","coordinates":[[[24.980499,42.156395],[24.979505,42.156325],[24.979254,42.156319],[24.979118,42.156355],[24.979061,42.156431],[24.978513,42.15644],[24.978054,42.157266],[24.97857,42.157212],[24.979381,42.156976],[24.980552,42.156806],[24.980499,42.156395]]]},"properties":{"cadreg":54}},{"type":"Feature","geometry":{"type":"Polygon","coordinates":[[[25.013158,42.151634],[25.013499,42.151141],[25.013205,42.150916],[25.014088,42.150404],[25.013965,42.150305],[25.014171,42.150157],[25.013735,42.149842],[25.014654,42.149103],[25.015321,42.148499],[25.015847,42.147658],[25.015865,42.147537],[25.01554,42.14798],[25.015401,42.14821],[25.015172,42.148499],[25.014828,42.148822],[25.014474,42.149124],[25.014145,42.149362],[25.013776,42.149678],[25.013619,42.149769],[25.013413,42.149935],[25.013054,42.150183],[25.012871,42.150353],[25.012802,42.150447],[25.012746,42.150678],[25.012784,42.150781],[25.012845,42.150874],[25.012848,42.15103],[25.012703,42.151169],[25.012439,42.151315],[25.012517,42.151385],[25.012627,42.151451],[25.012756,42.151566],[25.013158,42.151634]]]},"properties":{"cadreg":92}},{"type":"Feature","geometry":{"type":"Polygon","coordinates":[[[25.049265,42.159355],[25.051368,42.164229],[25.049146,42.164928],[25.049579,42.165759],[25.050312,42.165932],[25.049343,42.166961],[25.049434,42.166963],[25.050433,42.165884],[25.054102,42.161714],[25.053886,42.161602],[25.053693,42.161553],[25.05347,42.161526],[25.053064,42.161506],[25.052571,42.16141],[25.052077,42.161221],[25.049265,42.159355]]]},"properties":{"cadreg":113}},{"type":"Feature","geometry":{"type":"Polygon","coordinates":[[[25.00421,42.172605],[25.004118,42.173206],[25.003528,42.173804],[25.002867,42.174305],[25.001684,42.17446],[25.003012,42.175146],[25.005386,42.174512],[25.005355,42.17434],[25.005459,42.17355],[25.007577,42.171701],[25.007669,42.170595],[25.007664,42.170453],[25.007137,42.170421],[25.006424,42.170026],[25.005772,42.170112],[25.004239,42.171725],[25.003958,42.172175],[25.00421,42.172605]]]},"properties":{"cadreg":165}},{"type":"Feature","geometry":{"type":"Polygon","coordinates":[[[25.000663,42.172175],[24.9999,42.17174],[24.997342,42.172169],[24.997215,42.17217],[24.999194,42.173173],[25.001684,42.17446],[25.000884,42.173712],[25.001978,42.173355],[25.002219,42.173086],[25.002009,42.172615],[25.001374,42.172431],[25.000663,42.172175]]]},"properties":{"cadreg":166}},{"type":"Feature","geometry":{"type":"Polygon","coordinates":[[[25.010149,42.167266],[25.009336,42.167362],[25.008714,42.168506],[25.008572,42.16862],[25.008008,42.168982],[25.007664,42.170453],[25.007669,42.170595],[25.007577,42.171701],[25.005459,42.17355],[25.005355,42.17434],[25.005386,42.174512],[25.003012,42.175146],[25.003157,42.175221],[25.001483,42.175669],[25.001264,42.175802],[25.000859,42.175887],[24.999915,42.176184],[24.995921,42.178412],[24.995616,42.178562],[24.992182,42.178695],[24.990648,42.178591],[24.990307,42.178635],[24.985594,42.180448],[24.985597,42.180508],[24.99033,42.178687],[24.990651,42.178645],[24.99218,42.178749],[24.99564,42.178615],[24.995962,42.178456],[24.999952,42.176231],[25.000883,42.175938],[25.001298,42.175851],[25.001519,42.175716],[25.00614,42.174482],[25.007735,42.1741],[25.008212,42.173919],[25.008494,42.173879],[25.008753,42.173777],[25.009236,42.173673],[25.009722,42.17339],[25.010397,42.172593],[25.012946,42.168888],[25.016954,42.166223],[25.016276,42.165649],[25.014847,42.166173],[25.014272,42.166299],[25.010823,42.167386],[25.010149,42.167266]]]},"properties":{"cadreg":167}},{"type":"Feature","geometry":{"type":"Polygon","coordinates":[[[24.995995,42.162501],[24.995466,42.162603],[24.995338,42.166162],[25.001893,42.163144],[25.002612,42.162785],[25.002634,42.162425],[25.00258,42.162025],[25.002401,42.161491],[25.001937,42.160481],[24.995776,42.162477],[24.995995,42.162501]]]},"properties":{"cadreg":186}}]}