{"type":"FeatureCollection","features":[{"type":"Feature","geometry":{"type":"Polygon","coordinates":[[[24.980639,42.132554],[24.980732,42.132554],[24.980753,42.132429],[24.981756,42.132451],[24.982244,42.132424],[24.982349,42.132388],[24.982534,42.130618],[24.982727,42.130634],[24.982867,42.130202],[24.982914,42.13021],[24.983042,42.129908],[24.982931,42.129881],[24.983109,42.129489],[24.981402,42.129052],[24.980983,42.128922],[24.980578,42.128762],[24.978901,42.128039],[24.978643,42.127873],[24.978459,42.127654],[24.978162,42.127145],[24.978051,42.126887],[24.978017,42.126656],[24.978177,42.126582],[24.978211,42.12622],[24.97849,42.126214],[24.978616,42.125866],[24.97943,42.126071],[24.979709,42.126071],[24.980005,42.126048],[24.980749,42.125834],[24.980587,42.125572],[24.98051,42.125379],[24.980393,42.125404],[24.980327,42.125238],[24.979637,42.125421],[24.979475,42.125402],[24.979212,42.125319],[24.979435,42.12501],[24.979728,42.124733],[24.980056,42.124501],[24.981482,42.123655],[24.980881,42.122615],[24.9812,42.122386],[24.980165,42.121937],[24.980072,42.121879],[24.980154,42.121788],[24.979855,42.121641],[24.979722,42.121769],[24.979547,42.121671],[24.979258,42.121634],[24.979237,42.121688],[24.978288,42.121487],[24.978071,42.121415],[24.977792,42.121773],[24.97623,42.120983],[24.976219,42.120764],[24.973888,42.1209],[24.973863,42.120635],[24.972648,42.120717],[24.971658,42.12086],[24.971595,42.120651],[24.970675,42.120856],[24.970813,42.121128],[24.971004,42.121356],[24.971085,42.121425],[24.970468,42.121934],[24.968857,42.121769],[24.968918,42.121329],[24.968073,42.121285],[24.967986,42.121679],[24.96701,42.12158],[24.96684,42.121326],[24.966406,42.121411],[24.966269,42.121487],[24.96645,42.121672],[24.966505,42.121641],[24.966879,42.122023],[24.96512,42.121853],[24.964723,42.121749],[24.964412,42.12154],[24.964307,42.121431],[24.964217,42.121438],[24.963719,42.122427],[24.963577,42.122993],[24.963577,42.123511],[24.96371,42.125711],[24.96368,42.127334],[24.963614,42.128415],[24.963718,42.128491],[24.964969,42.128423],[24.964988,42.128651],[24.964781,42.128905],[24.965204,42.129164],[24.964916,42.129342],[24.964722,42.129432],[24.964212,42.129598],[24.963705,42.129716],[24.963744,42.129837],[24.963705,42.13124],[24.963812,42.131244],[24.963774,42.131935],[24.967359,42.132047],[24.970257,42.132157],[24.974774,42.132237],[24.97479,42.132283],[24.974944,42.132275],[24.974916,42.132171],[24.974952,42.132147],[24.975669,42.132171],[24.975661,42.132306],[24.980034,42.132451],[24.980039,42.132389],[24.980008,42.132354],[24.980009,42.132325],[24.980068,42.13233],[24.980068,42.132318],[24.980655,42.132355],[24.980689,42.132391],[24.980639,42.132554]]]},"properties":{"cadreg":888}},{"type":"Feature","geometry":{"type":"Polygon","coordinates":[[[24.977105,42.132842],[24.977064,42.13276],[24.977188,42.132682],[24.974667,42.132622],[24.973495,42.132558],[24.973019,42.13295],[24.973101,42.133946],[24.973465,42.134208],[24.974858,42.134182],[24.97515,42.133796],[24.975623,42.13362],[24.978288,42.133679],[24.978363,42.134117],[24.979998,42.134285],[24.980505,42.133493],[24.980732,42.132827],[24.98054,42.132838],[24.977346,42.132729],[24.977319,42.133197],[24.97708,42.133193],[24.977105,42.132842]]]},"properties":{"cadreg":889}},{"type":"Feature","geometry":{"type":"Polygon","coordinates":[[[24.97708,42.133193],[24.977322,42.133197],[24.977346,42.132729],[24.977286,42.132727],[24.977105,42.132842],[24.97708,42.133193]]]},"properties":{"cadreg":179}},{"type":"Feature","geometry":{"type":"Polygon","coordinates":[[[24.982856,42.132369],[24.982929,42.132421],[24.983002,42.132438],[24.983231,42.132408],[24.983482,42.132315],[24.98403,42.132048],[24.984655,42.131803],[24.985128,42.131626],[24.986167,42.131278],[24.986061,42.131113],[24.985306,42.131383],[24.984554,42.131625],[24.984171,42.131729],[24.984094,42.131578],[24.98402,42.13151],[24.983922,42.131452],[24.983807,42.131412],[24.983694,42.131395],[24.983589,42.131394],[24.983449,42.131419],[24.983343,42.131459],[24.983234,42.13153],[24.98243,42.132332],[24.982337,42.132394],[24.982244,42.132424],[24.981756,42.132451],[24.980753,42.132429],[24.980732,42.132554],[24.980639,42.132554],[24.980689,42.132391],[24.980655,42.132355],[24.980068,42.132318],[24.980068,42.13233],[24.980009,42.132325],[24.980008,42.132354],[24.980039,42.132389],[24.980034,42.132451],[24.975661,42.132306],[24.975669,42.132171],[24.974952,42.132147],[24.974916,42.132171],[24.974944,42.132275],[24.97479,42.132283],[24.974774,42.132237],[24.970257,42.132157],[24.967359,42.132047],[24.958777,42.131797],[24.94977,42.131498],[24.949854,42.131791],[24.951747,42.131866],[24.95317,42.131902],[24.956074,42.132023],[24.958236,42.132088],[24.95874,42.132068],[24.959829,42.132127],[24.959949,42.132146],[24.962129,42.132198],[24.968304,42.132403],[24.968839,42.132404],[24.969393,42.13244],[24.970726,42.132466],[24.973495,42.132558],[24.974667,42.132622],[24.977188,42.132682],[24.977064,42.13276],[24.977105,42.132842],[24.977286,42.132727],[24.98054,42.132838],[24.980762,42.132825],[24.98127,42.13284],[24.98115,42.132887],[24.980983,42.132988],[24.980746,42.133198],[24.980505,42.133493],[24.979981,42.134315],[24.979775,42.134722],[24.979418,42.135561],[24.979149,42.13612],[24.97937,42.136176],[24.979829,42.135246],[24.980154,42.13471],[24.980447,42.134319],[24.98071,42.134052],[24.981216,42.133597],[24.981856,42.133093],[24.981879,42.13303],[24.981877,42.13294],[24.981823,42.132869],[24.981857,42.132848],[24.991186,42.133169],[24.995546,42.133291],[24.99725,42.133303],[24.997982,42.133284],[24.998744,42.133244],[24.995349,42.133125],[24.995454,42.133007],[24.987811,42.132768],[24.987656,42.132781],[24.986327,42.132749],[24.982277,42.132635],[24.982376,42.13257],[24.982856,42.132369]]]},"properties":{"cadreg":200}},{"type":"Feature","geometry":{"type":"Polygon","coordinates":[[[24.94981,42.11152],[24.949819,42.111391],[24.944861,42.11171],[24.94445,42.109058],[24.944426,42.10906],[24.944842,42.111746],[24.943947,42.111806],[24.945308,42.11641],[24.945369,42.116406],[24.94469,42.11411],[24.950477,42.113735],[24.950179,42.112864],[24.949661,42.112078],[24.949749,42.111524],[24.94981,42.11152]]]},"properties":{"cadreg":123}},{"type":"Feature","geometry":{"type":"Polygon","coordinates":[[[24.949867,42.108648],[24.944415,42.108985],[24.944426,42.10906],[24.94445,42.109058],[24.944861,42.11171],[24.949819,42.111391],[24.949994,42.110415],[24.949867,42.108648]]]},"properties":{"cadreg":124}},{"type":"Feature","geometry":{"type":"Polygon","coordinates":[[[24.944415,42.108985],[24.947175,42.108814],[24.946399,42.103807],[24.946803,42.103687],[24.947833,42.103596],[24.948999,42.103791],[24.949098,42.103794],[24.949698,42.103691],[24.9497,42.103616],[24.949156,42.103458],[24.949069,42.102829],[24.948992,42.102793],[24.948569,42.102841],[24.944272,42.103162],[24.943624,42.103426],[24.943744,42.104656],[24.944415,42.108985]]]},"properties":{"cadreg":125}},{"type":"Feature","geometry":{"type":"Polygon","coordinates":[[[24.946399,42.103807],[24.947175,42.108814],[24.949867,42.108648],[24.949819,42.107883],[24.950008,42.107634],[24.950141,42.107573],[24.950192,42.107532],[24.949847,42.106313],[24.949862,42.106059],[24.949753,42.105568],[24.949484,42.10492],[24.949157,42.103784],[24.948999,42.103791],[24.947833,42.103596],[24.946803,42.103687],[24.946399,42.103807]]]},"properties":{"cadreg":126}},{"type":"Feature","geometry":{"type":"Polygon","coordinates":[[[24.949069,42.102829],[24.949156,42.103458],[24.9497,42.103616],[24.949698,42.103691],[24.949157,42.103784],[24.949406,42.104649],[24.958872,42.103565],[24.958487,42.101705],[24.948992,42.102793],[24.949069,42.102829]]]},"properties":{"cadreg":127}},{"type":"Feature","geometry":{"type":"Polygon","coordinates":[[[24.962521,42.101306],[24.962429,42.101254],[24.958487,42.101705],[24.959047,42.104412],[24.959094,42.104403],[24.96224,42.10132],[24.962326,42.101311],[24.96236,42.101277],[24.962481,42.101344],[24.962521,42.101306]]]},"properties":{"cadreg":128}},{"type":"Feature","geometry":{"type":"Polygon","coordinates":[[[24.949532,42.105036],[24.949753,42.105568],[24.949862,42.106059],[24.949847,42.106313],[24.950177,42.107479],[24.952765,42.105428],[24.955641,42.105165],[24.955902,42.105024],[24.959047,42.104412],[24.958872,42.103565],[24.949406,42.104649],[24.949532,42.105036]]]},"properties":{"cadreg":129}},{"type":"Feature","geometry":{"type":"Polygon","coordinates":[[[24.959158,42.104626],[24.95618,42.10517],[24.955882,42.105359],[24.952938,42.105617],[24.951702,42.106587],[24.959476,42.105419],[24.959277,42.104689],[24.959203,42.104694],[24.959158,42.104626]]]},"properties":{"cadreg":130}},{"type":"Feature","geometry":{"type":"Polygon","coordinates":[[[24.959476,42.105419],[24.951702,42.106587],[24.950094,42.107848],[24.950124,42.10833],[24.959872,42.106866],[24.959476,42.105419]]]},"properties":{"cadreg":131}},{"type":"Feature","geometry":{"type":"Polygon","coordinates":[[[24.959872,42.106866],[24.950124,42.10833],[24.950241,42.110186],[24.960361,42.108666],[24.959872,42.106866]]]},"properties":{"cadreg":132}},{"type":"Feature","geometry":{"type":"Polygon","coordinates":[[[24.960361,42.108666],[24.950241,42.110186],[24.950257,42.110441],[24.949966,42.111973],[24.95005,42.112088],[24.960832,42.110469],[24.960361,42.108666]]]},"properties":{"cadreg":133}},{"type":"Feature","geometry":{"type":"Polygon","coordinates":[[[24.960832,42.110469],[24.95005,42.112088],[24.950866,42.113206],[24.950861,42.113849],[24.961306,42.11228],[24.960832,42.110469]]]},"properties":{"cadreg":134}},{"type":"Feature","geometry":{"type":"Polygon","coordinates":[[[24.961306,42.11228],[24.950861,42.113849],[24.95086,42.11396],[24.950362,42.114983],[24.950389,42.115794],[24.961794,42.114081],[24.961306,42.11228]]]},"properties":{"cadreg":135}},{"type":"Feature","geometry":{"type":"Polygon","coordinates":[[[24.961794,42.114081],[24.950389,42.115794],[24.950403,42.116235],[24.950347,42.117301],[24.950546,42.117644],[24.962282,42.115881],[24.961794,42.114081]]]},"properties":{"cadreg":136}},{"type":"Feature","geometry":{"type":"Polygon","coordinates":[[[24.962282,42.115881],[24.950546,42.117644],[24.95085,42.118166],[24.951912,42.119312],[24.96277,42.117681],[24.962282,42.115881]]]},"properties":{"cadreg":137}},{"type":"Feature","geometry":{"type":"Polygon","coordinates":[[[24.96277,42.117681],[24.951912,42.119312],[24.951959,42.119362],[24.952413,42.119661],[24.953218,42.119848],[24.954272,42.120841],[24.963261,42.11949],[24.96277,42.117681]]]},"properties":{"cadreg":138}},{"type":"Feature","geometry":{"type":"Polygon","coordinates":[[[24.963261,42.11949],[24.954272,42.120841],[24.954548,42.1211],[24.95538,42.122175],[24.955582,42.122517],[24.963395,42.121344],[24.963245,42.119988],[24.963261,42.11949]]]},"properties":{"cadreg":139}},{"type":"Feature","geometry":{"type":"Polygon","coordinates":[[[24.963395,42.121344],[24.955582,42.122517],[24.95636,42.123832],[24.956478,42.123992],[24.956736,42.124218],[24.963577,42.12319],[24.963577,42.122993],[24.963395,42.121344]]]},"properties":{"cadreg":140}},{"type":"Feature","geometry":{"type":"Polygon","coordinates":[[[24.963577,42.12319],[24.956736,42.124218],[24.958566,42.125816],[24.96367,42.12505],[24.963577,42.123511],[24.963577,42.12319]]]},"properties":{"cadreg":141}},{"type":"Feature","geometry":{"type":"Polygon","coordinates":[[[24.958566,42.125816],[24.959609,42.126727],[24.963684,42.127147],[24.96371,42.125711],[24.96367,42.12505],[24.958566,42.125816]]]},"properties":{"cadreg":142}},{"type":"Feature","geometry":{"type":"Polygon","coordinates":[[[24.964377,42.111272],[24.961494,42.112424],[24.96349,42.119779],[24.963486,42.120113],[24.963547,42.120039],[24.965229,42.119659],[24.964791,42.118482],[24.966261,42.118217],[24.964377,42.111272]]]},"properties":{"cadreg":143}},{"type":"Feature","geometry":{"type":"Polygon","coordinates":[[[24.964377,42.111272],[24.966261,42.118217],[24.969151,42.117697],[24.968637,42.11637],[24.968374,42.115872],[24.968434,42.115357],[24.968271,42.114521],[24.967529,42.113335],[24.967178,42.113038],[24.967038,42.112423],[24.966499,42.110424],[24.964377,42.111272]]]},"properties":{"cadreg":144}},{"type":"Feature","geometry":{"type":"Polygon","coordinates":[[[24.974329,42.116306],[24.972575,42.117229],[24.971228,42.116319],[24.970607,42.116376],[24.969862,42.115986],[24.969784,42.115662],[24.969263,42.115642],[24.96883,42.115118],[24.968889,42.11467],[24.968862,42.114333],[24.96845,42.114016],[24.968222,42.113274],[24.967954,42.113048],[24.967603,42.112919],[24.967479,42.112175],[24.967028,42.112385],[24.967178,42.113038],[24.967529,42.113335],[24.968271,42.114521],[24.968434,42.115357],[24.968374,42.115872],[24.968637,42.11637],[24.969222,42.117882],[24.971686,42.117453],[24.971714,42.117485],[24.972628,42.11729],[24.972571,42.117275],[24.974354,42.116337],[24.974329,42.116306]]]},"properties":{"cadreg":145}},{"type":"Feature","geometry":{"type":"Polygon","coordinates":[[[24.970101,42.113353],[24.968328,42.113619],[24.96845,42.114016],[24.968862,42.114333],[24.968889,42.11467],[24.96883,42.115118],[24.969263,42.115642],[24.969784,42.115662],[24.969862,42.115986],[24.970607,42.116376],[24.970909,42.116348],[24.970101,42.113353]]]},"properties":{"cadreg":146}},{"type":"Feature","geometry":{"type":"Polygon","coordinates":[[[24.969037,42.109409],[24.966499,42.110424],[24.967028,42.112385],[24.967479,42.112175],[24.967603,42.112919],[24.967954,42.113048],[24.968222,42.113274],[24.968328,42.113619],[24.970101,42.113353],[24.969037,42.109409]]]},"properties":{"cadreg":147}},{"type":"Feature","geometry":{"type":"Polygon","coordinates":[[[24.969037,42.109409],[24.970101,42.113353],[24.970962,42.113225],[24.970956,42.113262],[24.973547,42.115365],[24.973581,42.115354],[24.974354,42.116337],[24.974459,42.116301],[24.973685,42.115319],[24.973742,42.1153],[24.97119,42.11323],[24.97137,42.111639],[24.971431,42.111495],[24.972004,42.110977],[24.973359,42.110316],[24.973393,42.11013],[24.971756,42.109748],[24.971427,42.109539],[24.971351,42.109011],[24.971816,42.108521],[24.973084,42.108095],[24.973097,42.107984],[24.972969,42.107838],[24.969037,42.109409]]]},"properties":{"cadreg":148}},{"type":"Feature","geometry":{"type":"Polygon","coordinates":[[[24.970101,42.113353],[24.970909,42.116348],[24.971228,42.116319],[24.972575,42.117229],[24.974329,42.116306],[24.973581,42.115354],[24.973547,42.115365],[24.970956,42.113262],[24.970962,42.113225],[24.970101,42.113353]]]},"properties":{"cadreg":149}},{"type":"Feature","geometry":{"type":"Polygon","coordinates":[[[24.976095,42.11255],[24.971195,42.113193],[24.97119,42.11323],[24.973742,42.1153],[24.973685,42.115319],[24.974459,42.116301],[24.974354,42.116337],[24.972571,42.117275],[24.972628,42.11729],[24.973236,42.117172],[24.973815,42.116901],[24.974319,42.116687],[24.97454,42.116649],[24.975299,42.116627],[24.975548,42.11659],[24.977067,42.115861],[24.976095,42.11255]]]},"properties":{"cadreg":150}},{"type":"Feature","geometry":{"type":"Polygon","coordinates":[[[24.973359,42.110316],[24.972004,42.110977],[24.971431,42.111495],[24.97137,42.111639],[24.971195,42.113193],[24.976095,42.11255],[24.976065,42.112371],[24.975988,42.109725],[24.975917,42.109798],[24.973393,42.11013],[24.973359,42.110316]]]},"properties":{"cadreg":151}},{"type":"Feature","geometry":{"type":"Polygon","coordinates":[[[24.975899,42.106662],[24.972969,42.107838],[24.973097,42.107984],[24.973084,42.108095],[24.971816,42.108521],[24.971351,42.109011],[24.971427,42.109539],[24.971756,42.109748],[24.973393,42.11013],[24.975917,42.109798],[24.975988,42.109725],[24.975899,42.106662]]]},"properties":{"cadreg":152}},{"type":"Feature","geometry":{"type":"Polygon","coordinates":[[[24.976621,42.114349],[24.977055,42.115823],[24.978216,42.115239],[24.982403,42.114402],[24.983304,42.113826],[24.98506,42.113361],[24.984548,42.112657],[24.976621,42.114349]]]},"properties":{"cadreg":153}},{"type":"Feature","geometry":{"type":"Polygon","coordinates":[[[24.982755,42.11113],[24.976095,42.11255],[24.976621,42.114349],[24.984548,42.112657],[24.984106,42.112049],[24.982772,42.111163],[24.982755,42.11113]]]},"properties":{"cadreg":154}},{"type":"Feature","geometry":{"type":"Polygon","coordinates":[[[24.981879,42.109406],[24.976015,42.110657],[24.976065,42.112371],[24.976095,42.11255],[24.982755,42.11113],[24.981879,42.109406]]]},"properties":{"cadreg":155}},{"type":"Feature","geometry":{"type":"Polygon","coordinates":[[[24.97596,42.108758],[24.976015,42.110657],[24.981879,42.109406],[24.981377,42.108409],[24.980562,42.108428],[24.98054,42.107781],[24.97596,42.108758]]]},"properties":{"cadreg":156}},{"type":"Feature","geometry":{"type":"Polygon","coordinates":[[[24.986669,42.105231],[24.986703,42.104849],[24.986695,42.104742],[24.986674,42.104677],[24.986503,42.104544],[24.986501,42.104489],[24.986551,42.104452],[24.986549,42.104406],[24.986479,42.104392],[24.986375,42.104421],[24.982822,42.104732],[24.982289,42.104814],[24.981453,42.104852],[24.980553,42.10473],[24.979517,42.104651],[24.979087,42.104574],[24.978935,42.104566],[24.978879,42.104588],[24.978869,42.104858],[24.978702,42.104917],[24.978497,42.104939],[24.978055,42.104881],[24.977805,42.105182],[24.977572,42.105423],[24.976974,42.105848],[24.976899,42.105926],[24.97672,42.106203],[24.97654,42.106382],[24.975899,42.106662],[24.97596,42.108758],[24.98054,42.107781],[24.980562,42.108428],[24.981428,42.108408],[24.982447,42.107635],[24.983747,42.106511],[24.986575,42.1058],[24.986669,42.105231]]]},"properties":{"cadreg":157}},{"type":"Feature","geometry":{"type":"Polygon","coordinates":[[[24.975964,42.104791],[24.971528,42.106511],[24.972918,42.107763],[24.972969,42.107838],[24.975899,42.106662],[24.97654,42.106382],[24.976412,42.105693],[24.976128,42.105465],[24.975964,42.104791]]]},"properties":{"cadreg":158}},{"type":"Feature","geometry":{"type":"Polygon","coordinates":[[[24.97339,42.103092],[24.97354,42.103829],[24.970297,42.104805],[24.97009,42.105001],[24.970142,42.105264],[24.971528,42.106511],[24.975964,42.104791],[24.976128,42.105465],[24.976412,42.105693],[24.976538,42.106373],[24.97672,42.106203],[24.976899,42.105926],[24.976974,42.105848],[24.977572,42.105423],[24.977805,42.105182],[24.978055,42.104881],[24.978497,42.104939],[24.978702,42.104917],[24.978869,42.104858],[24.978879,42.104588],[24.978935,42.104566],[24.979087,42.104574],[24.978285,42.104455],[24.978463,42.104178],[24.978897,42.103681],[24.979515,42.103169],[24.97339,42.103092]]]},"properties":{"cadreg":159}},{"type":"Feature","geometry":{"type":"Polygon","coordinates":[[[24.967332,42.10354],[24.96893,42.109336],[24.969037,42.109409],[24.972969,42.107838],[24.972918,42.107763],[24.970142,42.105264],[24.97009,42.105001],[24.970297,42.104805],[24.97354,42.103829],[24.97339,42.103092],[24.970677,42.103058],[24.970678,42.103012],[24.967332,42.10354]]]},"properties":{"cadreg":160}},{"type":"Feature","geometry":{"type":"Polygon","coordinates":[[[24.969207,42.098843],[24.966294,42.099894],[24.967332,42.10354],[24.970678,42.103012],[24.970723,42.101048],[24.970771,42.101049],[24.970736,42.099604],[24.97051,42.099538],[24.969782,42.098975],[24.969339,42.098883],[24.969207,42.098843]]]},"properties":{"cadreg":161}},{"type":"Feature","geometry":{"type":"Polygon","coordinates":[[[24.970736,42.099604],[24.970771,42.101049],[24.972842,42.101075],[24.972641,42.100031],[24.972446,42.099876],[24.972225,42.099613],[24.972036,42.099558],[24.971321,42.099678],[24.970736,42.099604]]]},"properties":{"cadreg":162}},{"type":"Feature","geometry":{"type":"Polygon","coordinates":[[[24.977229,42.09831],[24.976753,42.10068],[24.975285,42.100583],[24.975265,42.099959],[24.97382,42.099771],[24.973697,42.099675],[24.973677,42.099642],[24.972733,42.099949],[24.972626,42.099953],[24.972842,42.101075],[24.972955,42.101112],[24.980826,42.101211],[24.981017,42.100482],[24.981166,42.099707],[24.981646,42.098715],[24.977089,42.097578],[24.977094,42.097617],[24.977144,42.097629],[24.977229,42.09831]]]},"properties":{"cadreg":163}},{"type":"Feature","geometry":{"type":"Polygon","coordinates":[[[24.96872,42.095255],[24.968511,42.095558],[24.968323,42.095886],[24.968085,42.096151],[24.967537,42.096536],[24.967381,42.096611],[24.967142,42.096667],[24.966904,42.096751],[24.966749,42.096844],[24.965698,42.097588],[24.963475,42.100298],[24.96248,42.101247],[24.962429,42.101254],[24.962521,42.101306],[24.963099,42.100702],[24.96416,42.100737],[24.964872,42.100407],[24.969207,42.098843],[24.969339,42.098883],[24.969782,42.098975],[24.97051,42.099538],[24.970687,42.099597],[24.971321,42.099678],[24.972036,42.099558],[24.972225,42.099613],[24.972446,42.099876],[24.972641,42.100031],[24.972626,42.099953],[24.972733,42.099949],[24.972552,42.099696],[24.972706,42.099625],[24.973138,42.099786],[24.973144,42.09982],[24.973677,42.099642],[24.973083,42.098717],[24.972954,42.098362],[24.972679,42.098142],[24.972753,42.097749],[24.97306,42.097399],[24.973852,42.096727],[24.973901,42.09674],[24.973936,42.096711],[24.977089,42.097578],[24.981646,42.098715],[24.981655,42.098695],[24.96872,42.095255]]]},"properties":{"cadreg":164}},{"type":"Feature","geometry":{"type":"Polygon","coordinates":[[[24.964794,42.100443],[24.96416,42.100737],[24.964011,42.100732],[24.966651,42.110232],[24.966499,42.110424],[24.969037,42.109409],[24.96893,42.109336],[24.967344,42.103584],[24.966294,42.099894],[24.964794,42.100443]]]},"properties":{"cadreg":165}},{"type":"Feature","geometry":{"type":"Polygon","coordinates":[[[24.962481,42.101344],[24.961842,42.101969],[24.964372,42.111128],[24.964377,42.111272],[24.966499,42.110424],[24.966651,42.110232],[24.964011,42.100732],[24.963099,42.100702],[24.962481,42.101344]]]},"properties":{"cadreg":166}},{"type":"Feature","geometry":{"type":"Polygon","coordinates":[[[24.949749,42.111524],[24.949661,42.112078],[24.950179,42.112864],[24.950477,42.113735],[24.94469,42.11411],[24.945369,42.116406],[24.945308,42.11641],[24.945335,42.116503],[24.945396,42.116499],[24.945409,42.116544],[24.950136,42.116265],[24.950129,42.117319],[24.950573,42.118082],[24.950637,42.118248],[24.950934,42.118593],[24.95182,42.11955],[24.952199,42.119792],[24.952962,42.119971],[24.95422,42.121038],[24.955194,42.122285],[24.955717,42.123343],[24.956256,42.124094],[24.959101,42.126628],[24.95919,42.126637],[24.959327,42.126759],[24.963587,42.127226],[24.963586,42.127292],[24.963681,42.127295],[24.963684,42.127147],[24.959609,42.126727],[24.956478,42.123992],[24.95636,42.123832],[24.95538,42.122175],[24.954548,42.1211],[24.953218,42.119848],[24.952413,42.119661],[24.951959,42.119362],[24.95085,42.118166],[24.950347,42.117301],[24.950403,42.116235],[24.950362,42.114983],[24.95086,42.11396],[24.950866,42.113206],[24.949966,42.111973],[24.950257,42.110441],[24.950094,42.107848],[24.952938,42.105617],[24.955882,42.105359],[24.95618,42.10517],[24.959158,42.104626],[24.959131,42.104585],[24.959191,42.104574],[24.962481,42.101344],[24.96236,42.101277],[24.962326,42.101311],[24.96224,42.10132],[24.959094,42.104403],[24.955902,42.105024],[24.955641,42.105165],[24.952765,42.105428],[24.950177,42.107479],[24.950192,42.107532],[24.950141,42.107573],[24.950008,42.107634],[24.949819,42.107883],[24.949862,42.108733],[24.949994,42.110415],[24.94981,42.11152],[24.949749,42.111524]]]},"properties":{"cadreg":122}},{"type":"Feature","geometry":{"type":"Polygon","coordinates":[[[24.961842,42.101969],[24.959338,42.104418],[24.960459,42.108354],[24.961461,42.112201],[24.961554,42.112236],[24.961494,42.112424],[24.964377,42.111272],[24.964372,42.111128],[24.961842,42.101969]]]},"properties":{"cadreg":167}},{"type":"Feature","geometry":{"type":"Polygon","coordinates":[[[24.973138,42.099786],[24.972706,42.099625],[24.972552,42.099696],[24.972733,42.099949],[24.973144,42.09982],[24.973138,42.099786]]]},"properties":{"cadreg":168}},{"type":"Feature","geometry":{"type":"Polygon","coordinates":[[[24.970677,42.103058],[24.979515,42.103169],[24.979558,42.103133],[24.980208,42.102264],[24.980657,42.101617],[24.980826,42.101211],[24.972955,42.101112],[24.972842,42.101075],[24.970723,42.101048],[24.970677,42.103058]]]},"properties":{"cadreg":169}},{"type":"Feature","geometry":{"type":"Polygon","coordinates":[[[24.98143,42.108407],[24.981377,42.108409],[24.982772,42.111163],[24.984106,42.112049],[24.98506,42.113361],[24.983304,42.113826],[24.982403,42.114402],[24.978216,42.115239],[24.977055,42.115823],[24.977067,42.115861],[24.975548,42.11659],[24.975299,42.116627],[24.97454,42.116649],[24.974319,42.116687],[24.973815,42.116901],[24.973236,42.117172],[24.971714,42.117485],[24.971686,42.117453],[24.969222,42.117882],[24.969151,42.117697],[24.964791,42.118482],[24.965229,42.119659],[24.969405,42.118766],[24.969385,42.118733],[24.969439,42.118678],[24.969422,42.118543],[24.972369,42.118003],[24.973218,42.11787],[24.975184,42.117615],[24.975658,42.118767],[24.975771,42.118736],[24.976443,42.119566],[24.97662,42.119808],[24.976785,42.12013],[24.976768,42.120196],[24.976244,42.120534],[24.976278,42.120828],[24.976223,42.120831],[24.976225,42.120888],[24.976296,42.120887],[24.977895,42.120339],[24.978848,42.119996],[24.978982,42.120202],[24.979259,42.120345],[24.979706,42.120244],[24.982388,42.119753],[24.982507,42.119789],[24.982775,42.119743],[24.982805,42.119669],[24.983295,42.119578],[24.986131,42.119126],[24.986144,42.119087],[24.987038,42.118945],[24.987579,42.119374],[24.990642,42.121058],[24.990868,42.1216],[24.991521,42.122231],[24.991112,42.122475],[24.99088,42.12244],[24.990597,42.122425],[24.990262,42.122508],[24.990147,42.122593],[24.990192,42.122633],[24.991806,42.122804],[24.993591,42.124586],[24.995037,42.124318],[24.996298,42.1243],[24.996929,42.124441],[24.997284,42.123336],[24.997381,42.123304],[24.989486,42.112609],[24.988499,42.112761],[24.988181,42.112627],[24.988062,42.112266],[24.987703,42.110943],[24.987348,42.109753],[24.98823,42.109672],[24.988616,42.109303],[24.988269,42.107749],[24.987658,42.107583],[24.987662,42.106791],[24.98692,42.10642],[24.986575,42.1058],[24.983747,42.106511],[24.982447,42.107635],[24.98143,42.108407]]]},"properties":{"cadreg":170}},{"type":"Feature","geometry":{"type":"Polygon","coordinates":[[[24.963372,42.120129],[24.963533,42.120451],[24.963677,42.120672],[24.963762,42.120722],[24.964196,42.12132],[24.964412,42.12154],[24.964723,42.121749],[24.96512,42.121853],[24.966879,42.122023],[24.966505,42.121641],[24.96645,42.121672],[24.966269,42.121487],[24.965447,42.121656],[24.965173,42.121685],[24.964867,42.121674],[24.96472,42.121581],[24.964245,42.121126],[24.963664,42.120298],[24.963486,42.120113],[24.963372,42.120129]]]},"properties":{"cadreg":171}},{"type":"Feature","geometry":{"type":"Polygon","coordinates":[[[24.985811,42.144996],[24.983647,42.144341],[24.983195,42.144636],[24.978718,42.145409],[24.973969,42.146258],[24.974616,42.146369],[24.978676,42.145621],[24.983206,42.144843],[24.983732,42.144512],[24.984833,42.148727],[24.985669,42.149071],[24.985962,42.149438],[24.98618,42.150563],[24.986241,42.150563],[24.98625,42.150609],[24.988471,42.150617],[24.98677,42.145084],[24.986089,42.144913],[24.985994,42.144866],[24.986072,42.144701],[24.985974,42.144671],[24.985811,42.144996]]]},"properties":{"cadreg":172}},{"type":"Feature","geometry":{"type":"Polygon","coordinates":[[[24.979037,42.13769],[24.975457,42.138658],[24.975396,42.138712],[24.97539,42.139054],[24.973992,42.140551],[24.972991,42.141387],[24.97245,42.141783],[24.970702,42.142099],[24.969867,42.142051],[24.969852,42.1443],[24.969868,42.144495],[24.970195,42.144583],[24.970466,42.144455],[24.972496,42.143985],[24.975173,42.143248],[24.977265,42.142633],[24.978008,42.142614],[24.978619,42.142685],[24.979866,42.143058],[24.982051,42.143742],[24.983694,42.144359],[24.985811,42.144996],[24.985974,42.144671],[24.986072,42.144701],[24.985949,42.142786],[24.985896,42.142222],[24.985022,42.141646],[24.984101,42.140919],[24.983431,42.139663],[24.983057,42.139202],[24.979634,42.137991],[24.979437,42.137645],[24.979391,42.137657],[24.979372,42.137624],[24.979037,42.13769]]]},"properties":{"cadreg":173}},{"type":"Feature","geometry":{"type":"Polygon","coordinates":[[[24.986136,42.131237],[24.991251,42.129509],[24.99542,42.12808],[24.996028,42.127746],[24.996303,42.127203],[24.996432,42.126699],[24.996314,42.126663],[24.997381,42.123304],[24.997284,42.123336],[24.996238,42.126589],[24.996098,42.127179],[24.995893,42.127625],[24.995123,42.128039],[24.994556,42.128233],[24.992645,42.127484],[24.992277,42.127902],[24.990729,42.128536],[24.989632,42.128825],[24.989122,42.128926],[24.988943,42.128951],[24.988715,42.128926],[24.988039,42.128616],[24.987719,42.128499],[24.987363,42.128426],[24.985891,42.1282],[24.985319,42.128082],[24.984706,42.127848],[24.984579,42.12765],[24.984907,42.12695],[24.984851,42.126888],[24.98431,42.12682],[24.983179,42.126587],[24.983577,42.126796],[24.983806,42.126814],[24.984187,42.126885],[24.982762,42.129047],[24.982364,42.128923],[24.982321,42.129009],[24.983484,42.129362],[24.983685,42.129486],[24.983901,42.129706],[24.984424,42.129983],[24.985215,42.130436],[24.986498,42.130795],[24.986569,42.130951],[24.986446,42.131028],[24.986086,42.131153],[24.986136,42.131237]]]},"properties":{"cadreg":174}},{"type":"Feature","geometry":{"type":"Polygon","coordinates":[[[24.965547,42.145646],[24.964859,42.148204],[24.964414,42.148661],[24.964673,42.148844],[24.964284,42.15024],[24.964334,42.150239],[24.964324,42.150275],[24.963434,42.150415],[24.96335,42.150418],[24.962272,42.150212],[24.961877,42.150201],[24.957078,42.15119],[24.955064,42.151377],[24.955123,42.15146],[24.957017,42.151284],[24.960584,42.150571],[24.960607,42.150992],[24.960187,42.151355],[24.959265,42.151856],[24.958209,42.152404],[24.957662,42.152511],[24.955454,42.152028],[24.955592,42.152251],[24.957356,42.152498],[24.957335,42.152561],[24.957941,42.152653],[24.957832,42.152744],[24.958036,42.152819],[24.958228,42.152662],[24.960498,42.151406],[24.961516,42.150734],[24.962264,42.150608],[24.96293,42.150598],[24.963441,42.150568],[24.96445,42.150427],[24.964593,42.150233],[24.965801,42.145654],[24.965854,42.145662],[24.965999,42.145003],[24.965741,42.145006],[24.965595,42.145653],[24.965547,42.145646]]]},"properties":{"cadreg":177}},{"type":"Feature","geometry":{"type":"Polygon","coordinates":[[[24.977089,42.097578],[24.973936,42.096711],[24.973901,42.09674],[24.973852,42.096727],[24.97306,42.097399],[24.972753,42.097749],[24.972679,42.098142],[24.972954,42.098362],[24.973083,42.098717],[24.973697,42.099675],[24.97382,42.099771],[24.975265,42.099959],[24.975285,42.100583],[24.976753,42.10068],[24.977229,42.09831],[24.977144,42.097629],[24.977094,42.097617],[24.977089,42.097578]]]},"properties":{"cadreg":178}},{"type":"Feature","geometry":{"type":"Polygon","coordinates":[[[24.907795,42.155285],[24.90841,42.153489],[24.900799,42.152866],[24.897525,42.152623],[24.897664,42.152269],[24.897949,42.150489],[24.89755,42.150454],[24.897555,42.148642],[24.897494,42.148631],[24.897495,42.148585],[24.89741,42.148569],[24.897422,42.15055],[24.897775,42.150563],[24.897565,42.152131],[24.89691,42.153775],[24.897034,42.154929],[24.897063,42.155739],[24.897275,42.155767],[24.897547,42.155854],[24.89788,42.155936],[24.898599,42.156035],[24.899083,42.156186],[24.899515,42.156405],[24.89971,42.156471],[24.900005,42.156471],[24.90046,42.156553],[24.900662,42.15663],[24.900806,42.156772],[24.900956,42.156862],[24.90114,42.156825],[24.901518,42.156714],[24.901903,42.156531],[24.902207,42.156348],[24.902754,42.156231],[24.903227,42.15623],[24.904361,42.156332],[24.906035,42.156575],[24.906408,42.156551],[24.907202,42.156627],[24.907669,42.156648],[24.908039,42.156732],[24.908342,42.156733],[24.908851,42.156703],[24.909249,42.156733],[24.909469,42.15679],[24.909967,42.156797],[24.910085,42.156693],[24.910245,42.15664],[24.910136,42.1561],[24.91064,42.155994],[24.911224,42.155916],[24.911277,42.155837],[24.912094,42.155637],[24.912397,42.155546],[24.912658,42.155517],[24.912981,42.155422],[24.913109,42.155234],[24.914076,42.154987],[24.913942,42.154475],[24.912087,42.154936],[24.909503,42.155214],[24.907991,42.15529],[24.907912,42.155339],[24.907841,42.155334],[24.907795,42.155285]]]},"properties":{"cadreg":3}},{"type":"Feature","geometry":{"type":"Polygon","coordinates":[[[24.897664,42.152269],[24.897525,42.152623],[24.900799,42.152866],[24.90841,42.153489],[24.909024,42.151692],[24.903912,42.151267],[24.897899,42.150805],[24.897664,42.152269]]]},"properties":{"cadreg":4}},{"type":"Feature","geometry":{"type":"Polygon","coordinates":[[[24.897555,42.148642],[24.89755,42.150454],[24.897949,42.150489],[24.897899,42.150805],[24.903912,42.151267],[24.909024,42.151692],[24.909324,42.150814],[24.909383,42.150825],[24.909398,42.150781],[24.897495,42.148585],[24.897494,42.148631],[24.897555,42.148642]]]},"properties":{"cadreg":5}},{"type":"Feature","geometry":{"type":"Polygon","coordinates":[[[24.890743,42.147045],[24.890816,42.147012],[24.892244,42.142722],[24.892073,42.142693],[24.891901,42.143217],[24.888262,42.146587],[24.890743,42.147045]]]},"properties":{"cadreg":6}},{"type":"Feature","geometry":{"type":"Polygon","coordinates":[[[24.891409,42.14523],[24.890816,42.147012],[24.890743,42.147045],[24.897194,42.14826],[24.900239,42.148815],[24.900833,42.147023],[24.900798,42.146979],[24.897104,42.146302],[24.891409,42.14523]]]},"properties":{"cadreg":7}},{"type":"Feature","geometry":{"type":"Polygon","coordinates":[[[24.898392,42.144687],[24.891991,42.143482],[24.891409,42.14523],[24.897104,42.146302],[24.900798,42.146979],[24.901379,42.145232],[24.898392,42.144687]]]},"properties":{"cadreg":8}},{"type":"Feature","geometry":{"type":"Polygon","coordinates":[[[24.891991,42.143482],[24.898392,42.144687],[24.904422,42.145786],[24.910636,42.146975],[24.911003,42.145894],[24.892244,42.142722],[24.891991,42.143482]]]},"properties":{"cadreg":9}},{"type":"Feature","geometry":{"type":"Polygon","coordinates":[[[24.904422,42.145786],[24.901379,42.145232],[24.900798,42.146979],[24.900833,42.147023],[24.903822,42.147568],[24.910033,42.148756],[24.910636,42.146975],[24.904422,42.145786]]]},"properties":{"cadreg":10}},{"type":"Feature","geometry":{"type":"Polygon","coordinates":[[[24.900833,42.147023],[24.900239,42.148815],[24.903218,42.149358],[24.909698,42.15059],[24.911512,42.145239],[24.91141,42.145223],[24.911176,42.145923],[24.911003,42.145894],[24.910033,42.148756],[24.903822,42.147568],[24.900833,42.147023]]]},"properties":{"cadreg":11}},{"type":"Feature","geometry":{"type":"Polygon","coordinates":[[[24.911948,42.151206],[24.911519,42.151178],[24.909398,42.150781],[24.909383,42.150825],[24.909324,42.150814],[24.907795,42.155285],[24.907841,42.155334],[24.907912,42.155339],[24.907991,42.15529],[24.909503,42.155214],[24.910607,42.155095],[24.911948,42.151206]]]},"properties":{"cadreg":12}},{"type":"Feature","geometry":{"type":"Polygon","coordinates":[[[24.911948,42.151206],[24.910607,42.155095],[24.912087,42.154936],[24.913942,42.154475],[24.914076,42.154987],[24.913109,42.155234],[24.912981,42.155422],[24.912658,42.155517],[24.912397,42.155546],[24.912094,42.155637],[24.911277,42.155837],[24.911224,42.155916],[24.914209,42.155272],[24.914199,42.154922],[24.914076,42.154481],[24.913816,42.15132],[24.911948,42.151206]]]},"properties":{"cadreg":13}},{"type":"Feature","geometry":{"type":"Polygon","coordinates":[[[24.909698,42.15059],[24.903218,42.149358],[24.897194,42.14826],[24.888262,42.146587],[24.888136,42.146704],[24.897409,42.148424],[24.89741,42.148569],[24.903165,42.149622],[24.911519,42.151178],[24.913715,42.15132],[24.917725,42.151477],[24.922417,42.15171],[24.930163,42.15205],[24.930869,42.152062],[24.931773,42.151859],[24.932112,42.151757],[24.93268,42.151524],[24.93306,42.15132],[24.933312,42.151167],[24.933666,42.150917],[24.934383,42.150306],[24.934639,42.149767],[24.935123,42.148854],[24.934677,42.148787],[24.934327,42.149652],[24.933923,42.150257],[24.933432,42.150741],[24.93279,42.15117],[24.931603,42.151596],[24.930625,42.151751],[24.929873,42.151768],[24.922403,42.151422],[24.922601,42.1507],[24.9103,42.148814],[24.909698,42.15059]]]},"properties":{"cadreg":14}},{"type":"Feature","geometry":{"type":"Polygon","coordinates":[[[24.9103,42.148814],[24.922601,42.1507],[24.922855,42.149782],[24.910608,42.147906],[24.9103,42.148814]]]},"properties":{"cadreg":15}},{"type":"Feature","geometry":{"type":"Polygon","coordinates":[[[24.910608,42.147906],[24.922855,42.149782],[24.923343,42.148019],[24.9112,42.146158],[24.910608,42.147906]]]},"properties":{"cadreg":16}},{"type":"Feature","geometry":{"type":"Polygon","coordinates":[[[24.934677,42.148787],[24.911512,42.145239],[24.9112,42.146158],[24.934297,42.149696],[24.934677,42.148787]]]},"properties":{"cadreg":17}},{"type":"Feature","geometry":{"type":"Polygon","coordinates":[[[24.923343,42.148019],[24.922855,42.149782],[24.932528,42.151264],[24.93279,42.15117],[24.933432,42.150741],[24.933923,42.150257],[24.934297,42.149696],[24.923343,42.148019]]]},"properties":{"cadreg":18}},{"type":"Feature","geometry":{"type":"Polygon","coordinates":[[[24.922403,42.151422],[24.929873,42.151768],[24.930625,42.151751],[24.931603,42.151596],[24.932528,42.151264],[24.922855,42.149782],[24.922403,42.151422]]]},"properties":{"cadreg":19}},{"type":"Feature","geometry":{"type":"Polygon","coordinates":[[[24.913816,42.15132],[24.914076,42.154481],[24.920779,42.15284],[24.922175,42.152723],[24.922458,42.152739],[24.92249,42.151713],[24.917725,42.151477],[24.913816,42.15132]]]},"properties":{"cadreg":20}},{"type":"Feature","geometry":{"type":"Polygon","coordinates":[[[24.92249,42.151713],[24.922458,42.152739],[24.922923,42.152766],[24.925375,42.153076],[24.926834,42.153465],[24.927744,42.153789],[24.930765,42.154925],[24.931655,42.151932],[24.931773,42.151859],[24.930869,42.152062],[24.930163,42.15205],[24.92249,42.151713]]]},"properties":{"cadreg":21}},{"type":"Feature","geometry":{"type":"Polygon","coordinates":[[[24.932871,42.155716],[24.932943,42.155756],[24.93298,42.155707],[24.933028,42.155735],[24.933332,42.15534],[24.934136,42.152709],[24.935243,42.148921],[24.935197,42.148867],[24.935123,42.148854],[24.934639,42.149767],[24.934383,42.150306],[24.933666,42.150917],[24.933312,42.151167],[24.93306,42.15132],[24.93268,42.151524],[24.932112,42.151757],[24.931773,42.151859],[24.931655,42.151932],[24.930765,42.154925],[24.932871,42.155716]]]},"properties":{"cadreg":22}},{"type":"Feature","geometry":{"type":"Polygon","coordinates":[[[24.943909,42.156162],[24.933589,42.1545],[24.933332,42.15534],[24.933028,42.155735],[24.934498,42.156244],[24.935703,42.156615],[24.936423,42.156794],[24.940209,42.157638],[24.94332,42.158189],[24.943909,42.156162]]]},"properties":{"cadreg":23}},{"type":"Feature","geometry":{"type":"Polygon","coordinates":[[[24.944431,42.154367],[24.934136,42.152709],[24.933589,42.1545],[24.943909,42.156162],[24.944431,42.154367]]]},"properties":{"cadreg":24}},{"type":"Feature","geometry":{"type":"Polygon","coordinates":[[[24.934661,42.150915],[24.934136,42.152709],[24.944431,42.154367],[24.944953,42.152572],[24.934661,42.150915]]]},"properties":{"cadreg":25}},{"type":"Feature","geometry":{"type":"Polygon","coordinates":[[[24.940349,42.149942],[24.940395,42.149785],[24.935197,42.148867],[24.935243,42.148921],[24.934661,42.150915],[24.944953,42.152572],[24.945465,42.150813],[24.940277,42.149977],[24.940349,42.149942]]]},"properties":{"cadreg":26}},{"type":"Feature","geometry":{"type":"Polygon","coordinates":[[[24.957356,42.152498],[24.957308,42.152491],[24.957288,42.152554],[24.955527,42.152288],[24.955521,42.152265],[24.940395,42.149785],[24.940349,42.149942],[24.940277,42.149977],[24.945465,42.150813],[24.944953,42.152572],[24.956266,42.154393],[24.956753,42.15372],[24.957729,42.152771],[24.957832,42.152744],[24.957941,42.152653],[24.957335,42.152561],[24.957356,42.152498]]]},"properties":{"cadreg":27}},{"type":"Feature","geometry":{"type":"Polygon","coordinates":[[[24.944953,42.152572],[24.944431,42.154367],[24.955048,42.156076],[24.956266,42.154393],[24.944953,42.152572]]]},"properties":{"cadreg":28}},{"type":"Feature","geometry":{"type":"Polygon","coordinates":[[[24.944431,42.154367],[24.943909,42.156162],[24.95311,42.157643],[24.954231,42.156968],[24.95491,42.156267],[24.955048,42.156076],[24.944431,42.154367]]]},"properties":{"cadreg":29}},{"type":"Feature","geometry":{"type":"Polygon","coordinates":[[[24.943909,42.156162],[24.94332,42.158189],[24.945575,42.158583],[24.948061,42.158848],[24.949388,42.158758],[24.950601,42.158567],[24.952108,42.158117],[24.952832,42.157811],[24.95311,42.157643],[24.943909,42.156162]]]},"properties":{"cadreg":30}},{"type":"Feature","geometry":{"type":"Polygon","coordinates":[[[24.960584,42.150571],[24.957017,42.151284],[24.955123,42.15146],[24.955064,42.151377],[24.954982,42.151351],[24.955571,42.152273],[24.955521,42.152265],[24.955527,42.152288],[24.957288,42.152554],[24.957308,42.152491],[24.955592,42.152251],[24.955454,42.152028],[24.957662,42.152511],[24.958209,42.152404],[24.959265,42.151856],[24.960187,42.151355],[24.960607,42.150992],[24.960584,42.150571]]]},"properties":{"cadreg":31}},{"type":"Feature","geometry":{"type":"Polygon","coordinates":[[[24.961877,42.150201],[24.962272,42.150212],[24.96335,42.150418],[24.963434,42.150415],[24.964324,42.150275],[24.964334,42.150239],[24.964284,42.15024],[24.964661,42.148889],[24.953695,42.149552],[24.95088,42.146071],[24.950813,42.146075],[24.950683,42.145908],[24.950636,42.145908],[24.951769,42.147401],[24.954982,42.151351],[24.955064,42.151377],[24.957078,42.15119],[24.961877,42.150201]]]},"properties":{"cadreg":32}},{"type":"Feature","geometry":{"type":"Polygon","coordinates":[[[24.952274,42.147794],[24.953695,42.149552],[24.964661,42.148889],[24.964673,42.148844],[24.964414,42.148661],[24.964859,42.148204],[24.965178,42.147018],[24.952274,42.147794]]]},"properties":{"cadreg":33}},{"type":"Feature","geometry":{"type":"Polygon","coordinates":[[[24.960981,42.145451],[24.95088,42.146071],[24.952274,42.147794],[24.965178,42.147018],[24.965547,42.145646],[24.965538,42.145192],[24.960981,42.145451]]]},"properties":{"cadreg":34}},{"type":"Feature","geometry":{"type":"Polygon","coordinates":[[[24.965931,42.145597],[24.964973,42.149697],[24.965308,42.15028],[24.966858,42.150325],[24.967547,42.150383],[24.9685,42.150579],[24.969918,42.144508],[24.969868,42.144495],[24.969869,42.144447],[24.969585,42.144516],[24.968276,42.144722],[24.965999,42.145003],[24.96587,42.145589],[24.965931,42.145597]]]},"properties":{"cadreg":35}},{"type":"Feature","geometry":{"type":"Polygon","coordinates":[[[24.969918,42.144508],[24.9685,42.150579],[24.97089,42.151073],[24.972548,42.14397],[24.970466,42.144455],[24.970195,42.144583],[24.969918,42.144508]]]},"properties":{"cadreg":36}},{"type":"Feature","geometry":{"type":"Polygon","coordinates":[[[24.972548,42.14397],[24.97089,42.151073],[24.97152,42.151203],[24.97256,42.151302],[24.973309,42.151441],[24.974498,42.146348],[24.973969,42.146258],[24.974543,42.146155],[24.975226,42.143232],[24.972548,42.14397]]]},"properties":{"cadreg":37}},{"type":"Feature","geometry":{"type":"Polygon","coordinates":[[[24.977265,42.142633],[24.975226,42.143232],[24.974543,42.146155],[24.977157,42.145688],[24.977874,42.142617],[24.977265,42.142633]]]},"properties":{"cadreg":38}},{"type":"Feature","geometry":{"type":"Polygon","coordinates":[[[24.977874,42.142617],[24.977157,42.145688],[24.980074,42.145175],[24.980521,42.143259],[24.978619,42.142685],[24.978008,42.142614],[24.977874,42.142617]]]},"properties":{"cadreg":39}},{"type":"Feature","geometry":{"type":"Polygon","coordinates":[[[24.980074,42.145175],[24.983195,42.144636],[24.983647,42.144341],[24.982051,42.143742],[24.980521,42.143259],[24.980074,42.145175]]]},"properties":{"cadreg":40}},{"type":"Feature","geometry":{"type":"Polygon","coordinates":[[[24.982633,42.144941],[24.98184,42.14834],[24.984833,42.148727],[24.983732,42.144512],[24.983206,42.144843],[24.982633,42.144941]]]},"properties":{"cadreg":41}},{"type":"Feature","geometry":{"type":"Polygon","coordinates":[[[24.981338,42.150491],[24.9836,42.150524],[24.98618,42.150563],[24.985962,42.149438],[24.985669,42.149071],[24.984833,42.148727],[24.98184,42.14834],[24.981338,42.150491]]]},"properties":{"cadreg":42}},{"type":"Feature","geometry":{"type":"Polygon","coordinates":[[[24.978792,42.150453],[24.978595,42.150575],[24.978494,42.152119],[24.977516,42.152222],[24.97256,42.151302],[24.97152,42.151203],[24.967547,42.150383],[24.966858,42.150325],[24.965308,42.15028],[24.964973,42.149697],[24.965931,42.145597],[24.96587,42.145589],[24.965854,42.145662],[24.965801,42.145654],[24.964758,42.149609],[24.965209,42.150383],[24.965263,42.150433],[24.965394,42.150475],[24.966694,42.150523],[24.967461,42.150604],[24.968427,42.150781],[24.970871,42.151268],[24.974662,42.152054],[24.977249,42.152518],[24.978066,42.152604],[24.978305,42.152599],[24.979144,42.152355],[24.982921,42.152016],[24.985147,42.152363],[24.988844,42.151958],[24.988471,42.150617],[24.98625,42.150609],[24.986241,42.150563],[24.978792,42.150453]]]},"properties":{"cadreg":43}},{"type":"Feature","geometry":{"type":"Polygon","coordinates":[[[24.982921,42.152016],[24.979144,42.152355],[24.978305,42.152599],[24.980367,42.152722],[24.986398,42.153004],[24.987671,42.152972],[24.9891,42.152884],[24.988844,42.151958],[24.985147,42.152363],[24.982921,42.152016]]]},"properties":{"cadreg":44}},{"type":"Feature","geometry":{"type":"Polygon","coordinates":[[[24.982633,42.144941],[24.979972,42.145398],[24.978792,42.150453],[24.981338,42.150491],[24.982633,42.144941]]]},"properties":{"cadreg":45}},{"type":"Feature","geometry":{"type":"Polygon","coordinates":[[[24.977054,42.14592],[24.975663,42.151878],[24.977516,42.152222],[24.978494,42.152119],[24.978595,42.150575],[24.978792,42.150453],[24.979972,42.145398],[24.977054,42.14592]]]},"properties":{"cadreg":46}},{"type":"Feature","geometry":{"type":"Polygon","coordinates":[[[24.974498,42.146348],[24.973309,42.151441],[24.975663,42.151878],[24.977054,42.14592],[24.974616,42.146369],[24.974498,42.146348]]]},"properties":{"cadreg":47}},{"type":"Feature","geometry":{"type":"Polygon","coordinates":[[[24.96445,42.150427],[24.963441,42.150568],[24.96293,42.150598],[24.962264,42.150608],[24.961516,42.150734],[24.960498,42.151406],[24.958228,42.152662],[24.958036,42.152819],[24.957832,42.152744],[24.957729,42.152771],[24.956753,42.15372],[24.95491,42.156267],[24.954231,42.156968],[24.952832,42.157811],[24.952108,42.158117],[24.950601,42.158567],[24.949388,42.158758],[24.948061,42.158848],[24.945575,42.158583],[24.940209,42.157638],[24.936423,42.156794],[24.935703,42.156615],[24.934498,42.156244],[24.933028,42.155735],[24.93298,42.155707],[24.932943,42.155756],[24.932871,42.155716],[24.927744,42.153789],[24.926834,42.153465],[24.925375,42.153076],[24.922923,42.152766],[24.922175,42.152723],[24.920779,42.15284],[24.914076,42.154481],[24.914199,42.154922],[24.914209,42.155272],[24.911224,42.155916],[24.91064,42.155994],[24.910136,42.1561],[24.910245,42.15664],[24.910085,42.156693],[24.909967,42.156797],[24.909469,42.15679],[24.909249,42.156733],[24.908851,42.156703],[24.908342,42.156733],[24.908039,42.156732],[24.907669,42.156648],[24.907202,42.156627],[24.906408,42.156551],[24.906035,42.156575],[24.904361,42.156332],[24.903227,42.15623],[24.902754,42.156231],[24.902207,42.156348],[24.901903,42.156531],[24.901518,42.156714],[24.90114,42.156825],[24.900956,42.156862],[24.900806,42.156772],[24.900662,42.15663],[24.90046,42.156553],[24.900005,42.156471],[24.89971,42.156471],[24.899515,42.156405],[24.899083,42.156186],[24.898599,42.156035],[24.89788,42.155936],[24.897547,42.155854],[24.897275,42.155767],[24.897063,42.155739],[24.89707,42.155953],[24.897151,42.156081],[24.89774,42.156258],[24.897702,42.15651],[24.898097,42.156477],[24.898358,42.156479],[24.899159,42.156549],[24.90008,42.156713],[24.900796,42.156911],[24.901573,42.157101],[24.901877,42.157152],[24.902445,42.157176],[24.902655,42.157156],[24.903447,42.156964],[24.903752,42.156915],[24.904016,42.156853],[24.904587,42.156668],[24.904699,42.156657],[24.905206,42.156692],[24.905448,42.156746],[24.905978,42.156808],[24.90654,42.156909],[24.907995,42.157057],[24.90908,42.157202],[24.909968,42.157259],[24.910479,42.157237],[24.912088,42.157484],[24.912361,42.15751],[24.913481,42.157494],[24.913678,42.157482],[24.914491,42.157338],[24.915269,42.157269],[24.915697,42.157204],[24.916314,42.157167],[24.916889,42.157093],[24.917577,42.157035],[24.917711,42.157042],[24.918452,42.15688],[24.918941,42.156799],[24.919298,42.156717],[24.920139,42.15658],[24.920189,42.156556],[24.920368,42.156532],[24.920745,42.156449],[24.92087,42.156394],[24.920992,42.156396],[24.921122,42.156354],[24.921666,42.15626],[24.922084,42.156138],[24.922485,42.156044],[24.922885,42.155977],[24.923006,42.155942],[24.9234,42.155881],[24.923894,42.155743],[24.92416,42.155652],[24.92438,42.155603],[24.924539,42.155536],[24.924664,42.155507],[24.925021,42.155381],[24.925287,42.155331],[24.92542,42.155278],[24.925846,42.155173],[24.926177,42.155063],[24.926269,42.155038],[24.926541,42.155006],[24.926801,42.154946],[24.926903,42.154906],[24.927249,42.154835],[24.927911,42.155008],[24.92809,42.15508],[24.92815,42.155086],[24.928241,42.155125],[24.928597,42.155221],[24.928736,42.155275],[24.929292,42.155412],[24.930072,42.155487],[24.930219,42.155529],[24.930871,42.155644],[24.930916,42.155691],[24.931003,42.155721],[24.931016,42.155759],[24.931124,42.155833],[24.931397,42.155971],[24.931451,42.15602],[24.931848,42.156247],[24.932074,42.156399],[24.932124,42.156492],[24.932167,42.156703],[24.932185,42.1571],[24.932219,42.157258],[24.932242,42.157277],[24.932245,42.157342],[24.932403,42.157605],[24.932507,42.15772],[24.932668,42.157822],[24.932782,42.157869],[24.932787,42.157888],[24.932997,42.157978],[24.933068,42.157995],[24.933301,42.158149],[24.933347,42.158161],[24.933468,42.158288],[24.933506,42.158301],[24.93355,42.158344],[24.933588,42.158398],[24.93373,42.158469],[24.933843,42.158505],[24.933884,42.158537],[24.934068,42.158602],[24.934313,42.158644],[24.934316,42.158667],[24.934478,42.158721],[24.934752,42.158713],[24.935137,42.158771],[24.935179,42.158749],[24.935236,42.158791],[24.935539,42.158836],[24.935763,42.158906],[24.93594,42.158905],[24.936733,42.159162],[24.937368,42.159227],[24.937875,42.15918],[24.938928,42.15886],[24.939614,42.158702],[24.940468,42.158769],[24.941166,42.158934],[24.943048,42.15963],[24.943973,42.160001],[24.944586,42.160489],[24.948169,42.161221],[24.950231,42.161306],[24.951998,42.161121],[24.95387,42.160689],[24.954198,42.160569],[24.954844,42.160007],[24.955485,42.159652],[24.956174,42.159303],[24.956778,42.158784],[24.957492,42.158381],[24.958124,42.157517],[24.959229,42.156547],[24.96033,42.154646],[24.961514,42.153472],[24.964498,42.151401],[24.966911,42.152177],[24.968114,42.154537],[24.967814,42.156041],[24.967835,42.156223],[24.968065,42.156295],[24.976139,42.157571],[24.976178,42.157528],[24.976348,42.157458],[24.977191,42.157333],[24.977941,42.157202],[24.978268,42.156515],[24.97862,42.155647],[24.978997,42.154826],[24.981314,42.15483],[24.982391,42.154732],[24.985624,42.154104],[24.987349,42.153916],[24.989009,42.154075],[24.989436,42.154096],[24.9891,42.152884],[24.987671,42.152972],[24.986398,42.153004],[24.980367,42.152722],[24.978305,42.152599],[24.978066,42.152604],[24.977249,42.152518],[24.974662,42.152054],[24.970871,42.151268],[24.968427,42.150781],[24.967461,42.150604],[24.966694,42.150523],[24.965394,42.150475],[24.965263,42.150433],[24.965209,42.150383],[24.964758,42.149609],[24.964593,42.150233],[24.96445,42.150427]]]},"properties":{"cadreg":48}},{"type":"Feature","geometry":{"type":"Polygon","coordinates":[[[24.950483,42.145705],[24.950636,42.145908],[24.950683,42.145908],[24.950813,42.146075],[24.95734,42.145686],[24.960981,42.145451],[24.965538,42.145192],[24.965547,42.145646],[24.965595,42.145653],[24.965741,42.145006],[24.965999,42.145003],[24.968276,42.144722],[24.969585,42.144516],[24.969869,42.144447],[24.969852,42.1443],[24.966557,42.144776],[24.964366,42.144975],[24.961435,42.145155],[24.961488,42.141134],[24.961047,42.141147],[24.961031,42.141183],[24.961047,42.141554],[24.960998,42.141553],[24.961012,42.143805],[24.949085,42.143545],[24.950483,42.145705]]]},"properties":{"cadreg":49}},{"type":"Feature","geometry":{"type":"Polygon","coordinates":[[[24.949085,42.143545],[24.961012,42.143805],[24.960998,42.141553],[24.961047,42.141554],[24.961031,42.141183],[24.961047,42.141147],[24.959549,42.14027],[24.959475,42.140288],[24.959384,42.140407],[24.959442,42.140429],[24.960763,42.14131],[24.947515,42.141036],[24.947484,42.141072],[24.949085,42.143545]]]},"properties":{"cadreg":50}},{"type":"Feature","geometry":{"type":"Polygon","coordinates":[[[24.951281,42.138731],[24.946905,42.1401],[24.946884,42.140067],[24.94684,42.140081],[24.947484,42.141072],[24.947515,42.141036],[24.951193,42.141112],[24.951281,42.138731]]]},"properties":{"cadreg":51}},{"type":"Feature","geometry":{"type":"Polygon","coordinates":[[[24.952817,42.138251],[24.951281,42.138731],[24.951193,42.141112],[24.95366,42.141163],[24.953765,42.138315],[24.953585,42.138248],[24.952817,42.138251]]]},"properties":{"cadreg":52}},{"type":"Feature","geometry":{"type":"Polygon","coordinates":[[[24.953765,42.138315],[24.95366,42.141163],[24.956126,42.141214],[24.9562,42.139222],[24.953765,42.138315]]]},"properties":{"cadreg":53}},{"type":"Feature","geometry":{"type":"Polygon","coordinates":[[[24.956126,42.141214],[24.960763,42.14131],[24.959442,42.140429],[24.9562,42.139222],[24.956126,42.141214]]]},"properties":{"cadreg":54}},{"type":"Feature","geometry":{"type":"Polygon","coordinates":[[[24.961463,42.142982],[24.961435,42.145155],[24.964366,42.144975],[24.966557,42.144776],[24.969852,42.1443],[24.969856,42.143735],[24.961463,42.142982]]]},"properties":{"cadreg":55}},{"type":"Feature","geometry":{"type":"Polygon","coordinates":[[[24.961488,42.141134],[24.961463,42.142982],[24.969856,42.143735],[24.969875,42.141887],[24.961488,42.141134]]]},"properties":{"cadreg":56}},{"type":"Feature","geometry":{"type":"Polygon","coordinates":[[[24.969949,42.140411],[24.964703,42.139941],[24.959606,42.139483],[24.959549,42.14027],[24.961047,42.141147],[24.961488,42.141134],[24.969875,42.141887],[24.969949,42.140411]]]},"properties":{"cadreg":57}},{"type":"Feature","geometry":{"type":"Polygon","coordinates":[[[24.959606,42.139483],[24.969949,42.140411],[24.970083,42.140536],[24.970151,42.138884],[24.959716,42.137951],[24.959606,42.139483]]]},"properties":{"cadreg":58}},{"type":"Feature","geometry":{"type":"Polygon","coordinates":[[[24.959716,42.137951],[24.949922,42.137032],[24.949935,42.137068],[24.949885,42.137067],[24.950485,42.138705],[24.950543,42.138726],[24.946727,42.139908],[24.94684,42.140081],[24.946884,42.140067],[24.946905,42.1401],[24.952817,42.138251],[24.953585,42.138248],[24.959384,42.140407],[24.959475,42.140288],[24.959549,42.14027],[24.959716,42.137951]]]},"properties":{"cadreg":59}},{"type":"Feature","geometry":{"type":"Polygon","coordinates":[[[24.950485,42.138705],[24.950273,42.138127],[24.946948,42.138166],[24.945642,42.138233],[24.946727,42.139908],[24.950543,42.138726],[24.950485,42.138705]]]},"properties":{"cadreg":60}},{"type":"Feature","geometry":{"type":"Polygon","coordinates":[[[24.946017,42.13703],[24.94473,42.137046],[24.945203,42.137554],[24.945642,42.138233],[24.946513,42.138189],[24.946489,42.137061],[24.946046,42.137066],[24.946017,42.13703]]]},"properties":{"cadreg":61}},{"type":"Feature","geometry":{"type":"Polygon","coordinates":[[[24.946046,42.137066],[24.946489,42.137061],[24.946513,42.138189],[24.946948,42.138166],[24.950273,42.138127],[24.949885,42.137067],[24.949935,42.137068],[24.949922,42.137032],[24.948583,42.137],[24.946017,42.13703],[24.946046,42.137066]]]},"properties":{"cadreg":62}},{"type":"Feature","geometry":{"type":"Polygon","coordinates":[[[24.969949,42.140411],[24.969867,42.142051],[24.970702,42.142099],[24.97245,42.141783],[24.972991,42.141387],[24.973906,42.140623],[24.970083,42.140536],[24.969949,42.140411]]]},"properties":{"cadreg":63}},{"type":"Feature","geometry":{"type":"Polygon","coordinates":[[[24.975457,42.138658],[24.974101,42.138984],[24.973322,42.139089],[24.972855,42.139116],[24.972139,42.139064],[24.970151,42.138884],[24.970083,42.140536],[24.973906,42.140623],[24.973992,42.140551],[24.97539,42.139054],[24.975396,42.138712],[24.975457,42.138658]]]},"properties":{"cadreg":64}},{"type":"Feature","geometry":{"type":"Polygon","coordinates":[[[24.979372,42.137624],[24.979391,42.137657],[24.979437,42.137645],[24.979634,42.137991],[24.983057,42.139202],[24.982867,42.136665],[24.979372,42.137624]]]},"properties":{"cadreg":65}},{"type":"Feature","geometry":{"type":"Polygon","coordinates":[[[24.982867,42.136665],[24.983057,42.139202],[24.983431,42.139663],[24.984101,42.140919],[24.985022,42.141646],[24.985896,42.142222],[24.985456,42.135954],[24.982867,42.136665]]]},"properties":{"cadreg":66}},{"type":"Feature","geometry":{"type":"Polygon","coordinates":[[[24.988088,42.135663],[24.987055,42.135689],[24.985659,42.135889],[24.985456,42.135954],[24.986072,42.144701],[24.985994,42.144866],[24.986089,42.144913],[24.98677,42.145084],[24.986742,42.144993],[24.987372,42.145052],[24.991972,42.144557],[24.991926,42.144346],[24.990471,42.14448],[24.988806,42.144674],[24.988088,42.135663]]]},"properties":{"cadreg":67}},{"type":"Feature","geometry":{"type":"Polygon","coordinates":[[[24.988088,42.135663],[24.988806,42.144674],[24.990471,42.14448],[24.991926,42.144346],[24.991588,42.142392],[24.991265,42.141249],[24.99122,42.135613],[24.988088,42.135663]]]},"properties":{"cadreg":68}},{"type":"Feature","geometry":{"type":"Polygon","coordinates":[[[24.99725,42.133303],[24.995298,42.133284],[24.995265,42.135286],[25.001299,42.135177],[25.001234,42.133376],[24.998746,42.133244],[24.997982,42.133284],[24.99725,42.133303]]]},"properties":{"cadreg":69}},{"type":"Feature","geometry":{"type":"Polygon","coordinates":[[[24.995298,42.133284],[24.991163,42.133168],[24.991166,42.135351],[24.995265,42.135286],[24.995298,42.133284]]]},"properties":{"cadreg":70}},{"type":"Feature","geometry":{"type":"Polygon","coordinates":[[[24.985549,42.134249],[24.985301,42.134006],[24.985237,42.134002],[24.984691,42.1344],[24.985356,42.135751],[24.985561,42.135692],[24.985553,42.135656],[24.986256,42.135509],[24.987067,42.135432],[24.98817,42.135401],[24.991166,42.135351],[24.991165,42.134376],[24.986143,42.134227],[24.985549,42.134249]]]},"properties":{"cadreg":71}},{"type":"Feature","geometry":{"type":"Polygon","coordinates":[[[24.986342,42.133007],[24.986112,42.133366],[24.985237,42.134002],[24.985301,42.134006],[24.985549,42.134249],[24.986143,42.134227],[24.991165,42.134376],[24.991163,42.133168],[24.98816,42.133057],[24.986342,42.133007]]]},"properties":{"cadreg":72}},{"type":"Feature","geometry":{"type":"MultiPolygon","coordinates":[[[[24.980732,42.132827],[24.980505,42.133493],[24.980746,42.133198],[24.980971,42.132997],[24.98115,42.132887],[24.98127,42.13284],[24.980732,42.132827]]],[[[24.981856,42.133093],[24.981216,42.133597],[24.980658,42.134101],[24.981476,42.134264],[24.982513,42.134503],[24.98291,42.134667],[24.983711,42.134749],[24.984691,42.1344],[24.986112,42.133366],[24.986342,42.133007],[24.984286,42.132923],[24.981857,42.132848],[24.981823,42.132869],[24.981877,42.13294],[24.981879,42.13303],[24.981856,42.133093]]]]},"properties":{"cadreg":73}},{"type":"Feature","geometry":{"type":"Polygon","coordinates":[[[24.985356,42.135751],[24.984691,42.1344],[24.983711,42.134749],[24.984143,42.136073],[24.985356,42.135751]]]},"properties":{"cadreg":74}},{"type":"Feature","geometry":{"type":"Polygon","coordinates":[[[24.980154,42.13471],[24.979829,42.135246],[24.97937,42.136176],[24.979177,42.136127],[24.978858,42.136812],[24.978365,42.137571],[24.978091,42.137722],[24.979192,42.137385],[24.984143,42.136073],[24.983711,42.134749],[24.98291,42.134667],[24.982513,42.134503],[24.981476,42.134264],[24.980658,42.134101],[24.980447,42.134319],[24.980154,42.13471]]]},"properties":{"cadreg":75}},{"type":"Feature","geometry":{"type":"Polygon","coordinates":[[[24.9787,42.136147],[24.972787,42.135928],[24.97262,42.138904],[24.973482,42.13886],[24.974301,42.138725],[24.978091,42.137722],[24.978365,42.137571],[24.978858,42.136812],[24.97913,42.136238],[24.979083,42.136228],[24.979067,42.136262],[24.978896,42.136226],[24.978909,42.136191],[24.9787,42.136147]]]},"properties":{"cadreg":76}},{"type":"Feature","geometry":{"type":"Polygon","coordinates":[[[24.970316,42.135836],[24.970155,42.138681],[24.97262,42.138904],[24.972787,42.135928],[24.970316,42.135836]]]},"properties":{"cadreg":77}},{"type":"Feature","geometry":{"type":"Polygon","coordinates":[[[24.959879,42.136422],[24.959727,42.137705],[24.970155,42.138681],[24.970318,42.1358],[24.970116,42.13577],[24.959859,42.135991],[24.959879,42.136422]]]},"properties":{"cadreg":78}},{"type":"Feature","geometry":{"type":"Polygon","coordinates":[[[24.950532,42.135229],[24.948564,42.135393],[24.947294,42.135649],[24.945542,42.135837],[24.945567,42.136679],[24.94551,42.136906],[24.944628,42.136919],[24.94473,42.137046],[24.948583,42.137],[24.949922,42.137032],[24.959716,42.137951],[24.972139,42.139064],[24.972855,42.139116],[24.973322,42.139089],[24.974101,42.138984],[24.975397,42.138674],[24.979037,42.13769],[24.979372,42.137624],[24.985659,42.135889],[24.987055,42.135689],[24.99122,42.135613],[24.991219,42.135495],[25.001304,42.135313],[25.001299,42.135177],[24.98817,42.135401],[24.987067,42.135432],[24.986256,42.135509],[24.985553,42.135656],[24.985561,42.135692],[24.985356,42.135751],[24.979192,42.137385],[24.978091,42.137722],[24.974301,42.138725],[24.973482,42.13886],[24.97262,42.138904],[24.959727,42.137705],[24.959881,42.136405],[24.959859,42.135991],[24.959676,42.136028],[24.950536,42.135193],[24.950532,42.135229]]]},"properties":{"cadreg":79}},{"type":"Feature","geometry":{"type":"Polygon","coordinates":[[[24.950714,42.13336],[24.950483,42.135226],[24.950532,42.135229],[24.950536,42.135193],[24.959676,42.136028],[24.959467,42.134159],[24.950714,42.13336]]]},"properties":{"cadreg":80}},{"type":"Feature","geometry":{"type":"Polygon","coordinates":[[[24.955348,42.131999],[24.95317,42.131902],[24.951747,42.131866],[24.949854,42.131791],[24.95001,42.132374],[24.950051,42.132452],[24.950703,42.132424],[24.950741,42.133141],[24.950714,42.13336],[24.959467,42.134159],[24.959356,42.133174],[24.959573,42.133154],[24.95947,42.132912],[24.959418,42.132101],[24.95874,42.132068],[24.958236,42.132088],[24.955348,42.131999]]]},"properties":{"cadreg":81}},{"type":"Feature","geometry":{"type":"Polygon","coordinates":[[[24.968183,42.132399],[24.962129,42.132198],[24.959949,42.132146],[24.959829,42.132127],[24.959418,42.132101],[24.95947,42.132912],[24.959573,42.133154],[24.959356,42.133174],[24.959676,42.136028],[24.959859,42.135991],[24.970116,42.13577],[24.970318,42.1358],[24.97041,42.133451],[24.970469,42.133324],[24.970494,42.132467],[24.969393,42.13244],[24.968839,42.132404],[24.968183,42.132399]]]},"properties":{"cadreg":82}},{"type":"Feature","geometry":{"type":"Polygon","coordinates":[[[24.972873,42.13354],[24.970469,42.133324],[24.97041,42.133451],[24.970378,42.134318],[24.97327,42.134283],[24.973465,42.134208],[24.973101,42.133946],[24.973066,42.133573],[24.972873,42.13354]]]},"properties":{"cadreg":83}},{"type":"Feature","geometry":{"type":"Polygon","coordinates":[[[24.970469,42.133324],[24.972873,42.13354],[24.973066,42.133573],[24.973019,42.13295],[24.973065,42.132911],[24.970484,42.132825],[24.970469,42.133324]]]},"properties":{"cadreg":84}},{"type":"Feature","geometry":{"type":"Polygon","coordinates":[[[24.970484,42.132825],[24.973065,42.132911],[24.973495,42.132558],[24.970494,42.132467],[24.970484,42.132825]]]},"properties":{"cadreg":85}},{"type":"Feature","geometry":{"type":"Polygon","coordinates":[[[24.97515,42.133796],[24.974858,42.134182],[24.973465,42.134208],[24.97327,42.134283],[24.970378,42.134318],[24.970316,42.135836],[24.9787,42.136147],[24.978909,42.136191],[24.978896,42.136226],[24.979067,42.136262],[24.979083,42.136228],[24.97913,42.136238],[24.979177,42.136127],[24.979149,42.13612],[24.979418,42.135561],[24.979775,42.134722],[24.979998,42.134285],[24.978363,42.134117],[24.978288,42.133679],[24.975623,42.13362],[24.97515,42.133796]]]},"properties":{"cadreg":87}},{"type":"Feature","geometry":{"type":"Polygon","coordinates":[[[24.982534,42.130618],[24.982349,42.132388],[24.98243,42.132332],[24.983234,42.13153],[24.983311,42.131476],[24.98342,42.131428],[24.983529,42.131401],[24.983646,42.131393],[24.98374,42.1314],[24.983889,42.131438],[24.983995,42.131492],[24.984068,42.131551],[24.984139,42.131642],[24.984171,42.131729],[24.984554,42.131625],[24.985306,42.131383],[24.986061,42.131113],[24.986086,42.131153],[24.986446,42.131028],[24.986235,42.13085],[24.985244,42.130629],[24.98451,42.130299],[24.984341,42.13028],[24.984214,42.130081],[24.983821,42.129762],[24.983544,42.129629],[24.983109,42.129489],[24.982931,42.129881],[24.983042,42.129908],[24.982914,42.13021],[24.982867,42.130202],[24.982727,42.130634],[24.982534,42.130618]]]},"properties":{"cadreg":88}},{"type":"Feature","geometry":{"type":"Polygon","coordinates":[[[24.986167,42.131278],[24.985128,42.131626],[24.984655,42.131803],[24.98403,42.132048],[24.983482,42.132315],[24.983315,42.13238],[24.983134,42.132427],[24.983002,42.132438],[24.982929,42.132421],[24.982856,42.132369],[24.982376,42.13257],[24.982277,42.132635],[24.986327,42.132749],[24.986763,42.131452],[24.986907,42.131309],[24.987141,42.131217],[24.986816,42.130998],[24.986136,42.131237],[24.986167,42.131278]]]},"properties":{"cadreg":89}},{"type":"Feature","geometry":{"type":"Polygon","coordinates":[[[24.987656,42.132781],[24.987762,42.132767],[24.987787,42.131201],[24.987702,42.131202],[24.987703,42.131157],[24.98703,42.131361],[24.986433,42.132745],[24.987656,42.132781]]]},"properties":{"cadreg":90}},{"type":"Feature","geometry":{"type":"Polygon","coordinates":[[[24.994569,42.131488],[24.993241,42.130841],[24.992902,42.130722],[24.991628,42.130641],[24.990218,42.130766],[24.989031,42.13089],[24.988358,42.131154],[24.987787,42.131201],[24.987762,42.132767],[24.995454,42.133007],[24.995485,42.132973],[24.995491,42.131781],[24.994569,42.131488]]]},"properties":{"cadreg":91}},{"type":"Feature","geometry":{"type":"Polygon","coordinates":[[[24.990781,42.129667],[24.986816,42.130998],[24.987141,42.131217],[24.986907,42.131309],[24.986763,42.131452],[24.986327,42.132749],[24.986433,42.132745],[24.98703,42.131361],[24.987703,42.131157],[24.987702,42.131202],[24.988358,42.131154],[24.989031,42.13089],[24.990218,42.130766],[24.991628,42.130641],[24.992902,42.130722],[24.993241,42.130841],[24.994569,42.131488],[24.995491,42.131781],[24.99549,42.131733],[24.995382,42.131704],[24.995382,42.131666],[24.995328,42.13165],[24.995328,42.13161],[24.995279,42.131594],[24.995276,42.130374],[24.995324,42.130351],[24.995318,42.128115],[24.990781,42.129667]]]},"properties":{"cadreg":92}},{"type":"Feature","geometry":{"type":"Polygon","coordinates":[[[24.99542,42.12808],[24.995318,42.128115],[24.995324,42.130351],[24.995276,42.130374],[24.995279,42.131594],[24.995328,42.13161],[24.995328,42.13165],[24.995382,42.131666],[24.995383,42.130461],[24.995626,42.13034],[24.996465,42.130101],[24.996794,42.12987],[24.997215,42.129211],[24.997283,42.128957],[24.99739,42.127369],[24.99704,42.127065],[24.996432,42.126699],[24.996303,42.127203],[24.996028,42.127746],[24.99542,42.12808]]]},"properties":{"cadreg":93}},{"type":"Feature","geometry":{"type":"Polygon","coordinates":[[[24.995893,42.127625],[24.993313,42.126614],[24.992902,42.126453],[24.993058,42.126929],[24.992645,42.127484],[24.994556,42.128233],[24.995123,42.128039],[24.995893,42.127625]]]},"properties":{"cadreg":94}},{"type":"Feature","geometry":{"type":"Polygon","coordinates":[[[24.992736,42.124926],[24.992631,42.125296],[24.992811,42.125299],[24.992693,42.1257],[24.992727,42.12592],[24.992902,42.126453],[24.995893,42.127625],[24.996098,42.127179],[24.996238,42.126589],[24.996929,42.124441],[24.996298,42.1243],[24.995037,42.124318],[24.993591,42.124586],[24.992924,42.124736],[24.992736,42.124926]]]},"properties":{"cadreg":95}},{"type":"Feature","geometry":{"type":"Polygon","coordinates":[[[24.993047,42.124043],[24.987977,42.124112],[24.987429,42.12412],[24.98771,42.124854],[24.988291,42.125133],[24.989831,42.125092],[24.989868,42.125256],[24.990932,42.125286],[24.992631,42.125296],[24.992736,42.124926],[24.992924,42.124736],[24.993591,42.124586],[24.993047,42.124043]]]},"properties":{"cadreg":96}},{"type":"Feature","geometry":{"type":"Polygon","coordinates":[[[24.988492,42.123334],[24.987273,42.123709],[24.987429,42.12412],[24.993047,42.124043],[24.991806,42.122804],[24.990152,42.122629],[24.989682,42.122664],[24.988492,42.123334]]]},"properties":{"cadreg":97}},{"type":"Feature","geometry":{"type":"Polygon","coordinates":[[[24.979709,42.126071],[24.97943,42.126071],[24.978616,42.125866],[24.97849,42.126214],[24.978211,42.12622],[24.978177,42.126582],[24.978017,42.126656],[24.978051,42.126887],[24.978162,42.127145],[24.978459,42.127654],[24.978643,42.127873],[24.978901,42.128039],[24.980578,42.128762],[24.980983,42.128922],[24.981402,42.129052],[24.983109,42.129489],[24.983544,42.129629],[24.983821,42.129762],[24.984214,42.130081],[24.984341,42.13028],[24.98451,42.130299],[24.985244,42.130629],[24.986235,42.13085],[24.986446,42.131028],[24.986569,42.130951],[24.986498,42.130795],[24.985215,42.130436],[24.984424,42.129983],[24.983901,42.129706],[24.983685,42.129486],[24.983484,42.129362],[24.982321,42.129009],[24.982141,42.128943],[24.981957,42.129005],[24.981795,42.129014],[24.981335,42.12891],[24.981256,42.128743],[24.981058,42.128747],[24.981218,42.128571],[24.981446,42.12817],[24.979364,42.127447],[24.978935,42.127146],[24.978698,42.126812],[24.978558,42.126478],[24.978625,42.126126],[24.980114,42.126633],[24.980749,42.125834],[24.980005,42.126048],[24.979709,42.126071]]]},"properties":{"cadreg":98}},{"type":"Feature","geometry":{"type":"Polygon","coordinates":[[[24.978625,42.126126],[24.978558,42.126478],[24.978698,42.126812],[24.978935,42.127146],[24.979364,42.127447],[24.981446,42.12817],[24.981218,42.128571],[24.981058,42.128747],[24.981256,42.128743],[24.981335,42.12891],[24.981795,42.129014],[24.981957,42.129005],[24.982141,42.128943],[24.982321,42.129009],[24.982364,42.128923],[24.982762,42.129047],[24.983554,42.127845],[24.980134,42.126679],[24.980114,42.126633],[24.978625,42.126126]]]},"properties":{"cadreg":99}},{"type":"Feature","geometry":{"type":"Polygon","coordinates":[[[24.981021,42.125498],[24.980114,42.126633],[24.980134,42.126679],[24.983554,42.127845],[24.984187,42.126885],[24.983806,42.126814],[24.983577,42.126796],[24.983179,42.126587],[24.982331,42.12632],[24.981763,42.126086],[24.981021,42.125498]]]},"properties":{"cadreg":100}},{"type":"Feature","geometry":{"type":"Polygon","coordinates":[[[24.981482,42.123655],[24.980056,42.124501],[24.979728,42.124733],[24.979435,42.12501],[24.979212,42.125319],[24.979475,42.125402],[24.979637,42.125421],[24.980327,42.125238],[24.980393,42.125404],[24.98051,42.125379],[24.980587,42.125572],[24.980749,42.125834],[24.981021,42.125498],[24.981763,42.126086],[24.982331,42.12632],[24.983179,42.126587],[24.98431,42.12682],[24.984851,42.126888],[24.984907,42.12695],[24.984579,42.12765],[24.984706,42.127848],[24.985319,42.128082],[24.985891,42.1282],[24.987363,42.128426],[24.987719,42.128499],[24.988039,42.128616],[24.988715,42.128926],[24.988943,42.128951],[24.989122,42.128926],[24.989632,42.128825],[24.990729,42.128536],[24.992277,42.127902],[24.992645,42.127484],[24.993058,42.126929],[24.992727,42.12592],[24.992693,42.1257],[24.992811,42.125299],[24.990932,42.125286],[24.989868,42.125256],[24.989831,42.125092],[24.988291,42.125133],[24.98771,42.124854],[24.987273,42.123709],[24.988492,42.123334],[24.989682,42.122664],[24.990192,42.122633],[24.990147,42.122593],[24.990262,42.122508],[24.990597,42.122425],[24.99088,42.12244],[24.991112,42.122475],[24.991521,42.122231],[24.990868,42.1216],[24.990642,42.121058],[24.987579,42.119374],[24.987038,42.118945],[24.986144,42.119087],[24.985396,42.121218],[24.984749,42.121954],[24.983824,42.122475],[24.981518,42.123245],[24.981145,42.123072],[24.981482,42.123655]]]},"properties":{"cadreg":101}},{"type":"Feature","geometry":{"type":"Polygon","coordinates":[[[24.982388,42.119753],[24.981011,42.120005],[24.98167,42.121998],[24.981157,42.122367],[24.9812,42.122386],[24.980881,42.122615],[24.981145,42.123072],[24.981518,42.123245],[24.983824,42.122475],[24.984749,42.121954],[24.985396,42.121218],[24.986131,42.119126],[24.983295,42.119578],[24.982805,42.119669],[24.982775,42.119743],[24.982507,42.119789],[24.982388,42.119753]]]},"properties":{"cadreg":102}},{"type":"Feature","geometry":{"type":"Polygon","coordinates":[[[24.977895,42.120339],[24.978228,42.120851],[24.978228,42.121196],[24.978071,42.121415],[24.978288,42.121487],[24.979237,42.121688],[24.979258,42.121634],[24.979547,42.121671],[24.979722,42.121769],[24.979855,42.121641],[24.980154,42.121788],[24.980072,42.121879],[24.980165,42.121937],[24.981157,42.122367],[24.98167,42.121998],[24.981011,42.120005],[24.979706,42.120244],[24.979259,42.120345],[24.978982,42.120202],[24.978848,42.119996],[24.977895,42.120339]]]},"properties":{"cadreg":103}},{"type":"Feature","geometry":{"type":"Polygon","coordinates":[[[24.977895,42.120339],[24.976296,42.120887],[24.976225,42.120888],[24.97623,42.120983],[24.977792,42.121773],[24.978228,42.121196],[24.978228,42.120851],[24.977895,42.120339]]]},"properties":{"cadreg":104}},{"type":"Feature","geometry":{"type":"Polygon","coordinates":[[[24.976219,42.120764],[24.976223,42.120831],[24.976278,42.120828],[24.976244,42.120534],[24.976768,42.120196],[24.976785,42.12013],[24.97662,42.119808],[24.976443,42.119566],[24.975771,42.118736],[24.975658,42.118767],[24.975184,42.117615],[24.972941,42.117914],[24.973101,42.118351],[24.97313,42.119043],[24.972987,42.119138],[24.972815,42.119209],[24.972705,42.11932],[24.972648,42.119439],[24.972695,42.119539],[24.972785,42.11963],[24.97284,42.11982],[24.972851,42.120208],[24.972574,42.120501],[24.972494,42.120744],[24.972648,42.120717],[24.973863,42.120635],[24.973888,42.1209],[24.976219,42.120764]]]},"properties":{"cadreg":105}},{"type":"Feature","geometry":{"type":"Polygon","coordinates":[[[24.971658,42.12086],[24.972494,42.120744],[24.972574,42.120501],[24.972851,42.120208],[24.97284,42.11982],[24.972785,42.11963],[24.972695,42.119539],[24.972648,42.119439],[24.972705,42.11932],[24.972815,42.119209],[24.972987,42.119138],[24.97313,42.119043],[24.973101,42.118351],[24.972941,42.117914],[24.972369,42.118003],[24.969422,42.118543],[24.969439,42.118678],[24.969385,42.118733],[24.970675,42.120856],[24.971595,42.120651],[24.971658,42.12086]]]},"properties":{"cadreg":106}},{"type":"Feature","geometry":{"type":"Polygon","coordinates":[[[24.97074,42.120975],[24.968513,42.120946],[24.9672,42.121254],[24.96684,42.121326],[24.96701,42.12158],[24.967986,42.121679],[24.968073,42.121285],[24.968918,42.121329],[24.968857,42.121769],[24.970468,42.121934],[24.971085,42.121425],[24.971004,42.121356],[24.970813,42.121128],[24.97074,42.120975]]]},"properties":{"cadreg":107}},{"type":"Feature","geometry":{"type":"Polygon","coordinates":[[[24.96646,42.119396],[24.963547,42.120039],[24.963486,42.120113],[24.963664,42.120298],[24.964245,42.121126],[24.96472,42.121581],[24.964867,42.121674],[24.965173,42.121685],[24.965447,42.121656],[24.965705,42.121605],[24.966269,42.121487],[24.966406,42.121411],[24.9672,42.121254],[24.968513,42.120946],[24.9695,42.120963],[24.969895,42.120954],[24.97074,42.120975],[24.969405,42.118766],[24.96646,42.119396]]]},"properties":{"cadreg":108}},{"type":"Feature","geometry":{"type":"Polygon","coordinates":[[[24.959131,42.104585],[24.959203,42.104694],[24.959277,42.104689],[24.96029,42.108396],[24.961294,42.112236],[24.963261,42.11949],[24.963245,42.119988],[24.963577,42.122993],[24.963719,42.122427],[24.964217,42.121438],[24.964307,42.121431],[24.964196,42.12132],[24.963762,42.120722],[24.963677,42.120672],[24.963533,42.120451],[24.963372,42.120129],[24.963486,42.120113],[24.96349,42.119779],[24.961494,42.112424],[24.961554,42.112236],[24.961461,42.112201],[24.960459,42.108354],[24.959338,42.104418],[24.959191,42.104574],[24.959131,42.104585]]]},"properties":{"cadreg":109}},{"type":"Feature","geometry":{"type":"Polygon","coordinates":[[[24.96368,42.127334],[24.963585,42.127331],[24.963537,42.127302],[24.963505,42.128928],[24.963558,42.12895],[24.963626,42.129674],[24.963705,42.129716],[24.964212,42.129598],[24.964722,42.129432],[24.964916,42.129342],[24.965204,42.129164],[24.964781,42.128905],[24.964988,42.128651],[24.964969,42.128423],[24.963718,42.128491],[24.963614,42.128415],[24.96368,42.127334]]]},"properties":{"cadreg":110}},{"type":"Feature","geometry":{"type":"Polygon","coordinates":[[[24.962168,42.130299],[24.961609,42.130495],[24.961017,42.130884],[24.960549,42.131322],[24.960111,42.131598],[24.959784,42.131749],[24.959362,42.13181],[24.963774,42.131935],[24.963812,42.131244],[24.963705,42.13124],[24.963744,42.129837],[24.962168,42.130299]]]},"properties":{"cadreg":111}},{"type":"Feature","geometry":{"type":"Polygon","coordinates":[[[24.949145,42.129386],[24.94977,42.131498],[24.958777,42.131797],[24.959362,42.13181],[24.959784,42.131749],[24.960111,42.131598],[24.960549,42.131322],[24.961017,42.130884],[24.961609,42.130495],[24.962168,42.130299],[24.963744,42.129837],[24.963705,42.129716],[24.963626,42.129674],[24.961844,42.130201],[24.961406,42.13039],[24.961002,42.13065],[24.961019,42.129825],[24.949145,42.129386]]]},"properties":{"cadreg":112}},{"type":"Feature","geometry":{"type":"Polygon","coordinates":[[[24.948596,42.127527],[24.949145,42.129386],[24.961019,42.129825],[24.961056,42.127987],[24.948596,42.127527]]]},"properties":{"cadreg":113}},{"type":"Feature","geometry":{"type":"Polygon","coordinates":[[[24.963445,42.127244],[24.961076,42.126993],[24.961002,42.13065],[24.961406,42.13039],[24.961844,42.130201],[24.963626,42.129674],[24.963558,42.12895],[24.963505,42.128928],[24.963537,42.127302],[24.963445,42.127244]]]},"properties":{"cadreg":114}},{"type":"Feature","geometry":{"type":"Polygon","coordinates":[[[24.948001,42.125516],[24.948596,42.127527],[24.961056,42.127987],[24.961076,42.126993],[24.963445,42.127244],[24.963585,42.127331],[24.96368,42.127334],[24.963681,42.127295],[24.963586,42.127292],[24.963587,42.127226],[24.959327,42.126759],[24.959248,42.126689],[24.948001,42.125516]]]},"properties":{"cadreg":115}},{"type":"Feature","geometry":{"type":"Polygon","coordinates":[[[24.947945,42.125118],[24.948066,42.125527],[24.959248,42.126689],[24.95919,42.126637],[24.959101,42.126628],[24.956819,42.124595],[24.947945,42.125118]]]},"properties":{"cadreg":116}},{"type":"Feature","geometry":{"type":"Polygon","coordinates":[[[24.955682,42.123271],[24.953394,42.123406],[24.947541,42.123751],[24.947945,42.125118],[24.956819,42.124595],[24.956256,42.124094],[24.955717,42.123343],[24.955682,42.123271]]]},"properties":{"cadreg":117}},{"type":"Feature","geometry":{"type":"Polygon","coordinates":[[[24.954577,42.121494],[24.947005,42.121941],[24.947541,42.123751],[24.955682,42.123271],[24.955194,42.122285],[24.954577,42.121494]]]},"properties":{"cadreg":118}},{"type":"Feature","geometry":{"type":"Polygon","coordinates":[[[24.952199,42.119792],[24.94647,42.12013],[24.947005,42.121941],[24.954577,42.121494],[24.95422,42.121038],[24.952962,42.119971],[24.952199,42.119792]]]},"properties":{"cadreg":119}},{"type":"Feature","geometry":{"type":"Polygon","coordinates":[[[24.950552,42.118047],[24.945934,42.118319],[24.94647,42.12013],[24.952199,42.119792],[24.95182,42.11955],[24.950934,42.118593],[24.950637,42.118248],[24.950552,42.118047]]]},"properties":{"cadreg":120}},{"type":"Feature","geometry":{"type":"Polygon","coordinates":[[[24.950136,42.116265],[24.945409,42.116544],[24.945396,42.116499],[24.945335,42.116503],[24.948001,42.125516],[24.948066,42.125527],[24.945934,42.118319],[24.950552,42.118047],[24.950129,42.117319],[24.950136,42.116265]]]},"properties":{"cadreg":121}}]}