{"type":"FeatureCollection","features":[{"type":"Feature","geometry":{"type":"Polygon","coordinates":[[[24.977287,42.132928],[24.977197,42.132925],[24.977193,42.13299],[24.977209,42.132989],[24.97721,42.133003],[24.977285,42.133007],[24.977287,42.132928]]]},"properties":{"num":1}},{"type":"Feature","geometry":{"type":"Polygon","coordinates":[[[24.980031,42.132479],[24.980135,42.132483],[24.98014,42.132394],[24.980039,42.132389],[24.980031,42.132479]]]},"properties":{"num":2}},{"type":"Feature","geometry":{"type":"Polygon","coordinates":[[[24.975229,42.132281],[24.975226,42.132356],[24.975394,42.132362],[24.975398,42.132285],[24.975229,42.132281]]]},"properties":{"num":3}},{"type":"Feature","geometry":{"type":"Polygon","coordinates":[[[24.975192,42.132171],[24.975157,42.13217],[24.975155,42.132234],[24.97519,42.132235],[24.975192,42.132171]]]},"properties":{"num":4}},{"type":"Feature","geometry":{"type":"Polygon","coordinates":[[[24.907222,42.149878],[24.907247,42.149808],[24.907211,42.149801],[24.907187,42.149871],[24.907222,42.149878]]]},"properties":{"num":2}},{"type":"Feature","geometry":{"type":"Polygon","coordinates":[[[24.907371,42.149954],[24.907357,42.149994],[24.907385,42.149999],[24.907399,42.149959],[24.907371,42.149954]]]},"properties":{"num":3}},{"type":"Feature","geometry":{"type":"Polygon","coordinates":[[[24.906927,42.149522],[24.906944,42.14947],[24.907066,42.149494],[24.907114,42.149351],[24.906994,42.149328],[24.907031,42.149219],[24.906487,42.149115],[24.906286,42.149701],[24.907186,42.149874],[24.907283,42.149589],[24.906927,42.149522]]]},"properties":{"num":4}},{"type":"Feature","geometry":{"type":"Polygon","coordinates":[[[24.910729,42.151079],[24.910723,42.151098],[24.910758,42.151104],[24.910764,42.151086],[24.910729,42.151079]]]},"properties":{"num":1}},{"type":"Feature","geometry":{"type":"Polygon","coordinates":[[[24.911568,42.151555],[24.911604,42.15145],[24.910898,42.151316],[24.910862,42.15142],[24.911568,42.151555]]]},"properties":{"num":2}},{"type":"Feature","geometry":{"type":"Polygon","coordinates":[[[24.91199,42.147514],[24.911843,42.147486],[24.911699,42.147909],[24.911847,42.147937],[24.91199,42.147514]]]},"properties":{"num":1}},{"type":"Feature","geometry":{"type":"Polygon","coordinates":[[[24.964624,42.151142],[24.964656,42.151133],[24.964635,42.151095],[24.964603,42.151104],[24.964624,42.151142]]]},"properties":{"num":1}},{"type":"Feature","geometry":{"type":"Polygon","coordinates":[[[24.964635,42.151095],[24.964656,42.151133],[24.96475,42.151105],[24.964729,42.151067],[24.964635,42.151095]]]},"properties":{"num":2}},{"type":"Feature","geometry":{"type":"Polygon","coordinates":[[[24.964584,42.15096],[24.964627,42.150948],[24.964612,42.150919],[24.964569,42.150931],[24.964584,42.15096]]]},"properties":{"num":3}},{"type":"Feature","geometry":{"type":"Polygon","coordinates":[[[24.982659,42.13867],[24.982651,42.138555],[24.981852,42.138586],[24.98186,42.138701],[24.982659,42.13867]]]},"properties":{"num":1}},{"type":"Feature","geometry":{"type":"Polygon","coordinates":[[[24.982661,42.138669],[24.982804,42.138663],[24.982796,42.13855],[24.982652,42.138555],[24.982661,42.138669]]]},"properties":{"num":2}},{"type":"Feature","geometry":{"type":"Polygon","coordinates":[[[24.977992,42.137123],[24.977997,42.137036],[24.978015,42.137026],[24.978017,42.136996],[24.977977,42.136995],[24.977984,42.136903],[24.977878,42.136898],[24.977864,42.137117],[24.977992,42.137123]]]},"properties":{"num":1}},{"type":"Feature","geometry":{"type":"Polygon","coordinates":[[[24.977817,42.137278],[24.977968,42.137284],[24.977978,42.137122],[24.977828,42.137115],[24.977817,42.137278]]]},"properties":{"num":2}},{"type":"Feature","geometry":{"type":"Polygon","coordinates":[[[24.977795,42.137604],[24.97797,42.137611],[24.977992,42.137285],[24.977817,42.137278],[24.977795,42.137604]]]},"properties":{"num":3}},{"type":"Feature","geometry":{"type":"Polygon","coordinates":[[[24.97878,42.136719],[24.978818,42.136658],[24.978808,42.136637],[24.978698,42.136624],[24.978682,42.136648],[24.978674,42.136645],[24.978636,42.136702],[24.978722,42.136735],[24.978742,42.136706],[24.97878,42.136719]]]},"properties":{"num":2}},{"type":"Feature","geometry":{"type":"Polygon","coordinates":[[[24.901015,42.152635],[24.900981,42.152868],[24.901077,42.152875],[24.901111,42.152642],[24.901015,42.152635]]]},"properties":{"num":1}},{"type":"Feature","geometry":{"type":"Polygon","coordinates":[[[24.977797,42.136117],[24.977576,42.136108],[24.977525,42.136867],[24.977746,42.136875],[24.977797,42.136117]]]},"properties":{"num":1}},{"type":"Feature","geometry":{"type":"Polygon","coordinates":[[[24.978463,42.136143],[24.977797,42.136117],[24.977786,42.136281],[24.978452,42.136306],[24.978463,42.136143]]]},"properties":{"num":2}},{"type":"Feature","geometry":{"type":"Polygon","coordinates":[[[24.959134,42.137363],[24.95914,42.13736],[24.959154,42.13729],[24.95915,42.137285],[24.958999,42.137272],[24.95899,42.13735],[24.959134,42.137363]]]},"properties":{"num":1}},{"type":"Feature","geometry":{"type":"Polygon","coordinates":[[[24.959407,42.137351],[24.959526,42.137363],[24.959535,42.137374],[24.959548,42.137379],[24.959562,42.137377],[24.959575,42.137368],[24.959575,42.137353],[24.959563,42.137342],[24.959585,42.137223],[24.959597,42.137224],[24.959609,42.137219],[24.959615,42.137191],[24.959604,42.137183],[24.959592,42.137182],[24.959604,42.13712],[24.95961,42.13712],[24.959615,42.137093],[24.959456,42.13708],[24.959456,42.137075],[24.959424,42.137073],[24.959416,42.137077],[24.959412,42.137101],[24.959418,42.137102],[24.9594,42.137169],[24.959406,42.137169],[24.9594,42.137202],[24.959394,42.137202],[24.959388,42.137233],[24.959395,42.137233],[24.959378,42.137324],[24.959363,42.137332],[24.959358,42.137344],[24.959362,42.137355],[24.959378,42.137363],[24.959394,42.137361],[24.959407,42.137351]]]},"properties":{"num":2}},{"type":"Feature","geometry":{"type":"Polygon","coordinates":[[[24.978471,42.134282],[24.978328,42.134256],[24.97831,42.13431],[24.978453,42.134337],[24.978471,42.134282]]]},"properties":{"num":1}},{"type":"Feature","geometry":{"type":"Polygon","coordinates":[[[24.979591,42.134419],[24.97953,42.134418],[24.979532,42.134519],[24.979593,42.134519],[24.979591,42.134419]]]},"properties":{"num":2}},{"type":"Feature","geometry":{"type":"Polygon","coordinates":[[[24.984853,42.132285],[24.984854,42.132235],[24.984744,42.132234],[24.984744,42.13223],[24.98469,42.132229],[24.984689,42.132288],[24.984853,42.132285]]]},"properties":{"num":1}},{"type":"Feature","geometry":{"type":"Polygon","coordinates":[[[24.963505,42.131283],[24.962771,42.131268],[24.962767,42.131385],[24.963501,42.1314],[24.963505,42.131283]]]},"properties":{"num":1}},{"type":"Feature","geometry":{"type":"Polygon","coordinates":[[[24.963226,42.131736],[24.963227,42.131708],[24.96319,42.131708],[24.96319,42.131735],[24.963226,42.131736]]]},"properties":{"num":1}},{"type":"Feature","geometry":{"type":"Polygon","coordinates":[[[24.966877,42.11772],[24.966964,42.118041],[24.967255,42.117998],[24.967169,42.117677],[24.966877,42.11772]]]},"properties":{"num":1}},{"type":"Feature","geometry":{"type":"Polygon","coordinates":[[[24.994955,42.123484],[24.994803,42.123481],[24.994795,42.123646],[24.994946,42.12365],[24.994955,42.123484]]]},"properties":{"num":2}},{"type":"Feature","geometry":{"type":"Polygon","coordinates":[[[24.995248,42.123435],[24.995244,42.12338],[24.995119,42.123385],[24.995122,42.123425],[24.995197,42.123422],[24.995198,42.123437],[24.995248,42.123435]]]},"properties":{"num":3}},{"type":"Feature","geometry":{"type":"Polygon","coordinates":[[[24.994983,42.123876],[24.994991,42.123649],[24.994853,42.123648],[24.994847,42.123873],[24.994983,42.123876]]]},"properties":{"num":5}},{"type":"Feature","geometry":{"type":"Polygon","coordinates":[[[24.994853,42.123648],[24.994798,42.123646],[24.994793,42.123762],[24.99485,42.123763],[24.994853,42.123648]]]},"properties":{"num":6}},{"type":"Feature","geometry":{"type":"Polygon","coordinates":[[[24.99525,42.123453],[24.995248,42.123435],[24.995198,42.123437],[24.995199,42.123455],[24.99525,42.123453]]]},"properties":{"num":7}},{"type":"Feature","geometry":{"type":"Polygon","coordinates":[[[24.978549,42.13654],[24.978507,42.136529],[24.978483,42.136581],[24.978511,42.136589],[24.978549,42.13654]]]},"properties":{"num":3}},{"type":"Feature","geometry":{"type":"Polygon","coordinates":[[[24.893106,42.147081],[24.893196,42.146815],[24.893048,42.146788],[24.892957,42.147054],[24.893106,42.147081]]]},"properties":{"num":1}},{"type":"Feature","geometry":{"type":"Polygon","coordinates":[[[24.893344,42.145778],[24.893336,42.145802],[24.893428,42.14582],[24.89346,42.145726],[24.893334,42.145702],[24.893311,42.145771],[24.893344,42.145778]]]},"properties":{"num":2}},{"type":"Feature","geometry":{"type":"Polygon","coordinates":[[[24.906288,42.149701],[24.906269,42.149756],[24.906764,42.149851],[24.906783,42.149797],[24.906288,42.149701]]]},"properties":{"num":1}}]}