{"type":"FeatureCollection","features":[{"type":"Feature","geometry":{"type":"Polygon","coordinates":[[[25.484098,41.538659],[25.484218,41.538695],[25.484409,41.539065],[25.485235,41.539862],[25.485617,41.539842],[25.486177,41.540201],[25.486246,41.539987],[25.486063,41.539913],[25.485891,41.539755],[25.485692,41.539499],[25.485446,41.539095],[25.485238,41.538895],[25.485357,41.538822],[25.485944,41.538321],[25.485849,41.538168],[25.486161,41.538039],[25.486326,41.537915],[25.486349,41.537772],[25.486178,41.53762],[25.485521,41.537186],[25.485161,41.537049],[25.484823,41.5369],[25.485125,41.536391],[25.485072,41.536279],[25.484977,41.536201],[25.485184,41.535887],[25.485596,41.535779],[25.485923,41.535557],[25.48624,41.535799],[25.486335,41.535657],[25.486481,41.535522],[25.486837,41.535307],[25.487121,41.535095],[25.487344,41.535022],[25.48782,41.535126],[25.487914,41.534965],[25.487424,41.534849],[25.487202,41.534571],[25.486832,41.534271],[25.486618,41.534477],[25.486342,41.534351],[25.48621,41.534223],[25.485803,41.534357],[25.485544,41.534182],[25.485474,41.534207],[25.485339,41.534399],[25.484741,41.534014],[25.484596,41.534141],[25.484424,41.534141],[25.483813,41.533884],[25.483765,41.53397],[25.483137,41.533904],[25.483034,41.534219],[25.48282,41.534201],[25.482605,41.5347],[25.482996,41.534765],[25.482717,41.535192],[25.484093,41.535776],[25.484082,41.535837],[25.483837,41.536129],[25.483852,41.536327],[25.483798,41.537093],[25.483254,41.537264],[25.483506,41.537519],[25.484075,41.538147],[25.484063,41.538226],[25.484486,41.538438],[25.484098,41.538659]]]},"properties":{"cadreg":555}},{"type":"Feature","geometry":{"type":"Polygon","coordinates":[[[25.474321,41.540975],[25.474249,41.540971],[25.474152,41.541027],[25.474024,41.540708],[25.473683,41.540541],[25.473245,41.540531],[25.473267,41.54086],[25.473206,41.540966],[25.473111,41.541066],[25.472968,41.541157],[25.472704,41.541372],[25.47256,41.541694],[25.472357,41.541971],[25.472343,41.542204],[25.472407,41.542465],[25.472404,41.542579],[25.47226,41.54301],[25.472212,41.543104],[25.472088,41.543235],[25.47181,41.543394],[25.47159,41.543404],[25.471423,41.543313],[25.471248,41.543254],[25.470816,41.543263],[25.470893,41.543469],[25.470549,41.543818],[25.470515,41.543885],[25.470509,41.544003],[25.47051,41.544191],[25.47053,41.544276],[25.470665,41.544419],[25.470588,41.544491],[25.470586,41.544672],[25.470641,41.544748],[25.470751,41.544843],[25.470846,41.544889],[25.471242,41.544904],[25.471482,41.544876],[25.471607,41.544782],[25.471697,41.544674],[25.471775,41.544573],[25.471907,41.544341],[25.472019,41.54421],[25.472223,41.544279],[25.472073,41.544308],[25.471979,41.544433],[25.471971,41.544596],[25.472016,41.544831],[25.473086,41.545237],[25.473243,41.545015],[25.47328,41.544593],[25.473351,41.544543],[25.472891,41.54424],[25.472922,41.544135],[25.473071,41.544122],[25.473277,41.544218],[25.473458,41.544272],[25.473465,41.544364],[25.473609,41.544415],[25.473864,41.544427],[25.474104,41.544569],[25.473928,41.54476],[25.474263,41.544986],[25.474569,41.545075],[25.474677,41.54507],[25.474779,41.545034],[25.475294,41.545165],[25.475411,41.545166],[25.475675,41.545111],[25.475948,41.545336],[25.476023,41.545593],[25.476405,41.54569],[25.476644,41.545666],[25.476892,41.545622],[25.477053,41.545993],[25.477105,41.545994],[25.477173,41.546097],[25.477226,41.54649],[25.477179,41.546541],[25.47671,41.546588],[25.476748,41.546762],[25.47652,41.546798],[25.476325,41.546806],[25.4766,41.546927],[25.476694,41.546949],[25.47719,41.546984],[25.477311,41.54698],[25.477485,41.54694],[25.477692,41.546845],[25.477918,41.546763],[25.478532,41.54674],[25.478661,41.546845],[25.478642,41.546916],[25.478723,41.546972],[25.47894,41.547027],[25.479275,41.547166],[25.479565,41.547208],[25.480052,41.547208],[25.480252,41.547283],[25.480422,41.547289],[25.480698,41.547219],[25.480886,41.547131],[25.480983,41.547118],[25.481124,41.547153],[25.481154,41.547199],[25.481235,41.547234],[25.481262,41.547229],[25.481412,41.547038],[25.481744,41.546951],[25.482334,41.546837],[25.482773,41.546975],[25.482921,41.54699],[25.482996,41.546843],[25.482924,41.546723],[25.482742,41.546588],[25.48267,41.546469],[25.482737,41.546358],[25.483027,41.546612],[25.483978,41.546873],[25.4844,41.54698],[25.484696,41.546879],[25.48444,41.546742],[25.484151,41.546458],[25.48375,41.545848],[25.48354,41.54543],[25.483505,41.545251],[25.483323,41.545176],[25.482956,41.545084],[25.482667,41.544784],[25.482559,41.544621],[25.482525,41.544383],[25.482898,41.544059],[25.483118,41.544046],[25.483525,41.543871],[25.483817,41.544022],[25.483967,41.543771],[25.484046,41.54343],[25.484563,41.543271],[25.485093,41.542853],[25.485082,41.542422],[25.485599,41.542219],[25.485272,41.542036],[25.485221,41.54192],[25.48522,41.54179],[25.485105,41.541706],[25.484963,41.541558],[25.484824,41.541493],[25.484601,41.541594],[25.484385,41.5415],[25.484218,41.54139],[25.483977,41.541489],[25.48397,41.541467],[25.483866,41.541426],[25.483754,41.541444],[25.483589,41.5414],[25.4835,41.541426],[25.483539,41.541295],[25.482656,41.541302],[25.482532,41.541256],[25.481997,41.541351],[25.481796,41.541196],[25.481414,41.541449],[25.481063,41.541258],[25.481221,41.540874],[25.481467,41.540659],[25.481937,41.540333],[25.481998,41.540263],[25.482136,41.540005],[25.482051,41.539945],[25.48199,41.539831],[25.481904,41.539721],[25.481714,41.539654],[25.481499,41.539704],[25.481216,41.539884],[25.481036,41.539966],[25.480914,41.539976],[25.48086,41.540072],[25.480623,41.540383],[25.480538,41.540344],[25.480392,41.540417],[25.480046,41.54053],[25.479718,41.540315],[25.479392,41.540548],[25.479745,41.540828],[25.479964,41.540611],[25.48004,41.540767],[25.480248,41.541028],[25.480297,41.541179],[25.479906,41.541244],[25.479898,41.541229],[25.479473,41.541411],[25.478246,41.542404],[25.477978,41.542419],[25.477542,41.542539],[25.47722,41.542582],[25.476323,41.542813],[25.475707,41.543095],[25.475649,41.543131],[25.476006,41.543121],[25.476309,41.5432],[25.476085,41.543444],[25.475899,41.543405],[25.47575,41.543638],[25.475725,41.543741],[25.475625,41.543929],[25.475311,41.543886],[25.474806,41.5439],[25.474863,41.543623],[25.475116,41.543162],[25.4752,41.54293],[25.475575,41.543116],[25.475611,41.543121],[25.475688,41.543072],[25.475684,41.542866],[25.475823,41.542527],[25.475966,41.542326],[25.475978,41.54165],[25.476011,41.541503],[25.475675,41.541025],[25.475713,41.540908],[25.475676,41.540631],[25.475676,41.540109],[25.475377,41.540064],[25.475023,41.539902],[25.474973,41.54018],[25.474895,41.540336],[25.474723,41.540278],[25.474619,41.540647],[25.474474,41.540736],[25.474321,41.540975]]]},"properties":{"cadreg":1}},{"type":"Feature","geometry":{"type":"Polygon","coordinates":[[[25.482683,41.53655],[25.481801,41.536511],[25.481493,41.536415],[25.481101,41.536101],[25.480568,41.535581],[25.479971,41.535109],[25.479754,41.535],[25.479293,41.534881],[25.479064,41.534857],[25.47896,41.535287],[25.478715,41.535699],[25.477924,41.536548],[25.477547,41.536923],[25.477181,41.537352],[25.477094,41.537586],[25.476852,41.537737],[25.476578,41.537653],[25.475969,41.537523],[25.474631,41.537197],[25.474648,41.537674],[25.474747,41.538305],[25.474395,41.538865],[25.474275,41.538999],[25.474185,41.539211],[25.473994,41.53954],[25.473934,41.539695],[25.473815,41.539905],[25.473756,41.539977],[25.473388,41.540244],[25.47325,41.540488],[25.473245,41.540531],[25.473683,41.540541],[25.474024,41.540708],[25.474152,41.541027],[25.474249,41.540971],[25.474321,41.540975],[25.474474,41.540736],[25.474619,41.540647],[25.474723,41.540278],[25.474895,41.540336],[25.474973,41.54018],[25.475023,41.539902],[25.475377,41.540064],[25.475676,41.540109],[25.475676,41.540631],[25.475713,41.540908],[25.475675,41.541025],[25.476011,41.541503],[25.475978,41.54165],[25.475966,41.542326],[25.475823,41.542527],[25.475684,41.542866],[25.475688,41.543072],[25.475611,41.543121],[25.475649,41.543131],[25.476323,41.542813],[25.47722,41.542582],[25.477542,41.542539],[25.477978,41.542419],[25.478246,41.542404],[25.479473,41.541411],[25.479898,41.541229],[25.479906,41.541244],[25.480297,41.541179],[25.480248,41.541028],[25.48004,41.540767],[25.479964,41.540611],[25.479745,41.540828],[25.479392,41.540548],[25.479718,41.540315],[25.480046,41.54053],[25.480392,41.540417],[25.480538,41.540344],[25.480623,41.540383],[25.48086,41.540072],[25.480914,41.539976],[25.481036,41.539966],[25.481216,41.539884],[25.481499,41.539704],[25.481714,41.539654],[25.481904,41.539721],[25.48199,41.539831],[25.482051,41.539945],[25.482136,41.540005],[25.481998,41.540263],[25.481937,41.540333],[25.481467,41.540659],[25.481221,41.540874],[25.481063,41.541258],[25.481414,41.541449],[25.481796,41.541196],[25.481997,41.541351],[25.482532,41.541256],[25.482656,41.541302],[25.483539,41.541295],[25.4835,41.541426],[25.483589,41.5414],[25.483754,41.541444],[25.483866,41.541426],[25.48397,41.541467],[25.483977,41.541489],[25.484218,41.54139],[25.484385,41.5415],[25.484601,41.541594],[25.484824,41.541493],[25.484963,41.541558],[25.485105,41.541706],[25.48522,41.54179],[25.485221,41.54192],[25.485272,41.542036],[25.485599,41.542219],[25.485863,41.541731],[25.486267,41.541719],[25.486341,41.54163],[25.486273,41.541334],[25.48644,41.541186],[25.486462,41.540905],[25.487054,41.540612],[25.487424,41.540512],[25.487315,41.540422],[25.487434,41.540275],[25.486782,41.540062],[25.486054,41.539788],[25.485945,41.53961],[25.485446,41.539095],[25.485692,41.539499],[25.485891,41.539755],[25.486063,41.539913],[25.486246,41.539987],[25.486177,41.540201],[25.485617,41.539842],[25.485235,41.539862],[25.484409,41.539065],[25.484218,41.538695],[25.484098,41.538659],[25.484486,41.538438],[25.484063,41.538226],[25.484075,41.538147],[25.483506,41.537519],[25.483254,41.537264],[25.483798,41.537093],[25.48362,41.536997],[25.483109,41.536677],[25.482683,41.53655]]]},"properties":{"cadreg":2}},{"type":"Feature","geometry":{"type":"Polygon","coordinates":[[[25.480119,41.53234],[25.479424,41.532327],[25.479064,41.532445],[25.478976,41.532458],[25.478717,41.53245],[25.478575,41.532409],[25.478303,41.532298],[25.477959,41.53208],[25.477812,41.532046],[25.477692,41.532058],[25.47763,41.532109],[25.477475,41.532184],[25.477087,41.53231],[25.476743,41.532352],[25.475998,41.532699],[25.475616,41.532852],[25.475561,41.532946],[25.475559,41.533066],[25.475386,41.533054],[25.475318,41.533025],[25.475339,41.53312],[25.475372,41.53317],[25.475423,41.533195],[25.47564,41.533188],[25.475941,41.533106],[25.47605,41.533105],[25.47685,41.532932],[25.476969,41.532886],[25.477087,41.532782],[25.477217,41.532752],[25.477488,41.532753],[25.477593,41.532771],[25.477832,41.532986],[25.478136,41.533298],[25.478548,41.533825],[25.478633,41.533968],[25.478704,41.534135],[25.478736,41.534636],[25.478783,41.534721],[25.478951,41.534823],[25.479098,41.534868],[25.479293,41.534881],[25.479754,41.535],[25.479971,41.535109],[25.480568,41.535581],[25.481101,41.536101],[25.481493,41.536415],[25.481801,41.536511],[25.482683,41.53655],[25.483109,41.536677],[25.48362,41.536997],[25.483798,41.537093],[25.483852,41.536327],[25.483837,41.536129],[25.484082,41.535837],[25.484093,41.535776],[25.482717,41.535192],[25.482996,41.534765],[25.482605,41.5347],[25.48282,41.534201],[25.483034,41.534219],[25.483137,41.533904],[25.483765,41.53397],[25.483813,41.533884],[25.484424,41.534141],[25.484596,41.534141],[25.484741,41.534014],[25.485339,41.534399],[25.485474,41.534207],[25.485544,41.534182],[25.485803,41.534357],[25.48621,41.534223],[25.486342,41.534351],[25.486618,41.534477],[25.486832,41.534271],[25.487202,41.534571],[25.487424,41.534849],[25.487914,41.534965],[25.48782,41.535126],[25.487344,41.535022],[25.487121,41.535095],[25.486837,41.535307],[25.486481,41.535522],[25.486335,41.535657],[25.48624,41.535799],[25.485923,41.535557],[25.485596,41.535779],[25.485184,41.535887],[25.484977,41.536201],[25.485072,41.536279],[25.485125,41.536391],[25.484823,41.5369],[25.485161,41.537049],[25.485521,41.537186],[25.486178,41.53762],[25.486349,41.537772],[25.486326,41.537915],[25.486161,41.538039],[25.485849,41.538168],[25.485944,41.538321],[25.485357,41.538822],[25.485238,41.538895],[25.485945,41.53961],[25.486054,41.539788],[25.486782,41.540062],[25.487434,41.540275],[25.487502,41.540186],[25.487324,41.539694],[25.487126,41.539381],[25.487625,41.539148],[25.487892,41.538921],[25.48854,41.53861],[25.488773,41.538427],[25.489028,41.53816],[25.48932,41.537792],[25.48961,41.537581],[25.489855,41.537304],[25.490133,41.537195],[25.490709,41.536758],[25.491149,41.536457],[25.491609,41.536349],[25.491517,41.53629],[25.491227,41.535706],[25.491203,41.535569],[25.49114,41.535388],[25.491049,41.535246],[25.490965,41.535153],[25.490875,41.535073],[25.490603,41.534956],[25.490417,41.534829],[25.489993,41.534456],[25.489873,41.534394],[25.489728,41.534347],[25.489407,41.534292],[25.489244,41.534239],[25.489125,41.534152],[25.488988,41.533938],[25.488887,41.533865],[25.48873,41.53379],[25.488291,41.533741],[25.488117,41.533672],[25.487853,41.533401],[25.487739,41.53333],[25.487618,41.533312],[25.487473,41.533331],[25.487176,41.53349],[25.486969,41.533513],[25.486852,41.533419],[25.486688,41.533074],[25.486504,41.532931],[25.486395,41.532879],[25.486123,41.532924],[25.486032,41.532929],[25.485921,41.532904],[25.485399,41.532599],[25.485158,41.532559],[25.484801,41.532623],[25.484657,41.532676],[25.48445,41.532769],[25.484356,41.532856],[25.48432,41.532924],[25.484319,41.533001],[25.484359,41.533082],[25.484224,41.533137],[25.483952,41.5332],[25.48381,41.5332],[25.483674,41.53314],[25.48366,41.533056],[25.48359,41.532964],[25.483558,41.53286],[25.483474,41.532766],[25.483348,41.532691],[25.482888,41.532518],[25.482646,41.532406],[25.482533,41.532391],[25.482434,41.532406],[25.481995,41.532785],[25.481775,41.532769],[25.481631,41.53272],[25.480791,41.53229],[25.480524,41.532262],[25.480288,41.532318],[25.480119,41.53234]]]},"properties":{"cadreg":3}},{"type":"Feature","geometry":{"type":"Polygon","coordinates":[[[25.470586,41.544672],[25.470588,41.544491],[25.470391,41.544651],[25.469645,41.544446],[25.467132,41.547858],[25.465455,41.54942],[25.465176,41.549643],[25.464721,41.550477],[25.464328,41.551113],[25.463549,41.551935],[25.463162,41.552156],[25.462487,41.552421],[25.46192,41.552695],[25.461441,41.552692],[25.460891,41.552606],[25.460127,41.552339],[25.459498,41.55191],[25.459121,41.551511],[25.458645,41.551228],[25.457969,41.550989],[25.457825,41.550919],[25.457681,41.550819],[25.457555,41.550655],[25.457481,41.550621],[25.457409,41.550552],[25.457029,41.550323],[25.456695,41.550195],[25.456537,41.550314],[25.456517,41.550649],[25.456178,41.551109],[25.455368,41.551606],[25.454821,41.552124],[25.454224,41.55335],[25.454277,41.553498],[25.454363,41.553646],[25.454394,41.553911],[25.454333,41.553979],[25.454124,41.553962],[25.454042,41.554093],[25.454149,41.554594],[25.454145,41.554882],[25.454087,41.555008],[25.454,41.555087],[25.453919,41.555244],[25.453841,41.555464],[25.453876,41.555607],[25.454167,41.555836],[25.454403,41.555942],[25.454773,41.556175],[25.455392,41.556477],[25.456178,41.557098],[25.456346,41.557176],[25.456486,41.557314],[25.456755,41.557649],[25.457049,41.557966],[25.457446,41.558359],[25.457856,41.558962],[25.457341,41.559634],[25.457301,41.56039],[25.456947,41.561421],[25.456874,41.56169],[25.456931,41.562045],[25.457102,41.562202],[25.457429,41.562442],[25.457648,41.562573],[25.458058,41.562942],[25.458378,41.563291],[25.458738,41.563786],[25.45881,41.563918],[25.458942,41.564057],[25.459313,41.564713],[25.459324,41.564862],[25.459404,41.565209],[25.45957,41.565566],[25.459733,41.56574],[25.459879,41.56586],[25.460024,41.565941],[25.460352,41.566082],[25.460719,41.566204],[25.461511,41.566517],[25.462065,41.566813],[25.462358,41.566914],[25.462748,41.567026],[25.462968,41.567117],[25.463554,41.567261],[25.464997,41.567481],[25.465137,41.567536],[25.465331,41.567686],[25.465845,41.56775],[25.46604,41.567801],[25.466332,41.568001],[25.466464,41.568131],[25.46669,41.568597],[25.466787,41.568677],[25.46719,41.568829],[25.46752,41.568901],[25.467868,41.568998],[25.468137,41.569049],[25.468333,41.569071],[25.468456,41.569042],[25.4687,41.569074],[25.469104,41.569156],[25.469384,41.569258],[25.469603,41.569358],[25.470092,41.569461],[25.470611,41.569609],[25.47077,41.56966],[25.471902,41.570262],[25.472035,41.570303],[25.472538,41.570347],[25.472795,41.570349],[25.473298,41.570384],[25.473823,41.570487],[25.474252,41.570481],[25.474719,41.570416],[25.475212,41.570221],[25.475519,41.570234],[25.475653,41.570275],[25.475762,41.570355],[25.478178,41.570696],[25.479397,41.57078],[25.479663,41.570767],[25.47945,41.569805],[25.47933,41.568491],[25.479591,41.568285],[25.479927,41.567887],[25.480318,41.567549],[25.480414,41.567282],[25.480751,41.566869],[25.480753,41.56609],[25.481101,41.566108],[25.481467,41.566245],[25.481669,41.566276],[25.481962,41.566368],[25.482215,41.566696],[25.482434,41.566786],[25.483244,41.566733],[25.483556,41.566751],[25.483848,41.566901],[25.484426,41.566973],[25.484847,41.567051],[25.485103,41.567201],[25.485651,41.567428],[25.485869,41.567608],[25.486401,41.567716],[25.486991,41.567647],[25.487339,41.567664],[25.487907,41.567891],[25.488236,41.567998],[25.488761,41.567951],[25.489367,41.56797],[25.489679,41.568017],[25.489989,41.568138],[25.490263,41.568289],[25.490651,41.568203],[25.491037,41.568221],[25.491256,41.568371],[25.491584,41.568566],[25.491969,41.568629],[25.492289,41.568713],[25.493207,41.568794],[25.493905,41.568874],[25.494439,41.568878],[25.495373,41.568721],[25.495035,41.56848],[25.49511,41.568361],[25.494965,41.568301],[25.494966,41.568167],[25.494709,41.56815],[25.494194,41.568176],[25.493882,41.568114],[25.493498,41.567978],[25.493307,41.567836],[25.493072,41.567566],[25.49291,41.567343],[25.492036,41.566652],[25.491837,41.566532],[25.491562,41.566412],[25.491048,41.566303],[25.490483,41.566017],[25.490152,41.566044],[25.489856,41.566086],[25.489691,41.566085],[25.489171,41.565807],[25.489144,41.565123],[25.487877,41.564965],[25.487493,41.564858],[25.487382,41.564843],[25.487421,41.564665],[25.487607,41.564621],[25.487754,41.564548],[25.48783,41.56443],[25.48717,41.564232],[25.486731,41.564051],[25.48644,41.56387],[25.486332,41.563706],[25.486296,41.563602],[25.486095,41.563615],[25.485894,41.563495],[25.485823,41.563256],[25.485861,41.563168],[25.485522,41.563172],[25.485252,41.56274],[25.48489,41.562322],[25.484896,41.561951],[25.484768,41.561831],[25.484548,41.561754],[25.484056,41.561454],[25.482941,41.561104],[25.48148,41.560365],[25.480795,41.560114],[25.480281,41.560007],[25.479767,41.559943],[25.47929,41.55985],[25.478961,41.559758],[25.478852,41.559639],[25.478801,41.559386],[25.478821,41.559238],[25.478933,41.559135],[25.479225,41.558655],[25.479342,41.558181],[25.4797,41.557576],[25.479854,41.557087],[25.48019,41.556689],[25.480674,41.556322],[25.481025,41.556147],[25.482187,41.555274],[25.482651,41.554951],[25.48295,41.554656],[25.483289,41.55405],[25.483395,41.553703],[25.483476,41.553168],[25.483574,41.552769],[25.483637,41.55222],[25.483702,41.550847],[25.483766,41.550225],[25.483938,41.54981],[25.484275,41.549368],[25.484362,41.549021],[25.484405,41.548664],[25.484148,41.548618],[25.483965,41.548483],[25.483783,41.548393],[25.483715,41.548021],[25.483606,41.547916],[25.483004,41.547659],[25.482017,41.547191],[25.481668,41.547203],[25.481371,41.547305],[25.481299,41.547289],[25.481262,41.547229],[25.481235,41.547234],[25.481154,41.547199],[25.481124,41.547153],[25.480983,41.547118],[25.480886,41.547131],[25.480698,41.547219],[25.480422,41.547289],[25.480252,41.547283],[25.480052,41.547208],[25.479565,41.547208],[25.479275,41.547166],[25.47894,41.547027],[25.478723,41.546972],[25.478642,41.546916],[25.478661,41.546845],[25.478532,41.54674],[25.477918,41.546763],[25.477692,41.546845],[25.477485,41.54694],[25.477311,41.54698],[25.47719,41.546984],[25.476694,41.546949],[25.476691,41.547056],[25.476474,41.547169],[25.476407,41.547237],[25.476255,41.547321],[25.475735,41.547337],[25.475575,41.547357],[25.47536,41.547403],[25.475179,41.547466],[25.474758,41.547661],[25.474669,41.547688],[25.47455,41.547697],[25.474462,41.547679],[25.474408,41.547607],[25.474383,41.547502],[25.474223,41.547466],[25.474144,41.547466],[25.474108,41.547282],[25.473947,41.54733],[25.473761,41.546986],[25.473516,41.546847],[25.473288,41.546144],[25.473044,41.545993],[25.47257,41.545791],[25.47239,41.545454],[25.471902,41.545227],[25.472016,41.544831],[25.471971,41.544596],[25.471979,41.544433],[25.472073,41.544308],[25.472223,41.544279],[25.472019,41.54421],[25.471907,41.544341],[25.471775,41.544573],[25.471607,41.544782],[25.471482,41.544876],[25.471362,41.544898],[25.470846,41.544889],[25.470751,41.544843],[25.470641,41.544748],[25.470586,41.544672]]]},"properties":{"cadreg":500}}]}