{"type":"FeatureCollection","features":[{"type":"Feature","geometry":{"type":"Polygon","coordinates":[[[24.725346,41.994642],[24.725382,41.994595],[24.72526,41.994539],[24.725224,41.994586],[24.725346,41.994642]]]},"properties":{"num":1}},{"type":"Feature","geometry":{"type":"Polygon","coordinates":[[[24.714258,41.99894],[24.71421,41.998882],[24.714127,41.998919],[24.714142,41.998938],[24.714115,41.998951],[24.714154,41.998999],[24.714233,41.998964],[24.714225,41.998954],[24.714258,41.99894]]]},"properties":{"num":1}},{"type":"Feature","geometry":{"type":"Polygon","coordinates":[[[24.714968,41.998834],[24.714944,41.99862],[24.714806,41.998629],[24.714838,41.998919],[24.714767,41.998922],[24.714773,41.998998],[24.714807,41.998995],[24.714809,41.999032],[24.714986,41.999018],[24.714985,41.999013],[24.715021,41.998991],[24.715021,41.998976],[24.715163,41.998966],[24.715161,41.99895],[24.715179,41.998948],[24.715177,41.998938],[24.715426,41.998919],[24.715417,41.99886],[24.715541,41.998849],[24.715549,41.998842],[24.715523,41.998671],[24.715512,41.998665],[24.715395,41.998674],[24.715402,41.998716],[24.715299,41.998724],[24.715278,41.998742],[24.715284,41.99879],[24.715187,41.998798],[24.715163,41.99881],[24.715165,41.998818],[24.714968,41.998834]]]},"properties":{"num":1}},{"type":"Feature","geometry":{"type":"Polygon","coordinates":[[[24.714417,41.999274],[24.7144,41.999233],[24.71436,41.999243],[24.714377,41.999283],[24.714417,41.999274]]]},"properties":{"num":2}},{"type":"Feature","geometry":{"type":"Polygon","coordinates":[[[24.716818,41.997948],[24.717171,41.997803],[24.717111,41.99772],[24.716927,41.997795],[24.716934,41.997805],[24.716766,41.997872],[24.716594,41.997871],[24.716592,41.998046],[24.716738,41.998047],[24.716776,41.99803],[24.71677,41.99798],[24.716824,41.997958],[24.716818,41.997948]]]},"properties":{"num":1}},{"type":"Feature","geometry":{"type":"Polygon","coordinates":[[[24.716406,41.998042],[24.716406,41.997981],[24.716323,41.997981],[24.716323,41.998001],[24.716245,41.998001],[24.716246,41.998016],[24.716161,41.998016],[24.716161,41.998078],[24.716246,41.998078],[24.716246,41.99806],[24.716323,41.99806],[24.716323,41.998042],[24.716406,41.998042]]]},"properties":{"num":2}},{"type":"Feature","geometry":{"type":"Polygon","coordinates":[[[24.713486,41.998932],[24.713411,41.998935],[24.713416,41.998991],[24.713491,41.998987],[24.713486,41.998932]]]},"properties":{"num":1}},{"type":"Feature","geometry":{"type":"Polygon","coordinates":[[[24.72301,41.998251],[24.723013,41.998246],[24.72297,41.998227],[24.722935,41.998271],[24.722922,41.998265],[24.722868,41.998334],[24.722959,41.99838],[24.722996,41.998333],[24.723009,41.998339],[24.723062,41.998273],[24.72301,41.998251]]]},"properties":{"num":1}},{"type":"Feature","geometry":{"type":"Polygon","coordinates":[[[24.717754,41.998239],[24.717819,41.998173],[24.717854,41.998192],[24.717903,41.998142],[24.717794,41.998082],[24.717707,41.99817],[24.717684,41.998157],[24.717655,41.998186],[24.717754,41.998239]]]},"properties":{"num":1}},{"type":"Feature","geometry":{"type":"Polygon","coordinates":[[[24.721971,41.997034],[24.721902,41.997071],[24.721908,41.997077],[24.721884,41.99709],[24.721919,41.997125],[24.721901,41.997135],[24.72196,41.997191],[24.722071,41.99713],[24.721971,41.997034]]]},"properties":{"num":1}},{"type":"Feature","geometry":{"type":"Polygon","coordinates":[[[24.722337,41.99708],[24.722358,41.997056],[24.722347,41.997052],[24.722351,41.997044],[24.722332,41.997036],[24.722308,41.997067],[24.722337,41.99708]]]},"properties":{"num":2}},{"type":"Feature","geometry":{"type":"Polygon","coordinates":[[[24.722168,41.996712],[24.722191,41.996692],[24.722207,41.996702],[24.722225,41.996687],[24.722209,41.996677],[24.722225,41.996664],[24.722195,41.996642],[24.722137,41.99669],[24.722168,41.996712]]]},"properties":{"num":3}},{"type":"Feature","geometry":{"type":"Polygon","coordinates":[[[24.724685,41.995342],[24.724684,41.995296],[24.724624,41.995297],[24.724625,41.995343],[24.724685,41.995342]]]},"properties":{"num":1}},{"type":"Feature","geometry":{"type":"Polygon","coordinates":[[[24.722756,41.997004],[24.722753,41.997006],[24.722694,41.996954],[24.722668,41.99697],[24.722657,41.996959],[24.722609,41.996989],[24.722621,41.997],[24.722607,41.997008],[24.722667,41.997061],[24.722674,41.997057],[24.722703,41.997082],[24.722754,41.997051],[24.722733,41.997032],[24.722757,41.997017],[24.722766,41.997025],[24.722775,41.997018],[24.722756,41.997004]]]},"properties":{"num":1}},{"type":"Feature","geometry":{"type":"Polygon","coordinates":[[[24.72126,41.996567],[24.721298,41.996537],[24.721288,41.99653],[24.721324,41.996501],[24.721251,41.996453],[24.721231,41.99647],[24.72122,41.996463],[24.721169,41.996504],[24.72126,41.996567]]]},"properties":{"num":1}},{"type":"Feature","geometry":{"type":"Polygon","coordinates":[[[24.721397,41.99628],[24.721348,41.996328],[24.721399,41.996356],[24.721391,41.996363],[24.721429,41.996385],[24.721485,41.996332],[24.721397,41.99628]]]},"properties":{"num":1}},{"type":"Feature","geometry":{"type":"Polygon","coordinates":[[[24.721582,41.996237],[24.721544,41.996216],[24.721538,41.996222],[24.721488,41.996192],[24.721439,41.99624],[24.721527,41.996291],[24.721582,41.996237]]]},"properties":{"num":2}},{"type":"Feature","geometry":{"type":"Polygon","coordinates":[[[24.718392,41.998137],[24.718437,41.998217],[24.718531,41.998188],[24.718486,41.998108],[24.718392,41.998137]]]},"properties":{"num":1}},{"type":"Feature","geometry":{"type":"Polygon","coordinates":[[[24.721796,41.998312],[24.721826,41.998297],[24.721831,41.998299],[24.721848,41.998273],[24.721861,41.998278],[24.721896,41.99823],[24.721811,41.998195],[24.721815,41.99819],[24.721766,41.998172],[24.721718,41.998241],[24.721712,41.998239],[24.721687,41.998274],[24.721796,41.998312]]]},"properties":{"num":1}},{"type":"Feature","geometry":{"type":"Polygon","coordinates":[[[24.721463,41.998078],[24.721429,41.998128],[24.721467,41.998142],[24.721459,41.998154],[24.721543,41.998184],[24.721584,41.998123],[24.721463,41.998078]]]},"properties":{"num":1}},{"type":"Feature","geometry":{"type":"Polygon","coordinates":[[[24.721759,41.99876],[24.721657,41.998761],[24.721658,41.998846],[24.721761,41.998845],[24.721759,41.99876]]]},"properties":{"num":1}},{"type":"Feature","geometry":{"type":"Polygon","coordinates":[[[24.721927,41.998726],[24.721908,41.998712],[24.721852,41.998713],[24.721853,41.998777],[24.721929,41.998775],[24.721927,41.998726]]]},"properties":{"num":1}},{"type":"Feature","geometry":{"type":"Polygon","coordinates":[[[24.722935,41.998671],[24.722944,41.998643],[24.72296,41.998646],[24.722975,41.998605],[24.722908,41.998592],[24.722895,41.998631],[24.72288,41.998629],[24.72287,41.99866],[24.722935,41.998671]]]},"properties":{"num":1}},{"type":"Feature","geometry":{"type":"Polygon","coordinates":[[[24.723013,41.998626],[24.722973,41.998609],[24.722949,41.998674],[24.722991,41.998684],[24.723013,41.998626]]]},"properties":{"num":2}},{"type":"Feature","geometry":{"type":"Polygon","coordinates":[[[24.722478,41.996377],[24.722538,41.996339],[24.722479,41.996288],[24.722419,41.996326],[24.722434,41.996339],[24.722422,41.996347],[24.722446,41.996368],[24.722458,41.99636],[24.722478,41.996377]]]},"properties":{"num":1}},{"type":"Feature","geometry":{"type":"Polygon","coordinates":[[[24.723089,41.995457],[24.723013,41.995412],[24.722944,41.995475],[24.72302,41.995521],[24.723089,41.995457]]]},"properties":{"num":1}},{"type":"Feature","geometry":{"type":"Polygon","coordinates":[[[24.723308,41.995314],[24.723211,41.995312],[24.723208,41.995393],[24.723305,41.995395],[24.723308,41.995314]]]},"properties":{"num":1}},{"type":"Feature","geometry":{"type":"Polygon","coordinates":[[[24.723306,41.995132],[24.723209,41.99513],[24.723206,41.99521],[24.723304,41.995212],[24.723306,41.995132]]]},"properties":{"num":2}},{"type":"Feature","geometry":{"type":"Polygon","coordinates":[[[24.722751,41.995192],[24.722763,41.995108],[24.722702,41.995103],[24.722701,41.99511],[24.722639,41.995105],[24.722628,41.995182],[24.722751,41.995192]]]},"properties":{"num":1}},{"type":"Feature","geometry":{"type":"Polygon","coordinates":[[[24.724058,41.996069],[24.724083,41.996049],[24.724056,41.99603],[24.724031,41.996051],[24.724058,41.996069]]]},"properties":{"num":1}},{"type":"Feature","geometry":{"type":"Polygon","coordinates":[[[24.724192,41.995926],[24.724166,41.995945],[24.724191,41.995965],[24.724218,41.995945],[24.724192,41.995926]]]},"properties":{"num":2}},{"type":"Feature","geometry":{"type":"Polygon","coordinates":[[[24.724319,41.995863],[24.724291,41.995846],[24.724267,41.995867],[24.724295,41.995884],[24.724319,41.995863]]]},"properties":{"num":3}},{"type":"Feature","geometry":{"type":"Polygon","coordinates":[[[24.723969,41.996027],[24.723994,41.996008],[24.723969,41.995988],[24.723943,41.996008],[24.723969,41.996027]]]},"properties":{"num":4}},{"type":"Feature","geometry":{"type":"Polygon","coordinates":[[[24.723866,41.995945],[24.723894,41.995961],[24.723917,41.995939],[24.723888,41.995923],[24.723866,41.995945]]]},"properties":{"num":5}},{"type":"Feature","geometry":{"type":"Polygon","coordinates":[[[24.723914,41.995806],[24.723945,41.995821],[24.723965,41.995798],[24.723935,41.995782],[24.723914,41.995806]]]},"properties":{"num":6}},{"type":"Feature","geometry":{"type":"Polygon","coordinates":[[[24.723839,41.99585],[24.723869,41.995867],[24.723897,41.995841],[24.723866,41.995823],[24.723839,41.99585]]]},"properties":{"num":7}},{"type":"Feature","geometry":{"type":"Polygon","coordinates":[[[24.723514,41.995763],[24.723513,41.995793],[24.723551,41.995792],[24.723552,41.995761],[24.723514,41.995763]]]},"properties":{"num":1}},{"type":"Feature","geometry":{"type":"Polygon","coordinates":[[[24.723662,41.99571],[24.723669,41.995698],[24.723655,41.995694],[24.723666,41.995674],[24.723623,41.995661],[24.723606,41.995693],[24.723662,41.99571]]]},"properties":{"num":2}},{"type":"Feature","geometry":{"type":"Polygon","coordinates":[[[24.723777,41.995649],[24.723806,41.995625],[24.723779,41.995606],[24.72375,41.995629],[24.723777,41.995649]]]},"properties":{"num":3}},{"type":"Feature","geometry":{"type":"Polygon","coordinates":[[[24.723914,41.995644],[24.723939,41.995617],[24.723906,41.995602],[24.723884,41.995629],[24.723914,41.995644]]]},"properties":{"num":4}},{"type":"Feature","geometry":{"type":"Polygon","coordinates":[[[24.723788,41.995533],[24.72382,41.995541],[24.723828,41.995522],[24.723797,41.995515],[24.723788,41.995533]]]},"properties":{"num":5}},{"type":"Feature","geometry":{"type":"Polygon","coordinates":[[[24.723614,41.995529],[24.723631,41.995515],[24.723607,41.995499],[24.723591,41.995513],[24.723614,41.995529]]]},"properties":{"num":6}},{"type":"Feature","geometry":{"type":"Polygon","coordinates":[[[24.723619,41.995426],[24.723623,41.995407],[24.723592,41.995403],[24.723587,41.995422],[24.723619,41.995426]]]},"properties":{"num":7}},{"type":"Feature","geometry":{"type":"Polygon","coordinates":[[[24.723778,41.995441],[24.723781,41.995421],[24.723749,41.995419],[24.723746,41.995438],[24.723778,41.995441]]]},"properties":{"num":8}},{"type":"Feature","geometry":{"type":"Polygon","coordinates":[[[24.723821,41.995477],[24.723867,41.995488],[24.723878,41.995463],[24.723884,41.995464],[24.723899,41.995412],[24.723852,41.995402],[24.723821,41.995477]]]},"properties":{"num":9}},{"type":"Feature","geometry":{"type":"Polygon","coordinates":[[[24.723811,41.995368],[24.723814,41.995349],[24.723782,41.995347],[24.723779,41.995366],[24.723811,41.995368]]]},"properties":{"num":10}},{"type":"Feature","geometry":{"type":"Polygon","coordinates":[[[24.72376,41.995294],[24.723766,41.995262],[24.723729,41.995258],[24.723723,41.99529],[24.72376,41.995294]]]},"properties":{"num":11}},{"type":"Feature","geometry":{"type":"Polygon","coordinates":[[[24.723537,41.995239],[24.723533,41.99527],[24.72357,41.995273],[24.723574,41.995242],[24.723537,41.995239]]]},"properties":{"num":12}},{"type":"Feature","geometry":{"type":"Polygon","coordinates":[[[24.723154,41.99581],[24.72314,41.995799],[24.723098,41.995831],[24.723113,41.995843],[24.723154,41.99581]]]},"properties":{"num":13}},{"type":"Feature","geometry":{"type":"Polygon","coordinates":[[[24.721044,41.998801],[24.721162,41.998796],[24.721158,41.998739],[24.72111,41.998741],[24.721109,41.998725],[24.721039,41.998728],[24.721044,41.998801]]]},"properties":{"num":1}},{"type":"Feature","geometry":{"type":"Polygon","coordinates":[[[24.721135,41.998606],[24.721253,41.998601],[24.721249,41.998544],[24.721202,41.998546],[24.721201,41.99853],[24.72113,41.998533],[24.721135,41.998606]]]},"properties":{"num":1}},{"type":"Feature","geometry":{"type":"Polygon","coordinates":[[[24.721074,41.997083],[24.721053,41.997061],[24.721017,41.997081],[24.721038,41.997103],[24.721074,41.997083]]]},"properties":{"num":1}},{"type":"Feature","geometry":{"type":"Polygon","coordinates":[[[24.723056,41.999542],[24.723123,41.999508],[24.723118,41.999502],[24.723152,41.999485],[24.723158,41.999491],[24.723276,41.999431],[24.72327,41.999425],[24.723297,41.999412],[24.723412,41.999428],[24.723406,41.999455],[24.723568,41.999478],[24.723563,41.999494],[24.723617,41.999502],[24.723627,41.999459],[24.723805,41.999484],[24.723793,41.999533],[24.723836,41.99954],[24.723837,41.999534],[24.724076,41.999569],[24.7241,41.999471],[24.724061,41.999466],[24.724062,41.99946],[24.724053,41.999459],[24.724052,41.999462],[24.723904,41.999441],[24.72391,41.999419],[24.723418,41.999349],[24.723409,41.999386],[24.723327,41.999374],[24.723339,41.999327],[24.723269,41.999317],[24.723265,41.999303],[24.723204,41.999311],[24.723201,41.999299],[24.723086,41.999316],[24.723101,41.99937],[24.723114,41.999385],[24.723068,41.999408],[24.723061,41.999399],[24.723007,41.999426],[24.723039,41.999461],[24.723,41.99948],[24.723056,41.999542]]]},"properties":{"num":1}},{"type":"Feature","geometry":{"type":"Polygon","coordinates":[[[24.722644,41.99911],[24.722701,41.999074],[24.722674,41.99905],[24.722703,41.999031],[24.722676,41.999007],[24.722646,41.999026],[24.722619,41.999003],[24.722563,41.999039],[24.722644,41.99911]]]},"properties":{"num":1}},{"type":"Feature","geometry":{"type":"Polygon","coordinates":[[[24.722489,41.999499],[24.722399,41.999449],[24.722385,41.999463],[24.722376,41.999458],[24.722336,41.999498],[24.722399,41.999533],[24.722389,41.999543],[24.722449,41.999641],[24.722483,41.999643],[24.722559,41.999617],[24.722489,41.999499]]]},"properties":{"num":1}},{"type":"Feature","geometry":{"type":"Polygon","coordinates":[[[24.722539,41.999655],[24.722505,41.999635],[24.722483,41.999643],[24.722449,41.999641],[24.722389,41.999699],[24.722454,41.999737],[24.722539,41.999655]]]},"properties":{"num":2}},{"type":"Feature","geometry":{"type":"Polygon","coordinates":[[[24.722331,41.999245],[24.722299,41.999211],[24.72219,41.999268],[24.722233,41.999313],[24.722272,41.999293],[24.722261,41.999282],[24.722331,41.999245]]]},"properties":{"num":3}},{"type":"Feature","geometry":{"type":"Polygon","coordinates":[[[24.721875,41.999376],[24.721572,41.999393],[24.721578,41.999443],[24.721636,41.999442],[24.721638,41.999471],[24.721779,41.999463],[24.721778,41.999452],[24.721883,41.999447],[24.721875,41.999376]]]},"properties":{"num":1}},{"type":"Feature","geometry":{"type":"Polygon","coordinates":[[[24.723839,41.997665],[24.72387,41.997618],[24.723729,41.997567],[24.723701,41.997609],[24.723694,41.997606],[24.723678,41.997631],[24.723747,41.997656],[24.72376,41.997637],[24.723839,41.997665]]]},"properties":{"num":1}},{"type":"Feature","geometry":{"type":"Polygon","coordinates":[[[24.723959,41.997006],[24.723982,41.996979],[24.724007,41.996991],[24.724039,41.996947],[24.72392,41.996899],[24.723892,41.99693],[24.723902,41.996935],[24.72387,41.996973],[24.723959,41.997006]]]},"properties":{"num":1}},{"type":"Feature","geometry":{"type":"Polygon","coordinates":[[[24.724131,41.996855],[24.724141,41.996863],[24.724178,41.996839],[24.724108,41.996778],[24.724069,41.996802],[24.724078,41.99681],[24.724031,41.99684],[24.724084,41.996883],[24.724131,41.996855]]]},"properties":{"num":1}},{"type":"Feature","geometry":{"type":"Polygon","coordinates":[[[24.724365,41.996768],[24.72441,41.996756],[24.724387,41.996677],[24.724338,41.996686],[24.72434,41.996694],[24.724283,41.996707],[24.7243,41.996764],[24.72436,41.996752],[24.724365,41.996768]]]},"properties":{"num":1}},{"type":"Feature","geometry":{"type":"Polygon","coordinates":[[[24.727437,41.999717],[24.727456,41.999942],[24.72741,41.999943],[24.727417,42.000013],[24.727476,42.00001],[24.727484,42.00011],[24.727638,42.000103],[24.727631,41.999937],[24.727571,41.999939],[24.72755,41.999713],[24.727437,41.999717]]]},"properties":{"num":1}},{"type":"Feature","geometry":{"type":"Polygon","coordinates":[[[24.727356,41.999948],[24.727284,41.999952],[24.727299,42.000104],[24.727425,42.000097],[24.72741,41.999943],[24.727456,41.999942],[24.727451,41.999878],[24.72735,41.999883],[24.727356,41.999948]]]},"properties":{"num":2}},{"type":"Feature","geometry":{"type":"Polygon","coordinates":[[[24.727268,42.000295],[24.727355,42.000295],[24.727354,42.000222],[24.727268,42.000223],[24.727268,42.000295]]]},"properties":{"num":3}},{"type":"Feature","geometry":{"type":"Polygon","coordinates":[[[24.727268,42.000295],[24.727268,42.000317],[24.727356,42.000316],[24.727355,42.000295],[24.727268,42.000295]]]},"properties":{"num":4}},{"type":"Feature","geometry":{"type":"Polygon","coordinates":[[[24.728194,42.000081],[24.728184,42.000076],[24.728168,42.000096],[24.728251,42.000133],[24.728281,42.000096],[24.728208,42.000063],[24.728194,42.000081]]]},"properties":{"num":1}},{"type":"Feature","geometry":{"type":"Polygon","coordinates":[[[24.728269,42.000022],[24.728273,42.000017],[24.72825,42.000006],[24.728212,42.000051],[24.728233,42.00006],[24.728238,42.000054],[24.728281,42.000074],[24.72831,42.00004],[24.728269,42.000022]]]},"properties":{"num":2}},{"type":"Feature","geometry":{"type":"Polygon","coordinates":[[[24.758235,41.997958],[24.75821,41.997938],[24.758168,41.997967],[24.758217,41.998007],[24.758249,41.997985],[24.758225,41.997964],[24.758235,41.997958]]]},"properties":{"num":1}},{"type":"Feature","geometry":{"type":"Polygon","coordinates":[[[24.758033,41.997808],[24.758039,41.997853],[24.758089,41.997849],[24.758083,41.997804],[24.758033,41.997808]]]},"properties":{"num":1}},{"type":"Feature","geometry":{"type":"Polygon","coordinates":[[[24.756612,42.000254],[24.756676,42.000284],[24.756733,42.00022],[24.756669,42.00019],[24.756612,42.000254]]]},"properties":{"num":1}},{"type":"Feature","geometry":{"type":"Polygon","coordinates":[[[24.75654,42.000132],[24.756549,42.000121],[24.756563,42.000127],[24.756588,42.000093],[24.756534,42.000071],[24.7565,42.000117],[24.75654,42.000132]]]},"properties":{"num":2}},{"type":"Feature","geometry":{"type":"Polygon","coordinates":[[[24.756281,42.000189],[24.756303,42.000138],[24.756252,42.000126],[24.75623,42.000177],[24.756281,42.000189]]]},"properties":{"num":3}},{"type":"Feature","geometry":{"type":"Polygon","coordinates":[[[24.756398,42.000274],[24.75642,42.000216],[24.756367,42.000204],[24.756344,42.000261],[24.756398,42.000274]]]},"properties":{"num":4}},{"type":"Feature","geometry":{"type":"Polygon","coordinates":[[[24.756418,42.000387],[24.756436,42.000351],[24.756379,42.000334],[24.75636,42.00037],[24.756418,42.000387]]]},"properties":{"num":5}},{"type":"Feature","geometry":{"type":"Polygon","coordinates":[[[24.756271,42.000404],[24.756293,42.000348],[24.756243,42.000338],[24.756221,42.000394],[24.756271,42.000404]]]},"properties":{"num":6}},{"type":"Feature","geometry":{"type":"Polygon","coordinates":[[[24.756159,42.000343],[24.756174,42.0003],[24.756133,42.000292],[24.756118,42.000336],[24.756159,42.000343]]]},"properties":{"num":7}},{"type":"Feature","geometry":{"type":"Polygon","coordinates":[[[24.756081,42.000283],[24.756093,42.000239],[24.756053,42.000234],[24.75604,42.000278],[24.756081,42.000283]]]},"properties":{"num":8}},{"type":"Feature","geometry":{"type":"Polygon","coordinates":[[[24.771619,41.996207],[24.771565,41.996228],[24.771594,41.996257],[24.771648,41.996236],[24.771619,41.996207]]]},"properties":{"num":1}},{"type":"Feature","geometry":{"type":"Polygon","coordinates":[[[24.769103,41.996628],[24.769093,41.996589],[24.769028,41.996598],[24.769038,41.996637],[24.769103,41.996628]]]},"properties":{"num":2}},{"type":"Feature","geometry":{"type":"Polygon","coordinates":[[[24.769243,41.995944],[24.769242,41.995917],[24.769206,41.995918],[24.769207,41.995945],[24.769243,41.995944]]]},"properties":{"num":3}},{"type":"Feature","geometry":{"type":"Polygon","coordinates":[[[24.795528,41.99412],[24.795517,41.994046],[24.795271,41.994063],[24.795281,41.994137],[24.795528,41.99412]]]},"properties":{"num":1}},{"type":"Feature","geometry":{"type":"Polygon","coordinates":[[[24.795387,41.994541],[24.795441,41.99453],[24.795443,41.994535],[24.795528,41.994517],[24.795509,41.994469],[24.795493,41.994463],[24.79548,41.994429],[24.795407,41.994443],[24.795411,41.994452],[24.795347,41.994466],[24.795359,41.994495],[24.795369,41.994493],[24.795387,41.994541]]]},"properties":{"num":1}},{"type":"Feature","geometry":{"type":"Polygon","coordinates":[[[24.795364,41.994451],[24.795345,41.994398],[24.795262,41.994414],[24.79528,41.994467],[24.795364,41.994451]]]},"properties":{"num":2}},{"type":"Feature","geometry":{"type":"Polygon","coordinates":[[[24.795814,41.994404],[24.795791,41.994352],[24.795784,41.994354],[24.795775,41.994339],[24.795691,41.994357],[24.795707,41.99439],[24.795758,41.994389],[24.795763,41.994404],[24.79578,41.994411],[24.795814,41.994404]]]},"properties":{"num":3}},{"type":"Feature","geometry":{"type":"Polygon","coordinates":[[[24.798814,41.993701],[24.798785,41.993658],[24.798714,41.993685],[24.798743,41.993728],[24.798814,41.993701]]]},"properties":{"num":1}},{"type":"Feature","geometry":{"type":"Polygon","coordinates":[[[24.798667,41.993391],[24.798618,41.993393],[24.79862,41.993431],[24.798668,41.993429],[24.798667,41.993391]]]},"properties":{"num":1}},{"type":"Feature","geometry":{"type":"Polygon","coordinates":[[[24.798771,41.993335],[24.798721,41.993335],[24.798722,41.993373],[24.798771,41.993373],[24.798771,41.993335]]]},"properties":{"num":1}},{"type":"Feature","geometry":{"type":"Polygon","coordinates":[[[24.798888,41.993366],[24.798913,41.993335],[24.798897,41.993328],[24.798942,41.993272],[24.798818,41.993216],[24.798772,41.993275],[24.798821,41.993297],[24.798798,41.993325],[24.798888,41.993366]]]},"properties":{"num":2}},{"type":"Feature","geometry":{"type":"Polygon","coordinates":[[[24.801366,41.984631],[24.801302,41.984612],[24.801232,41.984737],[24.801297,41.984755],[24.801366,41.984631]]]},"properties":{"num":1}},{"type":"Feature","geometry":{"type":"Polygon","coordinates":[[[24.801526,41.99378],[24.801597,41.993734],[24.801609,41.993744],[24.801673,41.993703],[24.801685,41.993713],[24.801756,41.993667],[24.801683,41.993603],[24.801611,41.99365],[24.801598,41.993638],[24.801533,41.99368],[24.801523,41.993671],[24.801453,41.993717],[24.801526,41.99378]]]},"properties":{"num":1}},{"type":"Feature","geometry":{"type":"Polygon","coordinates":[[[24.802275,41.996166],[24.802277,41.996251],[24.802731,41.996244],[24.802732,41.996286],[24.802804,41.996283],[24.802799,41.996158],[24.802275,41.996166]]]},"properties":{"num":1}},{"type":"Feature","geometry":{"type":"Polygon","coordinates":[[[24.802385,41.99636],[24.802388,41.99643],[24.802813,41.996422],[24.802808,41.996352],[24.802385,41.99636]]]},"properties":{"num":1}},{"type":"Feature","geometry":{"type":"Polygon","coordinates":[[[24.802043,41.996255],[24.802041,41.996169],[24.801565,41.996177],[24.801567,41.996263],[24.802043,41.996255]]]},"properties":{"num":1}},{"type":"Feature","geometry":{"type":"Polygon","coordinates":[[[24.802307,41.996585],[24.802917,41.9966],[24.802919,41.996518],[24.802311,41.996503],[24.802307,41.996585]]]},"properties":{"num":1}},{"type":"Feature","geometry":{"type":"Polygon","coordinates":[[[24.800949,41.994527],[24.800938,41.994567],[24.801011,41.994575],[24.801019,41.994535],[24.800949,41.994527]]]},"properties":{"num":1}},{"type":"Feature","geometry":{"type":"Polygon","coordinates":[[[24.801046,41.994547],[24.801017,41.994544],[24.801011,41.994575],[24.801041,41.994578],[24.801046,41.994547]]]},"properties":{"num":2}},{"type":"Feature","geometry":{"type":"Polygon","coordinates":[[[24.801251,41.994638],[24.801246,41.994579],[24.801135,41.994585],[24.801141,41.994643],[24.801251,41.994638]]]},"properties":{"num":1}},{"type":"Feature","geometry":{"type":"Polygon","coordinates":[[[24.786231,42.024016],[24.786162,42.024004],[24.786156,42.024031],[24.786224,42.024043],[24.786231,42.024016]]]},"properties":{"num":1}},{"type":"Feature","geometry":{"type":"Polygon","coordinates":[[[24.720068,41.996766],[24.720143,41.996762],[24.720148,41.996795],[24.720197,41.996792],[24.720194,41.996759],[24.720269,41.996755],[24.720257,41.996638],[24.720056,41.996649],[24.720068,41.996766]]]},"properties":{"num":1}},{"type":"Feature","geometry":{"type":"Polygon","coordinates":[[[24.72044,41.996774],[24.720439,41.996675],[24.720389,41.996675],[24.72039,41.996774],[24.72044,41.996774]]]},"properties":{"num":2}},{"type":"Feature","geometry":{"type":"Polygon","coordinates":[[[24.719977,41.99687],[24.719961,41.996771],[24.719912,41.996775],[24.719927,41.996874],[24.719977,41.99687]]]},"properties":{"num":3}},{"type":"Feature","geometry":{"type":"Polygon","coordinates":[[[24.722457,41.993418],[24.72245,41.993379],[24.72267,41.99336],[24.722683,41.993432],[24.722859,41.99341],[24.722833,41.993257],[24.723048,41.993236],[24.723035,41.993165],[24.723051,41.993163],[24.723044,41.993122],[24.722985,41.993128],[24.722982,41.993121],[24.722848,41.993136],[24.72285,41.993143],[24.722636,41.993164],[24.722645,41.993219],[24.722512,41.993233],[24.722519,41.993285],[24.722387,41.993298],[24.72239,41.99333],[24.722261,41.993344],[24.722269,41.993396],[24.722292,41.993394],[24.722298,41.993434],[24.722457,41.993418]]]},"properties":{"num":1}},{"type":"Feature","geometry":{"type":"Polygon","coordinates":[[[24.759259,41.995938],[24.759117,41.996014],[24.759209,41.996113],[24.759356,41.996035],[24.759259,41.995938]]]},"properties":{"num":1}},{"type":"Feature","geometry":{"type":"Polygon","coordinates":[[[24.759534,41.997535],[24.759577,41.997512],[24.759553,41.997487],[24.75956,41.997483],[24.759537,41.997458],[24.759488,41.997485],[24.759534,41.997535]]]},"properties":{"num":1}},{"type":"Feature","geometry":{"type":"Polygon","coordinates":[[[24.759727,41.997348],[24.759678,41.997377],[24.759728,41.997425],[24.759769,41.997401],[24.759748,41.997381],[24.759756,41.997376],[24.759727,41.997348]]]},"properties":{"num":2}},{"type":"Feature","geometry":{"type":"Polygon","coordinates":[[[24.759859,41.997302],[24.75981,41.99734],[24.759836,41.997359],[24.759886,41.997321],[24.759859,41.997302]]]},"properties":{"num":3}},{"type":"Feature","geometry":{"type":"Polygon","coordinates":[[[24.759886,41.997321],[24.759916,41.997298],[24.759889,41.997279],[24.759859,41.997302],[24.759886,41.997321]]]},"properties":{"num":4}},{"type":"Feature","geometry":{"type":"Polygon","coordinates":[[[24.759915,41.997239],[24.75994,41.997218],[24.759948,41.997224],[24.759978,41.9972],[24.759934,41.997167],[24.759877,41.997212],[24.759915,41.997239]]]},"properties":{"num":5}},{"type":"Feature","geometry":{"type":"Polygon","coordinates":[[[24.759746,41.997194],[24.759763,41.997213],[24.759824,41.997182],[24.759807,41.997164],[24.759746,41.997194]]]},"properties":{"num":6}},{"type":"Feature","geometry":{"type":"Polygon","coordinates":[[[24.759645,41.997296],[24.759704,41.997272],[24.759689,41.997251],[24.759631,41.997275],[24.759645,41.997296]]]},"properties":{"num":7}},{"type":"Feature","geometry":{"type":"Polygon","coordinates":[[[24.759496,41.997351],[24.759473,41.997325],[24.759424,41.99735],[24.759468,41.9974],[24.75951,41.997379],[24.759489,41.997355],[24.759496,41.997351]]]},"properties":{"num":8}},{"type":"Feature","geometry":{"type":"Polygon","coordinates":[[[24.758988,41.997502],[24.758978,41.997475],[24.758908,41.997489],[24.758918,41.997516],[24.758988,41.997502]]]},"properties":{"num":1}},{"type":"Feature","geometry":{"type":"Polygon","coordinates":[[[24.758685,41.997855],[24.758643,41.997841],[24.75862,41.997881],[24.75866,41.997895],[24.758685,41.997855]]]},"properties":{"num":1}},{"type":"Feature","geometry":{"type":"Polygon","coordinates":[[[24.769778,41.996553],[24.769749,41.996534],[24.769708,41.996566],[24.769865,41.996668],[24.769958,41.996595],[24.769829,41.996513],[24.769778,41.996553]]]},"properties":{"num":1}},{"type":"Feature","geometry":{"type":"Polygon","coordinates":[[[24.769964,41.99671],[24.770004,41.99674],[24.77011,41.996653],[24.770068,41.996624],[24.769964,41.99671]]]},"properties":{"num":2}},{"type":"Feature","geometry":{"type":"Polygon","coordinates":[[[24.769897,41.99675],[24.769882,41.99673],[24.769845,41.996746],[24.76986,41.996766],[24.769897,41.99675]]]},"properties":{"num":3}},{"type":"Feature","geometry":{"type":"Polygon","coordinates":[[[24.769589,41.996756],[24.769549,41.996787],[24.769572,41.996804],[24.769612,41.996772],[24.769589,41.996756]]]},"properties":{"num":4}}]}