{"type":"FeatureCollection","features":[{"type":"Feature","geometry":{"type":"Polygon","coordinates":[[[24.837519,42.102741],[24.837334,42.102602],[24.833394,42.103829],[24.832544,42.104072],[24.832452,42.104182],[24.830093,42.105872],[24.829299,42.106492],[24.828739,42.106891],[24.828457,42.10718],[24.828435,42.107347],[24.828933,42.111181],[24.828468,42.112704],[24.826693,42.115995],[24.826728,42.116005],[24.827775,42.114107],[24.829683,42.117858],[24.831945,42.11722],[24.832167,42.117657],[24.832158,42.117571],[24.832059,42.117322],[24.83215,42.1175],[24.832278,42.11761],[24.832442,42.117676],[24.832699,42.11761],[24.833502,42.116959],[24.835257,42.115413],[24.835858,42.114919],[24.835787,42.114761],[24.835294,42.11408],[24.835058,42.1137],[24.835487,42.11355],[24.835495,42.11356],[24.836556,42.113212],[24.836647,42.113154],[24.837235,42.112914],[24.837687,42.11277],[24.837657,42.112712],[24.840292,42.111918],[24.840185,42.11175],[24.840772,42.111565],[24.840671,42.111392],[24.842191,42.110978],[24.842098,42.110592],[24.842444,42.110491],[24.842226,42.110056],[24.84301,42.109834],[24.842844,42.109477],[24.842804,42.109033],[24.842229,42.107747],[24.843082,42.107707],[24.84277,42.106621],[24.84219,42.105714],[24.841214,42.104335],[24.841204,42.103561],[24.840317,42.103465],[24.839316,42.103334],[24.838553,42.103208],[24.837519,42.102741]]]},"properties":{"cadreg":35}},{"type":"Feature","geometry":{"type":"Polygon","coordinates":[[[24.823779,42.14331],[24.823827,42.143058],[24.823757,42.142975],[24.823578,42.143922],[24.823869,42.148975],[24.823954,42.148968],[24.82395,42.148907],[24.82846,42.148605],[24.828799,42.148537],[24.83283,42.148298],[24.837553,42.147596],[24.837512,42.147405],[24.835293,42.146092],[24.824257,42.143329],[24.824044,42.143305],[24.823779,42.14331]]]},"properties":{"cadreg":11}},{"type":"Feature","geometry":{"type":"Polygon","coordinates":[[[24.823872,42.149125],[24.823867,42.149936],[24.824003,42.150538],[24.824028,42.150818],[24.826131,42.150931],[24.826831,42.151008],[24.828044,42.151334],[24.828987,42.151683],[24.831088,42.152041],[24.831843,42.152123],[24.832277,42.152124],[24.832935,42.152157],[24.834487,42.152196],[24.83511,42.152251],[24.836006,42.152252],[24.836931,42.152046],[24.837708,42.151573],[24.838328,42.15129],[24.838652,42.151192],[24.839129,42.151113],[24.840001,42.151093],[24.841326,42.151155],[24.842836,42.151246],[24.845222,42.151322],[24.848171,42.151386],[24.848696,42.151363],[24.849676,42.151284],[24.850793,42.151133],[24.85138,42.151115],[24.852136,42.151124],[24.852344,42.151102],[24.853579,42.150713],[24.854229,42.150591],[24.854637,42.150485],[24.855161,42.150484],[24.85561,42.150573],[24.856497,42.150705],[24.857168,42.150783],[24.857998,42.150842],[24.85942,42.150974],[24.859895,42.150954],[24.8608,42.150864],[24.861729,42.150857],[24.862345,42.150893],[24.863359,42.151027],[24.864269,42.151237],[24.864917,42.151487],[24.865862,42.151953],[24.866465,42.152225],[24.867484,42.15257],[24.86911,42.153219],[24.870092,42.153563],[24.870864,42.153795],[24.871898,42.15396],[24.872275,42.154003],[24.87342,42.153829],[24.874223,42.153797],[24.874726,42.153749],[24.875487,42.153653],[24.876304,42.153592],[24.877594,42.153565],[24.8786,42.153605],[24.879784,42.15361],[24.880589,42.153724],[24.881203,42.153869],[24.881849,42.154186],[24.88285,42.15453],[24.883364,42.154752],[24.883968,42.155128],[24.884417,42.155232],[24.884943,42.155404],[24.885135,42.155448],[24.88548,42.155498],[24.885951,42.155537],[24.886133,42.155592],[24.88627,42.155605],[24.887108,42.155777],[24.887653,42.155991],[24.889073,42.156599],[24.889707,42.156731],[24.890445,42.156804],[24.891695,42.156847],[24.892284,42.156815],[24.89303,42.156752],[24.893509,42.156639],[24.893402,42.156578],[24.893268,42.156355],[24.893359,42.156249],[24.893092,42.156314],[24.891938,42.156291],[24.891728,42.156312],[24.891255,42.155967],[24.890457,42.155832],[24.890051,42.155741],[24.889894,42.155641],[24.889204,42.155555],[24.888498,42.155525],[24.887989,42.155549],[24.887747,42.155487],[24.887511,42.155357],[24.886821,42.155184],[24.886266,42.155022],[24.885594,42.154886],[24.884828,42.154679],[24.884217,42.154471],[24.881958,42.153888],[24.881727,42.153788],[24.881443,42.153705],[24.881166,42.153602],[24.88094,42.153535],[24.880591,42.153462],[24.879469,42.153437],[24.878924,42.153366],[24.877834,42.153291],[24.87747,42.153291],[24.876817,42.153178],[24.876483,42.153164],[24.876207,42.153173],[24.876062,42.153344],[24.875865,42.153458],[24.874322,42.153507],[24.873265,42.153465],[24.872963,42.153355],[24.872713,42.15311],[24.872438,42.153228],[24.872334,42.153303],[24.87138,42.152964],[24.871098,42.152947],[24.870774,42.152908],[24.870462,42.152847],[24.869502,42.152751],[24.869022,42.152671],[24.867331,42.152015],[24.866967,42.151984],[24.865379,42.151328],[24.864882,42.151308],[24.86392,42.151005],[24.861099,42.150437],[24.859975,42.150478],[24.859122,42.150228],[24.858495,42.150263],[24.85804,42.150174],[24.857621,42.150156],[24.857254,42.150171],[24.856326,42.150247],[24.85599,42.150218],[24.855706,42.150087],[24.855435,42.149992],[24.855186,42.150056],[24.854856,42.150091],[24.854505,42.15019],[24.854101,42.150259],[24.853629,42.150256],[24.853225,42.150219],[24.852009,42.15043],[24.851584,42.150562],[24.851354,42.150601],[24.851111,42.150685],[24.850799,42.15077],[24.850588,42.150812],[24.850236,42.150845],[24.849146,42.150711],[24.848163,42.150704],[24.847556,42.150668],[24.846201,42.150694],[24.845837,42.150669],[24.845576,42.150616],[24.84542,42.150608],[24.845012,42.150542],[24.844595,42.15051],[24.843932,42.150427],[24.84291,42.150443],[24.841322,42.149541],[24.840989,42.14941],[24.838532,42.147889],[24.838428,42.147845],[24.83825,42.147733],[24.835459,42.148202],[24.835456,42.148167],[24.833703,42.148429],[24.831588,42.148556],[24.830396,42.148666],[24.83024,42.148667],[24.823872,42.149125]]]},"properties":{"cadreg":12}},{"type":"Feature","geometry":{"type":"Polygon","coordinates":[[[24.859572,42.146214],[24.859464,42.146216],[24.859259,42.146188],[24.859224,42.146115],[24.857962,42.146144],[24.857814,42.146188],[24.847347,42.146118],[24.838491,42.147389],[24.837553,42.147596],[24.83283,42.148298],[24.828799,42.148537],[24.82846,42.148605],[24.82395,42.148907],[24.823954,42.148968],[24.823869,42.148975],[24.823872,42.149125],[24.83024,42.148667],[24.830396,42.148666],[24.831588,42.148556],[24.833703,42.148429],[24.835456,42.148167],[24.835459,42.148202],[24.83825,42.147733],[24.838428,42.147845],[24.838532,42.147889],[24.840989,42.14941],[24.841322,42.149541],[24.84291,42.150443],[24.843932,42.150427],[24.844595,42.15051],[24.845012,42.150542],[24.84542,42.150608],[24.845576,42.150616],[24.845837,42.150669],[24.846201,42.150694],[24.847556,42.150668],[24.848163,42.150704],[24.849146,42.150711],[24.850236,42.150845],[24.850588,42.150812],[24.850799,42.15077],[24.851111,42.150685],[24.851354,42.150601],[24.851584,42.150562],[24.852009,42.15043],[24.853225,42.150219],[24.853629,42.150256],[24.854101,42.150259],[24.854505,42.15019],[24.854856,42.150091],[24.855186,42.150056],[24.855435,42.149992],[24.855706,42.150087],[24.85599,42.150218],[24.856326,42.150247],[24.857254,42.150171],[24.857621,42.150156],[24.85804,42.150174],[24.858495,42.150263],[24.859122,42.150228],[24.859975,42.150478],[24.860073,42.150475],[24.860234,42.150349],[24.860476,42.150255],[24.860552,42.150098],[24.860291,42.149928],[24.860007,42.149773],[24.860017,42.149273],[24.860528,42.149306],[24.860528,42.149214],[24.859308,42.148875],[24.85931,42.148837],[24.859524,42.148896],[24.859598,42.146544],[24.871106,42.146648],[24.871958,42.146565],[24.872491,42.146715],[24.874646,42.146657],[24.875537,42.146569],[24.876572,42.146229],[24.877454,42.145838],[24.877298,42.145765],[24.877401,42.145704],[24.877161,42.145631],[24.877066,42.145706],[24.877077,42.145743],[24.87595,42.146158],[24.875182,42.146388],[24.874866,42.146439],[24.874454,42.146465],[24.860497,42.146336],[24.860176,42.146302],[24.859966,42.146303],[24.859725,42.146327],[24.859585,42.146323],[24.859566,42.146285],[24.859572,42.146214]]]},"properties":{"cadreg":13}},{"type":"Feature","geometry":{"type":"Polygon","coordinates":[[[24.859598,42.146544],[24.859524,42.148896],[24.85931,42.148837],[24.859308,42.148875],[24.860528,42.149214],[24.860528,42.149306],[24.860017,42.149273],[24.860007,42.149773],[24.860291,42.149928],[24.860552,42.150098],[24.860476,42.150255],[24.860234,42.150349],[24.860073,42.150475],[24.861099,42.150437],[24.86392,42.151005],[24.864882,42.151308],[24.865379,42.151328],[24.866967,42.151984],[24.867331,42.152015],[24.869022,42.152671],[24.869502,42.152751],[24.870462,42.152847],[24.870774,42.152908],[24.871098,42.152947],[24.87138,42.152964],[24.872334,42.153303],[24.872438,42.153228],[24.872713,42.15311],[24.872963,42.153355],[24.873265,42.153465],[24.874322,42.153507],[24.875865,42.153458],[24.876062,42.153344],[24.876207,42.153173],[24.876483,42.153164],[24.876817,42.153178],[24.87747,42.153291],[24.877834,42.153291],[24.878924,42.153366],[24.879469,42.153437],[24.880591,42.153462],[24.88094,42.153535],[24.881166,42.153602],[24.881443,42.153705],[24.881727,42.153788],[24.881958,42.153888],[24.884217,42.154471],[24.884828,42.154679],[24.885594,42.154886],[24.886266,42.155022],[24.886821,42.155184],[24.887511,42.155357],[24.887747,42.155487],[24.887989,42.155549],[24.888498,42.155525],[24.889204,42.155555],[24.889894,42.155641],[24.890051,42.155741],[24.890194,42.155772],[24.890273,42.155707],[24.890556,42.155679],[24.890579,42.155649],[24.89061,42.155644],[24.890645,42.155673],[24.891746,42.155573],[24.891804,42.155686],[24.891867,42.15571],[24.892018,42.155733],[24.892151,42.155732],[24.892316,42.155764],[24.892382,42.155845],[24.892403,42.155931],[24.892631,42.155941],[24.892758,42.155823],[24.892912,42.155772],[24.893077,42.155738],[24.893306,42.15571],[24.893439,42.155569],[24.89339,42.155517],[24.893254,42.155519],[24.893215,42.155559],[24.893124,42.155523],[24.892992,42.15551],[24.892838,42.155413],[24.892686,42.15535],[24.89255,42.155256],[24.892349,42.155261],[24.892033,42.155301],[24.891648,42.15538],[24.891284,42.154648],[24.891014,42.153865],[24.890919,42.153497],[24.883886,42.151903],[24.883837,42.151816],[24.883387,42.151887],[24.883044,42.151908],[24.882702,42.151881],[24.882085,42.151762],[24.880947,42.151322],[24.880658,42.15109],[24.880548,42.150736],[24.880426,42.149421],[24.880204,42.149234],[24.880117,42.149115],[24.879937,42.149011],[24.879628,42.148753],[24.877965,42.147444],[24.877305,42.147069],[24.877339,42.14699],[24.877029,42.146812],[24.875536,42.146884],[24.874775,42.146901],[24.873972,42.147118],[24.872719,42.146921],[24.872408,42.14684],[24.872491,42.146715],[24.871958,42.146565],[24.871106,42.146648],[24.859598,42.146544]]]},"properties":{"cadreg":14}},{"type":"Feature","geometry":{"type":"Polygon","coordinates":[[[24.876572,42.146229],[24.875537,42.146569],[24.874646,42.146657],[24.872491,42.146715],[24.872408,42.14684],[24.872719,42.146921],[24.873972,42.147118],[24.874775,42.146901],[24.875536,42.146884],[24.877029,42.146812],[24.877339,42.14699],[24.877305,42.147069],[24.877965,42.147444],[24.879628,42.148753],[24.879937,42.149011],[24.880117,42.149115],[24.880204,42.149234],[24.880426,42.149421],[24.880548,42.150736],[24.880658,42.15109],[24.880947,42.151322],[24.882085,42.151762],[24.882702,42.151881],[24.883044,42.151908],[24.883387,42.151887],[24.883837,42.151816],[24.883886,42.151903],[24.890919,42.153497],[24.891014,42.153865],[24.891284,42.154648],[24.891648,42.15538],[24.892033,42.155301],[24.892349,42.155261],[24.89255,42.155256],[24.892686,42.15535],[24.892838,42.155413],[24.892992,42.15551],[24.893124,42.155523],[24.893215,42.155559],[24.893254,42.155519],[24.89339,42.155517],[24.893439,42.155569],[24.893306,42.15571],[24.893077,42.155738],[24.892912,42.155772],[24.892758,42.155823],[24.892631,42.155941],[24.892403,42.155931],[24.892382,42.155845],[24.892316,42.155764],[24.892151,42.155732],[24.892018,42.155733],[24.891867,42.15571],[24.891804,42.155686],[24.891746,42.155573],[24.890645,42.155673],[24.89061,42.155644],[24.890579,42.155649],[24.890556,42.155679],[24.890273,42.155707],[24.890194,42.155772],[24.890457,42.155832],[24.891255,42.155967],[24.891728,42.156312],[24.891938,42.156291],[24.893092,42.156314],[24.893359,42.156249],[24.893493,42.156092],[24.893706,42.156028],[24.894606,42.1562],[24.895883,42.156009],[24.895835,42.155858],[24.894668,42.155249],[24.89351,42.154095],[24.89258,42.153519],[24.890778,42.152717],[24.88591,42.151641],[24.883364,42.150174],[24.881911,42.148949],[24.880508,42.147175],[24.877401,42.145704],[24.877298,42.145765],[24.877454,42.145838],[24.876572,42.146229]]]},"properties":{"cadreg":15}},{"type":"Feature","geometry":{"type":"Polygon","coordinates":[[[24.858442,42.140986],[24.859118,42.146122],[24.859224,42.146115],[24.859259,42.146188],[24.859464,42.146216],[24.859572,42.146214],[24.859566,42.146285],[24.859585,42.146323],[24.860176,42.146302],[24.860497,42.146336],[24.874454,42.146465],[24.874866,42.146439],[24.875182,42.146388],[24.87595,42.146158],[24.877077,42.145743],[24.877066,42.145706],[24.877161,42.145631],[24.876213,42.145381],[24.87615,42.14546],[24.874877,42.14514],[24.874567,42.145731],[24.87367,42.145492],[24.873024,42.145273],[24.87238,42.145001],[24.871669,42.14474],[24.871297,42.144284],[24.871088,42.144085],[24.870344,42.143008],[24.86999,42.142412],[24.868904,42.140474],[24.868145,42.139227],[24.868154,42.13909],[24.865146,42.13953],[24.864673,42.139578],[24.864652,42.139605],[24.864025,42.139698],[24.862716,42.139844],[24.859386,42.140359],[24.859423,42.140491],[24.859053,42.140545],[24.858606,42.140655],[24.858442,42.140986]]]},"properties":{"cadreg":16}},{"type":"Feature","geometry":{"type":"Polygon","coordinates":[[[24.858606,42.140655],[24.859053,42.140545],[24.859423,42.140491],[24.859386,42.140359],[24.858817,42.140446],[24.858334,42.140593],[24.857677,42.14086],[24.856285,42.140824],[24.848056,42.140266],[24.847291,42.140152],[24.845434,42.139633],[24.842023,42.138726],[24.841435,42.138543],[24.839964,42.138182],[24.839942,42.138293],[24.840441,42.138391],[24.841196,42.138569],[24.841994,42.138814],[24.846283,42.139957],[24.847098,42.146154],[24.847347,42.146118],[24.857814,42.146188],[24.857962,42.146144],[24.859118,42.146122],[24.858442,42.140986],[24.858606,42.140655]]]},"properties":{"cadreg":17}},{"type":"Feature","geometry":{"type":"Polygon","coordinates":[[[24.839964,42.138182],[24.83997,42.137951],[24.836611,42.137084],[24.835732,42.136766],[24.835351,42.136712],[24.831474,42.135676],[24.830999,42.135508],[24.82724,42.134519],[24.822223,42.133222],[24.82194,42.133073],[24.818507,42.130571],[24.818222,42.130734],[24.822022,42.133628],[24.822501,42.133696],[24.822511,42.133955],[24.827621,42.14127],[24.827811,42.141357],[24.828104,42.141808],[24.828106,42.141967],[24.829571,42.144088],[24.835271,42.145562],[24.838491,42.147389],[24.847098,42.146154],[24.846283,42.139957],[24.841994,42.138814],[24.841196,42.138569],[24.840441,42.138391],[24.839942,42.138293],[24.839964,42.138182]]]},"properties":{"cadreg":18}},{"type":"Feature","geometry":{"type":"Polygon","coordinates":[[[24.822022,42.133628],[24.818226,42.130737],[24.814059,42.134348],[24.812621,42.135652],[24.819582,42.141398],[24.820215,42.141856],[24.820818,42.142123],[24.823765,42.142931],[24.823757,42.142975],[24.823827,42.143058],[24.823779,42.14331],[24.824044,42.143305],[24.824257,42.143329],[24.835293,42.146092],[24.837512,42.147405],[24.837553,42.147596],[24.838491,42.147389],[24.835271,42.145562],[24.829571,42.144088],[24.828106,42.141967],[24.828104,42.141808],[24.827811,42.141357],[24.827621,42.14127],[24.822511,42.133955],[24.822501,42.133696],[24.822022,42.133628]]]},"properties":{"cadreg":19}},{"type":"Feature","geometry":{"type":"Polygon","coordinates":[[[24.80104,42.124596],[24.798649,42.125159],[24.799623,42.127928],[24.799672,42.12793],[24.8072,42.13128],[24.807649,42.131521],[24.808037,42.131794],[24.812235,42.135389],[24.812463,42.135176],[24.817919,42.13052],[24.817972,42.130407],[24.818042,42.130357],[24.818086,42.130288],[24.816168,42.128781],[24.814341,42.124462],[24.813629,42.122601],[24.813794,42.122511],[24.813501,42.121467],[24.814623,42.12128],[24.814605,42.121242],[24.815456,42.121067],[24.815492,42.121135],[24.816052,42.121032],[24.817294,42.122873],[24.818553,42.122578],[24.81857,42.122617],[24.819467,42.122407],[24.819265,42.121665],[24.819265,42.121547],[24.819328,42.121498],[24.819801,42.121324],[24.819818,42.121359],[24.819367,42.121525],[24.819313,42.121566],[24.81931,42.121652],[24.819447,42.122098],[24.822757,42.12166],[24.822737,42.121579],[24.825386,42.12123],[24.825002,42.118999],[24.817764,42.120536],[24.812701,42.12159],[24.81014,42.122162],[24.810094,42.122193],[24.801338,42.124451],[24.801051,42.12458],[24.80104,42.124596]]]},"properties":{"cadreg":20}},{"type":"Feature","geometry":{"type":"Polygon","coordinates":[[[24.814605,42.121242],[24.814623,42.12128],[24.813501,42.121467],[24.813794,42.122511],[24.813629,42.122601],[24.814341,42.124462],[24.816168,42.128781],[24.818086,42.130288],[24.818042,42.130357],[24.817972,42.130407],[24.817919,42.13052],[24.812463,42.135176],[24.812235,42.135389],[24.812305,42.135449],[24.812385,42.135457],[24.812449,42.13551],[24.827086,42.122752],[24.833464,42.117156],[24.833857,42.116983],[24.83432,42.116825],[24.836461,42.116216],[24.83633,42.116249],[24.83609,42.115472],[24.835858,42.114919],[24.835257,42.115413],[24.833502,42.116959],[24.832699,42.11761],[24.832442,42.117676],[24.832278,42.11761],[24.83215,42.1175],[24.832059,42.117322],[24.832158,42.117571],[24.832167,42.117657],[24.831945,42.11722],[24.829683,42.117858],[24.827775,42.114107],[24.826728,42.116005],[24.826693,42.115995],[24.825084,42.118969],[24.825002,42.118999],[24.825386,42.12123],[24.822737,42.121579],[24.822757,42.12166],[24.819447,42.122098],[24.81931,42.121652],[24.819313,42.121566],[24.819367,42.121525],[24.819818,42.121359],[24.819801,42.121324],[24.819328,42.121498],[24.819265,42.121547],[24.819265,42.121665],[24.819467,42.122407],[24.81857,42.122617],[24.818553,42.122578],[24.817294,42.122873],[24.816052,42.121032],[24.815492,42.121135],[24.815456,42.121067],[24.814605,42.121242]]]},"properties":{"cadreg":21}},{"type":"Feature","geometry":{"type":"Polygon","coordinates":[[[24.827239,42.122705],[24.831732,42.118772],[24.832665,42.117903],[24.833513,42.117189],[24.833464,42.117156],[24.827086,42.122752],[24.812449,42.13551],[24.812621,42.135652],[24.814059,42.134348],[24.818222,42.130734],[24.818507,42.130571],[24.82194,42.133073],[24.822223,42.133222],[24.82724,42.134519],[24.830999,42.135508],[24.831393,42.135653],[24.82954,42.129458],[24.829026,42.127851],[24.829024,42.127674],[24.829143,42.127326],[24.829288,42.127103],[24.829274,42.126438],[24.829303,42.125749],[24.828764,42.125249],[24.828476,42.124901],[24.828654,42.123787],[24.828579,42.123617],[24.82765,42.12298],[24.827639,42.122991],[24.827239,42.122705]]]},"properties":{"cadreg":22}},{"type":"Feature","geometry":{"type":"Polygon","coordinates":[[[24.833513,42.117189],[24.832665,42.117903],[24.831732,42.118772],[24.827239,42.122705],[24.827639,42.122991],[24.82765,42.12298],[24.828579,42.123617],[24.828654,42.123787],[24.828476,42.124901],[24.828764,42.125249],[24.829303,42.125749],[24.829274,42.126438],[24.829288,42.127103],[24.829143,42.127326],[24.829024,42.127674],[24.829026,42.127851],[24.82954,42.129458],[24.831393,42.135653],[24.835351,42.136712],[24.835215,42.135574],[24.835988,42.135411],[24.832447,42.122697],[24.834394,42.122242],[24.834873,42.119884],[24.834807,42.119444],[24.834194,42.118418],[24.833562,42.117217],[24.833513,42.117189]]]},"properties":{"cadreg":23}},{"type":"Feature","geometry":{"type":"Polygon","coordinates":[[[24.835988,42.135411],[24.847503,42.132377],[24.847452,42.132293],[24.847518,42.132271],[24.846022,42.129759],[24.845278,42.12914],[24.844941,42.128815],[24.844086,42.127048],[24.843924,42.126557],[24.843622,42.12608],[24.843415,42.125613],[24.844187,42.12465],[24.84454,42.124409],[24.844688,42.124238],[24.846286,42.121848],[24.846335,42.121735],[24.846341,42.121558],[24.845991,42.119887],[24.845907,42.119839],[24.845848,42.119846],[24.845801,42.1198],[24.842287,42.119589],[24.839007,42.119412],[24.839514,42.121435],[24.838655,42.121242],[24.838532,42.121171],[24.83502,42.119545],[24.833819,42.117395],[24.833627,42.117093],[24.833464,42.117156],[24.833562,42.117217],[24.834194,42.118418],[24.834807,42.119444],[24.834873,42.119884],[24.834394,42.122242],[24.832447,42.122697],[24.835988,42.135411]],[[24.845848,42.119846],[24.846208,42.121563],[24.846203,42.121718],[24.846162,42.12181],[24.844573,42.124189],[24.844438,42.124345],[24.844082,42.124587],[24.843588,42.125215],[24.843299,42.125553],[24.842782,42.125794],[24.842992,42.126268],[24.84306,42.126375],[24.84071,42.126388],[24.840235,42.12388],[24.839668,42.121483],[24.83917,42.119482],[24.845848,42.119846]]]},"properties":{"cadreg":24}},{"type":"Feature","geometry":{"type":"Polygon","coordinates":[[[24.835732,42.136766],[24.836611,42.137084],[24.83997,42.137951],[24.84178,42.137798],[24.842043,42.137796],[24.843869,42.13768],[24.844079,42.137565],[24.844599,42.137466],[24.844752,42.137563],[24.84364,42.133433],[24.847515,42.132496],[24.847494,42.132379],[24.836083,42.135395],[24.835215,42.135574],[24.835351,42.136712],[24.835732,42.136766]]]},"properties":{"cadreg":25}},{"type":"Feature","geometry":{"type":"Polygon","coordinates":[[[24.847515,42.132496],[24.84364,42.133433],[24.844761,42.137598],[24.849269,42.137312],[24.849359,42.137523],[24.854295,42.137185],[24.855189,42.137031],[24.857919,42.136837],[24.858012,42.136664],[24.855346,42.136831],[24.854827,42.134219],[24.854846,42.13402],[24.854666,42.133328],[24.851353,42.133731],[24.851285,42.133758],[24.847936,42.13417],[24.847851,42.13397],[24.848157,42.133654],[24.847515,42.132496]]]},"properties":{"cadreg":26}},{"type":"Feature","geometry":{"type":"Polygon","coordinates":[[[24.842043,42.137796],[24.84178,42.137798],[24.83997,42.137951],[24.839964,42.138182],[24.841435,42.138543],[24.842023,42.138726],[24.845434,42.139633],[24.847291,42.140152],[24.848056,42.140266],[24.856285,42.140824],[24.857677,42.14086],[24.858275,42.140616],[24.858002,42.13722],[24.857919,42.136837],[24.855189,42.137031],[24.854295,42.137185],[24.849359,42.137523],[24.849269,42.137312],[24.844761,42.137598],[24.844752,42.137563],[24.844599,42.137466],[24.844079,42.137565],[24.843869,42.13768],[24.842043,42.137796]]]},"properties":{"cadreg":27}},{"type":"Feature","geometry":{"type":"Polygon","coordinates":[[[24.852169,42.12119],[24.852023,42.121178],[24.852049,42.121229],[24.853051,42.126222],[24.853916,42.130248],[24.854097,42.130245],[24.8541,42.130255],[24.854275,42.131137],[24.854188,42.131586],[24.854265,42.132166],[24.854571,42.13334],[24.854666,42.133328],[24.854846,42.13402],[24.854827,42.134219],[24.855346,42.136831],[24.858011,42.136659],[24.857919,42.136837],[24.858002,42.13722],[24.858275,42.140616],[24.858817,42.140446],[24.862716,42.139844],[24.864025,42.139698],[24.864652,42.139605],[24.864673,42.139578],[24.864248,42.135966],[24.863705,42.130973],[24.863015,42.124228],[24.862719,42.121695],[24.862475,42.12158],[24.862679,42.123371],[24.858027,42.124069],[24.855097,42.124492],[24.855144,42.124682],[24.855108,42.124687],[24.854334,42.121521],[24.854283,42.121443],[24.854206,42.121104],[24.854104,42.120181],[24.854156,42.1201],[24.855951,42.119414],[24.856275,42.119226],[24.856338,42.118709],[24.856426,42.118285],[24.856465,42.118192],[24.856329,42.118214],[24.856307,42.118265],[24.856218,42.118699],[24.856159,42.119179],[24.855885,42.119338],[24.854004,42.120056],[24.853942,42.120283],[24.854158,42.121548],[24.852601,42.121781],[24.852521,42.121272],[24.852162,42.121253],[24.852169,42.12119]]]},"properties":{"cadreg":28}},{"type":"Feature","geometry":{"type":"Polygon","coordinates":[[[24.863686,42.110768],[24.864441,42.111259],[24.864961,42.112097],[24.865077,42.112385],[24.865875,42.11255],[24.865177,42.115051],[24.865107,42.116917],[24.865165,42.117193],[24.865364,42.117815],[24.865697,42.119044],[24.865939,42.120927],[24.866098,42.121863],[24.864095,42.121942],[24.864051,42.121609],[24.863567,42.12165],[24.863421,42.121626],[24.863421,42.121637],[24.862719,42.121695],[24.863015,42.124228],[24.863705,42.130973],[24.864248,42.135966],[24.864673,42.139578],[24.865146,42.13953],[24.868154,42.13909],[24.868145,42.139227],[24.868904,42.140474],[24.86999,42.142412],[24.870344,42.143008],[24.871088,42.144085],[24.871297,42.144284],[24.871669,42.14474],[24.87238,42.145001],[24.873024,42.145273],[24.87367,42.145492],[24.874567,42.145731],[24.874877,42.14514],[24.87615,42.14546],[24.876213,42.145381],[24.872722,42.144508],[24.871281,42.142944],[24.867944,42.136847],[24.867832,42.136385],[24.867665,42.134605],[24.867894,42.130749],[24.866865,42.119832],[24.866238,42.118923],[24.86623,42.118216],[24.86597,42.116925],[24.865893,42.116431],[24.865768,42.114447],[24.866653,42.113137],[24.866865,42.112402],[24.866719,42.110861],[24.866237,42.109522],[24.8661,42.108407],[24.866077,42.106054],[24.866403,42.104457],[24.866126,42.103246],[24.86612,42.101873],[24.865798,42.10187],[24.865775,42.102227],[24.865601,42.102723],[24.865031,42.10356],[24.865184,42.104115],[24.865354,42.105505],[24.865327,42.105507],[24.865333,42.109181],[24.862905,42.109188],[24.863152,42.110148],[24.863328,42.110453],[24.863686,42.110768]]]},"properties":{"cadreg":29}},{"type":"Feature","geometry":{"type":"Polygon","coordinates":[[[24.851674,42.114774],[24.851633,42.114658],[24.851594,42.114653],[24.851562,42.11463],[24.85153,42.114536],[24.851556,42.114647],[24.851344,42.114701],[24.849682,42.11523],[24.852169,42.118725],[24.852246,42.118754],[24.853392,42.118424],[24.853447,42.118541],[24.853476,42.118548],[24.853511,42.118661],[24.853585,42.118626],[24.854872,42.11845],[24.854932,42.118702],[24.855006,42.118692],[24.854945,42.118444],[24.855409,42.118382],[24.856465,42.118192],[24.856426,42.118285],[24.856338,42.118709],[24.856275,42.119226],[24.855951,42.119414],[24.854156,42.1201],[24.854104,42.120181],[24.854206,42.121104],[24.854283,42.121443],[24.854334,42.121521],[24.855108,42.124687],[24.855144,42.124682],[24.855097,42.124492],[24.858027,42.124069],[24.862679,42.123371],[24.86236,42.120564],[24.862083,42.11844],[24.862128,42.118252],[24.858659,42.117875],[24.858099,42.117889],[24.857952,42.117335],[24.857916,42.117058],[24.857477,42.116396],[24.857069,42.11607],[24.856809,42.115831],[24.856066,42.11606],[24.855824,42.116171],[24.854659,42.116576],[24.854756,42.116621],[24.854554,42.116692],[24.853106,42.11617],[24.852036,42.115773],[24.851976,42.115738],[24.851853,42.115552],[24.85178,42.115321],[24.852199,42.115274],[24.852084,42.114745],[24.851674,42.114774]],[[24.856863,42.116724],[24.856633,42.115989],[24.856779,42.115939],[24.857377,42.116437],[24.857481,42.116604],[24.856863,42.116724]]]},"properties":{"cadreg":30}},{"type":"Feature","geometry":{"type":"Polygon","coordinates":[[[24.846154,42.119981],[24.845991,42.119887],[24.846341,42.121558],[24.846335,42.121735],[24.846286,42.121848],[24.844688,42.124238],[24.84454,42.124409],[24.844187,42.12465],[24.843415,42.125613],[24.843622,42.12608],[24.843924,42.126557],[24.844086,42.127048],[24.844941,42.128815],[24.845278,42.12914],[24.846022,42.129759],[24.847518,42.132271],[24.847452,42.132293],[24.847503,42.132377],[24.847515,42.132496],[24.848157,42.133654],[24.847851,42.13397],[24.847936,42.13417],[24.851285,42.133758],[24.851353,42.133731],[24.854571,42.13334],[24.854265,42.132166],[24.854188,42.131586],[24.854275,42.131137],[24.8541,42.130255],[24.854097,42.130245],[24.853916,42.130248],[24.853051,42.126222],[24.852049,42.121229],[24.852023,42.121178],[24.852002,42.121176],[24.851861,42.120935],[24.851577,42.120268],[24.846154,42.119981]]]},"properties":{"cadreg":31}},{"type":"Feature","geometry":{"type":"Polygon","coordinates":[[[24.84466,42.116342],[24.845483,42.119774],[24.845801,42.1198],[24.845848,42.119846],[24.845907,42.119839],[24.846154,42.119981],[24.851577,42.120268],[24.851861,42.120935],[24.852002,42.121176],[24.852169,42.12119],[24.852162,42.121253],[24.852521,42.121272],[24.852601,42.121781],[24.854158,42.121548],[24.853942,42.120283],[24.854004,42.120056],[24.855885,42.119338],[24.856159,42.119179],[24.856218,42.118699],[24.856329,42.118214],[24.855409,42.118382],[24.854945,42.118444],[24.855006,42.118692],[24.854932,42.118702],[24.854872,42.11845],[24.853585,42.118626],[24.853511,42.118661],[24.853476,42.118548],[24.853447,42.118541],[24.853392,42.118424],[24.852246,42.118754],[24.852169,42.118725],[24.850001,42.115693],[24.849682,42.11523],[24.849705,42.115222],[24.849144,42.114352],[24.848315,42.114528],[24.848371,42.114683],[24.848602,42.114623],[24.849245,42.11486],[24.850277,42.116399],[24.849027,42.116886],[24.848721,42.116665],[24.84879,42.11708],[24.847105,42.117273],[24.84707,42.117122],[24.846766,42.117154],[24.84676,42.11712],[24.846445,42.117148],[24.846452,42.117188],[24.845726,42.117263],[24.8455,42.116043],[24.845225,42.115048],[24.845143,42.114666],[24.845001,42.114675],[24.845051,42.114882],[24.844261,42.114778],[24.84466,42.116342]]]},"properties":{"cadreg":32}},{"type":"Feature","geometry":{"type":"MultiPolygon","coordinates":[[[[24.853677,42.110754],[24.854776,42.112344],[24.849068,42.113862],[24.849191,42.114342],[24.849145,42.114354],[24.849705,42.115222],[24.851344,42.114701],[24.851556,42.114647],[24.85153,42.114536],[24.851562,42.11463],[24.851594,42.114653],[24.851633,42.114658],[24.851674,42.114774],[24.852084,42.114745],[24.852199,42.115274],[24.85178,42.115321],[24.851853,42.115552],[24.851976,42.115738],[24.852036,42.115773],[24.853106,42.11617],[24.854554,42.116692],[24.854756,42.116621],[24.854659,42.116576],[24.855824,42.116171],[24.856066,42.11606],[24.856809,42.115831],[24.857069,42.11607],[24.857477,42.116396],[24.857916,42.117058],[24.857952,42.117335],[24.858099,42.117889],[24.858659,42.117875],[24.862128,42.118252],[24.862083,42.11844],[24.862475,42.12158],[24.862719,42.121695],[24.863421,42.121637],[24.863421,42.121626],[24.863567,42.12165],[24.864051,42.121609],[24.864095,42.121942],[24.866098,42.121863],[24.865939,42.120927],[24.865697,42.119044],[24.865364,42.117815],[24.865165,42.117193],[24.865107,42.116917],[24.865177,42.115051],[24.865875,42.11255],[24.865077,42.112385],[24.864961,42.112097],[24.864441,42.111259],[24.863686,42.110768],[24.863328,42.110453],[24.863152,42.110148],[24.862905,42.109188],[24.865333,42.109181],[24.865327,42.105507],[24.865354,42.105505],[24.865184,42.104115],[24.865031,42.10356],[24.865601,42.102723],[24.865775,42.102227],[24.865798,42.10187],[24.865265,42.101863],[24.865249,42.102463],[24.865313,42.102815],[24.864213,42.103314],[24.85835,42.106684],[24.858166,42.106696],[24.857995,42.106854],[24.85776,42.106942],[24.855218,42.108453],[24.855242,42.108476],[24.855549,42.108301],[24.855649,42.108405],[24.855921,42.108922],[24.855759,42.10897],[24.856042,42.109242],[24.854711,42.110129],[24.854191,42.110421],[24.853677,42.110754]]],[[[24.857481,42.116604],[24.857377,42.116437],[24.856779,42.115939],[24.856633,42.115989],[24.856863,42.116724],[24.857481,42.116604]]]]},"properties":{"cadreg":33}},{"type":"Feature","geometry":{"type":"MultiPolygon","coordinates":[[[[24.836028,42.116344],[24.83432,42.116825],[24.833857,42.116983],[24.833627,42.117093],[24.833819,42.117395],[24.83502,42.119545],[24.838532,42.121171],[24.838655,42.121242],[24.839514,42.121435],[24.839007,42.119412],[24.845483,42.119774],[24.844598,42.116085],[24.844261,42.114778],[24.845051,42.114882],[24.845001,42.114675],[24.844812,42.114686],[24.842341,42.114714],[24.842044,42.114731],[24.841714,42.114778],[24.841476,42.114831],[24.837091,42.116029],[24.836028,42.116344]]],[[[24.839668,42.121483],[24.840235,42.12388],[24.84071,42.126388],[24.84306,42.126375],[24.842992,42.126268],[24.842782,42.125794],[24.843299,42.125553],[24.843588,42.125215],[24.844082,42.124587],[24.844438,42.124345],[24.844573,42.124189],[24.846162,42.12181],[24.846203,42.121718],[24.846208,42.121563],[24.846179,42.12139],[24.845848,42.119846],[24.83917,42.119482],[24.839668,42.121483]]]]},"properties":{"cadreg":34}},{"type":"Feature","geometry":{"type":"Polygon","coordinates":[[[24.828868,42.097517],[24.830455,42.102195],[24.828927,42.102482],[24.830093,42.105872],[24.832452,42.104182],[24.832544,42.104072],[24.833394,42.103829],[24.837334,42.102602],[24.834837,42.101478],[24.834504,42.101302],[24.834281,42.10106],[24.833688,42.100145],[24.833526,42.099831],[24.832666,42.097108],[24.831253,42.097199],[24.828868,42.097517]]]},"properties":{"cadreg":36}},{"type":"Feature","geometry":{"type":"Polygon","coordinates":[[[24.832774,42.096092],[24.832469,42.095997],[24.832791,42.097036],[24.831286,42.097121],[24.828856,42.097481],[24.828868,42.097517],[24.831253,42.097199],[24.832666,42.097108],[24.833526,42.099831],[24.833688,42.100145],[24.834281,42.10106],[24.834504,42.101302],[24.834837,42.101478],[24.837334,42.102602],[24.837519,42.102741],[24.838553,42.103208],[24.839316,42.103334],[24.840317,42.103465],[24.841204,42.103561],[24.841203,42.10355],[24.840213,42.103432],[24.839554,42.102227],[24.842938,42.101108],[24.842089,42.099748],[24.841803,42.098721],[24.841891,42.09866],[24.832888,42.096135],[24.832769,42.096101],[24.832774,42.096092]]]},"properties":{"cadreg":37}},{"type":"Feature","geometry":{"type":"Polygon","coordinates":[[[24.854793,42.104323],[24.854627,42.104953],[24.854591,42.105203],[24.854239,42.105865],[24.854097,42.106407],[24.854196,42.10702],[24.854213,42.107234],[24.854483,42.107743],[24.855218,42.108453],[24.85776,42.106942],[24.857995,42.106854],[24.858166,42.106696],[24.85835,42.106684],[24.864213,42.103314],[24.865313,42.102815],[24.865249,42.102463],[24.865251,42.102054],[24.862597,42.101959],[24.861195,42.101977],[24.861156,42.101989],[24.85879,42.101974],[24.85488,42.101904],[24.854943,42.102049],[24.855131,42.103123],[24.855111,42.103347],[24.85506,42.103588],[24.854793,42.104323]]]},"properties":{"cadreg":38}},{"type":"Feature","geometry":{"type":"Polygon","coordinates":[[[24.837088,42.087192],[24.834313,42.093102],[24.832957,42.095842],[24.833046,42.095852],[24.836082,42.096732],[24.841779,42.098321],[24.84131,42.09531],[24.841425,42.095302],[24.841399,42.095081],[24.841285,42.095084],[24.841242,42.093923],[24.841036,42.093386],[24.841043,42.093139],[24.839773,42.087922],[24.837088,42.087192]]]},"properties":{"cadreg":39}},{"type":"Feature","geometry":{"type":"Polygon","coordinates":[[[24.844959,42.084468],[24.844204,42.084857],[24.844061,42.08489],[24.839662,42.087147],[24.839718,42.087809],[24.839773,42.087922],[24.841043,42.093139],[24.841036,42.093386],[24.841242,42.093923],[24.841285,42.095084],[24.841399,42.095081],[24.841425,42.095302],[24.84131,42.09531],[24.841779,42.098321],[24.841919,42.098396],[24.84736,42.100033],[24.847931,42.100055],[24.848912,42.100367],[24.850321,42.100756],[24.851704,42.101056],[24.853244,42.101279],[24.854197,42.10139],[24.855512,42.101527],[24.856594,42.101597],[24.857438,42.101627],[24.857941,42.101611],[24.862816,42.101608],[24.86272,42.100614],[24.861988,42.100666],[24.860944,42.100459],[24.860591,42.100536],[24.858982,42.099772],[24.857732,42.099413],[24.856656,42.099234],[24.856567,42.098598],[24.856431,42.098234],[24.856199,42.098046],[24.856095,42.097684],[24.855794,42.097343],[24.855948,42.097091],[24.855709,42.096762],[24.853665,42.095583],[24.85226,42.091621],[24.851804,42.088934],[24.85017,42.087824],[24.850083,42.087927],[24.849936,42.087827],[24.849097,42.089451],[24.848963,42.089519],[24.845454,42.090316],[24.845435,42.090347],[24.844567,42.087326],[24.843956,42.085119],[24.844084,42.085007],[24.845047,42.084506],[24.844959,42.084468]]]},"properties":{"cadreg":40}},{"type":"Feature","geometry":{"type":"Polygon","coordinates":[[[24.838745,42.083715],[24.837088,42.087192],[24.839773,42.087922],[24.839718,42.087809],[24.839662,42.087147],[24.844061,42.08489],[24.844204,42.084857],[24.844959,42.084468],[24.845047,42.084506],[24.849226,42.087381],[24.849384,42.087671],[24.849827,42.088037],[24.849936,42.087827],[24.850083,42.087927],[24.85017,42.087824],[24.850106,42.08778],[24.850147,42.087747],[24.850182,42.08768],[24.850142,42.087652],[24.850033,42.087787],[24.849244,42.087278],[24.845039,42.084416],[24.840123,42.081104],[24.83997,42.08105],[24.838931,42.083235],[24.838745,42.083715]]]},"properties":{"cadreg":41}},{"type":"Feature","geometry":{"type":"Polygon","coordinates":[[[24.843956,42.085119],[24.845435,42.090347],[24.845454,42.090316],[24.848963,42.089519],[24.849097,42.089451],[24.849827,42.088037],[24.849384,42.087671],[24.849226,42.087381],[24.845047,42.084506],[24.844084,42.085007],[24.843956,42.085119]]]},"properties":{"cadreg":42}},{"type":"Feature","geometry":{"type":"Polygon","coordinates":[[[24.849229,42.079006],[24.841328,42.079171],[24.839235,42.08042],[24.840017,42.080946],[24.83997,42.08105],[24.840123,42.081104],[24.845039,42.084416],[24.849244,42.087278],[24.850033,42.087787],[24.850142,42.087652],[24.850182,42.08768],[24.851276,42.085541],[24.852036,42.085797],[24.852147,42.084723],[24.852858,42.083174],[24.85401,42.081108],[24.852808,42.078929],[24.851665,42.078953],[24.850584,42.079139],[24.849272,42.079128],[24.849229,42.079006]]]},"properties":{"cadreg":43}},{"type":"Feature","geometry":{"type":"Polygon","coordinates":[[[24.848138,42.100502],[24.85045,42.101146],[24.85069,42.101245],[24.850977,42.101386],[24.851327,42.101618],[24.851614,42.101906],[24.851832,42.102229],[24.851954,42.102539],[24.852562,42.105047],[24.852597,42.105255],[24.852912,42.106087],[24.854483,42.107743],[24.854213,42.107234],[24.854196,42.10702],[24.854097,42.106407],[24.854239,42.105865],[24.854591,42.105203],[24.854627,42.104953],[24.854668,42.104853],[24.854793,42.104323],[24.85506,42.103588],[24.855111,42.103347],[24.855131,42.103123],[24.855025,42.102454],[24.854943,42.102049],[24.85488,42.101904],[24.85879,42.101974],[24.861156,42.101989],[24.861195,42.101977],[24.862597,42.101959],[24.865251,42.102054],[24.865262,42.101897],[24.857228,42.101892],[24.855898,42.101841],[24.854819,42.101759],[24.852543,42.101461],[24.851349,42.101236],[24.850628,42.101057],[24.850163,42.100974],[24.8486,42.100553],[24.848566,42.100532],[24.848129,42.10041],[24.848138,42.100502]]]},"properties":{"cadreg":100}},{"type":"Feature","geometry":{"type":"Polygon","coordinates":[[[24.851665,42.078953],[24.849229,42.079006],[24.849272,42.079128],[24.850584,42.079139],[24.851665,42.078953]]]},"properties":{"cadreg":250}},{"type":"Feature","geometry":{"type":"Polygon","coordinates":[[[24.865262,42.101897],[24.865265,42.101863],[24.86612,42.101873],[24.866121,42.101822],[24.862828,42.101761],[24.862816,42.101608],[24.857941,42.101611],[24.857438,42.101627],[24.856473,42.10159],[24.855512,42.101527],[24.85372,42.101337],[24.852058,42.10111],[24.851533,42.101025],[24.850321,42.100756],[24.848912,42.100367],[24.847931,42.100055],[24.84736,42.100033],[24.841919,42.098396],[24.841779,42.098321],[24.836082,42.096732],[24.833046,42.095852],[24.832957,42.095842],[24.832866,42.096032],[24.832446,42.095916],[24.832469,42.095997],[24.832888,42.096135],[24.841891,42.09866],[24.841905,42.09865],[24.843437,42.099066],[24.845088,42.099551],[24.848124,42.100367],[24.848129,42.10041],[24.848566,42.100532],[24.8486,42.100553],[24.850163,42.100974],[24.850628,42.101057],[24.851349,42.101236],[24.852543,42.101461],[24.854819,42.101759],[24.856418,42.101868],[24.857228,42.101892],[24.858728,42.101898],[24.865262,42.101897]]]},"properties":{"cadreg":300}},{"type":"Feature","geometry":{"type":"Polygon","coordinates":[[[24.839554,42.102227],[24.840213,42.103432],[24.841203,42.10355],[24.841214,42.104335],[24.84219,42.105714],[24.84277,42.106621],[24.843082,42.107707],[24.842229,42.107747],[24.842804,42.109033],[24.842844,42.109477],[24.84301,42.109834],[24.842226,42.110056],[24.842444,42.110491],[24.842098,42.110592],[24.842191,42.110978],[24.840671,42.111392],[24.840772,42.111565],[24.840185,42.11175],[24.840292,42.111918],[24.837657,42.112712],[24.837687,42.11277],[24.837235,42.112914],[24.836647,42.113154],[24.836556,42.113212],[24.835495,42.11356],[24.835487,42.11355],[24.835058,42.1137],[24.835294,42.11408],[24.835787,42.114761],[24.83609,42.115472],[24.83633,42.116249],[24.837091,42.116029],[24.841476,42.114831],[24.841714,42.114778],[24.842044,42.114731],[24.842341,42.114714],[24.844812,42.114686],[24.845143,42.114666],[24.845225,42.115048],[24.8455,42.116043],[24.845726,42.117263],[24.846452,42.117188],[24.846445,42.117148],[24.84676,42.11712],[24.846766,42.117154],[24.84707,42.117122],[24.847105,42.117273],[24.84879,42.11708],[24.848721,42.116665],[24.849027,42.116886],[24.850277,42.116399],[24.849245,42.11486],[24.848602,42.114623],[24.848371,42.114683],[24.848315,42.114528],[24.849191,42.114342],[24.849068,42.113862],[24.854776,42.112344],[24.853677,42.110754],[24.854191,42.110421],[24.854711,42.110129],[24.856042,42.109242],[24.855759,42.10897],[24.855921,42.108922],[24.855649,42.108405],[24.855549,42.108301],[24.855242,42.108476],[24.854483,42.107743],[24.852912,42.106087],[24.852597,42.105255],[24.852562,42.105047],[24.851954,42.102539],[24.851832,42.102229],[24.85175,42.102092],[24.851614,42.101906],[24.851327,42.101618],[24.850977,42.101386],[24.85045,42.101146],[24.848138,42.100502],[24.848124,42.100367],[24.845088,42.099551],[24.843437,42.099066],[24.841905,42.09865],[24.841803,42.098721],[24.842089,42.099748],[24.842938,42.101108],[24.839554,42.102227]],[[24.848133,42.111685],[24.848152,42.111727],[24.848118,42.111735],[24.848099,42.111693],[24.848133,42.111685]]]},"properties":{"cadreg":501}}]}